2024/02/09 21:53
KLAX 092153Z 27014KT 10SM SCT045 SCT070 BKN280 14/08 A3000 RMK AO2 SLP159 T01440078 $
