2024/07/11 05:53
KLAX 110553Z 26007KT 10SM FEW009 18/16 A2988 RMK AO2 SLP115 T01830161 10228 20183 51015
