2025/10/05 13:53
KLAX 051353Z 11003KT 10SM FEW012 16/13 A2981 RMK AO2 SLP093 T01560133 $
