2024/12/16 03:53
KLAX 160353Z 22004KT 10SM CLR 13/09 A3015 RMK AO2 SLP208 T01280089 $
