2024/03/01 05:53
KLAX 010553Z 26007KT 10SM FEW021 FEW027 BKN032 13/09 A3016 RMK AO2 SLP212 T01330094 10150 20133 51007 $
