2025/05/26 02:30
KLAX 260230Z 26010KT 10SM SCT016 17/13 A3001 RMK AO2 T01720133
