2024/11/04 09:53
KLAX 040953Z 12006KT 10SM CLR 14/07 A2999 RMK AO2 SLP152 T01440072
