2022/09/23 15:53
KLAX 231553Z 22004KT 10SM FEW005 FEW300 22/17 A2993 RMK AO2 SLP134 T02220172
