2022/11/15 13:53
KLAX 151353Z VRB04KT 10SM FEW250 09/03 A3010 RMK AO2 SLP191 T00940028 $
