2025/03/07 05:53
KLAX 070553Z 30005KT 10SM FEW017 FEW048 SCT075 09/05 A2989 RMK AO2 SLP121 60006 T00940050 10100 20089 58006 $
