2023/07/20 23:53
KLAX 202353Z 25010KT 10SM FEW008 FEW250 23/17 A2993 RMK AO2 SLP134 T02280172 10244 20222 56011 $
