2023/07/01 11:53
KLAX 011153Z 12003KT 5SM BR OVC008 16/14 A2988 RMK AO2 SLP118 VIS W-NW 1 T01610144 10167 20156 58003 $
