2022/10/31 17:53
KLAX 311753Z 25007KT 10SM FEW014 SCT140 BKN180 22/14 A2993 RMK AO2 SLP133 T02220144 10222 20133 50006 VISNO RWY24 $
