2023/02/14 01:53
KLAX 140153Z 14007KT 10SM FEW021 BKN044 14/09 A2994 RMK AO2 SLP140 T01390094 $
