2024/06/22 21:53
KLAX 222153Z 27012KT 9SM FEW009 22/16 A2983 RMK AO2 SLP099 T02170156
