2024/04/15 07:53
KLAX 150753Z 25006KT 10SM FEW009 FEW014 SCT150 11/09 A3008 RMK AO2 SLP184 T01110089 401610083 $
