2024/03/22 07:53
KLAX 220753Z VRB03KT 10SM FEW010 FEW250 14/12 A3009 RMK AO2 SLP187 T01390117 401830133 $
