2025/06/04 05:53
KLAX 040553Z 23008KT 10SM BKN011 BKN100 17/14 A2993 RMK AO2 SLP132 60000 T01670139 10178 20161 53003 $
