2023/07/20 11:53
KLAX 201153Z 26003KT 9SM FEW004 FEW008 19/18 A2994 RMK AO2 SLP137 T01890178 10194 20183 56005 $
