2025/08/07 17:53
KLAX 071753Z 27009KT 8SM FEW010 FEW180 24/17 A2998 RMK AO2 SLP150 T02390172 10239 20178 55000
