2024/09/19 13:53
KLAX 191353Z 32004KT 10SM BKN019 OVC036 18/14 A2988 RMK AO2 SLP118 T01830144 $
