2024/08/25 13:53
KLAX 251353Z 08003KT 10SM CLR 18/15 A3004 RMK AO2 SLP169 T01830150
