2023/03/14 05:53
KLAX 140553Z 00000KT 3SM BR FEW001 OVC004 13/12 A3010 RMK AO2 SLP190 VIS SW 1 1/2 VIS W-N 1 T01280117 10139 20122 50006 $
