2025/08/27 19:53
KLAX 271953Z 25014KT 10SM FEW010 FEW025 25/18 A3001 RMK AO2 SLP161 T02500178 $
