2024/12/22 13:53
KLAX 221353Z 00000KT 7SM BKN250 11/09 A3013 RMK AO2 SLP201 T01110094
