2024/11/10 15:53
KLAX 101553Z 06004KT 10SM FEW230 BKN280 15/01 A3000 RMK AO2 SLP158 T01500011
