2024/08/24 05:53
KLAX 240553Z 24008KT 10SM FEW012 FEW300 18/16 A2997 RMK AO2 SLP146 T01830156 10228 20183 50009 $
