2022/12/06 23:53
KLAX 062353Z 25007KT 10SM FEW031 FEW150 SCT250 15/09 A3002 RMK AO2 SLP165 T01500094 10161 20150 55001 $
