2022/10/12 21:53
KLAX 122153Z 25015KT 10SM FEW013 FEW150 SCT200 21/17 A3004 RMK AO2 SLP169 T02110172
