2023/04/13 01:53
KLAX 130153Z 25006KT 10SM OVC017 14/12 A2981 RMK AO2 SLP093 T01390117 $
