2023/11/26 21:53
KLAX 262153Z 20009KT 10SM FEW120 SCT160 BKN220 BKN280 21/M01 A3001 RMK AO2 SLP161 T02061011 $
