2023/07/29 11:53
KLAX 291153Z 00000KT 8SM FEW200 20/18 A2992 RMK AO2 SLP129 T02000183 10206 20194 55003 $
