2023/03/18 21:53
KLAX 182153Z 25011KT 10SM SCT250 20/07 A3000 RMK AO2 SLP159 T02000067
