2025/05/27 15:53
KLAX 271553Z VRB04KT 8SM FEW018 OVC026 19/12 A2999 RMK AO2 SLP154 T01890122 $
