2023/05/28 11:53
KLAX 281153Z 35003KT 10SM BKN020 16/12 A2992 RMK AO2 SLP131 T01560122 10161 20150 58006
