2022/11/05 23:53
KLAX 052353Z 25007KT 10SM SCT300 17/11 A2994 RMK AO2 SLP138 T01670111 10189 20167 58018
