2024/05/23 03:53
KLAX 230353Z 29006KT 10SM OVC015 16/12 A2995 RMK AO2 SLP142 T01560117 
