2024/09/26 13:53
KLAX 261353Z 15006KT 6SM BR BKN008 BKN012 16/14 A2987 RMK AO2 SLP113 T01560144 $
