2025/04/05 21:53
KLAX 052153Z 25018KT 10SM FEW250 21/05 A3017 RMK AO2 SLP216 T02110050
