2023/01/29 15:53
KLAX 291553Z 09004KT 10SM SCT022 BKN031 BKN055 11/08 A2994 RMK AO2 SLP138 T01110078 $
