2025/10/27 05:53
KLAX 270553Z 36004KT 10SM BKN012 17/15 A3001 RMK AO2 SLP160 T01720150 10183 20167 53006 $
