2022/11/22 19:53
KLAX 221953Z 00000KT 10SM FEW070 FEW180 23/M08 A3006 RMK AO2 SLP179 T02281078 $
