2024/01/12 19:53
KLAX 121953Z 25007KT 10SM FEW180 FEW250 16/03 A3018 RMK AO2 SLP220 T01560028 $
