2023/10/03 03:53
KLAX 030353Z 24008KT 10SM CLR 17/15 A2996 RMK AO2 SLP144 T01720150 $
