2022/12/23 11:53
KLAX 231153Z 10004KT 9SM FEW005 FEW011 SCT250 10/08 A3008 RMK AO2 SLP185 T01000083 10156 20094 58007
