2025/11/03 21:53
KLAX 032153Z 23008KT 8SM SCT140 19/14 A3001 RMK AO2 SLP161 T01940139 $
