2025/11/23 05:53
KLAX 230553Z 33006KT 10SM FEW050 SCT100 19/05 A2995 RMK AO2 SLP140 T01940050 10200 20189 53006
