2025/10/08 19:53
KLAX 081953Z 26010G18KT 10SM FEW010 SCT024 21/14 A2991 RMK AO2 SLP126 T02060139 $
