2024/11/09 05:53
KLAX 090553Z 00000KT 10SM CLR 14/10 A3003 RMK AO2 SLP166 T01390100 10178 20139 50002
