2024/08/30 09:53
KLAX 300953Z 27005KT 10SM OVC008 17/15 A2997 RMK AO2 SLP146 T01720150
