2023/06/05 05:53
KLAX 050553Z 23004KT 10SM OVC014 16/12 A2990 RMK AO2 SLP125 T01560122 10189 20156 51009
