2026/04/22 13:53
KLAX 221353Z VRB04KT 10SM FEW014 FEW050 BKN160 BKN250 14/09 A3013 RMK AO2 SLP201 T01390094 $
