2023/03/31 17:53
KLAX 311753Z 00000KT 10SM FEW080 FEW140 16/07 A3022 RMK AO2 SLP234 T01560067 10156 20072 51014 $
