2024/05/15 13:59
KLAX 151359Z 25003KT 10SM FEW010 BKN014 OVC024 14/12 A2993 RMK AO2 T01440117 $
