2024/07/06 09:53
KLAX 060953Z 11004KT 10SM BKN008 19/18 A2978 RMK AO2 SLP083 T01940178
