2025/03/08 11:53
KLAX 081153Z 05004KT 10SM FEW050 08/08 A3022 RMK AO2 SLP230 T00780078 53004 $
