2024/11/26 13:53
KLAX 261353Z 25008KT 10SM FEW015 BKN034 BKN150 15/12 A3011 RMK AO2 SLP195 T01500117
