2023/06/27 13:53
KLAX 271353Z 00000KT 7SM FEW008 BKN012 BKN025 16/14 A2989 RMK AO2 SLP120 T01610139
