2023/11/30 09:53
KLAX 300953Z 00000KT 10SM FEW012 FEW025 SCT160 12/10 A2993 RMK AO2 SLP134 T01220100
