2025/08/23 11:53
KLAX 231153Z 00000KT 9SM FEW200 21/19 A2987 RMK AO2 SLP110 T02110189 10222 20211 55001
