2023/10/28 15:53
KLAX 281553Z VRB03KT 8SM FEW015 16/13 A3001 RMK AO2 SLP160 T01610128
