2024/08/10 11:53
KLAX 101153Z 00000KT 10SM FEW007 18/16 A2986 RMK AO2 SLP110 T01830161 10189 20178 58005 $
