2024/12/05 03:53
KLAX 050353Z 27006KT 8SM SCT010 13/11 A3015 RMK AO2 SLP207 T01280106
