2023/07/09 09:53
KLAX 090953Z 00000KT 9SM OVC013 17/14 A2987 RMK AO2 SLP111 T01670144
