2024/02/14 15:53
KLAX 141553Z 13004KT 10SM FEW017 BKN035 13/09 A3015 RMK AO2 SLP209 T01280094 $
