2022/10/06 19:53
KLAX 061953Z 25009KT 4SM HZ FEW015 SCT020 23/17 A3002 RMK AO2 SLP163 VIS SW 2 1/2 T02280172
