2024/12/13 19:53
KLAX 131953Z 11008KT 10SM FEW031 SCT075 BKN120 BKN180 17/08 A3016 RMK AO2 SLP214 T01720083
