2023/01/03 19:53
KLAX 031953Z 08015G20KT 8SM SCT008 OVC014 13/11 A3003 RMK AO2 SLP170 T01330111
