2023/11/25 07:53
KLAX 250753Z 12005KT 10SM FEW010 FEW080 14/13 A2999 RMK AO2 SLP154 T01440128 402170139 $
