2023/09/06 11:53
KLAX 061153Z VRB03KT 10SM FEW020 OVC027 21/16 A2993 RMK AO2 SLP131 T02060156 10206 20200 56002 $
