2024/02/15 17:53
KLAX 151753Z 00000KT 8SM FEW025 SCT140 BKN180 BKN250 14/09 A3022 RMK AO2 SLP231 T01440094 10156 20089 50005 $
