2024/09/14 05:53
KLAX 140553Z 25008KT 10SM FEW009 SCT013 18/16 A2986 RMK AO2 SLP109 T01830161 10222 20183 50010
