2026/03/19 03:53
KLAX 190353Z 23005KT 10SM CLR 21/15 A3001 RMK AO2 SLP158 T02060150 $
