2025/11/16 21:53
KLAX 162153Z 22008KT 10SM SCT027 SCT033 BKN100 BKN160 18/12 A2996 RMK AO2 SLP144 T01780122 $
