2024/06/05 09:53
KLAX 050953Z 25005KT 9SM FEW009 OVC011 17/14 A2985 RMK AO2 SLP106 T01720144 $
