2026/01/31 17:53
KLAX 311753Z 04007KT 10SM CLR 24/01 A3017 RMK AO2 SLP213 T02390006 10239 20139 50002 $
