2023/05/05 07:53
KLAX 050753Z 00000KT 10SM FEW025 BKN035 BKN080 14/09 A3001 RMK AO2 SLP163 T01440094 401780117
