2024/07/30 17:53
KLAX 301753Z 26007KT 8SM FEW009 21/15 A2997 RMK AO2 SLP148 T02060150 10206 20161 55001 $
