2023/09/11 05:53
KLAX 110553Z 23007KT 10SM CLR 21/17 A2991 RMK AO2 SLP126 T02110167 10244 20211 51007
