2024/03/02 05:53
KLAX 020553Z 19010G21KT 10SM BKN018 BKN047 14/11 A3009 RMK AO2 SLP187 T01440111 10161 20144 51001 $
