2023/06/23 21:53
KLAX 232153Z 25017KT 10SM CLR 20/12 A3001 RMK AO2 SLP161 T02000122
