2022/11/17 03:53
KLAX 170353Z 05003KT 10SM CLR 16/M01 A3022 RMK AO2 SLP232 T01561006
