2024/06/13 17:53
KLAX 131753Z 27009KT 10SM FEW013 BKN021 18/13 A3000 RMK AO2 SLP158 60000 T01830133 10183 20150 51007
