2024/11/09 19:53
KLAX 091953Z 25007KT 10SM CLR 22/05 A2997 RMK AO2 SLP149 T02170050
