2023/12/25 05:53
KLAX 250553Z 08003KT 10SM CLR 14/12 A3014 RMK AO2 SLP205 T01390117 10161 20139 53004
