2023/11/30 05:53
KLAX 300553Z VRB04KT 10SM FEW031 FEW045 15/11 A2994 RMK AO2 SLP138 T01500106 10161 20144 50001
