2024/10/07 11:53
KLAX 071153Z 27004KT 1/8SM R25L/1800V3500FT FG VV001 16/16 A2989 RMK AO2 SLP120 T01610161 10172 20161 56005
