2025/06/09 09:53
KLAX 090953Z 24003KT 10SM OVC008 16/14 A2992 RMK AO2 SLP131 T01610144 $
