2023/10/20 11:53
KLAX 201153Z 29004KT 5SM BCFG BR FEW000 FEW004 18/17 A2990 RMK AO2 SLP122 FG FEW000 FG BANK W-NW T01780167 10183 20172 56009 $
