2026/05/16 05:53
KLAX 160553Z 25007KT 10SM FEW013 SCT150 16/14 A2995 RMK AO2 SLP141 T01560139 10194 20156 52008
