2023/11/27 11:53
KLAX 271153Z 04004KT 10SM FEW200 BKN250 13/M03 A3003 RMK AO2 SLP166 T01331028 10161 20111 57002 $
