2024/03/11 03:53
KLAX 110353Z 26011KT 10SM FEW150 SCT250 14/11 A3005 RMK AO2 SLP174 T01390111 $
