2026/01/09 03:53
KLAX 090353Z 33012KT 10SM CLR 13/M03 A3012 RMK AO2 SLP199 T01281028 $
