2022/12/02 11:53
KLAX 021153Z 08008KT 9SM FEW006 SCT027 OVC040 11/11 A3009 RMK AO2 RAE34 SLP187 P0001 60002 70002 T01110106 10144 20111 50003 $
