2024/02/10 05:53
KLAX 100553Z 34006KT 10SM FEW050 FEW250 12/01 A3000 RMK AO2 SLP157 T01170006 10139 20117 52001 $
