2025/09/16 01:53
KLAX 160153Z 27011KT 6SM HZ BKN008 21/18 A2984 RMK AO2 SLP105 T02060178
