2025/10/01 15:53
KLAX 011553Z 00000KT 7SM FEW009 SCT014 BKN020 19/16 A3003 RMK AO2 SLP169 T01940161
