2024/04/28 17:53
KLAX 281753Z 25010KT 10SM CLR 18/13 A3003 RMK AO2 SLP169 T01830128 10200 20111 53004
