2023/05/04 21:53
KLAX 042153Z 21012KT 10SM SCT025 BKN080 17/09 A2997 RMK AO2 SLP149 T01670094
