2023/07/13 03:53
KLAX 130353Z 25007KT 10SM FEW250 19/14 A2995 RMK AO2 SLP140 T01940139 $
