2023/03/17 13:53
KLAX 171353Z VRB03KT 10SM FEW008 SCT028 BKN180 10/08 A3005 RMK AO2 SLP173 T01000083 $
