2024/05/20 17:53
KLAX 201753Z 25008KT 10SM SCT008 SCT011 BKN026 15/12 A3002 RMK AO2 SLP166 T01500117 10167 20144 51005 $
