2025/11/19 05:53
KLAX 190553Z 00000KT 10SM FEW020 FEW060 SCT250 13/08 A2999 RMK AO2 SLP152 T01280083 10144 20122 50004
