2026/05/06 04:53
KLAX 060453Z VRB04KT 10SM FEW070 16/09 A3002 RMK AO2 SLP164 T01610094
