2025/09/12 03:53
KLAX 120353Z 25009KT 10SM FEW016 FEW050 20/17 A2992 RMK AO2 SLP129 T02000167 $
