2024/02/23 01:53
KLAX 230153Z 26013KT 10SM FEW250 14/12 A3014 RMK AO2 SLP207 T01440117
