2025/05/19 07:53
KLAX 190753Z 24005KT 10SM FEW015 15/12 A2995 RMK AO2 SLP141 T01500122 402000133
