2025/11/21 13:53
KLAX 211353Z 06011KT 10SM FEW008 BKN022 BKN035 13/11 A2985 RMK AO2 RAE00 SLP107 P0000 T01280106 $
