2024/02/06 19:53
KLAX 061953Z 10008KT 10SM -RA FEW009 BKN055 OVC070 12/09 A2966 RMK AO2 SLP044 P0000 T01170094
