2024/09/30 19:53
KLAX 301953Z 26010KT 1 3/4SM HZ FEW003 20/16 A2987 RMK AO2 SLP115 VIS NE-E 3 SW-W 1 1/4 NW 1 1/2 T02000156 $
