2023/08/14 01:53
KLAX 140153Z 25010KT 10SM OVC010 21/18 A2991 RMK AO2 SLP125 T02060178 $
