2024/05/26 15:53
KLAX 261553Z 18004KT 10SM FEW018 OVC024 17/11 A3003 RMK AO2 SLP170 T01670111
