2025/03/06 15:53
KLAX 061553Z 26019KT 10SM FEW025 BKN050 BKN090 11/06 A2991 RMK AO2 PK WND 26027/1458 SLP127 T01060056
