2024/04/13 23:53
KLAX 132353Z 15014G22KT 5SM -RA BR SCT016 BKN043 OVC050 14/12 A3002 RMK AO2 RAB40 SLP163 VIS E 3 P0000 60000 T01390117 10172 20139 56006 $
