2026/07/14 20:53
KLAX 142053Z 27011KT 10SM FEW012 FEW029 SCT080 SCT180 24/18 A2995 RMK AO2 SLP142 T02440178 58010 $
