2023/09/03 15:53
KLAX 031553Z 26010KT 10SM FEW029 BKN040 BKN048 22/17 A3003 RMK AO2 SLP168 T02170167 $
