2024/04/08 11:53
KLAX 081153Z 00000KT 10SM FEW009 FEW200 10/07 A2994 RMK AO2 SLP137 T01000067 10128 20094 56009 $
