2023/01/30 21:53
KLAX 302153Z 25007KT 10SM FEW010 BKN050 BKN100 14/08 A2991 RMK AO2 SLP130 T01390078 $
