2025/08/26 11:53
KLAX 261153Z 24004KT 7SM BKN008 BKN010 19/18 A2992 RMK AO2 SLP128 T01940178 10206 20194 53003 $
