2023/10/22 03:53
KLAX 220353Z 21005KT 9SM CLR 18/14 A2982 RMK AO2 SLP096 T01830144
