2026/04/11 13:53
KLAX 111353Z 32003KT 10SM FEW012 FEW017 SCT050 SCT200 15/13 A2999 RMK AO2 SLP153 T01500133 $
