2024/11/20 23:53
KLAX 202353Z 27009KT 10SM CLR 17/09 A3014 RMK AO2 SLP206 T01670089 10233 20167 55004
