2024/03/11 13:53
KLAX 111353Z 08005KT 10SM FEW009 FEW018 SCT140 BKN250 10/09 A3005 RMK AO2 SLP175 T01000089 $
