2024/01/26 09:53
KLAX 260953Z 11005KT 10SM FEW007 FEW012 SCT200 11/10 A3016 RMK AO2 SLP212 T01060100 $
