2025/04/20 07:53
KLAX 200753Z 12004KT 10SM CLR 13/11 A3008 RMK AO2 SLP183 T01330106 401890111 $
