2024/01/03 15:53
KLAX 031553Z 36004KT 7SM SCT006 BKN025 BKN041 12/12 A3010 RMK AO2 DZE1459 SLP190 P0000 T01220117
