2025/02/26 17:53
KLAX 261753Z 00000KT 6SM HZ SCT004 17/12 A3001 RMK AO2 SLP161 T01670122 10167 20111 53010
