2022/11/02 19:53
KLAX 021953Z 26014KT 10SM FEW005 FEW030 SCT120 BKN150 18/12 A3001 RMK AO2 SLP162 T01830117 VISNO RWY24 $
