2024/11/06 15:53
KLAX 061553Z 06004KT 10SM FEW010 SCT100 BKN160 BKN200 16/11 A2990 RMK AO2 SLP124 T01610111 $
