2025/04/22 19:53
KLAX 221953Z 24010KT 9SM FEW014 17/09 A2997 RMK AO2 SLP148 T01670094
