2025/06/03 09:53
KLAX 030953Z 31005KT 10SM OVC011 16/13 A2999 RMK AO2 SLP154 T01610133 $
