2024/01/08 11:53
KLAX 081153Z VRB04KT 10SM CLR 09/M04 A3012 RMK AO2 SLP197 T00891044 10106 20083 53016
