2022/12/03 07:53
KLAX 030753Z VRB06KT 10SM BKN120 14/12 A3010 RMK AO2 SLP192 T01440122 401610111
