2026/01/03 23:53
KLAX 032353Z 09008KT 2 1/2SM -RA BR BKN007 BKN013 OVC026 14/14 A2997 RMK AO2 RAE11B35 SLP148 P0004 60017 T01440139 10172 20144 56002 $
