2023/08/17 01:53
KLAX 170153Z 24014KT 10SM FEW080 FEW150 21/17 A2983 RMK AO2 SLP099 T02060167
