2025/04/20 21:53
KLAX 202153Z 26011KT 10SM FEW250 17/11 A3004 RMK AO2 SLP173 T01720111 $
