2024/05/28 21:53
KLAX 282153Z 24009KT 10SM FEW013 FEW180 SCT250 18/13 A3005 RMK AO2 SLP174 T01830128
