2026/05/28 04:53
KLAX 280453Z 26010KT 10SM FEW024 FEW030 15/09 A2992 RMK AO2 SLP130 T01500089 $
