2025/04/01 15:53
KLAX 011553Z 28010KT 8SM FEW009 FEW032 SCT075 SCT250 14/07 A3001 RMK AO2 SLP159 T01390072
