2023/09/26 01:53
KLAX 260153Z 24009KT 10SM FEW250 19/14 A3001 RMK AO2 SLP160 T01890144
