2024/03/07 01:53
KLAX 070153Z 11009KT 9SM -RA BKN050 OVC070 13/11 A2982 RMK AO2 SLP096 P0009 T01280111
