2023/07/07 17:53
KLAX 071753Z 25009KT 8SM FEW009 SCT026 20/13 A2990 RMK AO2 SLP123 T02000133 10206 20161 50003
