2024/11/17 05:53
KLAX 170553Z 01005KT 10SM CLR 14/M03 A2997 RMK AO2 SLP146 T01391033 10161 20139 51012 $
