2025/11/06 11:53
KLAX 061153Z 00000KT 10SM FEW018 14/11 A3014 RMK AO2 SLP204 T01390106 10178 20133 56012 $
