2023/10/24 21:53
KLAX 242153Z 24010KT 10SM FEW015 FEW027 22/15 A2981 RMK AO2 SLP092 T02170150 $
