2023/12/03 17:53
KLAX 031753Z 11004KT 9SM FEW010 SCT300 16/08 A3023 RMK AO2 SLP237 T01610083 10161 20094 50007
