2026/03/05 17:53
KLAX 051753Z 33019G31KT 10SM FEW029 19/01 A2996 RMK AO2 PK WND 32037/1724 SLP145 T01890006 10189 20106 51014
