2023/11/12 01:53
KLAX 120153Z 22006KT 9SM CLR 17/11 A3002 RMK AO2 SLP164 T01720106
