2025/08/08 05:53
KLAX 080553Z 21005KT 10SM FEW007 FEW011 20/18 A2990 RMK AO2 SLP121 T02000178 10228 20200 50000 $
