2023/05/03 11:53
KLAX 031153Z 06004KT 10SM FEW016 FEW040 SCT060 11/06 A2990 RMK AO2 SLP121 T01060056 10128 20100 58009
