2024/05/18 17:53
KLAX 181753Z 27007KT 10SM SCT012 BKN018 OVC026 17/12 A3003 RMK AO2 SLP168 T01670122 10167 20139 53007 $
