2025/06/10 03:53
KLAX 100353Z 26005KT 10SM BKN011 17/14 A2991 RMK AO2 SLP128 T01670144 $
