2026/07/03 06:53
KLAX 030653Z 25007KT 10SM FEW012 18/16 A2995 RMK AO2 SLP139 T01780156 $
