2024/05/07 13:53
KLAX 071353Z 14004KT 10SM FEW300 13/11 A2994 RMK AO2 SLP137 T01330106 $
