2023/03/29 23:53
KLAX 292353Z 26014KT 10SM FEW025 FEW050 14/07 A2991 RMK AO2 SLP129 T01390067 10150 20128 56012
