2025/01/22 07:53
KLAX 220753Z 04004KT 10SM BKN250 14/M05 A3030 RMK AO2 SLP257 T01441050 402110050
