2022/09/14 11:53
KLAX 141153Z 08004KT 10SM FEW017 FEW120 SCT160 20/18 A2986 RMK AO2 SLP108 T02000178 10217 20200 53004 $
