2023/02/19 15:53
KLAX 191553Z 00000KT 10SM FEW200 FEW230 SCT280 10/00 A3004 RMK AO2 SLP172 T01000000 $
