2023/07/28 09:53
KLAX 280953Z 13003KT 10SM FEW008 FEW014 20/18 A2988 RMK AO2 SLP115 T02000183 $
