2025/07/31 11:53
KLAX 311153Z 23003KT 10SM FEW009 FEW012 17/16 A2995 RMK AO2 SLP140 T01720156 10189 20172 56005 $
