2023/10/30 13:53
KLAX 301353Z 06003KT 10SM FEW160 FEW280 11/M03 A3008 RMK AO2 SLP184 T01111033
