2024/01/29 13:53
KLAX 291353Z 11003KT 10SM FEW220 12/05 A3012 RMK AO2 SLP196 T01220050 $
