2025/05/14 19:53
KLAX 141953Z 25011KT 9SM FEW017 FEW040 19/12 A3004 RMK AO2 SLP173 T01890122 $
