2024/03/12 15:59
KLAX 121559Z 32004KT 10SM FEW018 BKN024 BKN140 14/11 A3015 RMK AO2 T01390106
