2023/01/20 15:53
KLAX 201553Z 04004KT 10SM FEW012 09/03 A3019 RMK AO2 SLP223 T00940028
