2025/06/28 13:53
KLAX 281353Z 13004KT 3SM HZ OVC011 18/15 A3000 RMK AO2 SLP157 VIS N 2 1/2SM T01780150 $
