2025/06/06 09:53
KLAX 060953Z 24005KT 10SM FEW012 OVC014 17/13 A2991 RMK AO2 SLP125 T01670133
