2024/06/14 16:00
KLAX 141600Z 00000KT 7SM SCT018 18/13 A2997 RMK AO2 T01830133
