2023/11/14 19:53
KLAX 141953Z 27012KT 10SM FEW180 FEW250 22/09 A3000 RMK AO2 SLP158 T02220094
