2023/05/17 13:53
KLAX 171353Z 30004KT 4SM BR OVC007 14/13 A2994 RMK AO2 SLP137 T01390128
