2024/08/27 19:53
KLAX 271953Z 26010KT 8SM FEW007 23/17 A2999 RMK AO2 SLP154 T02280167 $
