2024/06/29 09:53
KLAX 290953Z 28004KT 10SM OVC015 17/15 A2986 RMK AO2 SLP109 T01720150
