2024/11/05 19:53
KLAX 051953Z 23009KT 10SM FEW240 BKN290 19/13 A2995 RMK AO2 SLP141 T01940133 CHINO RWY24 $
