2023/07/31 15:53
KLAX 311553Z 11006KT 7SM FEW011 SCT140 BKN160 BKN250 25/18 A2995 RMK AO2 SLP140 T02500183 $
