2025/09/01 14:53
KLAX 011453Z 26004KT 9SM FEW009 FEW012 21/19 A2993 RMK AO2 SLP134 T02110189 51009 $
