2024/03/25 17:53
KLAX 251753Z 11005KT 10SM FEW120 BKN160 16/07 A2994 RMK AO2 SLP139 T01610067 10167 20089 53010
