2025/10/25 05:53
KLAX 250553Z 22003KT 5SM BR OVC004 17/15 A3000 RMK AO2 SLP156 T01670150 10189 20161 52008
