2026/01/06 23:53
KLAX 062353Z 00000KT 10SM FEW029 SCT055 BKN070 BKN180 18/10 A2999 RMK AO2 SLP156 T01830100 10183 20144 56014 $
