2024/06/08 19:53
KLAX 081953Z 26009KT 10SM BKN015 BKN021 OVC026 19/14 A2996 RMK AO2 SLP145 T01890144 $
