2025/01/09 01:53
KLAX 090153Z 06003KT 10SM FEW002 SCT030 19/01 A3007 RMK AO2 SLP181 FU FEW002 FU SCT030 FU PLUMES NW-NE T01940006
