2024/08/15 15:53
KLAX 151553Z VRB03KT 10SM CLR 23/18 A2994 RMK AO2 SLP136 T02280178 $
