2024/08/29 17:53
KLAX 291753Z 26006KT 7SM OVC020 21/16 A3002 RMK AO2 SLP165 T02110161 10211 20183 50003
