2024/03/16 19:53
KLAX 161953Z 24010G20KT 10SM FEW018 SCT030 BKN120 18/10 A3001 RMK AO2 SLP162 T01830100 $
