2022/10/24 07:53
KLAX 240753Z VRB06KT 10SM CLR 17/12 A3001 RMK AO2 SLP161 T01670117 402220150
