2024/12/21 01:53
KLAX 210153Z 27008KT 8SM SCT005 BKN200 12/11 A3016 RMK AO2 SLP212 T01220106 $
