2025/01/28 19:53
KLAX 281953Z 00000KT 10SM FEW027 SCT120 BKN190 14/06 A3006 RMK AO2 SLP178 T01440061
