2024/12/30 13:53
KLAX 301353Z 04006KT 4SM BR FEW008 BKN011 12/10 A3006 RMK AO2 SLP176 BKN V SCT T01170100
