2022/12/01 13:53
KLAX 011353Z 13004KT 10SM FEW012 FEW025 OVC040 13/07 A3002 RMK AO2 SLP163 T01330067 $
