2024/04/05 23:53
KLAX 052353Z 26029G39KT 10SM FEW019 FEW044 SCT075 SCT180 13/05 A2996 RMK AO2 PK WND 27039/2353 SLP144 TCU DSNT NE T01280050 10144 20122 55003 $
