2023/10/11 11:53
KLAX 111153Z 16003KT 10SM FEW012 SCT024 17/15 A2969 RMK AO2 SLP053 T01720150 10178 20167 58005 $
