2024/02/18 19:53
KLAX 181953Z VRB03KT 10SM SCT023 BKN030 BKN044 16/11 A3008 RMK AO2 SLP184 T01610111
