2025/03/03 05:53
KLAX 030553Z 26018KT 10SM FEW028 FEW055 13/07 A3004 RMK AO2 SLP171 T01280067 10150 20128 51005 $
