2026/01/29 02:53
KLAX 290253Z 25003KT 10SM BKN250 16/12 A3016 RMK AO2 SLP213 T01560117 55000
