2025/05/19 12:53
KLAX 191253Z 03003KT 10SM FEW010 FEW017 14/12 A2997 RMK AO2 SLP146 FU FEW010 T01440117
