2024/03/16 17:53
KLAX 161753Z VRB03KT 10SM FEW018 SCT027 BKN100 17/10 A3002 RMK AO2 SLP166 T01720100 10172 20111 50004 $
