2025/01/19 15:53
KLAX 191553Z 00000KT 5SM HZ BKN018 08/06 A3024 RMK AO2 SLP240 T00830056 $
