2024/04/05 01:53
KLAX 050153Z 27016KT 10SM BKN050 12/06 A2991 RMK AO2 PK WND 27030/0056 RAE02B40E50 SLP128 P0000 T01170056 $
