2023/08/28 15:53
KLAX 281553Z 25003KT 9SM CLR 24/18 A2987 RMK AO2 SLP112 T02390183 $
