2026/04/01 04:53
KLAX 010453Z 10008KT 9SM -RA OVC090 18/15 A2992 RMK AO2 RAE00B24 SLP129 P0000 T01780150 $
