2024/05/05 19:53
KLAX 051953Z 27020KT 10SM SCT050 17/07 A2993 RMK AO2 SLP134 T01720072
