2024/05/19 09:53
KLAX 190953Z 25008KT 10SM OVC022 14/11 A3002 RMK AO2 SLP165 T01440106 $
