2025/08/24 11:53
KLAX 241153Z 27006KT 10SM SCT200 20/18 A2988 RMK AO2 SLP115 T02000183 10222 20200 55003
