2024/04/18 13:53
KLAX 181353Z 28005KT 4SM BR FEW002 OVC005 12/11 A2999 RMK AO2 SLP154 VIS SW-NW 1 1/2 T01220111 $
