2025/04/02 19:53
KLAX 021953Z 27020KT 10SM FEW010 FEW032 17/04 A2983 RMK AO2 PK WND 25027/1939 SLP102 T01670044
