2024/02/12 07:53
KLAX 120753Z 04005KT 10SM FEW280 11/07 A3018 RMK AO2 SLP218 T01060072 401720067 $
