2024/09/15 01:53
KLAX 150153Z 26014KT 10SM FEW016 FEW029 19/16 A2986 RMK AO2 SLP109 T01940156
