2025/02/22 01:53
KLAX 220153Z 25010KT 10SM FEW004 SCT200 SCT250 14/12 A3008 RMK AO2 SLP185 T01390117
