2023/11/07 23:53
KLAX 072353Z 25017KT 10SM FEW060 19/13 A2996 RMK AO2 SLP143 T01890133 10217 20189 57006
