2024/10/30 03:53
KLAX 300353Z 00000KT 10SM CLR 16/08 A2996 RMK AO2 SLP144 T01610083 $
