2025/01/02 09:53
KLAX 020953Z 32003KT 10SM FEW001 FEW250 12/09 A3010 RMK AO2 SLP190 T01170089
