2026/02/11 17:53
KLAX 111753Z 11006KT 10SM SCT035 SCT046 OVC055 16/12 A3012 RMK AO2 SLP198 60033 T01560122 10156 20144 51022 $
