2023/11/10 01:53
KLAX 100153Z VRB04KT 10SM BKN250 22/M02 A3000 RMK AO2 SLP160 T02221022
