2024/10/04 21:53
KLAX 042153Z 27011KT 9SM FEW007 FEW130 SCT180 BKN210 22/17 A2990 RMK AO2 SLP123 T02170172
