2023/11/21 17:53
KLAX 211753Z 05005KT 10SM FEW250 23/M03 A3029 RMK AO2 SLP256 T02331028 10233 20106 50009
