2025/02/25 13:53
KLAX 251353Z 10005KT 1/4SM R25L/1400V2200FT FG SCT000 SCT002 11/11 A3000 RMK AO2 SLP157 VIS W-N 1 FG SCT000 T01110111 $
