2024/07/30 11:53
KLAX 301153Z 26003KT 9SM FEW004 BKN006 17/15 A2995 RMK AO2 SLP140 T01670150 10172 20161 53002 $
