2023/03/16 23:53
KLAX 162353Z 28005KT 10SM FEW036 FEW250 15/09 A3001 RMK AO2 SLP162 T01500094 10156 20133 58020 $
