2024/06/13 03:53
KLAX 130353Z 28011KT 10SM OVC007 16/14 A2993 RMK AO2 SLP133 T01610139
