2025/06/30 01:53
KLAX 300153Z 26014KT 10SM FEW012 19/15 A2988 RMK AO2 SLP118 T01940150
