2024/12/09 03:53
KLAX 090353Z 27005KT 10SM BKN009 13/11 A3007 RMK AO2 SLP182 T01280111
