2024/11/21 17:53
KLAX 211753Z 00000KT 10SM CLR 18/02 A3018 RMK AO2 SLP219 T01830017 10183 20089 50005
