2022/11/06 03:53
KLAX 060353Z 34003KT 10SM FEW250 15/11 A2995 RMK AO2 SLP140 T01500106
