2024/07/17 09:53
KLAX 170953Z 00000KT 10SM BKN010 19/16 A2994 RMK AO2 SLP137 T01890156
