2022/11/06 11:53
KLAX 061153Z 01003KT 10SM CLR 13/09 A2991 RMK AO2 SLP125 T01330089 10150 20122 56006
