2023/02/21 15:53
KLAX 211553Z 09005KT 10SM FEW010 FEW022 SCT160 13/09 A2987 RMK AO2 SLP115 T01280089 $
