2023/03/21 03:53
KLAX 210353Z 14004KT 10SM FEW037 OVC130 13/09 A2988 RMK AO2 SLP118 T01280094
