2024/08/20 01:53
KLAX 200153Z 25013KT 10SM CLR 22/16 A2992 RMK AO2 SLP128 T02220156
