2023/10/13 15:53
KLAX 131553Z 15003KT 8SM FEW010 SCT100 BKN150 19/16 A2990 RMK AO2 SLP123 T01940156
