2024/03/03 15:53
KLAX 031553Z 08005KT 10SM SCT021 SCT045 BKN070 BKN230 11/10 A3006 RMK AO2 RAE07 SLP179 P0001 T01110100 $
