2025/04/12 17:53
KLAX 121753Z 28010KT 7SM FEW011 SCT240 SCT280 18/13 A3000 RMK AO2 SLP157 T01830128 10189 20139 53009 $
