2023/07/15 17:53
KLAX 151753Z 26008KT 7SM FEW008 FEW250 22/17 A2989 RMK AO2 SLP119 T02170167 10217 20167 51005
