2026/02/09 21:53
KLAX 092153Z 25009KT 10SM FEW085 SCT140 BKN180 OVC250 20/13 A2995 RMK AO2 SLP142 T02000133 $
