2023/10/19 07:53
KLAX 190753Z 00000KT 3SM BR FEW002 SCT004 18/17 A2992 RMK AO2 SLP131 VIS 2 1/2V4 T01780167 402110167 $
