2025/03/07 11:53
KLAX 071153Z 28008KT 10SM FEW012 FEW150 09/04 A2993 RMK AO2 SLP133 70007 T00890044 10100 20078 53003 $
