2024/05/27 05:53
KLAX 270553Z 21003KT 10SM FEW012 14/12 A3001 RMK AO2 SLP162 T01440122 10183 20144 51006
