2026/01/02 23:53
KLAX 022353Z 11010KT 8SM FEW005 BKN008 OVC011 18/17 A3000 RMK AO2 RAE04 SLP160 P0000 60006 T01780167 10178 20167 58010 $
