2025/01/07 11:53
KLAX 071153Z 00000KT 10SM FEW006 BKN200 11/10 A2992 RMK AO2 SLP130 T01060100 10150 20100 58005 $
