2025/07/25 17:53
KLAX 251753Z 13005KT 8SM FEW010 SCT025 SCT180 22/14 A3003 RMK AO2 SLP169 T02170144 10217 20167 50003 $
