2023/06/05 09:53
KLAX 050953Z 25004KT 10SM FEW012 OVC015 15/12 A2988 RMK AO2 SLP115 T01500122
