2023/10/31 19:53
KLAX 311953Z 27005KT 10SM FEW120 SCT180 SCT250 28/M10 A3003 RMK AO2 SLP166 T02781100 $
