2024/12/21 08:01
KLAX 210801Z 00000KT 3/4SM R25L/P6000FT BR BCFG SCT000 11/10 A3018 RMK AO2 FG SCT000 T01110100 $
