2024/02/20 03:53
KLAX 200353Z 11009KT 3SM -RA BR BKN004 OVC008 13/13 A3012 RMK AO2 SLP198 P0004 T01280128 $
