2022/09/09 13:53
KLAX 091353Z 00000KT 10SM FEW160 SCT200 BKN280 27/18 A2955 RMK AO2 SLP001 CCSL SE-S T02720183 $
