2025/02/06 13:53
KLAX 061353Z 16004KT 2SM -RA BR FEW002 OVC004 14/14 A3001 RMK AO2 RAB00E10B34 SLP161 VIS W 1/2 P0002 T01440139 $
