2023/01/22 03:53
KLAX 220353Z 22003KT 10SM CLR 13/07 A3023 RMK AO2 SLP235 T01280067 $
