2023/05/19 09:53
KLAX 190953Z 00000KT 9SM OVC011 16/13 A2995 RMK AO2 SLP140 T01560133
