2025/05/28 17:53
KLAX 281753Z 25004KT 10SM SCT010 OVC019 18/13 A2997 RMK AO2 SLP148 60000 T01780128 10178 20156 58000 $
