2024/05/01 11:53
KLAX 011153Z 16005KT 10SM FEW014 BKN019 16/12 A2986 RMK AO2 SLP111 T01560122 10156 20144 58003 $
