2023/02/12 21:53
KLAX 122153Z 26011KT 10SM FEW030 FEW100 BKN130 BKN280 13/07 A2985 RMK AO2 SLP109 VIRGA S-W T01330072 $
