2023/03/06 15:53
KLAX 061553Z 01003KT 10SM FEW018 FEW027 SCT070 BKN200 12/08 A3016 RMK AO2 SLP212 T01220083 $
