2022/12/14 11:53
KLAX 141153Z 05005KT 10SM CLR 07/03 A3013 RMK AO2 SLP203 T00720028 10117 20061 58003 VISNO RWY24 $
