2026/04/30 17:53
KLAX 301753Z 26009KT 10SM FEW009 FEW025 SCT140 19/12 A2991 RMK AO2 SLP127 T01940122 10194 20156 58005
