2024/10/25 11:53
KLAX 251153Z 00000KT 1/16SM R25L/1200V1800FT FG VV001 13/13 A2994 RMK AO2 SLP136 T01330133 10150 20133 55001 $
