2025/05/11 11:53
KLAX 111153Z 00000KT 7SM CLR 17/15 A2985 RMK AO2 SLP105 T01670150 10183 20161 57008
