2024/04/27 21:53
KLAX 272153Z 26012KT 10SM FEW055 19/09 A3000 RMK AO2 SLP158 T01890094
