2024/09/05 21:53
KLAX 052153Z 27015KT 10SM FEW100 27/17 A2985 RMK AO2 SLP106 T02720167 $
