2023/05/18 13:53
KLAX 181353Z 00000KT 3SM BR OVC011 16/13 A2985 RMK AO2 SLP109 VIS SW-NW 2 1/2 T01560133
