2023/01/18 09:53
KLAX 180953Z 00000KT 10SM FEW018 09/01 A3007 RMK AO2 SLP180 T00890011 $
