2026/06/08 17:53
KLAX 081753Z 24010KT 10SM BKN030 BKN140 21/13 A2990 RMK AO2 SLP123 T02110133 10211 20178 51010 $
