2025/06/18 07:53
KLAX 180753Z 12005KT 10SM CLR 19/16 A2981 RMK AO2 SLP091 T01940156 402560167
