2023/08/20 07:53
KLAX 200753Z 00000KT 10SM FEW040 BKN120 21/17 A2975 RMK AO2 SLP070 T02060172 402390172 $
