2024/02/25 13:53
KLAX 251353Z VRB03KT 6SM BR SCT005 14/12 A3002 RMK AO2 SLP164 T01390122 $
