2025/06/12 23:53
KLAX 122353Z 25011G18KT 10SM FEW014 20/14 A2986 RMK AO2 SLP109 T02000144 10217 20183 56005
