2025/05/19 09:53
KLAX 190953Z VRB03KT 10SM FEW015 15/12 A2995 RMK AO2 SLP139 T01500122
