2025/03/12 03:53
KLAX 120353Z 07007KT 10SM FEW013 FEW038 SCT060 13/09 A2984 RMK AO2 SLP106 T01280089 $
