2022/08/26 11:53
KLAX 261153Z 32003KT 6SM BR FEW004 OVC007 19/18 A2994 RMK AO2 SLP137 T01890178 10200 20189 58007 $
