2024/12/18 21:53
KLAX 182153Z 27006KT 10SM CLR 26/04 A3005 RMK AO2 SLP177 T02610039
