2022/10/07 07:53
KLAX 070753Z 23004KT 10SM OVC015 21/17 A3005 RMK AO2 SLP174 T02060172 402330194
