2023/10/01 15:53
KLAX 011553Z 10006KT 10SM FEW018 SCT041 BKN065 18/11 A2990 RMK AO2 SLP124 T01780111 $
