2023/11/21 19:53
KLAX 211953Z VRB05KT 10SM FEW250 27/M02 A3025 RMK AO2 SLP244 T02671022
