2024/12/16 11:53
KLAX 161153Z 00000KT 10SM FEW008 BKN250 10/03 A3011 RMK AO2 SLP195 T01000028 10122 20083 55003 $
