2026/07/04 09:53
KLAX 040953Z 24004KT 10SM BKN010 17/15 A2999 RMK AO2 SLP154 T01720150 $
