2024/06/03 01:53
KLAX 030153Z 27010KT 10SM FEW032 SCT250 17/12 A2990 RMK AO2 SLP124 T01670122
