2026/06/21 19:53
KLAX 211953Z 24013G26KT 10SM FEW019 SCT024 21/13 A2993 RMK AO2 PK WND 22026/1947 SLP133 T02110133 $
