2023/01/30 01:53
KLAX 300153Z 26008KT 10SM FEW027 FEW032 SCT049 12/06 A2989 RMK AO2 SLP122 T01170061 $
