2024/05/04 11:53
KLAX 041153Z 33004KT 10SM SCT013 OVC021 14/12 A2988 RMK AO2 SLP116 T01440117 10150 20139 58003
