2024/09/05 11:53
KLAX 051153Z 08003KT 10SM FEW010 22/17 A2988 RMK AO2 SLP115 FU FEW010 T02170167 10228 20206 55004 $
