2023/09/15 09:53
KLAX 150953Z 00000KT 10SM FEW011 OVC015 19/16 A2995 RMK AO2 SLP138 T01940161 $
