2023/05/13 05:53
KLAX 130553Z 22005KT 10SM FEW012 SCT021 14/13 A2993 RMK AO2 SLP134 T01440128 10172 20144 51001
