2025/03/15 21:53
KLAX 152153Z 26011KT 10SM FEW035 BKN250 16/07 A3008 RMK AO2 SLP187 T01560067 $
