2023/01/27 01:53
KLAX 270153Z 24008KT 10SM FEW250 16/02 A3028 RMK AO2 SLP254 T01560017 $
