2024/12/17 03:53
KLAX 170353Z 23006KT 10SM FEW200 SCT250 13/10 A3011 RMK AO2 SLP197 T01330100 $
