2024/07/28 03:53
KLAX 280353Z 25009KT 10SM CLR 18/14 A2985 RMK AO2 SLP107 T01780139
