2022/10/21 07:53
KLAX 210753Z 00000KT 10SM FEW180 20/18 A2991 RMK AO2 SLP124 T02000183 403000200 $
