2022/09/05 13:53
KLAX 051353Z 15003KT 10SM FEW120 FEW180 25/21 A2978 RMK AO2 SLP082 T02500211 $
