2024/05/13 01:53
KLAX 130153Z 26009KT 8SM OVC007 15/12 A2990 RMK AO2 SLP122 T01500122 $
