2025/10/24 13:53
KLAX 241353Z 06003KT 8SM FEW009 15/14 A3001 RMK AO2 SLP160 T01500139
