2024/03/01 01:53
KLAX 010153Z 27009KT 10SM FEW045 13/10 A3013 RMK AO2 SLP202 T01330100 $
