2023/08/31 07:53
KLAX 310753Z 00000KT 2SM BCFG BR FEW000 FEW002 SCT005 20/19 A2982 RMK AO2 SLP095 VIS 3/4V4 VIS N-NE 1/4 VIS W-NW 1/2 FG FEW000 T02000189 402830194
