2023/09/01 01:53
KLAX 010153Z 25008KT 9SM FEW010 SCT150 21/18 A2978 RMK AO2 SLP083 T02110183 $
