2025/05/02 17:53
KLAX 021753Z 24010KT 7SM FEW010 OVC019 16/12 A3000 RMK AO2 SLP157 T01610117 10161 20144 53006 $
