2024/11/03 21:53
KLAX 032153Z 25019KT 10SM FEW100 21/09 A2981 RMK AO2 PK WND 25028/2139 SLP094 T02060094
