2025/08/01 11:53
KLAX 011153Z 00000KT 10SM FEW008 OVC012 18/16 A3004 RMK AO2 SLP170 T01780161 10183 20178 52003 $
