2026/01/25 17:53
KLAX 251753Z 11005KT 10SM FEW250 OVC300 14/05 A3018 RMK AO2 SLP219 T01440050 10144 20078 51021 $
