2023/09/06 19:53
KLAX 061953Z 23010KT 10SM FEW035 FEW047 24/17 A2996 RMK AO2 SLP142 T02440167
