2026/06/01 20:53
KLAX 012053Z 25010KT 10SM FEW027 22/13 A2994 RMK AO2 SLP139 T02170133 58003 $
