2024/12/29 07:53
KLAX 290753Z 01006KT 6SM BR SCT005 BKN009 12/11 A3013 RMK AO2 SLP200 T01220106 401500117
