2025/01/08 05:53
KLAX 080553Z 03017G27KT 10SM FEW075 18/M01 A3004 RMK AO2 PK WND 04035/0503 SLP169 FU FEW075 T01781011 10211 20178 51013
