2025/02/10 16:53
KLAX 101653Z 09007KT 10SM SCT021 SCT230 13/09 A3008 RMK AO2 SLP184 T01280089
