2024/03/02 07:53
KLAX 020753Z 20014G30KT 10SM BKN015 BKN020 OVC032 15/13 A3006 RMK AO2 PK WND 20030/0745 RAB28E47 SLP180 P0000 T01500128 401670122 $
