2024/10/31 13:53
KLAX 311353Z 11004KT 10SM FEW010 11/06 A3007 RMK AO2 SLP180 T01110056 $
