2024/05/13 13:53
KLAX 131353Z 16004KT 6SM BR FEW004 SCT007 OVC011 14/12 A2997 RMK AO2 SLP146 T01440122 $
