2025/05/12 11:53
KLAX 121153Z 12005KT 10SM FEW012 BKN016 17/14 A2990 RMK AO2 SLP121 T01670144 10183 20161 58001 $
