2023/02/25 05:53
KLAX 250553Z 14019G33KT 4SM -RA BR SCT010 BKN016 13/11 A2982 RMK AO2 PK WND 13036/0528 SLP096 P0002 60037 T01330111 10133 20122 56009 $
