2026/06/21 04:53
KLAX 210453Z 24009KT 10SM FEW015 FEW030 17/13 A2993 RMK AO2 SLP134 FU FEW030 T01720133
