2023/06/13 03:53
KLAX 130353Z 25010KT 10SM FEW017 BKN043 17/14 A3003 RMK AO2 SLP168 T01670139
