2025/04/01 23:53
KLAX 012353Z 26027G37KT 10SM FEW060 SCT200 SCT250 14/08 A2988 RMK AO2 PK WND 27038/2310 SLP115 T01440078 10172 20144 58020
