2024/05/05 11:53
KLAX 051153Z 26013KT 10SM FEW013 SCT023 12/10 A2987 RMK AO2 SLP113 60012 70012 T01170100 10144 20117 50001
