2023/05/19 21:53
KLAX 192153Z 23006KT 10SM FEW009 OVC013 17/14 A3006 RMK AO2 SLP176 T01720139
