2025/01/18 17:53
KLAX 181753Z 05004KT 10SM FEW024 SCT033 14/08 A3027 RMK AO2 SLP249 T01440078 10144 20089 53014
