2026/02/21 21:53
KLAX 212153Z 24012KT 10SM FEW240 SCT280 18/07 A3013 RMK AO2 SLP201 T01780067 $
