2025/07/08 17:53
KLAX 081753Z 24009KT 10SM FEW010 FEW270 21/15 A3010 RMK AO2 SLP191 T02060150 10211 20167 53008 $
