2026/04/03 21:53
KLAX 032153Z 28013KT 10SM FEW230 SCT270 BKN300 21/13 A2999 RMK AO2 SLP155 T02110133 $
