2024/08/23 09:53
KLAX 230953Z 20003KT 10SM FEW012 18/16 A2993 RMK AO2 SLP133 T01830156 $
