2024/12/05 09:59
KLAX 050959Z 00000KT 4SM BR FEW008 11/10 A3013 RMK AO2 T01110100
