2022/11/15 01:53
KLAX 150153Z 27009KT 10SM FEW250 16/11 A3009 RMK AO2 SLP188 T01560106 $
