2022/09/20 23:53
KLAX 202353Z 27020KT 10SM FEW012 FEW040 23/18 A2987 RMK AO2 SLP112 T02330178 10250 20233 56010 $
