2023/01/07 03:53
KLAX 070353Z 27010KT 10SM SCT180 13/11 A3019 RMK AO2 SLP223 T01330106 $
