2024/09/04 01:53
KLAX 040153Z 23008KT 10SM FEW008 21/17 A2985 RMK AO2 SLP106 T02110172 $
