2024/02/06 03:53
KLAX 060353Z 14003KT 6SM -RA BR FEW010 OVC065 13/12 A2980 RMK AO2 RAB0256 SLP090 P0003 T01280122
