2026/06/18 17:53
KLAX 181753Z 25006KT 10SM FEW009 SCT019 OVC027 19/14 A2998 RMK AO2 SLP152 T01890139 10189 20172 51005 $
