2026/02/21 15:53
KLAX 211553Z VRB04KT 10SM FEW280 11/01 A3016 RMK AO2 SLP213 T01060011 $
