2023/05/03 17:53
KLAX 031753Z 25012KT 10SM FEW019 SCT040 BKN140 17/08 A2992 RMK AO2 SLP130 T01670078 10172 20094 53001
