2024/11/02 09:53
KLAX 020953Z 08004KT 8SM BKN250 12/11 A2994 RMK AO2 SLP136 T01220106 $
