2024/12/19 13:53
KLAX 191353Z 11005KT 10SM BCFG FEW000 FEW002 SCT250 12/10 A3008 RMK AO2 SLP185 VIS SE 2 1/2 FG FEW000 T01170100
