2023/11/08 13:53
KLAX 081353Z 10004KT 10SM FEW200 13/10 A3005 RMK AO2 SLP174 T01330100
