2024/03/03 11:53
KLAX 031153Z 00000KT 10SM FEW011 FEW050 10/09 A3003 RMK AO2 SLP167 60007 70023 T01000089 10133 20094 57011 $
