2026/04/11 05:53
KLAX 110553Z 26011KT 10SM FEW012 SCT042 BKN055 17/14 A2997 RMK AO2 SLP149 T01670139 10189 20167 50013 $
