2024/04/08 23:53
KLAX 082353Z 25022G31KT 10SM FEW060 18/08 A2992 RMK AO2 PK WND 26032/2341 SLP132 T01830083 10200 20150 56012 $
