2025/10/12 11:57
KLAX 121157Z 12006KT 6SM BR SCT004 16/16 A2976 RMK AO2 T01610156 $
