2025/05/03 07:53
KLAX 030753Z VRB03KT 10SM BKN016 15/12 A2996 RMK AO2 SLP144 T01500117 401830144 $
