2023/07/15 11:53
KLAX 151153Z 24005KT 8SM BKN007 17/16 A2984 RMK AO2 SLP104 T01720161 10189 20172 55002
