2025/07/26 00:53
KLAX 260053Z 25011KT 10SM SCT014 20/14 A2995 RMK AO2 SLP142 T02000144 $
