2026/01/22 09:53
KLAX 220953Z 29009KT 8SM FEW011 OVC200 15/13 A3001 RMK AO2 SLP161 T01500133 $
