2024/01/09 23:53
KLAX 092353Z 28010KT 10SM FEW150 SCT200 BKN250 14/00 A3010 RMK AO2 SLP193 T01390000 10167 20128 56019
