2024/06/12 07:53
KLAX 120753Z 16004KT 10SM FEW008 OVC011 17/14 A2992 RMK AO2 SLP131 T01670139 401830144
