2022/09/26 05:53
KLAX 260553Z 24003KT 10SM FEW150 21/18 A2994 RMK AO2 SLP135 T02060178 10239 20206 51011
