2024/03/26 07:53
KLAX 260753Z 09004KT 10SM FEW015 FEW040 SCT200 11/08 A2999 RMK AO2 SLP155 T01060083 401780089
