2024/10/13 12:53
KLAX 131253Z 00000KT 5SM BR FEW004 OVC008 17/15 A3000 RMK AO2 SLP157 VIS SW-W 2 1/2 T01670150 $
