2025/07/29 02:53
KLAX 290253Z 25010KT 10SM OVC009 18/15 A3001 RMK AO2 SLP161 T01780150 55002
