2025/01/28 07:53
KLAX 280753Z 06004KT 10SM FEW200 11/06 A3010 RMK AO2 SLP190 T01110061 401500083
