2025/05/11 07:53
KLAX 110753Z 23003KT 9SM CLR 17/15 A2989 RMK AO2 SLP117 T01720150 402720156
