2024/02/24 09:53
KLAX 240953Z 10005KT 10SM BKN200 13/10 A3003 RMK AO2 SLP164 T01330100
