2025/08/21 02:53
KLAX 210253Z 22006KT 10SM FEW010 SCT250 22/19 A2987 RMK AO2 SLP113 T02170189 53001
