2023/02/19 01:53
KLAX 190153Z 25008KT 10SM SCT080 BKN250 13/07 A2999 RMK AO2 SLP155 T01330067 $
