2025/06/17 13:53
KLAX 171353Z 17003KT 8SM FEW010 FEW250 18/14 A2986 RMK AO2 SLP110 T01830144 $
