2023/08/08 11:53
KLAX 081153Z 00000KT 9SM FEW008 FEW012 18/17 A3001 RMK SLP158 T01830167 10194 20178 56007 
