2024/04/27 03:53
KLAX 270353Z 26004KT 10SM FEW015 SCT031 SCT045 14/11 A2986 RMK AO2 SLP111 T01440106
