2025/08/23 18:53
KLAX 231853Z 20004KT 9SM FEW018 SCT040 SCT090 BKN140 BKN180 30/16 A2990 RMK AO2 SLP122 T03000161
