2025/07/17 13:53
KLAX 171353Z 28005KT 9SM FEW005 SCT011 BKN090 BKN160 BKN250 18/15 A2995 RMK AO2 SLP140 T01780150 $
