2022/10/17 13:53
KLAX 171353Z 00000KT 10SM FEW013 17/14 A3003 RMK AO2 SLP165 T01670139 $
