2023/07/24 13:53
KLAX 241353Z 24005KT 6SM BR FEW009 FEW160 SCT250 20/18 A2997 RMK AO2 SLP145 T02000183
