2025/08/18 12:53
KLAX 181253Z 11003KT 9SM FEW009 OVC011 19/17 A2995 RMK AO2 SLP139 T01940167 $
