2024/10/03 07:53
KLAX 030753Z 09005KT 3SM BR FEW002 FEW004 BKN006 17/16 A2978 RMK AO2 SLP081 T01720161 402170161
