2022/10/03 11:53
KLAX 031153Z 00000KT 10SM FEW020 18/15 A2996 RMK AO2 SLP142 T01780150 10194 20178 55001
