2026/04/14 19:53
KLAX 141953Z 23010KT 10SM FEW010 FEW030 20/09 A3009 RMK AO2 SLP189 T02000094
