2026/02/19 07:53
KLAX 190753Z 29010KT 10SM FEW015 FEW040 SCT070 BKN200 12/03 A3002 RMK AO2 SLP165 T01220033 401440106
