2023/09/18 15:53
KLAX 181553Z 23004KT 10SM FEW009 FEW032 SCT120 20/16 A3000 RMK AO2 SLP158 T02000161 $
