2025/09/18 07:53
KLAX 180753Z 15006KT 10SM FEW040 FEW060 SCT100 BKN140 OVC200 22/18 A2986 RMK AO2 SLP110 OCNL LTGIC DSNT NW CB DSNT W-NW T02220178 402670200
