2026/06/25 06:59
KLAX 250659Z 25006KT 10SM OVC011 17/14 A2996 RMK AO2 T01670144 $
