2024/07/26 11:53
KLAX 261153Z 27007KT 1/4SM R25L/3500VP6000FT FG VV002 17/16 A2992 RMK AO2 SLP128 VIS E 3/4 T01670161 10189 20167 56012
