2023/07/09 23:53
KLAX 092353Z 24013KT 10SM CLR 20/14 A2990 RMK AO2 SLP123 T02000144 10222 20200 56014
