2024/11/09 09:53
KLAX 090953Z 00000KT 10SM CLR 12/06 A3001 RMK AO2 SLP161 T01170061
