2025/06/02 21:53
KLAX 022153Z 25012KT 10SM FEW014 FEW028 19/14 A2998 RMK AO2 SLP151 T01940139 $
