2023/09/01 07:53
KLAX 010753Z 00000KT 9SM FEW008 FEW011 SCT170 21/18 A2981 RMK AO2 SLP093 T02060183 402440183 $
