2023/04/04 07:53
KLAX 040753Z 31007KT 10SM FEW050 12/M08 A3007 RMK AO2 SLP180 T01171078 401670111
