2025/03/24 07:53
KLAX 240753Z 33005KT 10SM FEW007 SCT010 14/12 A3006 RMK AO2 SLP178 T01440122 401890128 $
