2023/09/22 23:53
KLAX 222353Z 21003KT 9SM FEW022 SCT100 OVC220 19/14 A2997 RMK AO2 SLP146 T01940144 10222 20194 56018 $
