2025/03/14 15:53
KLAX 141553Z 08005KT 10SM FEW021 SCT055 OVC070 09/06 A3006 RMK AO2 RAB19E40 SLP179 P0000 T00940056 $
