2022/12/26 15:53
KLAX 261553Z 00000KT 10SM FEW090 SCT140 BKN160 BKN250 17/02 A3010 RMK AO2 SLP190 T01670022 $
