2022/10/12 09:53
KLAX 120953Z 28005KT 10SM FEW011 BKN014 BKN120 19/17 A3004 RMK AO2 LTG DSNT W SLP169 T01940172
