2025/07/18 21:53
KLAX 182153Z 23011KT 10SM FEW020 FEW080 SCT150 SCT200 22/16 A2997 RMK AO2 SLP149 CB DSNT NE-E T02220156 $
