2022/10/08 11:53
KLAX 081153Z 09003KT 3SM BR OVC008 19/17 A3004 RMK AO2 SLP170 VIS W 2 T01940172 10200 20189 55001 $
