2026/05/07 04:53
KLAX 070453Z 22006KT 10SM BKN009 15/13 A3005 RMK AO2 SLP173 T01500133
