2024/08/14 07:53
KLAX 140753Z 00000KT 10SM FEW010 19/18 A2993 RMK AO2 SLP133 T01940178 402560183 $
