2023/03/18 11:53
KLAX 181153Z 00000KT 8SM FEW200 11/10 A3000 RMK AO2 SLP157 T01110100 10133 20106 56007
