2026/05/16 17:53
KLAX 161753Z 26012KT 10SM FEW024 SCT036 20/13 A2993 RMK AO2 SLP135 T02000133 10200 20161 55002
