2026/06/12 05:25
KLAX 120525Z 27006KT 10SM FEW006 BKN008 18/17 A2987 RMK AO2 T01830167
