2023/07/05 19:53
KLAX 051953Z 25010KT 10SM CLR 20/13 A2997 RMK AO2 SLP147 T02000133 $
