2023/03/29 09:53
KLAX 290953Z 12013KT 9SM -RA FEW012 BKN020 OVC035 12/09 A2997 RMK AO2 RAB33 SLP146 P0001 T01170094 $
