2025/06/04 09:53
KLAX 040953Z 26006KT 10SM OVC010 16/14 A2990 RMK AO2 SLP124 T01610139 $
