2026/04/14 07:53
KLAX 140753Z 24006KT 10SM FEW015 14/11 A3008 RMK AO2 SLP183 T01440111 401890133 $
