2024/10/07 03:53
KLAX 070353Z 27004KT 1 1/2SM BR OVC002 17/16 A2992 RMK AO2 SLP129 VIS SW-W 1/4 T01670161
