2026/05/07 17:53
KLAX 071753Z 25008KT 10SM FEW010 19/13 A3002 RMK AO2 SLP164 T01890133 10189 20144 58002
