2025/01/23 23:53
KLAX 232353Z 22007KT 10SM CLR 24/04 A3020 RMK AO2 SLP226 T02390039 10267 20228 56012
