2025/10/20 05:53
KLAX 200553Z 26005KT 10SM FEW250 18/13 A3003 RMK AO2 SLP166 T01830133 10211 20183 51012
