2024/05/22 17:53
KLAX 221753Z 26006KT 7SM OVC022 17/12 A2999 RMK A02 SLP156 T01670117 
