2025/05/28 21:53
KLAX 282153Z 25015G25KT 10SM FEW014 OVC022 18/13 A2999 RMK AO2 CIG 014 RWY24 SLP155 T01780133 $
