2023/09/19 01:53
KLAX 190153Z 25009KT 10SM FEW015 19/16 A2994 RMK AO2 SLP136 T01940156 $
