2025/01/18 09:53
KLAX 180953Z 07003KT 10SM BKN024 11/08 A3022 RMK AO2 SLP230 T01060078
