2024/12/26 01:53
KLAX 260153Z 25004KT 10SM SCT200 BKN270 14/09 A3005 RMK AO2 SLP173 T01390094
