2026/02/04 02:53
KLAX 040253Z 23005KT 10SM CLR 16/14 A3016 RMK AO2 SLP212 T01560139 52004 $
