2024/12/19 11:53
KLAX 191153Z 11005KT 10SM CLR 11/09 A3008 RMK AO2 SLP182 T01110089 10211 20100 58000
