2024/01/23 07:53
KLAX 230753Z 30006KT 8SM FEW002 FEW005 SCT020 14/14 A2982 RMK AO2 SLP097 T01440139 401500128
