2025/04/22 07:53
KLAX 220753Z 21003KT 10SM BKN011 13/11 A2999 RMK AO2 SLP154 T01330106 401780122 $
