2025/03/27 17:53
KLAX 271753Z 25010KT 9SM FEW020 SCT035 BKN160 17/10 A3010 RMK AO2 SLP193 T01670100 10172 20139 51011 $
