2023/03/26 03:53
KLAX 260353Z 35009G20KT 10SM CLR 14/M03 A3005 RMK AO2 SLP173 T01441033 $
