2024/07/21 09:53
KLAX 210953Z 25004KT 10SM SCT007 SCT160 19/17 A2988 RMK AO2 SLP115 T01890172 $
