2024/06/10 05:53
KLAX 100553Z 23006KT 10SM FEW012 16/14 A2996 RMK AO2 SLP143 T01560139 10194 20156 50004 $
