2025/03/18 11:53
KLAX 181153Z 29007KT 10SM FEW019 11/07 A3019 RMK AO2 SLP223 70003 T01060067 53004 $
