2024/07/09 15:53
KLAX 091553Z 00000KT 2SM BR OVC007 18/17 A2984 RMK AO2 SLP105 VIS 1V2 1/2 VIS SW-W 1 T01830167 $
