2024/09/04 03:53
KLAX 040353Z 16005KT 10SM CLR 21/17 A2987 RMK AO2 SLP111 T02110167 $
