2026/07/04 22:53
KLAX 042253Z 25009KT 10SM FEW140 SCT180 BKN240 23/16 A2999 RMK AO2 SLP153 T02330161 $
