2023/08/11 09:53
KLAX 110953Z 21004KT 10SM FEW010 BKN014 20/17 A2997 RMK AO2 SLP144 T02000172 $
