2023/03/11 07:53
KLAX 110753Z 10008KT 1 3/4SM -DZ OVC003 14/14 A3003 RMK AO2 SLP168 P0003 T01390139 401390106
