2022/11/25 03:53
KLAX 250353Z 18009G17KT 10SM CLR 20/00 A3020 RMK AO2 SLP227 T02000000 $
