2024/06/17 21:53
KLAX 172153Z 25010G18KT 10SM FEW015 FEW027 21/14 A2974 RMK AO2 SLP070 T02110144
