2025/07/18 03:37
KLAX 180337Z 27010KT 10SM SCT011 SCT150 19/16 A2993 RMK AO2 T01890156 $
