2022/10/16 09:53
KLAX 160953Z 22006KT 10SM FEW020 18/16 A2994 RMK AO2 SLP138 T01830156 $
