2024/04/11 17:53
KLAX 111753Z 26009KT 9SM FEW000 SCT005 15/12 A2994 RMK AO2 SLP138 VIS SW-NW 1 FG FEW000 T01500117 10178 20117 55001 $
