2025/08/05 17:53
KLAX 051753Z 23007KT 8SM FEW025 SCT080 SCT140 BKN220 23/17 A3000 RMK AO2 SLP157 T02330167 10239 20178 51006
