2023/01/01 05:53
KLAX 010553Z 18013G19KT 5SM RA BR BKN010 BKN048 OVC070 14/14 A2979 RMK AO2 SLP086 P0022 60048 T01440139 10150 20144 58008
