2026/05/10 13:53
KLAX 101353Z 00000KT 5SM HZ OVC011 16/13 A2991 RMK AO2 SLP128 T01610133
