2023/06/07 19:53
KLAX 071953Z 25009KT 10SM FEW029 SCT038 BKN050 19/12 A3000 RMK AO2 SLP159 T01940122
