2025/12/04 07:53
KLAX 040753Z 05005KT 10SM FEW250 15/09 A3012 RMK AO2 SLP195 T01500089 404390100
