2026/07/13 05:53
KLAX 130553Z 25005KT 10SM FEW010 FEW110 BKN150 BKN250 21/18 A2995 RMK AO2 SLP139 T02060178 10233 20200 53014 $
