2024/04/02 15:53
KLAX 021553Z 10005KT 10SM CLR 16/11 A3024 RMK AO2 SLP239 T01560111
