2026/03/27 02:53
KLAX 270253Z 26008KT 9SM FEW008 FEW250 17/15 A2989 RMK AO2 SLP119 T01670150 53005
