2024/05/21 10:53
KLAX 211053Z 00000KT 10SM FEW006 FEW012 SCT034 13/10 A2995 RMK AO2 SLP141 T01330100 $
