2023/03/15 15:53
KLAX 151553Z 00000KT 1 1/2SM R25L/5500VP6000FT -RA BR FEW003 OVC005 15/14 A2991 RMK AO2 SLP127 P0009 T01500144 $
