2022/12/03 19:53
KLAX 031953Z 24004KT 10SM FEW035 FEW055 SCT140 SCT300 20/11 A3007 RMK AO2 SLP182 T02000106
