2026/03/04 15:53
KLAX 041553Z 12003KT 6SM BR OVC011 14/12 A3003 RMK AO2 SLP169 T01440122
