2022/08/29 17:53
KLAX 291753Z 26008KT 8SM FEW010 SCT019 SCT160 23/17 A2994 RMK AO2 SLP137 T02330172 10233 20189 53009 $
