2026/03/08 17:53
KLAX 081753Z VRB06KT 10SM FEW280 28/M05 A2990 RMK AO2 SLP124 T02781050 10278 20150 58004 $
