2025/11/25 19:53
KLAX 251953Z 25006KT 10SM CLR 22/11 A3006 RMK AO2 SLP176 T02220106
