2022/10/05 01:53
KLAX 050153Z 27008KT 10SM FEW015 21/17 A2989 RMK AO2 SLP121 T02060167
