2022/11/18 03:53
KLAX 180353Z 00000KT 10SM CLR 15/09 A3006 RMK AO2 SLP179 T01500094
