2025/05/19 17:53
KLAX 191753Z 25009KT 10SM CLR 21/13 A3000 RMK AO2 SLP156 T02110128 10217 20139 53001 CHINO RWY24 $
