2025/02/06 02:08
KLAX 060208Z 25008KT 2SM -RA BR OVC020 14/14 A3001 RMK AO2 SFC VIS 3 RAB00 CIG 015 RWY24 P0001 T01440139 $
