2025/08/28 09:53
KLAX 280953Z 25003KT 10SM FEW014 BKN180 BKN250 21/18 A3002 RMK AO2 SLP164 T02060183 $
