2025/09/26 21:53
KLAX 262153Z 26007KT 10SM FEW009 SCT022 OVC032 22/17 A2985 RMK AO2 SLP106 T02170172 $
