2025/12/20 23:53
KLAX 202353Z 26007KT 10SM FEW010 FEW200 SCT250 16/12 A3003 RMK AO2 SLP167 T01610122 10183 20150 55002 $
