2024/05/31 11:53
KLAX 311153Z 00000KT 5SM BR FEW003 OVC006 14/13 A2990 RMK AO2 SLP123 T01440128 10150 20144 55005
