2025/08/31 04:53
KLAX 310453Z 22006KT 9SM FEW008 21/19 A2990 RMK AO2 SLP120 T02110189 $
