2023/08/11 05:53
KLAX 110553Z 24006KT 10SM SCT011 19/17 A2996 RMK AO2 SLP144 T01940172 10228 20194 51009 $
