2024/06/04 11:53
KLAX 041153Z 00000KT 9SM FEW008 OVC014 17/13 A2982 RMK AO2 SLP097 T01670133 10167 20156 55008 $
