2025/10/27 17:53
KLAX 271753Z 19003KT 5SM HZ FEW009 SCT017 BKN020 19/14 A3002 RMK AO2 SLP163 BKN V SCT T01940139 10194 20156 50005 $
