2024/06/06 17:53
KLAX 061753Z 23008KT 7SM OVC009 18/15 A2991 RMK AO2 SLP128 T01830150 10189 20167 51002
