2025/11/20 20:01
KLAX 202001Z 20006KT 10SM SCT031 BKN055 OVC080 16/09 A3000 RMK AO2 T01610089 $
