2024/05/07 11:53
KLAX 071153Z VRB03KT 10SM CLR 13/10 A2992 RMK AO2 SLP132 T01280100 10139 20117 56010 $
