2024/11/14 15:53
KLAX 141553Z 00000KT 10SM FEW200 16/03 A3000 RMK AO2 SLP159 T01560033
