2025/06/23 02:53
KLAX 230253Z 24009KT 10SM CLR 19/14 A2988 RMK AO2 SLP115 T01890139 55002
