2023/12/21 07:53
KLAX 210753Z 10007KT 9SM FEW006 BKN008 OVC016 16/15 A2994 RMK AO2 RAB35E50 SLP137 P0002 T01560150 401780150
