2022/10/07 05:53
KLAX 070553Z 19005KT 9SM OVC013 21/17 A3006 RMK AO2 SLP177 T02060172 10211 20194 51019
