2024/07/11 03:53
KLAX 110353Z 26008KT 10SM FEW008 FEW120 19/16 A2985 RMK AO2 SLP105 T01890161
