2024/01/25 11:53
KLAX 251153Z 00000KT 3SM -DZ BR SCT004 BKN008 OVC014 13/13 A3012 RMK AO2 SLP197 VIS NW 2 1/2 P0002 60005 70005 T01330133 10144 20133 58006
