2022/12/21 19:53
KLAX 211953Z 26008KT 10SM CLR 18/03 A3011 RMK AO2 SLP196 T01830033
