2024/04/21 05:53
KLAX 210553Z 26005KT 9SM SCT012 14/12 A3003 RMK AO2 SLP168 T01390117 10167 20139 51014 $
