2022/10/01 07:53
KLAX 010753Z 00000KT 10SM FEW019 BKN024 21/16 A2985 RMK AO2 SLP104 T02060156 402440194
