2024/10/08 05:53
KLAX 080553Z 00000KT 1/4SM R25L/P6000FT FG VV002 16/16 A2987 RMK AO2 SLP112 VIS S 1/2 T01610156 10178 20156 50009
