2025/06/12 09:53
KLAX 120953Z 25005KT 8SM OVC010 17/14 A2986 RMK AO2 SLP110 T01670144 $
