2025/12/18 03:53
KLAX 180353Z 28012KT 10SM FEW220 SCT280 19/13 A2994 RMK AO2 SLP139 T01890133 $
