2025/08/12 13:53
KLAX 121353Z 15003KT 5SM BR OVC009 19/17 A2992 RMK AO2 SLP128 T01940172 $
