2023/11/01 17:53
KLAX 011753Z VRB04KT 10SM FEW160 FEW280 27/M08 A3006 RMK AO2 SLP177 T02671078 10267 20150 50004 $
