2025/04/05 01:53
KLAX 050153Z 24014KT 10SM FEW120 16/07 A3007 RMK AO2 SLP181 T01560067
