2025/06/06 23:53
KLAX 062353Z 25013KT 10SM OVC014 18/13 A2991 RMK AO2 SLP126 T01830133 10200 20172 56005
