2024/09/04 17:53
KLAX 041753Z 27008KT 10SM CLR 24/19 A2995 RMK AO2 SLP140 T02390189 10244 20189 50005
