2022/10/08 19:53
KLAX 081953Z 25009KT 4SM HZ SCT009 SCT110 23/18 A3003 RMK AO2 SLP168 T02280178 $
