2023/03/26 07:53
KLAX 260753Z 35012G19KT 10SM CLR 13/M02 A3007 RMK AO2 SLP182 T01281017 401830094 $
