2024/07/06 01:53
KLAX 060153Z 25007KT 10SM FEW010 21/16 A2976 RMK AO2 SLP076 T02110161
