2024/12/02 17:53
KLAX 021753Z 00000KT 8SM FEW012 FEW019 BKN160 BKN250 17/03 A3015 RMK AO2 SLP209 60000 T01670033 10167 20100 51010
