2024/01/02 21:53
KLAX 022153Z 24008KT 10SM FEW160 SCT180 BKN250 17/12 A3019 RMK AO2 SLP221 T01720122 $
