2026/01/26 05:53
KLAX 260553Z 00000KT 10SM BKN150 BKN250 14/12 A3023 RMK AO2 SLP235 T01440122 10172 20139 51010 $
