2022/10/01 04:29
KLAX 010429Z 25004KT 10SM FEW014 BKN017 20/17 A2984 RMK AO2 T02000172
