2022/10/24 09:53
KLAX 240953Z 00000KT 10SM FEW009 16/11 A3003 RMK AO2 SLP165 T01560106
