2025/10/23 03:53
KLAX 230353Z 26012KT 10SM FEW060 18/14 A3002 RMK AO2 SLP162 T01780139
