2025/01/29 15:53
KLAX 291553Z 00000KT 10SM FEW018 SCT027 11/07 A3014 RMK AO2 SLP207 T01110072
