2024/06/03 13:53
KLAX 031353Z 00000KT 10SM FEW010 OVC018 16/13 A2990 RMK AO2 SLP124 T01610128
