2026/01/04 09:53
KLAX 040953Z 09003KT 7SM FEW005 SCT012 BKN022 14/13 A3003 RMK AO2 SLP167 T01390133
