2025/06/17 19:53
KLAX 171953Z 23012KT 10SM CLR 24/15 A2984 RMK AO2 SLP105 T02440150
