2024/03/20 13:53
KLAX 201353Z 11004KT 2SM BR OVC004 12/12 A2999 RMK AO2 SLP153 VIS NW-N 1 1/4 T01220117 $
