2026/05/08 21:53
KLAX 082153Z 25010G18KT 9SM FEW011 FEW023 21/14 A2996 RMK AO2 SLP145 T02060139
