2026/03/09 05:53
KLAX 090553Z 11008KT 10SM CLR 17/12 A2983 RMK AO2 SLP098 T01720122 10306 20172 51017 $
