2023/07/07 03:53
KLAX 070353Z 25009KT 10SM FEW011 16/14 A2987 RMK AO2 SLP113 T01610139 $
