2025/02/14 21:53
KLAX 142153Z 25019KT 10SM FEW018 FEW042 SCT270 16/11 A3009 RMK AO2 PK WND 25027/2058 SLP189 T01610106
