2022/09/11 03:53
KLAX 110353Z 12005KT 10SM SCT024 BKN035 BKN100 25/21 A2990 RMK AO2 RAB15E24 SLP124 P0000 T02500206 $
