2025/07/20 21:53
KLAX 202153Z 23011G18KT 10SM FEW023 22/16 A2996 RMK AO2 SLP145 T02220161 $
