2025/04/16 21:53
KLAX 162153Z 24012KT 10SM FEW030 FEW060 18/07 A2997 RMK AO2 SLP148 T01830072 $
