2022/12/07 19:53
KLAX 071953Z 27009KT 10SM FEW018 FEW035 SCT045 15/08 A3021 RMK AO2 SLP229 T01500078 $
