2025/07/29 05:53
KLAX 290553Z 24007KT 10SM FEW009 FEW016 17/15 A3004 RMK AO2 SLP169 T01720150 10206 20172 51008
