2025/01/16 07:53
KLAX 160753Z VRB06KT 10SM CLR 14/M06 A3019 RMK AO2 SLP222 T01441056 402220067 $
