2025/10/24 17:53
KLAX 241753Z VRB05KT 7SM FEW009 22/14 A3003 RMK AO2 SLP169 T02170139 10217 20150 51007
