2026/04/08 03:53
KLAX 080353Z 26006KT 10SM FEW015 17/14 A2992 RMK AO2 SLP131 T01720144 $
