2025/10/27 07:53
KLAX 270753Z 08004KT 8SM SCT012 16/14 A2999 RMK AO2 SLP155 T01610144 401940150 $
