2025/11/21 09:53
KLAX 210953Z 04006KT 3SM TSRA BR FEW007 BKN012CB OVC024 12/11 A2982 RMK AO2 TSB40 SLP097 OCNL LTGICCA OHD TS OHD MOV NE P0065 T01220111 $
