2023/10/27 03:53
KLAX 270353Z 25005KT 10SM CLR 17/14 A2999 RMK AO2 SLP153 T01720139
