2024/08/20 03:53
KLAX 200353Z 24004KT 10SM CLR 21/16 A2993 RMK AO2 SLP132 T02110161
