2026/05/09 17:53
KLAX 091753Z 27007KT 7SM FEW010 BKN016 19/14 A2995 RMK AO2 SLP141 T01890144 10189 20161 53003
