2023/12/19 09:53
KLAX 190953Z 07004KT 10SM BKN024 OVC038 15/13 A2994 RMK AO2 RAB11E30 SLP136 P0000 T01500128 $
