2026/03/09 21:53
KLAX 092153Z 26013KT 10SM FEW010 FEW025 SCT060 20/12 A2988 RMK AO2 SLP117 T02000122 $
