2023/07/28 05:53
KLAX 280553Z 18003KT 10SM FEW012 21/18 A2991 RMK AO2 SLP124 T02060178 10239 20206 50005 $
