2024/12/16 21:53
KLAX 162153Z 24009KT 10SM FEW190 SCT230 BKN270 17/09 A3008 RMK AO2 SLP187 T01720094 $
