2025/12/31 01:53
KLAX 310153Z 02009KT 10SM BKN140 21/02 A3002 RMK AO2 SLP164 T02060022 $
