2025/01/21 01:53
KLAX 210153Z 11008KT 10SM FEW250 17/M02 A3024 RMK AO2 SLP241 T01671022 $
