2025/12/20 01:53
KLAX 200153Z 21005KT 6SM BR VCFG FEW001 16/14 A2999 RMK AO2 SLP154 T01610144
