2025/11/15 21:53
KLAX 152153Z 06005KT 7SM -RA FEW006 FEW027 OVC080 16/14 A2978 RMK AO2 SLP084 P0003 T01560139 $
