2024/11/01 09:53
KLAX 010953Z 05004KT 10SM FEW008 SCT014 14/12 A2998 RMK AO2 SLP150 T01390117 $
