2026/01/23 05:53
KLAX 230553Z 26008KT 10SM FEW015 FEW090 14/13 A2997 RMK AO2 SLP146 T01440128 10167 20144 53003 $
