2023/05/21 01:53
KLAX 210153Z 25008KT 10SM BKN009 OVC110 16/14 A3004 RMK AO2 SLP170 OCNL LTGIC DSNT NE CB DSNT NE T01610139
