2025/07/12 19:53
KLAX 121953Z 00000KT 10SM SCT021 23/16 A3001 RMK AO2 SLP161 T02280156
