2023/12/02 05:53
KLAX 020553Z 05007KT 10SM CLR 15/00 A3008 RMK AO2 SLP185 T01500000 10172 20150 53013
