2025/08/11 03:53
KLAX 110353Z 24005KT 10SM BKN008 18/16 A2995 RMK AO2 SLP140 T01780156 $
