2023/10/22 05:53
KLAX 220553Z 26006KT 10SM CLR 17/14 A2983 RMK AO2 SLP098 T01720144 10206 20172 53003
