2025/09/13 21:53
KLAX 132153Z 24012G23KT 10SM SCT016 BKN027 23/17 A2988 RMK AO2 SLP117 T02280167 $
