2023/01/21 03:53
KLAX 210353Z 00000KT 10SM CLR 12/07 A3025 RMK AO2 SLP243 T01220067
