2024/09/03 21:53
KLAX 032153Z 26013KT 10SM FEW007 FEW095 24/18 A2988 RMK AO2 SLP116 T02390183 $
