2025/03/26 01:53
KLAX 260153Z 24008KT 10SM OVC006 13/11 A2997 RMK AO2 SLP148 T01280111 $
