2023/12/25 03:53
KLAX 250353Z 30005KT 10SM FEW250 16/11 A3013 RMK AO2 SLP202 T01560111
