2025/05/13 17:53
KLAX 131753Z 22003KT 10SM FEW027 BKN039 19/08 A3001 RMK AO2 SLP161 T01890083 10189 20133 51006 $
