2023/04/15 21:53
KLAX 152153Z 25014KT 10SM FEW015 17/11 A3011 RMK AO2 SLP194 T01720106
