2023/02/26 18:53
KLAX 261853Z 22008KT 10SM SCT034 SCT043 11/04 A3017 RMK AO2 SLP218 T01110044 $
