2025/05/23 17:53
KLAX 231753Z 26011KT 10SM SCT025 21/13 A2996 RMK AO2 SLP145 T02060128 10211 20167 51007 $
