2025/11/10 07:53
KLAX 100753Z 22005KT 1SM R25L/1200V2800FT BR BKN002 16/15 A3012 RMK AO2 SLP196 VIS NW-N 1/2 T01560150 402000150 $
