2024/02/06 01:53
KLAX 060153Z 12004KT 10SM -RA FEW015 OVC070 13/12 A2982 RMK AO2 SLP096 P0003 T01280122
