2024/01/05 11:53
KLAX 051153Z VRB03KT 10SM FEW220 FEW280 09/02 A3015 RMK AO2 SLP207 T00890022 10133 20078 56003
