2023/09/15 05:53
KLAX 150553Z 26007KT 10SM FEW012 BKN015 19/16 A2995 RMK AO2 SLP139 T01890161 10211 20189 51009 $
