2024/11/29 23:53
KLAX 292353Z 35005KT 10SM SCT100 BKN150 BKN250 22/M05 A3000 RMK AO2 SLP159 T02171050 10233 20189 53000 $
