2024/07/04 15:53
KLAX 041553Z 24006KT 6SM BR OVC007 18/16 A2997 RMK AO2 SLP147 T01830161
