2022/11/05 13:53
KLAX 051353Z 11004KT 10SM FEW250 SCT300 12/04 A3008 RMK AO2 SLP185 T01170039
