2024/11/07 19:53
KLAX 071953Z 23010KT 10SM CLR 22/M08 A3012 RMK AO2 SLP198 T02171078 $
