2022/11/19 21:53
KLAX 192153Z 00000KT 10SM CLR 24/M06 A3003 RMK AO2 SLP169 T02391061 $
