2025/11/05 13:53
KLAX 051353Z VRB04KT 10SM FEW015 SCT020 OVC030 17/11 A3019 RMK AO2 SLP222 T01670111 $
