2022/11/01 03:53
KLAX 010353Z 36004KT 8SM FEW010 BKN150 BKN200 18/16 A2985 RMK AO2 SLP108 T01830161 VISNO RWY24 $
