2025/04/02 11:53
KLAX 021153Z 29008KT 10SM FEW070 FEW150 11/04 A2981 RMK AO2 SLP093 T01060039 10128 20106 56013
