2024/04/08 03:53
KLAX 080353Z 27009KT 10SM CLR 13/09 A2996 RMK AO2 SLP145 T01280094 $
