2024/09/14 01:53
KLAX 140153Z 25009KT 10SM FEW015 20/16 A2981 RMK AO2 SLP094 T02000161
