2022/10/24 19:53
KLAX 241953Z 21007KT 10SM CLR 23/M02 A3015 RMK AO2 SLP209 T02331022
