2024/02/12 01:53
KLAX 120153Z 27012KT 10SM FEW220 FEW280 13/08 A3016 RMK AO2 SLP214 T01330083 $
