2023/01/13 19:53
KLAX 131953Z 30003KT 10SM FEW090 BKN140 BKN180 OVC250 17/07 A3015 RMK AO2 SLP207 T01720072
