2024/04/11 19:53
KLAX 111953Z 24010KT 6SM HZ SCT000 SCT005 16/12 A2991 RMK AO2 SLP127 VIS SW-NW 1/2 FG SCT000 SCT005 V BKN T01560122 $
