2023/07/13 11:53
KLAX 131153Z 26004KT 10SM FEW008 FEW220 18/16 A2996 RMK AO2 SLP144 T01780156 10189 20172 53001 $
