2026/02/27 23:53
KLAX 272353Z 26005KT 10SM SCT150 BKN250 28/11 A2988 RMK AO2 SLP115 T02830106 10300 20228 56022
