2024/11/14 05:53
KLAX 140553Z 16003KT 10SM CLR 16/09 A3005 RMK AO2 SLP172 T01560089 10200 20150 53001
