2022/09/09 02:53
KLAX 090253Z 25014KT 10SM BKN150 BKN200 29/18 A2957 RMK AO2 SLP012 T02890178 56023
