2025/10/14 13:53
KLAX 141353Z 15013G22KT 6SM -RA BR BKN027 OVC032 16/14 A2979 RMK AO2 SLP085 P0003 T01560139 $
