2023/02/03 11:53
KLAX 031153Z 31004KT 10SM SCT220 BKN280 12/07 A3022 RMK AO2 SLP230 T01170067 10139 20100 58003 $
