2026/01/07 13:53
KLAX 071353Z 10004KT 10SM FEW050 FEW070 SCT200 12/08 A2994 RMK AO2 SLP138 T01170083 $
