2024/07/18 19:53
KLAX 181953Z 26011G17KT 10SM CLR 23/18 A2999 RMK AO2 SLP154 T02330178
