2025/07/20 07:53
KLAX 200753Z VRB04KT 9SM OVC012 18/16 A3000 RMK AO2 SLP155 T01830156 402390183 $
