2023/11/15 21:53
KLAX 152153Z 08009KT 10SM BKN050 BKN060 OVC090 17/11 A2988 RMK AO2 LTG DSNT SE AND S RAE44 SLP119 P0001 T01670111
