2023/10/24 05:53
KLAX 240553Z 23003KT 10SM CLR 18/15 A2978 RMK AO2 SLP083 T01780150 10200 20178 50001 $
