2024/01/13 01:53
KLAX 130153Z 27010KT 10SM FEW200 12/07 A3011 RMK AO2 SLP196 T01220072 $
