2023/04/10 21:53
KLAX 102153Z 27012KT 7SM SCT006 16/12 A3002 RMK AO2 SLP165 VIS S-W 1 T01560122
