2023/08/20 17:53
KLAX 201753Z 05006KT 5SM RA BR FEW009 SCT060 OVC090 23/21 A2964 RMK AO2 RAE00B23 SLP035 P0001 60016 T02330211 10250 20222 55008 $
