2024/08/04 13:53
KLAX 041353Z 00000KT 5SM BR FEW000 SCT005 BKN160 BKN200 17/16 A2989 RMK AO2 SLP119 VIS SW-W 1 1/2 FG FEW000 T01720161 $
