2025/02/15 09:53
KLAX 150953Z 15004KT 10SM CLR 11/09 A3017 RMK AO2 SLP214 T01110089 $
