2026/02/19 13:53
KLAX 191353Z 08003KT 10SM FEW016 SCT028 BKN050 BKN160 09/04 A3001 RMK AO2 SLP160 T00940044
