2023/06/19 09:53
KLAX 190953Z VRB05KT 10SM OVC020 17/13 A2992 RMK AO2 SLP128 T01720133
