2023/10/31 06:53
KLAX 310653Z VRB03KT 10SM CLR 17/06 A3004 RMK AO2 SLP168 T01720061
