2025/08/10 11:53
KLAX 101153Z 26005KT 8SM SCT008 18/17 A2992 RMK AO2 SLP130 T01830167 10189 20183 53001 $
