2026/02/07 07:53
KLAX 070753Z 27003KT 10SM SCT250 15/12 A3018 RMK AO2 SLP217 T01500122 402000144 $
