2024/09/01 09:53
KLAX 010953Z 00000KT 10SM FEW010 19/17 A2991 RMK AO2 SLP125 T01940167 $
