2024/12/10 09:53
KLAX 100953Z 00000KT 9SM FEW010 FEW020 12/08 A3022 RMK AO2 SLP233 FU FEW010 FU FEW020 T01170078
