2025/02/04 17:53
KLAX 041753Z VRB03KT 9SM FEW016 FEW150 16/10 A3001 RMK AO2 SLP163 T01560100 10156 20094 51018
