2025/08/16 21:53
KLAX 162153Z 25011G19KT 10SM SCT017 23/16 A3001 RMK AO2 SLP161 T02280156 $
