2024/05/21 09:53
KLAX 210953Z 27003KT 10SM FEW006 OVC034 14/11 A2996 RMK AO2 SLP142 T01390106 $
