2024/03/29 23:53
KLAX 292353Z 20012KT 10SM FEW024 FEW036 SCT060 BKN140 BKN180 16/07 A2989 RMK AO2 SLP122 T01560072 10167 20139 56015
