2026/02/13 03:53
KLAX 130353Z 25008KT 10SM BKN250 16/09 A3004 RMK AO2 SLP170 T01560089
