2025/06/20 17:53
KLAX 201753Z 25007KT 8SM SCT012 OVC023 19/14 A2988 RMK AO2 SLP115 T01940144 10200 20178 51004 $
