2023/02/11 19:53
KLAX 111953Z 24010KT 10SM FEW033 SCT044 14/07 A2991 RMK AO2 SLP129 T01440072 $
