2026/05/22 11:53
KLAX 221153Z 00000KT 9SM FEW009 OVC015 17/12 A2984 RMK AO2 SLP103 T01670122 10167 20150 56006 $
