2024/12/20 03:53
KLAX 200353Z 00000KT 1/4SM R25L/2000V5500FT FG OVC002 12/12 A3010 RMK AO2 SLP193 T01170117
