2023/11/19 17:53
KLAX 191753Z 29009KT 10SM FEW006 FEW030 20/07 A3012 RMK AO2 SLP199 T02000072 10200 20150 50004
