2023/06/11 03:53
KLAX 110353Z 24007KT 10SM FEW014 OVC032 16/13 A2989 RMK AO2 SLP119 T01610128
