2025/06/19 15:53
KLAX 191553Z VRB04KT 8SM FEW010 BKN018 19/14 A2986 RMK AO2 SLP110 T01940139 $
