2024/10/31 19:53
KLAX 311953Z 22008KT 10SM FEW085 FEW180 21/08 A3005 RMK AO2 SLP174 T02060078 $
