2024/09/24 03:53
KLAX 240353Z 25009KT 1/2SM R25L/5500VP6000FT FG OVC002 17/16 A2980 RMK AO2 SLP089 T01670161 $
