2023/02/13 01:53
KLAX 130153Z 23007KT 10SM FEW023 FEW120 SCT200 SCT250 12/08 A2987 RMK AO2 SLP114 T01220078 $
