2024/06/04 19:53
KLAX 041953Z 29008KT 10SM FEW020 21/14 A2987 RMK AO2 SLP114 T02060144
