2025/01/21 17:53
KLAX 211753Z 31007KT 10SM FEW180 FEW250 17/M02 A3044 RMK AO2 SLP309 T01671022 10167 20050 51006 $
