2023/08/05 15:53
KLAX 051553Z 00000KT 10SM CLR 22/17 A2990 RMK SLP121 T02170172 
