2022/11/08 15:53
KLAX 081553Z 19014KT 6SM BR SCT009 BKN013 OVC070 17/16 A2983 RMK AO2 RAE44 SLP101 P0016 T01720156
