2025/03/14 17:53
KLAX 141753Z 08009KT 10SM SCT034 BKN047 OVC060 11/07 A3008 RMK AO2 RAE1656B14E48 SLP186 P0002 60002 T01060067 10106 20089 53011 $
