2022/08/22 19:53
KLAX 221953Z 28006KT 10SM FEW009 BKN013 22/17 A3000 RMK AO2 SLP155 T02170172 $
