2025/02/12 11:53
KLAX 121153Z 00000KT 10SM FEW012 SCT045 BKN080 BKN200 12/09 A2990 RMK AO2 RAB24E51 SLP122 P0000 60000 T01170089 10133 20111 58006 $
