2025/06/15 15:53
KLAX 151553Z 13005KT 8SM FEW170 FEW230 20/15 A2992 RMK AO2 SLP131 T02000150 $
