2023/04/06 21:53
KLAX 062153Z 25010KT 10SM FEW250 19/04 A3003 RMK AO2 SLP170 T01940039 $
