2023/08/10 17:53
KLAX 101753Z 12005KT 10SM FEW018 BKN100 24/17 A2999 RMK AO2 SLP154 T02440167 10244 20194 51005 $
