2024/03/03 19:53
KLAX 031953Z 25013KT 10SM SCT026 BKN050 15/09 A3007 RMK AO2 SLP180 T01500094 $
