2025/06/12 07:53
KLAX 120753Z VRB03KT 9SM OVC008 17/15 A2987 RMK AO2 SLP113 T01720150 402110167 $
