2023/10/08 15:53
KLAX 081553Z 25005KT 1/2SM R25L/2200VP6000FT FG VV000 17/17 A2992 RMK AO2 SLP130 VIS SW-NW 1/8 T01670167
