2025/03/14 13:53
KLAX 141353Z VRB03KT 10SM FEW019 BKN085 OVC200 09/03 A3003 RMK AO2 SLP170 T00940033 $
