2026/06/20 06:53
KLAX 200653Z 14003KT 10SM CLR 17/13 A2998 RMK AO2 SLP148 T01670133
