2024/02/16 13:53
KLAX 161353Z VRB03KT 8SM FEW008 OVC018 13/12 A3012 RMK AO2 SLP198 T01330117
