2025/03/25 19:53
KLAX 251953Z 26011KT 7SM SCT006 BKN140 16/12 A2999 RMK AO2 SLP155 T01610122 $
