2025/06/12 17:53
KLAX 121753Z 25007KT 10SM OVC015 19/15 A2989 RMK AO2 SLP122 60000 T01890150 10189 20167 51006
