2024/05/09 17:53
KLAX 091753Z 23007KT 10SM OVC022 17/12 A2997 RMK AO2 SLP147 T01670117 10167 20156 51010 $
