2025/10/17 19:53
KLAX 171953Z 23008KT 10SM CLR 23/12 A2992 RMK AO2 SLP130 T02280122 $
