2024/09/15 19:53
KLAX 151953Z 23011KT 10SM FEW020 SCT030 BKN040 22/15 A2991 RMK AO2 SLP125 T02220150
