2025/12/15 13:53
KLAX 151353Z VRB03KT 3/4SM R25L/P6000FT BR FEW002 OVC003 13/13 A3012 RMK AO2 SLP198 VIS 1/2V1 1/2 T01330128
