2025/12/09 09:53
KLAX 090953Z 05004KT 10SM CLR 16/03 A3007 RMK AO2 SLP180 T01610028 $
