2023/08/14 13:53
KLAX 141353Z 25005KT 7SM FEW005 OVC008 19/18 A2994 RMK AO2 SLP138 T01890178 $
