2025/12/02 21:53
KLAX 022153Z 28011KT 10SM FEW027 SCT140 SCT160 BKN250 18/08 A2999 RMK AO2 SLP157 T01830083 $
