2025/08/29 23:53
KLAX 292353Z 25014KT 10SM FEW120 26/13 A2994 RMK AO2 SLP135 T02560128 10289 20256 56014 $
