2023/08/04 19:53
KLAX 041953Z 26010KT 10SM FEW160 24/17 A2992 RMK A02 SLP131 T02390167 
