2024/10/06 23:53
KLAX 062353Z 27012KT 1/2SM R25L/5000VP6000FT FG OVC002 18/16 A2988 RMK AO2 SLP118 T01780161 10211 20178 56011
