2024/09/05 17:53
KLAX 051753Z 24007KT 10SM FEW050 29/19 A2991 RMK AO2 SLP126 T02890189 10289 20211 51004 $
