2025/01/10 03:53
KLAX 100353Z 14007KT 10SM FEW070 13/09 A3016 RMK AO2 SLP212 FU FEW070 T01280089
