2025/03/08 03:53
KLAX 080353Z 06007KT 10SM CLR 12/08 A3011 RMK AO2 SLP197 T01220083 $
