2025/02/23 15:53
KLAX 231553Z 00000KT 9SM CLR 13/07 A3023 RMK AO2 SLP237 T01330067 $
