2024/02/16 07:53
KLAX 160753Z 19004KT 10SM FEW008 BKN012 13/12 A3012 RMK AO2 SLP197 T01330122 401670089
