2024/03/02 11:53
KLAX 021153Z 24008KT 10SM FEW013 SCT025 OVC048 14/13 A3000 RMK AO2 SLP158 60006 70006 T01390128 10150 20133 56019 $
