2024/10/22 19:53
KLAX 221953Z 27008KT 10SM CLR 24/08 A3003 RMK AO2 SLP167 T02440083 $
