2025/06/10 23:53
KLAX 102353Z 24013KT 10SM FEW010 FEW200 20/14 A2991 RMK AO2 SLP126 T02000144 10222 20200 56009 $
