2023/03/19 13:53
KLAX 191353Z 17005KT 10SM SCT095 OVC110 15/08 A2996 RMK AO2 SLP142 T01500083
