2026/04/05 09:53
KLAX 050953Z 09005KT 10SM CLR 17/04 A2999 RMK AO2 SLP153 T01670039 $
