2025/09/30 21:53
KLAX 302153Z 23014KT 10SM FEW050 FEW250 22/13 A2999 RMK AO2 SLP154 T02220128 $
