2023/01/15 09:53
KLAX 150953Z 25011KT 6SM -RA BR SCT012 BKN021 OVC055 14/12 A2982 RMK AO2 RAB44 SLP098 VCSH NW-N P0000 T01390122 $
