2022/09/17 09:53
KLAX 170953Z 00000KT 10SM FEW008 19/16 A2982 RMK AO2 SLP096 T01940161 $
