2024/09/23 21:53
KLAX 232153Z 25009KT 8SM OVC007 19/16 A2980 RMK AO2 SLP089 T01890156 $
