2026/05/21 15:53
KLAX 211553Z 14005KT 8SM FEW009 SCT014 20/15 A2990 RMK AO2 SLP123 T02000150 $
