2025/10/10 01:53
KLAX 100153Z 25011KT 10SM FEW150 19/14 A2988 RMK AO2 SLP116 T01940144 $
