2022/12/13 15:53
KLAX 131553Z VRB04KT 10SM FEW025 09/03 A3004 RMK AO2 SLP174 T00940033
