2024/03/29 15:53
KLAX 291553Z 15004KT 10SM FEW018 SCT021 BKN035 13/09 A2996 RMK AO2 SLP144 T01330089
