2025/07/22 12:53
KLAX 221253Z 26007KT 10SM FEW008 SCT022 OVC028 18/16 A2996 RMK AO2 SLP143 T01830156 $
