2026/01/09 07:53
KLAX 090753Z 09006KT 10SM CLR 11/M04 A3019 RMK AO2 SLP222 T01061039 401670089 $
