2024/05/06 21:53
KLAX 062153Z 23011G18KT 10SM FEW010 FEW250 17/09 A3000 RMK AO2 SLP158 T01720094 $
