2023/05/31 01:53
KLAX 310153Z 26013KT 10SM SCT046 OVC055 17/12 A2995 RMK AO2 SLP140 T01670117 $
