2025/05/29 15:53
KLAX 291553Z 25008KT 10SM SCT015 BKN019 OVC023 17/14 A2995 RMK AO2 SLP142 T01720139
