2022/08/26 19:53
KLAX 261953Z 27011KT 8SM FEW009 SCT017 24/18 A2994 RMK AO2 SLP136 T02390178 $
