2026/01/22 23:53
KLAX 222353Z 22009KT 10SM FEW075 SCT095 BKN200 16/12 A2995 RMK AO2 SLP142 60000 T01610122 10172 20156 56005 $
