2025/11/29 00:16
KLAX 290016Z 25006KT 10SM FEW006 17/14 A2998 RMK AO2 T01670139 $
