2025/05/12 21:53
KLAX 122153Z 24010KT 10SM SCT200 SCT250 19/12 A2992 RMK AO2 SLP130 T01890122 $
