2025/10/29 23:53
KLAX 292353Z 26010KT 10SM CLR 25/13 A2993 RMK AO2 SLP132 T02500128 10328 20250 55007 $
