2024/05/24 03:53
KLAX 240353Z 25008KT 10SM BKN037 15/12 A2994 RMK AO2 SLP137 T01500122 
