2025/05/20 19:53
KLAX 201953Z 25010KT 10SM CLR 23/14 A2993 RMK AO2 SLP133 T02330139
