2023/01/10 11:53
KLAX 101153Z 14009KT 5SM -RA BR BKN006 OVC011 15/14 A3003 RMK AO2 SLP167 P0010 60062 70129 T01500144 10156 20150 58002 $
