2023/05/10 17:53
KLAX 101753Z 22008G16KT 9SM FEW024 FEW045 SCT100 18/11 A3004 RMK AO2 SLP174 T01780106 10183 20117 51008
