2025/05/30 03:53
KLAX 300353Z 25006KT 10SM CLR 17/14 A2993 RMK AO2 SLP134 T01720139
