2025/06/22 13:53
KLAX 221353Z 09004KT 10SM SCT021 17/13 A2991 RMK AO2 SLP127 T01670128
