2023/11/29 13:53
KLAX 291353Z 09004KT 10SM FEW022 BKN070 12/03 A3003 RMK AO2 SLP167 T01220033
