2025/08/17 15:53
KLAX 171553Z 09003KT 10SM OVC020 21/16 A3001 RMK AO2 SLP159 T02110156 $
