2022/10/15 03:53
KLAX 150353Z 26004KT 10SM OVC022 19/16 A2985 RMK AO2 SLP106 T01890161 $
