2022/12/02 23:53
KLAX 022353Z VRB04KT 10SM FEW010 SCT015 OVC027 16/11 A3009 RMK AO2 SLP188 60000 T01610106 10161 20128 58004
