2023/09/09 03:53
KLAX 090353Z 24009KT 10SM CLR 21/19 A3001 RMK AO2 SLP159 T02060189
