2023/02/19 05:53
KLAX 190553Z 23005KT 10SM SCT200 12/06 A3003 RMK AO2 SLP169 T01170061 10161 20117 53012 $
