2024/04/06 03:53
KLAX 060353Z 32005KT 10SM FEW023 FEW080 SCT190 SCT240 11/03 A3002 RMK AO2 PK WND 28026/0306 SLP165 T01060033 $
