2024/09/12 17:53
KLAX 121753Z 10003KT 10SM SCT025 22/14 A2977 RMK AO2 SLP077 T02220144 10228 20183 51005
