2023/06/01 07:53
KLAX 010753Z 24005KT 10SM FEW011 FEW020 OVC038 16/12 A2992 RMK AO2 SLP128 T01560122 402000150
