2023/10/28 19:53
KLAX 281953Z 24013KT 10SM FEW020 21/14 A2996 RMK AO2 SLP145 T02060144
