2024/04/16 05:53
KLAX 160553Z 24004KT 10SM FEW011 FEW250 13/11 A3006 RMK AO2 SLP178 T01280111 10167 20128 50008 $
