2023/11/13 11:53
KLAX 131153Z 07005KT 10SM FEW004 FEW009 BKN250 14/05 A2999 RMK AO2 SLP153 T01390050 10172 20117 55009
