2024/10/25 00:12
KLAX 250012Z 27010KT 2 1/2SM BR FEW004 FEW250 16/14 A2987 RMK AO2 T01560139 $
