2023/05/25 19:53
KLAX 251953Z 23007KT 8SM -RA FEW011 OVC023 15/13 A2991 RMK AO2 SLP128 P0001 T01500128 $
