2024/12/09 15:53
KLAX 091553Z 06004KT 7SM FEW010 BKN018 13/08 A3012 RMK AO2 SLP200 T01280083
