2025/04/21 11:53
KLAX 211153Z 18003KT 10SM SCT250 BKN300 13/12 A2998 RMK AO2 SLP152 T01330117 10139 20128 55004 $
