2022/12/12 15:53
KLAX 121553Z 07008KT 7SM SCT040 BKN065 BKN090 08/06 A2989 RMK AO2 RAE49 SLP122 P0001 T00780061
