2023/03/04 05:53
KLAX 040553Z 00000KT 10SM FEW020 FEW200 11/08 A2997 RMK AO2 SLP147 T01110083 10139 20111 53007 $
