2024/01/16 19:53
KLAX 161953Z 27010KT 7SM FEW009 SCT180 BKN250 16/12 A3008 RMK AO2 SLP186 T01560117
