2024/09/22 21:53
KLAX 222153Z 27014KT 8SM BKN010 20/16 A2987 RMK AO2 SLP113 T02000156 $
