2025/12/31 23:53
KLAX 312353Z 05008KT 8SM -RA BKN095 OVC110 15/14 A2997 RMK AO2 SLP147 P0003 60022 T01500139 10194 20144 58011 $
