2025/12/23 23:53
KLAX 232353Z 10011G18KT 10SM FEW025 SCT050 OVC060 16/12 A2994 RMK AO2 SLP135 60001 T01610122 10167 20156 56012 $
