2022/12/27 19:53
KLAX 271953Z 25006KT 8SM FEW027 SCT120 BKN140 OVC180 17/12 A3001 RMK AO2 SLP163 T01720117
