2023/04/20 21:53
KLAX 202153Z 26014KT 10SM SCT180 BKN300 22/04 A3012 RMK AO2 SLP199 T02170039
