2025/11/29 15:53
KLAX 291553Z 07004KT 5SM BR FEW002 SCT230 BKN280 12/10 A3004 RMK AO2 SLP169 T01170100 $
