2023/03/23 19:53
KLAX 231953Z 24012KT 10SM FEW027 SCT042 BKN055 14/09 A3024 RMK AO2 SLP241 T01390094
