2024/07/14 07:53
KLAX 140753Z 24005KT 10SM FEW008 SCT100 18/17 A2999 RMK AO2 SLP152 T01830172 402330178 $
