2024/08/20 17:53
KLAX 201753Z 25008KT 10SM FEW006 26/18 A2996 RMK AO2 SLP144 T02560183 10278 20189 50004
