2022/11/12 09:53
KLAX 120953Z 01003KT 10SM CLR 12/M01 A3004 RMK AO2 SLP171 T01221011
