2023/02/08 09:53
KLAX 080953Z 12004KT 10SM FEW200 SCT250 11/04 A3022 RMK AO2 SLP232 T01060044
