2024/05/21 05:53
KLAX 210553Z 23006KT 10SM FEW006 BKN038 14/11 A2997 RMK AO2 SLP147 T01440111 10178 20139 $
