2024/10/22 03:53
KLAX 220353Z 18003KT 10SM CLR 19/12 A2999 RMK AO2 SLP155 T01890117 $
