2024/10/29 03:53
KLAX 290353Z 00000KT 10SM FEW080 17/12 A2985 RMK AO2 SLP107 T01670122
