2024/08/14 11:53
KLAX 141153Z VRB03KT 10SM FEW010 19/18 A2993 RMK AO2 SLP133 T01890178 10200 20183 53002 $
