2024/08/27 05:53
KLAX 270553Z 26005KT 10SM FEW008 20/17 A3001 RMK AO2 SLP159 T02000172 10239 20194 51007 $
