2023/12/26 13:53
KLAX 261353Z 05003KT 10SM FEW008 FEW014 SCT180 BKN250 12/09 A3014 RMK AO2 SLP203 T01170094
