2024/02/18 11:53
KLAX 181153Z 00000KT 10SM FEW027 OVC041 13/12 A3007 RMK AO2 SLP181 60001 70001 T01330117 10139 20133 50003
