2025/10/24 21:53
KLAX 242153Z 26012KT 7SM FEW009 20/16 A2996 RMK AO2 SLP142 T02000156
