2023/11/14 11:53
KLAX 141153Z 00000KT 10SM FEW007 12/06 A3000 RMK AO2 SLP156 T01170061 10167 20117 55004
