2025/12/18 21:53
KLAX 182153Z 26006KT 6SM HZ FEW010 SCT120 BKN160 BKN280 21/13 A2993 RMK AO2 SLP135 T02060133 $
