2024/03/27 11:53
KLAX 271153Z 00000KT 10SM FEW014 FEW020 SCT200 11/09 A3013 RMK AO2 SLP200 T01060089 10133 20100 55000 $
