2025/05/31 07:53
KLAX 310753Z 30003KT 8SM FEW005 OVC011 17/15 A2997 RMK AO2 SLP144 T01720150 402440161 $
