2026/02/03 13:53
KLAX 031353Z 35003KT 7SM BCFG FEW000 FEW004 SCT008 13/12 A3019 RMK AO2 SLP221 VIS SE-S 2 1/2 FG FEW000 FG BANK SE-SW T01330117 $
