2024/08/10 21:53
KLAX 102153Z 25012KT 10SM FEW010 24/18 A2986 RMK AO2 SLP111 T02390183 $
