2025/04/16 05:53
KLAX 160553Z 27009KT 10SM FEW016 BKN220 BKN280 14/08 A3000 RMK AO2 SLP157 T01390078 10161 20139 50007
