2022/10/05 19:53
KLAX 051953Z 25011KT 7SM FEW009 SCT017 23/18 A2997 RMK AO2 SLP147 T02330178
