2022/10/18 13:53
KLAX 181353Z 00000KT 10SM FEW012 18/16 A2999 RMK AO2 SLP154 T01830156 $
