2024/05/25 13:53
KLAX 251353Z 25004KT 10SM SCT016 BKN022 BKN027 14/10 A2998 RMK AO2 SLP150 T01390100
