2024/07/21 17:53
KLAX 211753Z 25007KT 9SM FEW009 FEW180 SCT250 24/18 A2991 RMK AO2 SLP128 T02390178 10244 20183 51006 $
