2024/09/11 23:53
KLAX 112353Z 28010KT 10SM FEW015 21/15 A2975 RMK AO2 SLP073 T02110150 10239 20211 56018
