2025/11/13 01:53
KLAX 130153Z 30005KT 10SM OVC180 18/15 A3003 RMK AO2 SLP168 T01780150 $
