2022/12/26 17:53
KLAX 261753Z 00000KT 10SM SCT095 SCT140 BKN180 BKN250 22/03 A3011 RMK AO2 SLP196 T02170033 10217 20111 51013 $
