2024/01/09 19:53
KLAX 091953Z 12004KT 10SM FEW190 FEW250 16/M06 A3018 RMK AO2 SLP220 T01561061
