2022/12/27 09:53
KLAX 270953Z 08006KT 10SM FEW170 SCT200 12/08 A3003 RMK AO2 SLP165 T01220083 $
