2026/06/03 04:53
KLAX 030453Z 27007KT 10SM OVC009 16/14 A3001 RMK AO2 SLP161 T01610139 $
