2026/07/12 16:53
KLAX 121653Z 23004KT 10SM FEW010 FEW120 BKN180 BKN250 23/18 A2999 RMK AO2 SLP155 T02330178 $
