2023/11/08 19:53
KLAX 081953Z 22009KT 10SM CLR 22/08 A3006 RMK AO2 SLP176 T02220083
