2022/12/24 21:53
KLAX 242153Z 27010KT 10SM CLR 19/08 A3019 RMK AO2 SLP224 T01890083 $
