2026/06/29 21:53
KLAX 292153Z 24010KT 10SM FEW033 22/14 A2989 RMK AO2 SLP122 T02220139 $
