2025/02/07 07:53
KLAX 070753Z 19010KT 8SM OVC005 15/15 A3006 RMK AO2 RAE52 SLP178 T01500150 401670100 PNO $
