2025/10/10 09:53
KLAX 100953Z 25005KT 10SM FEW080 FEW150 SCT200 18/14 A2989 RMK AO2 SLP119 T01780144 $
