2025/05/15 07:53
KLAX 150753Z 25004KT 10SM SCT015 14/12 A2999 RMK AO2 SLP152 T01440117 402060122 $
