2025/02/23 23:53
KLAX 232353Z 24010KT 10SM CLR 18/11 A3016 RMK AO2 SLP214 T01830106 10217 20183 53000 $
