2025/03/11 15:53
KLAX 111553Z 12009G21KT 6SM -RA HZ FEW035 BKN055 OVC070 11/07 A2987 RMK AO2 RAB1455 SLP115 VIS SW 2 1/2 P0004 T01060067
