2024/06/28 19:53
KLAX 281953Z 25012KT 10SM CLR 23/17 A2984 RMK AO2 SLP104 T02330167
