2022/12/21 03:53
KLAX 210353Z 19004KT 10SM CLR 13/09 A3017 RMK AO2 SLP217 T01330094
