2023/04/22 17:53
KLAX 221753Z 00000KT 10SM SCT300 26/08 A2988 RMK AO2 SLP118 T02610083 10261 20139 56006
