2026/02/15 09:53
KLAX 150953Z 00000KT 10SM FEW015 FEW026 BKN250 13/10 A3005 RMK AO2 SLP174 T01280100 $
