2025/01/13 19:53
KLAX 131953Z VRB04KT 10SM FEW070 18/M01 A3020 RMK AO2 SLP225 T01831011
