2023/07/31 05:53
KLAX 310553Z 23004KT 10SM FEW006 FEW009 SCT150 SCT220 21/19 A2989 RMK AO2 SLP118 T02110189 10250 20211 51004 $
