2025/04/05 17:53
KLAX 051753Z 24008KT 10SM SCT250 20/08 A3024 RMK AO2 SLP239 T02000083 10211 20094 51011
