2024/05/06 19:53
KLAX 061953Z 26006G17KT 10SM FEW190 FEW240 18/10 A3001 RMK AO2 SLP164 T01780100 $
