2024/04/17 23:53
KLAX 172353Z 24009KT 10SM FEW008 FEW200 SCT250 16/12 A2997 RMK AO2 SLP149 T01610122 10178 20150 56012
