2024/02/22 19:53
KLAX 221953Z 27007KT 10SM FEW022 FEW280 16/12 A3022 RMK AO2 SLP233 T01610117
