2022/11/07 01:53
KLAX 070153Z 26007KT 10SM FEW020 FEW250 16/13 A2989 RMK AO2 SLP122 T01610133
