2024/05/10 21:53
KLAX 102153Z 28012KT 10SM OVC013 17/12 A2996 RMK AO2 SLP142 T01720122
