2024/08/11 05:53
KLAX 110553Z 36003KT 10SM CLR 21/16 A2990 RMK AO2 SLP122 T02110156 10222 20194 50006 $
