2024/11/19 09:53
KLAX 190953Z 04006KT 10SM CLR 11/00 A3004 RMK AO2 SLP170 T01110000 $
