2026/07/24 05:53
KLAX 240553Z 24007KT 10SM CLR 22/16 A2986 RMK AO2 SLP109 T02170161 10256 20217 50010 $
