2024/09/28 23:53
KLAX 282353Z 25010KT 10SM FEW011 18/14 A2985 RMK AO2 SLP108 T01830139 10194 20178 56008
