2024/07/20 05:53
KLAX 200553Z 25004KT 1SM R25L/3500VP6000FT BR OVC002 17/17 A2995 RMK AO2 SLP139 VIS S-NW 1/2 T01720167 10211 20172 50005
