2024/04/30 11:53
KLAX 301153Z 10005KT 9SM BKN009 14/13 A2986 RMK AO2 SLP110 T01440128 10161 20128 56001 $
