2022/10/27 15:53
KLAX 271553Z 05004KT 10SM BKN027 BKN070 BKN140 17/12 A3003 RMK AO2 SLP167 T01720117
