2026/04/28 23:53
KLAX 282353Z 26012KT 10SM FEW250 19/10 A3002 RMK AO2 SLP163 T01890100 10206 20183 56008 $
