2026/04/12 09:53
KLAX 120953Z 13004KT 10SM FEW018 SCT030 BKN065 16/12 A2994 RMK AO2 SLP136 T01610117 $
