2025/11/30 07:53
KLAX 300753Z 04005KT 4SM BR SCT012 14/13 A3001 RMK AO2 VIS 2 1/2 RWY24 SLP161 T01390128 401940106 $
