2025/09/07 03:53
KLAX 070353Z 24008KT 10SM CLR 20/18 A2997 RMK AO2 SLP147 T02000178
