2026/02/24 15:53
KLAX 241553Z 00000KT 10SM FEW016 FEW180 SCT250 BKN280 16/08 A3007 RMK AO2 SLP182 T01610078
