2022/10/09 11:53
KLAX 091153Z 01005KT 5SM BR OVC009 19/17 A3001 RMK AO2 SLP159 T01890172 10189 20183 56009 $
