2026/05/30 11:53
KLAX 301153Z 34003KT 10SM BKN014 16/13 A3001 RMK AO2 SLP160 T01610133 10167 20156 53001 $
