2023/08/31 02:53
KLAX 310253Z 25007KT 8SM FEW008 21/19 A2979 RMK AO2 SLP087 T02110194 55005
