2023/09/30 17:53
KLAX 301753Z 19008KT 150V230 10SM FEW019 BKN033 OVC055 20/15 A2986 RMK AO2 SLP110 60000 T02000150 10200 20172 51003 $
