2022/08/24 03:53
KLAX 240353Z 30003KT 10SM FEW011 20/17 A2981 RMK AO2 SLP092 T02000172 $
