2022/11/22 21:53
KLAX 222153Z 27010KT 10SM FEW070 19/07 A3003 RMK AO2 SLP167 T01940072 $
