2024/03/15 11:53
KLAX 151153Z 25004KT 10SM FEW050 BKN110 BKN160 13/06 A2975 RMK AO2 SLP071 T01280056 10167 20128 56013 $
