2023/02/22 11:53
KLAX 221153Z 28021KT 10SM FEW050 09/01 A2971 RMK AO2 PK WND 28030/1112 SLP058 T00940006 10111 20094 51012 $
