2023/03/17 03:53
KLAX 170353Z 26007KT 10SM CLR 12/09 A3006 RMK AO2 SLP176 T01220094 $
