2022/10/12 05:53
KLAX 120553Z 29005KT 10SM FEW012 SCT070 BKN110 BKN250 21/17 A3002 RMK AO2 RAE10 SLP162 P0000 60000 T02060167 10217 20194 55002
