2026/05/25 06:53
KLAX 250653Z 25010KT 10SM CLR 16/11 A2998 RMK AO2 SLP150 T01610111 $
