2026/03/28 21:53
KLAX 282153Z 28012KT 10SM FEW007 SCT250 BKN300 19/14 A2996 RMK AO2 SLP144 T01890139
