2023/07/01 19:53
KLAX 011953Z 26009KT 4SM HZ SCT009 20/16 A2991 RMK AO2 SLP128 VIS W-NW 2 1/2 T02000156 $
