2022/09/17 03:53
KLAX 170353Z 25006KT 10SM CLR 21/17 A2986 RMK AO2 SLP108 T02110167 $
