2024/04/04 11:53
KLAX 041153Z 20003KT 10SM FEW010 BKN018 13/10 A2992 RMK AO2 SLP131 T01280100 10133 20122 56016 $
