2023/11/07 11:53
KLAX 071153Z 00000KT 10SM FEW011 BKN016 17/14 A2995 RMK AO2 SLP138 T01670144 10172 20161 56005
