2022/12/10 21:53
KLAX 102153Z 22006KT 10SM FEW034 BKN050 BKN200 17/11 A3007 RMK AO2 SLP184 T01670111 $
