2023/01/27 21:53
KLAX 272153Z 25009KT 10SM CLR 17/03 A3003 RMK AO2 SLP169 T01720033 $
