2025/04/18 23:53
KLAX 182353Z 25009KT 10SM SCT021 BKN035 16/08 A2999 RMK AO2 SLP153 T01560083 10172 20144 56008 $
