2025/12/10 07:53
KLAX 100753Z 00000KT 10SM CLR 19/05 A3001 RMK AO2 SLP159 T01890050 402720144 $
