2024/08/12 09:53
KLAX 120953Z 26005KT 10SM CLR 19/16 A2993 RMK AO2 SLP134 T01940161
