2023/06/10 11:53
KLAX 101153Z 00000KT 10SM SCT015 OVC022 17/14 A2991 RMK AO2 CIG 015 RWY24 SLP127 T01670139 10167 20161 55013
