2024/08/19 17:53
KLAX 191753Z 25007KT 10SM CLR 25/18 A2999 RMK AO2 SLP153 T02500178 10250 20183 51009
