2023/11/05 07:53
KLAX 050753Z 00000KT 3SM BR FEW001 FEW005 15/15 A2999 RMK AO2 SLP154 VIS E 1 1/2 VIS W-NW 1 T01500150 402110111
