2023/07/16 13:53
KLAX 161353Z 00000KT 6SM BR FEW005 FEW300 19/17 A2991 RMK AO2 SLP125 T01890167
