2024/01/31 07:53
KLAX 310753Z 09004KT 10SM FEW220 14/12 A3002 RMK AO2 SLP162 T01390122 402220111 $
