2026/04/19 09:53
KLAX 190953Z 32003KT 10SM BKN220 17/14 A2990 RMK AO2 SLP124 T01720144 $
