2023/11/04 17:53
KLAX 041753Z 21004KT 6SM HZ FEW003 BKN200 20/13 A3006 RMK AO2 SLP179 T02000128 10200 20111 50003
