2024/01/31 01:53
KLAX 310153Z 25005KT 10SM FEW170 SCT240 SCT280 17/08 A2999 RMK AO2 SLP154 T01670078 $
