2024/08/31 03:55
KLAX 310355Z 26008KT 10SM BKN008 BKN011 18/16 A3000 RMK AO2 T01830161 $
