2024/09/03 07:53
KLAX 030753Z 00000KT 10SM FEW010 20/18 A2990 RMK AO2 SLP121 T02000178 402500189 $
