2023/10/24 03:53
KLAX 240353Z 23005KT 10SM FEW045 18/13 A2978 RMK AO2 SLP081 T01830133 $
