2025/01/26 03:53
KLAX 260353Z 17007KT 140V230 10SM SCT024 BKN060 13/09 A2993 RMK AO2 SLP134 T01330089
