2026/05/22 10:53
KLAX 221053Z 00000KT 9SM FEW009 OVC014 17/13 A2984 RMK AO2 SLP103 T01670128 $
