2026/07/12 08:53
KLAX 120853Z 28005KT 10SM FEW012 FEW150 BKN250 19/17 A2991 RMK AO2 SLP127 T01940172 58003 $
