2023/02/24 23:53
KLAX 242353Z 13014G23KT 3SM -RA BR BKN009 BKN019 OVC032 12/11 A2988 RMK AO2 PK WND 14030/2315 SLP120 VIS E-SE 2 1/2 P0003 60090 T01220106 10122 20111 56026 $
