2025/02/13 01:53
KLAX 130153Z 09011KT 10SM FEW008 SCT050 BKN090 12/10 A2989 RMK AO2 CIG 049 RWY24 SLP122 T01170100 $
