2025/03/16 14:53
KLAX 161453Z 04003KT 10SM FEW200 SCT240 BKN300 11/06 A3015 RMK AO2 SLP210 T01060056 53006 $
