2024/04/23 17:53
KLAX 231753Z 27009KT 9SM FEW009 SCT017 BKN039 17/12 A3004 RMK AO2 SLP169 T01670117 10167 20133 51014
