2023/11/01 21:53
KLAX 012153Z 25008KT 10SM FEW250 28/M07 A2997 RMK AO2 SLP147 T02831072 $
