2023/04/13 21:53
KLAX 132153Z 24005KT 10SM FEW013 BKN022 BKN030 15/11 A2983 RMK AO2 SLP100 T01500111 $
