2025/02/05 01:53
KLAX 050153Z 14006KT 10SM FEW020 BKN050 16/09 A3001 RMK AO2 SLP162 T01560089 $
