2022/12/05 09:53
KLAX 050953Z 26004KT 8SM FEW004 FEW006 BKN008 14/14 A3006 RMK AO2 SLP177 T01440139 $
