2025/03/18 07:53
KLAX 180753Z 27013KT 10SM FEW018 FEW250 11/08 A3018 RMK AO2 SLP217 T01110078 401670106 $
