2022/12/21 17:53
KLAX 211753Z 00000KT 10SM CLR 16/03 A3016 RMK AO2 SLP213 T01560028 10156 20067 51013
