2023/04/26 07:53
KLAX 260753Z 26008KT 9SM FEW004 BKN009 14/12 A2997 RMK AO2 SLP146 T01390117 401940139 $
