2022/09/23 05:53
KLAX 230553Z 18004KT 10SM CLR 21/18 A2991 RMK AO2 SLP126 T02110183 10250 20211 51012
