2026/04/27 02:53
KLAX 270253Z 24013KT 10SM FEW028 15/08 A2997 RMK AO2 SLP148 T01500078 53004 $
