2026/04/12 15:53
KLAX 121553Z 26011KT 10SM FEW011 FEW023 BKN038 16/13 A2998 RMK AO2 RAB00E28 SLP150 P0006 T01560133 $
