2022/11/08 00:05
KLAX 080005Z 24010G20KT 10SM SCT008 SCT100 16/16 A2993 RMK AO2 RAE05 P0000 T01610156
