2022/11/24 17:53
KLAX 241753Z 00000KT 9SM FEW120 FEW190 SCT300 19/04 A3020 RMK AO2 SLP225 T01940039 10194 20083 51019
