2024/02/19 03:53
KLAX 190353Z 35003KT 10SM -RA OVC060 14/12 A3003 RMK AO2 RAB49 SLP168 P0000 T01440122 $
