2022/11/18 01:53
KLAX 180153Z 25008KT 10SM FEW200 FEW250 17/09 A3006 RMK AO2 SLP179 T01670094
