2025/04/11 05:53
KLAX 110553Z 23004KT 10SM FEW250 15/12 A3007 RMK AO2 SLP181 T01500122 10200 20150 50004
