2024/11/24 17:53
KLAX 241753Z 26004KT 2 1/2SM BR OVC004 12/12 A3011 RMK AO2 SLP194 VIS SW-NW 1 T01220117 10139 20117 51018
