2024/08/29 03:53
KLAX 290353Z 26009KT 10SM BKN010 18/15 A2995 RMK AO2 SLP140 T01780150
