2023/09/29 15:53
KLAX 291553Z 10007KT 10SM FEW017 OVC024 19/15 A2987 RMK AO2 SLP113 T01940150
