2022/09/28 02:53
KLAX 280253Z 23007KT 10SM CLR 22/18 A2984 RMK AO2 SLP101 T02170178 53003
