2026/07/15 01:53
KLAX 150153Z 23013KT 10SM FEW080 23/18 A2987 RMK AO2 SLP112 T02280178 $
