2024/08/18 15:53
KLAX 181553Z VRB04KT 9SM SCT014 23/17 A2995 RMK AO2 SLP141 T02280172 $
