2023/02/04 15:53
KLAX 041553Z 09004KT 10SM SCT250 11/04 A3016 RMK AO2 SLP212 T01060039 $
