2023/03/13 21:53
KLAX 132153Z 24010KT 10SM OVC008 14/12 A3009 RMK AO2 SLP188 T01440122 $
