2024/03/06 05:53
KLAX 060553Z 24006KT 10SM FEW010 SCT041 13/09 A3001 RMK AO2 SLP161 T01280094 10150 20128 51005
