2025/04/06 17:53
KLAX 061753Z VRB03KT 10SM CLR 23/M01 A3021 RMK AO2 SLP230 T02331006 10233 20111 50002 $
