2023/11/10 07:53
KLAX 100753Z 36004KT 10SM FEW200 FEW250 17/M04 A3003 RMK AO2 SLP167 T01721039 402560106
