2025/06/24 23:53
KLAX 242353Z 26014G22KT 10SM SCT015 19/14 A2997 RMK AO2 SLP146 T01940139 10206 20183 58013
