2024/02/07 07:53
KLAX 070753Z 10006KT 9SM FEW007 BKN030 BKN045 09/08 A2978 RMK AO2 RAE01B18E29 SLP084 P0000 T00890083 401220089
