2022/09/03 15:53
KLAX 031553Z 31003KT 10SM FEW200 28/19 A2984 RMK AO2 SLP102 T02780189
