2025/08/26 21:53
KLAX 262153Z 24010KT 10SM FEW010 FEW120 SCT160 SCT190 BKN270 24/17 A2996 RMK AO2 SLP144 CB DSNT NE T02390172 $
