2022/10/06 17:53
KLAX 061753Z 26006KT 3SM HZ OVC015 22/17 A3004 RMK AO2 SLP170 T02170172 10222 20200 51007
