2023/02/20 11:53
KLAX 201153Z 00000KT 10SM FEW150 FEW250 10/02 A3007 RMK AO2 SLP181 T01000022 10144 20100 58007 $
