2024/07/09 13:53
KLAX 091353Z 33005KT 1/2SM R25L/P6000FT FG VV003 18/17 A2982 RMK AO2 SLP097 VIS 1/4V3/4 T01780167 $
