2025/05/13 21:53
KLAX 132153Z 27016G23KT 10SM FEW032 FEW080 19/09 A2999 RMK AO2 SLP153 T01890094 $
