2025/11/01 13:53
KLAX 011353Z 00000KT 1 3/4SM BR OVC003 16/15 A3004 RMK AO2 SLP170 T01560150 $
