2024/03/04 15:53
KLAX 041553Z 11005KT 10SM FEW017 FEW036 SCT110 SCT170 11/08 A3011 RMK AO2 SLP195 T01110083
