2024/03/12 23:53
KLAX 122353Z 24010KT 10SM FEW050 FEW250 16/10 A3008 RMK AO2 SLP186 T01560100 10167 20150 56010
