2025/03/13 07:53
KLAX 130753Z 15017G28KT 4SM -RA BR FEW009 SCT015 BKN024 OVC150 14/12 A2988 RMK AO2 PK WND 14031/0743 RAB29 SLP118 P0005 T01390122 401610117 $
