2024/05/25 01:53
KLAX 250153Z 27014KT 10SM SCT015 SCT030 16/11 A2991 RMK AO2 SLP128 T01560111
