2022/09/02 05:53
KLAX 020553Z 10004KT 10SM FEW150 25/19 A2974 RMK AO2 SLP068 T02500189 10272 20239 50010
