2025/05/02 09:53
KLAX 020953Z 26006KT 10SM SCT011 BKN018 14/11 A2997 RMK AO2 SLP146 T01440111 $
