2023/11/24 07:53
KLAX 240753Z 08007KT 10SM FEW018 FEW035 SCT120 15/12 A2984 RMK AO2 SLP101 T01500122 402110128
