2023/06/03 07:53
KLAX 030753Z 24005KT 10SM CLR 15/12 A2995 RMK AO2 SLP139 T01500122 402060150
