2022/10/03 15:53
KLAX 031553Z 22004KT 10SM SCT014 BKN027 20/16 A3000 RMK AO2 SLP158 BKN V SCT T02000161
