2025/08/26 09:53
KLAX 260953Z 23005KT 10SM FEW010 FEW200 20/18 A2990 RMK AO2 SLP123 T02000183 $
