2023/09/15 03:53
KLAX 150353Z 24007KT 10SM BKN014 19/16 A2994 RMK AO2 SLP137 T01890161 $
