2024/03/04 17:53
KLAX 041753Z 04005KT 10SM FEW020 SCT037 15/09 A3012 RMK AO2 SLP200 T01500089 10150 20078 50016
