2023/08/18 05:53
KLAX 180553Z 23005KT 10SM FEW007 17/16 A2988 RMK AO2 SLP116 T01720161 10211 20172 51019 $
