2024/01/29 19:53
KLAX 291953Z VRB03KT 10SM FEW075 FEW180 24/03 A3009 RMK AO2 SLP187 T02440033 $
