2025/03/16 17:53
KLAX 161753Z 13005KT 10SM SCT240 BKN280 16/06 A3017 RMK AO2 SLP217 T01560061 10161 20078 51008 $
