2023/07/04 09:53
KLAX 040953Z 27003KT 3SM BR FEW002 OVC005 15/14 A2988 RMK AO2 SLP117 VIS N 1 1/2 T01500139
