2026/04/16 07:53
KLAX 160753Z VRB03KT 10SM FEW250 16/12 A2996 RMK AO2 SLP145 T01560122 402110128
