2024/11/16 11:53
KLAX 161153Z 04003KT 10SM CLR 12/00 A2990 RMK AO2 SLP124 T01170000 10144 20106 55000
