2025/07/22 13:53
KLAX 221353Z 27005KT 8SM FEW008 SCT019 OVC027 18/16 A2997 RMK AO2 SLP147 T01830156 $
