2024/02/04 15:53
KLAX 041553Z 09009KT 10SM FEW021 SCT070 SCT100 BKN140 BKN220 11/08 A2999 RMK AO2 SLP155 T01110083 $
