2026/01/13 05:53
KLAX 130553Z 00000KT 10SM CLR 15/02 A3018 RMK AO2 SLP219 T01500017 10200 20150 53012 $
