2026/06/22 07:53
KLAX 220753Z 24006KT 10SM FEW015 17/14 A2990 RMK AO2 SLP122 T01670144 402170150 $
