2023/06/03 19:53
KLAX 031953Z 24010KT 10SM SCT018 20/13 A2995 RMK AO2 SLP141 T02000133
