2023/04/04 17:53
KLAX 041753Z 32010G16KT 10SM FEW015 16/M04 A3014 RMK AO2 SLP207 T01561039 10156 20100 53009
