2026/07/07 22:53
KLAX 072253Z 26017KT 10SM CLR 23/14 A2993 RMK AO2 SLP132 T02330144
