2022/10/07 21:53
KLAX 072153Z 26012KT 7SM SCT011 SCT110 BKN150 23/18 A2999 RMK AO2 SLP154 T02280178 $
