2025/01/13 13:53
KLAX 131353Z 00000KT 10SM CLR 09/M06 A3015 RMK AO2 SLP209 T00891061 VISNO RWY24 $
