2025/05/14 13:53
KLAX 141353Z 10005KT 8SM FEW010 FEW075 14/11 A3001 RMK AO2 SLP161 T01390111 $
