2025/11/19 07:53
KLAX 190753Z 00000KT 10SM FEW015 FEW060 SCT200 SCT260 12/08 A3001 RMK AO2 SLP161 T01220083 401560100
