2023/12/03 13:53
KLAX 031353Z 08003KT 10SM CLR 08/06 A3020 
