2025/06/25 15:53
KLAX 251553Z 06003KT 9SM FEW015 BKN022 19/13 A3002 RMK AO2 SLP162 T01890133
