2023/02/03 23:53
KLAX 032353Z 26009KT 10SM FEW150 BKN170 BKN250 16/06 A3014 RMK AO2 SLP205 T01610061 10194 20161 58017 $
