2026/02/11 11:53
KLAX 111153Z 25010KT 10SM -RA FEW009 SCT018 OVC040 15/13 A2999 RMK AO2 RAB13E24B44 SLP152 P0000 60031 70031 T01500128 10167 20139 53001 $
