2024/04/15 03:53
KLAX 150353Z VRB04KT 10SM FEW014 12/10 A3009 RMK AO2 SLP189 T01220100 $
