2023/06/06 17:53
KLAX 061753Z 21007KT 10SM FEW020 SCT035 OVC048 17/12 A2991 RMK AO2 SLP128 T01720117 10178 20139 53005
