2023/08/07 17:53
KLAX 071753Z 26008KT 4SM HZ CLR 24/18 A3003 RMK AO2 SLP169 T02390178 10244 20183 51008 
