2025/06/05 13:53
KLAX 051353Z 35004KT 10SM FEW007 BKN011 OVC014 16/14 A2992 RMK AO2 SLP131 T01610139
