2026/06/11 14:53
KLAX 111453Z VRB04KT 10SM FEW009 BKN015 20/16 A2985 RMK AO2 SLP107 BKN V SCT T02000156 53011
