2023/01/30 11:53
KLAX 301153Z 07009KT 8SM -RA FEW007 BKN028 BKN040 09/08 A2992 RMK AO2 RAB08E33B50 SLP129 P0000 60043 70045 T00940083 10106 20089 52001 $
