2025/08/01 05:53
KLAX 010553Z 26006KT 10SM FEW007 18/16 A3002 RMK AO2 SLP163 T01830161 10222 20178 53013 $
