2023/05/27 21:53
KLAX 272153Z 24013KT 10SM BKN019 BKN038 18/12 A2996 RMK AO2 SLP146 T01830122
