2025/08/10 03:53
KLAX 100353Z 22007KT 10SM OVC008 18/16 A2988 RMK AO2 SLP116 T01830161 $
