2025/07/20 11:53
KLAX 201153Z 15003KT 10SM OVC018 19/16 A2997 RMK AO2 SLP145 T01940156 10194 20183 56007 $
