2026/03/08 11:53
KLAX 081153Z 00000KT 10SM CLR 17/M07 A2993 RMK AO2 SLP131 T01671067 10222 20156 55008 $
