2023/10/13 21:53
KLAX 132153Z 25010KT 10SM FEW230 SCT280 22/17 A2989 RMK AO2 SLP119 T02220167
