2023/10/04 07:53
KLAX 040753Z 00000KT 10SM FEW014 17/14 A2990 RMK AO2 SLP124 T01720139 402500144
