2024/06/08 15:53
KLAX 081553Z 18004KT 10SM FEW011 OVC016 17/14 A2994 RMK AO2 SLP135 T01720139 $
