2023/10/08 17:53
KLAX 081753Z 26007KT 2 1/2SM HZ BKN005 BKN130 20/17 A2992 RMK AO2 CIG 002V007 SLP130 T02000172 10200 20161 50005
