2023/07/28 23:53
KLAX 282353Z 23008KT 10SM FEW010 23/19 A2992 RMK AO2 SLP130 T02330189 10250 20233 58008 $
