2022/09/23 03:53
KLAX 230353Z 23005KT 9SM CLR 22/17 A2990 RMK AO2 SLP121 T02170172
