2022/08/30 17:53
KLAX 301753Z 27009KT 10SM CLR 24/16 A2996 RMK AO2 SLP145 T02390161 10239 20189 51004
