2025/07/23 23:53
KLAX 232353Z 25015KT 10SM FEW015 FEW250 21/14 A3002 RMK AO2 SLP165 T02110144 10228 20206 58008 $
