2025/08/15 19:08
KLAX 151908Z 25010G19KT 9SM SCT029 23/16 A2997 RMK AO2 WSHFT 1853 T02330156 $
