2024/12/03 23:53
KLAX 032353Z 27009KT 10SM FEW015 FEW150 SCT250 14/12 A3010 RMK AO2 SLP190 T01440117 10183 20144 53001
