2024/06/06 11:53
KLAX 061153Z 01003KT 5SM BR FEW003 OVC006 17/15 A2987 RMK AO2 SLP113 T01670150 10172 20161 55005
