2022/12/16 17:53
KLAX 161753Z 36007KT 10SM FEW150 SCT180 BKN250 16/01 A3015 RMK AO2 SLP208 T01610011 10161 20100 52014 $
