2024/10/13 18:53
KLAX 131853Z 00000KT 5SM HZ SCT016 21/14 A3004 RMK AO2 SLP170 T02060144 $
