2023/11/01 01:53
KLAX 010153Z 28008KT 10SM FEW200 FEW250 23/02 A3000 RMK AO2 SLP156 T02280022 $
