2022/09/26 13:53
KLAX 261353Z VRB03KT 8SM FEW009 FEW160 20/18 A2990 RMK AO2 SLP124 T02000183
