2025/09/10 19:53
KLAX 101953Z 23013KT 10SM FEW027 FEW045 SCT060 24/15 A2992 RMK AO2 SLP131 T02440150 $
