2025/08/06 21:53
KLAX 062153Z 26013KT 10SM FEW050 FEW250 24/18 A3000 RMK AO2 SLP156 FU FEW050 T02440183
