2026/02/05 15:53
KLAX 051553Z VRB05KT 10SM FEW090 SCT160 BKN200 19/M03 A3005 RMK AO2 SLP173 T01891028 $
