2024/06/06 13:53
KLAX 061353Z 31004KT 4SM BR OVC007 17/15 A2989 RMK AO2 SLP120 T01670150
