2024/12/14 13:53
KLAX 141353Z 07004KT 10SM BKN100 10/08 A3019 RMK AO2 SLP221 T01000078
