2023/01/19 23:53
KLAX 192353Z VRB05KT 10SM -RA SCT023 BKN036 OVC050 13/09 A3005 RMK AO2 RAB31 SLP178 P0000 60000 T01330089 10139 20117 58014
