2025/01/23 03:53
KLAX 230353Z 00000KT 10SM FEW250 18/M02 A3019 RMK AO2 SLP221 T01781017
