2023/07/04 11:53
KLAX 041153Z 18006KT 2SM BR SCT002 OVC004 14/14 A2991 RMK AO2 SLP126 VIS 1 1/2V3 VIS W 3/4 T01440139 10156 20144 53008
