2024/04/16 01:53
KLAX 160153Z 24011KT 10SM FEW200 FEW250 14/09 A3003 RMK AO2 SLP168 T01440089 $
