2026/03/15 15:53
KLAX 151553Z 12004KT 7SM FEW012 BKN300 16/13 A3000 RMK AO2 SLP159 T01610128 $
