2022/11/06 23:53
KLAX 062353Z 24008KT 10SM FEW022 FEW250 17/13 A2988 RMK AO2 SLP118 T01720128 10194 20172 56005
