2025/01/15 13:53
KLAX 151353Z 07003KT 10SM CLR 08/M06 A3022 RMK AO2 SLP232 T00781061
