2022/10/25 13:53
KLAX 251353Z 09004KT 10SM CLR 13/01 A3010 RMK AO2 SLP190 T01330006
