2025/07/12 23:53
KLAX 122353Z 25011KT 10SM SCT012 22/16 A2996 RMK AO2 SLP144 T02170156 10239 20200 56013
