2025/01/09 15:53
KLAX 091553Z 08003KT 6SM HZ SCT009 BKN030 10/M06 A3011 RMK AO2 SLP193 FU SCT009 FU BKN030 T01001061
