2026/07/05 01:53
KLAX 050153Z 27011KT 10SM SCT100 SCT160 BKN200 21/17 A2996 RMK AO2 SLP145 T02060167
