2024/02/12 17:53
KLAX 121753Z 12006KT 10SM FEW050 FEW075 14/02 A3016 RMK AO2 SLP211 T01440022 10150 20072 51007
