2022/10/13 05:53
KLAX 130553Z 22005KT 10SM OVC010 19/17 A3006 RMK AO2 SLP176 T01940172 10206 20189 51005
