2022/10/01 17:53
KLAX 011753Z 15006KT 10SM BKN024 22/14 A2990 RMK AO2 SLP121 T02170139 10217 20194 50007
