2026/03/04 21:53
KLAX 042153Z 27007KT 230V290 10SM FEW018 FEW190 SCT220 BKN270 18/13 A2999 RMK AO2 SLP154 T01830128
