2024/06/22 03:53
KLAX 220353Z 24007KT 10SM CLR 18/14 A2975 RMK AO2 SLP073 T01780139
