2023/12/22 07:53
KLAX 220753Z 06007G25KT 6SM RA BR FEW012 BKN050 OVC080 15/14 A2988 RMK AO2 SLP117 P0013 T01500139 401780144
