2026/02/09 02:53
KLAX 090253Z 26010KT 10SM CLR 19/08 A3014 RMK AO2 SLP206 T01890083 51003 $
