2026/03/03 02:53
KLAX 030253Z 23007KT 10SM CLR 15/13 A2995 RMK AO2 SLP141 T01500128 50000
