2025/10/25 09:53
KLAX 250953Z 10006KT 4SM BR OVC006 17/15 A2998 RMK AO2 SLP150 T01670150
