2025/07/28 18:03
KLAX 281803Z 21005KT 9SM SCT020 21/15 A3006 RMK AO2 T02110150
