2022/12/23 03:53
KLAX 230353Z 25006KT 10SM CLR 14/12 A3008 RMK AO2 SLP186 T01390122
