2024/01/15 17:53
KLAX 151753Z 11005KT 8SM FEW009 SCT180 BKN250 14/08 A3009 RMK AO2 SLP187 T01440083 10144 20078 53009 $
