2022/08/21 20:53
KLAX 212053Z 27011KT 10SM FEW014 FEW023 SCT110 24/18 A3003 RMK AO2 SLP168 T02440178 58013 $
