2023/12/31 09:53
KLAX 310953Z 09004KT 10SM FEW015 11/10 A3009 RMK AO2 SLP188 T01060100
