2024/07/29 09:53
KLAX 290953Z 26005KT 10SM FEW004 FEW012 16/14 A2995 RMK AO2 SLP140 T01610144
