2023/01/18 15:53
KLAX 181553Z 10005KT 10SM SCT011 BKN016 09/03 A3016 RMK AO2 SLP212 T00890028 $
