2025/08/09 17:53
KLAX 091753Z 24007KT 8SM SCT011 22/17 A2994 RMK AO2 SLP137 T02170167 10217 20183 51008 $
