2023/07/06 07:53
KLAX 060753Z 24004KT 10SM BKN011 16/14 A2993 RMK AO2 SLP134 T01560139 402060150 $
