2025/05/23 07:53
KLAX 230753Z 10003KT 9SM BKN011 18/15 A2992 RMK AO2 SLP130 T01780150 402170156 $
