2025/04/29 13:53
KLAX 291353Z 10003KT 7SM FEW010 SCT016 SCT140 14/11 A3006 RMK AO2 SLP177 T01390111 $
