2026/04/30 13:53
KLAX 301353Z 00000KT 10SM FEW009 BKN017 OVC022 16/12 A2992 RMK AO2 SLP131 T01610122
