2022/10/16 02:53
KLAX 160253Z 17004KT 10SM SCT024 OVC034 20/15 A2993 RMK AO2 LTG DSNT E AND SE SLP133 T02000150 53018 $
