2026/02/21 19:53
KLAX 211953Z 06005KT 10SM FEW230 SCT280 19/M02 A3016 RMK AO2 SLP213 T01891022 $
