2026/02/11 02:53
KLAX 110253Z 12016G22KT 10SM SCT019 SCT026 BKN060 OVC150 17/13 A2997 RMK AO2 CIG 047 RWY24 SLP146 T01670128 51007 $
