2023/05/30 19:53
KLAX 301953Z 24010KT 10SM FEW027 SCT038 BKN050 18/11 A2999 RMK AO2 SLP153 T01780111 $
