2024/04/08 05:53
KLAX 080553Z 15004KT 10SM CLR 12/09 A2996 RMK AO2 SLP142 T01220089 10144 20122 58003 $
