2025/04/13 04:14
KLAX 130414Z 21004KT 9SM SCT009 14/12 A2995 RMK AO2 T01390117 $
