2024/02/23 13:53
KLAX 231353Z 00000KT 10SM BKN200 BKN280 12/08 A3007 RMK AO2 SLP183 T01220078
