2026/02/16 02:53
KLAX 160253Z 25005KT 10SM FEW020 FEW050 OVC250 14/09 A2995 RMK AO2 SLP140 T01440089 55000 $
