2022/11/12 03:53
KLAX 120353Z 33005KT 10SM FEW200 17/01 A3002 RMK AO2 SLP167 T01670006
