2022/10/14 05:53
KLAX 140553Z 24005KT 9SM FEW008 OVC010 19/16 A2993 RMK AO2 SLP135 T01890161 10194 20183 50002
