2025/08/01 21:53
KLAX 012153Z 24011KT 10SM FEW012 23/16 A3007 RMK AO2 SLP181 T02280161 $
