2024/01/03 03:53
KLAX 030353Z 26007KT 10SM FEW015 14/12 A3020 RMK AO2 SLP225 T01390117
