2025/03/25 07:53
KLAX 250753Z 08004KT 3SM BR FEW002 OVC007 13/12 A3002 RMK AO2 SLP163 VIS 2 1/2V4 T01280117 402000122 $
