2023/02/07 11:53
KLAX 071153Z 06003KT 10SM CLR 11/00 A3021 RMK AO2 SLP227 T01060000 10139 20089 58001 $
