2024/09/13 21:53
KLAX 132153Z 23013G19KT 8SM FEW020 23/15 A2981 RMK AO2 SLP093 T02280150
