2024/05/23 05:53
KLAX 230553Z VRB03KT 10SM FEW012 OVC020 16/12 A2997 RMK SLP147 T01560122 10178 20150 51008 
