2025/04/11 13:53
KLAX 111353Z 00000KT 7SM FEW080 FEW200 14/12 A3003 RMK AO2 SLP166 T01440122
