2024/02/05 15:53
KLAX 051553Z 04007KT 2SM RA BR FEW004 BKN007 OVC015 13/12 A2989 RMK AO2 SLP119 VIS E-SE 1 1/2 P0011 T01280122 $
