2024/04/11 09:53
KLAX 110953Z 26006KT 1/4SM R25L/3500VP6000FT FG VV002 13/13 A2997 RMK AO2 SLP146 T01330128 $
