2023/05/27 09:53
KLAX 270953Z 24005KT 10SM FEW017 BKN041 15/12 A2997 RMK AO2 SLP146 T01500117
