2022/09/28 19:53
KLAX 281953Z 26010KT 10SM FEW030 FEW070 27/19 A2993 RMK AO2 SLP134 T02720189
