2024/08/04 01:53
KLAX 040153Z 24011KT 10SM CLR 20/15 A2986 RMK AO2 SLP109 T02000150 $
