2024/08/28 15:53
KLAX 281553Z 25005KT 7SM OVC014 19/16 A2999 RMK AO2 SLP154 T01890156
