2023/04/03 09:53
KLAX 030953Z 27007KT 10SM BKN018 OVC024 12/09 A2994 RMK AO2 SLP138 T01220089 $
