2023/04/21 15:53
KLAX 211553Z 05003KT 10SM FEW250 24/04 A3012 RMK AO2 SLP199 T02390044
