2023/05/09 23:53
KLAX 092353Z 26015KT 10SM FEW026 FEW042 SCT250 18/11 A2996 RMK AO2 SLP145 60000 T01780106 10189 20150 56017
