2023/07/28 21:53
KLAX 282153Z 23010G16KT 10SM FEW007 SCT180 24/19 A2994 RMK AO2 SLP138 T02390189
