2023/12/14 09:53
KLAX 140953Z 04004KT 10SM FEW007 FEW011 SCT280 12/10 A3010 RMK AO2 SLP191 T01170100
