2025/05/06 09:53
KLAX 060953Z 14003KT 10SM FEW011 BKN024 BKN040 15/11 A2992 RMK AO2 SLP130 T01500111 $
