2025/06/21 03:53
KLAX 210353Z 24005KT 10SM CLR 18/12 A2983 RMK AO2 SLP098 T01780122
