2023/06/03 15:53
KLAX 031553Z 23007KT 10SM SCT015 17/13 A2995 RMK AO2 SLP142 T01720128
