2024/02/06 13:53
KLAX 061353Z 24005KT 5SM -RA BR SCT005 BKN010 OVC030 12/11 A2968 RMK AO2 SLP050 VIS NE 2 1/2 P0007 T01170111
