2022/10/31 09:53
KLAX 310953Z 04004KT 10SM FEW008 16/11 A2993 RMK AO2 SLP132 T01560111 VISNO RWY24 $
