2023/07/14 15:53
KLAX 141553Z 00000KT 7SM FEW004 22/17 A2989 RMK AO2 SLP121 T02170167
