2023/08/20 13:53
KLAX 201353Z 06007KT 10SM -RA FEW065 BKN100 BKN150 OVC180 24/19 A2966 RMK AO2 RAB47 SLP040 P0000 T02440194 $
