2025/03/19 11:53
KLAX 191153Z 00000KT 10SM FEW250 11/02 A3025 RMK AO2 SLP241 T01110017 10150 20094 58011 $
