2023/04/22 03:53
KLAX 220353Z 25005KT 10SM CLR 19/08 A2997 RMK AO2 SLP147 T01890078
