2023/01/31 11:53
KLAX 311153Z 04003KT 10SM FEW004 FEW150 08/07 A3000 RMK AO2 SLP159 70023 T00830067 10122 20078 51008
