2023/10/24 19:53
KLAX 241953Z 25010KT 10SM FEW014 FEW025 SCT033 22/16 A2982 RMK AO2 SLP096 T02220156 $
