2026/02/18 11:53
KLAX 181153Z 27025G43KT 10SM -RA FEW020 SCT028 BKN050 BKN200 11/07 A2989 RMK AO2 PK WND 29043/1145 RAE1059B48 SLP120 P0000 60032 70059 T01110072 10144 20111 53002
