2023/07/26 11:53
KLAX 261153Z 25004KT 2SM BCFG BR FEW000 FEW002 SCT250 19/18 A2992 RMK AO2 SLP128 VIS 1V3 FG FEW000 FG BANK S-W T01940183 10211 20194 56004 $
