2025/11/10 17:53
KLAX 101753Z 26011KT 10SM BCFG FEW001 17/14 A3015 RMK AO2 SLP207 VIS SE-S 2 1/2 T01720139 10211 20133 51008 $
