2023/07/08 15:53
KLAX 081553Z VRB03KT 10SM BKN020 19/13 A2987 RMK AO2 SLP115 T01940133
