2025/11/15 02:29
KLAX 150229Z 10006KT 6SM -RA BR FEW008 SCT014 OVC095 18/17 A2994 RMK AO2 P0002 T01780167 $
