2025/07/13 17:53
KLAX 131753Z 24005KT 5SM BR FEW004 OVC007 18/16 A3003 RMK AO2 SLP166 60000 T01830161 10183 20167 51004
