2024/03/23 09:53
KLAX 230953Z 24006KT 10SM BKN013 BKN027 14/12 A2996 RMK AO2 SLP143 T01390117 $
