2026/07/11 01:53
KLAX 110153Z 27009KT 10SM CLR 21/16 A2985 RMK AO2 SLP106 T02110161 $
