2024/12/15 21:53
KLAX 152153Z 26009KT 10SM CLR 16/07 A3014 RMK AO2 SLP204 T01560072 $
