2025/08/14 05:53
KLAX 140553Z 25004KT 10SM OVC012 19/16 A2993 RMK AO2 SLP131 T01890161 10211 20183 51012
