2022/11/22 09:53
KLAX 220953Z 06004KT 10SM FEW200 BKN280 13/M06 A3007 RMK AO2 SLP180 T01281061 $
