2024/11/24 21:53
KLAX 242153Z 27009KT 10SM FEW018 SCT034 SCT180 BKN220 16/11 A3006 RMK AO2 SLP179 T01560111
