2023/08/09 17:53
KLAX 091753Z 24007KT 9SM FEW009 SCT019 BKN140 23/18 A2997 RMK AO2 SLP148 T02280183 10239 20200 51002 $
