2026/06/26 06:53
KLAX 260653Z 25006KT 10SM FEW008 OVC012 17/14 A2992 RMK AO2 SLP130 T01720139
