2023/12/14 13:53
KLAX 141353Z 09003KT 10SM FEW005 BKN280 10/06 A3014 RMK AO2 SLP205 T01000056
