2023/10/21 19:53
KLAX 211953Z 25010KT 10SM CLR 25/16 A2984 RMK AO2 SLP103 T02500156
