2025/12/04 21:53
KLAX 042153Z 25008KT 10SM FEW160 SCT250 21/M04 A3013 RMK AO2 SLP201 T02061039 $
