2025/02/05 15:53
KLAX 051553Z 09010KT 1 1/2SM -RA BR BKN005 OVC024 13/12 A3011 RMK AO2 SLP193 VIS SW-W 1 1/4 P0001 T01280117 $
