2025/05/09 15:53
KLAX 091553Z 25007KT 4SM BCFG BR FEW000 SCT004 18/14 A3002 RMK AO2 SLP165 VIS SW-NW 1 1/2 FG FEW000 T01780144
