2025/03/14 05:53
KLAX 140553Z 26017KT 10SM FEW020 FEW250 11/04 A3000 RMK AO2 PK WND 28030/0458 SLP158 T01110044 10133 20111 53027
