2023/06/12 05:53
KLAX 120553Z 28013G19KT 10SM SCT012 BKN023 OVC034 16/13 A2999 RMK AO2 SLP155 T01610133 10183 20161 50006
