2024/10/24 19:53
KLAX 241953Z 26009KT 6SM HZ FEW000 SCT190 SCT280 19/15 A2993 RMK AO2 SLP135 VIS SW-NW 1 1/4 FG FEW000 FG BANK SW-NW T01940150 $
