2025/08/28 13:53
KLAX 281353Z VRB04KT 10SM FEW009 SCT160 BKN200 OVC280 21/18 A3003 RMK AO2 SLP165 T02060178 $
