2025/01/21 19:53
KLAX 211953Z VRB04KT 10SM FEW180 FEW250 19/00 A3039 RMK AO2 SLP290 T01940000 VISNO RWY24 $
