2023/10/15 17:53
KLAX 151753Z 21007KT 10SM CLR 26/13 A3004 RMK AO2 SLP170 T02560128 10256 20150 50005
