2024/06/21 05:53
KLAX 210553Z 25006KT 10SM CLR 16/13 A2978 RMK AO2 SLP082 T01610133 10206 20161 51004
