2024/01/26 17:53
KLAX 261753Z 00000KT 10SM FEW120 SCT180 BKN250 16/09 A3023 RMK AO2 SLP237 T01610094 10161 20100 53012 $
