2023/05/18 11:53
KLAX 181153Z 10004KT 5SM BR FEW007 OVC010 15/13 A2984 RMK AO2 SLP103 T01500128 10156 20144 56009
