2022/12/17 01:53
KLAX 170153Z 24004KT 10SM BKN250 15/09 A3006 RMK AO2 SLP179 T01500089 $
