2022/10/21 13:53
KLAX 211353Z 08006KT 7SM OVC010 19/18 A2991 RMK AO2 SLP125 T01940178 $
