2023/11/04 01:53
KLAX 040153Z 25006KT 4SM BCFG BKN003 16/16 A3002 RMK AO2 SLP164 T01610156
