2025/05/12 01:53
KLAX 120153Z 24007KT 10SM FEW250 19/14 A2983 RMK AO2 SLP099 T01940144
