2025/08/20 09:53
KLAX 200953Z 00000KT 10SM CLR 20/18 A2996 RMK AO2 SLP144 T02000178
