2024/02/14 13:53
KLAX 141353Z 13004KT 10SM FEW015 BKN028 12/10 A3012 RMK AO2 SLP197 T01170100 $
