2023/04/13 15:53
KLAX 131553Z 21006KT 7SM SCT017 OVC029 13/10 A2982 RMK AO2 SLP096 T01330100 $
