2023/10/06 19:53
KLAX 061953Z 26008KT 10SM CLR 26/16 A2989 RMK AO2 SLP118 T02610161
