2024/11/01 11:53
KLAX 011153Z 09003KT 10SM FEW005 FEW016 SCT200 11/08 A2996 RMK AO2 SLP144 T01110083 10156 20111 56010 $
