2023/01/04 13:53
KLAX 041353Z 10008KT 1 1/4SM -RA BR VV003 14/14 A3007 RMK AO2 RAB41 SLP183 VIS W-NW 3/4 CIG 002V004 P0000 T01440139
