2025/06/23 15:53
KLAX 231553Z VRB06KT 8SM FEW015 BKN024 20/13 A2995 RMK AO2 SLP139 T02000133
