2026/06/15 07:29
KLAX 150729Z 25007KT 10SM FEW008 BKN011 18/16 A2999 RMK AO2 T01780156 $
