2025/05/08 19:53
KLAX 081953Z 26011KT 10SM CLR 19/13 A3006 RMK AO2 SLP180 T01890133 $
