2024/06/28 15:53
KLAX 281553Z 12006KT 8SM FEW010 BKN019 21/16 A2984 RMK AO2 SLP104 T02110161
