2022/12/29 15:53
KLAX 291553Z 06005KT 7SM FEW010 SCT025 OVC075 14/11 A3000 RMK AO2 SLP158 T01390111 $
