2025/01/08 07:53
KLAX 080753Z 02016G28KT 10SM FEW008 FEW020 SCT080 17/M02 A3006 RMK AO2 PK WND 01035/0719 SLP177 FU FEW008 FU FEW020 T01721022 402280094
