2023/04/28 07:53
KLAX 280753Z 00000KT 2SM BR SCT002 OVC004 12/11 A2995 RMK AO2 SLP140 VIS SW-N 1 1/2 T01220111 401720122 $
