2024/09/10 13:53
KLAX 101353Z 17003KT 10SM MIFG FEW040 FEW070 20/16 A2983 RMK AO2 SLP099 FU FEW040 FU FEW070 T02000161
