2025/01/09 03:53
KLAX 090353Z 01006KT 10SM FEW005 18/M01 A3009 RMK AO2 SLP186 FU FEW005 LIGHT FU LAYERS T01781006
