2024/06/08 17:53
KLAX 081753Z VRB03KT 10SM SCT011 OVC017 18/14 A2996 RMK AO2 SLP143 T01780144 10183 20161 51011 $
