2025/01/26 23:53
KLAX 262353Z 10010KT 10SM FEW020 FEW060 12/08 A3002 RMK AO2 SLP164 60034 T01220083 10144 20106 56003 $
