2022/10/17 19:53
KLAX 171953Z 25010KT 10SM FEW042 FEW090 SCT120 SCT160 22/15 A3000 RMK AO2 SLP155 T02220150 $
