2025/04/05 07:53
KLAX 050753Z 22004KT 10SM CLR 14/08 A3015 RMK AO2 SLP206 T01390078 401780089
