2026/02/03 15:53
KLAX 031553Z 00000KT 7SM FEW000 SCT009 13/11 A3021 RMK AO2 SLP228 FG FEW000 T01330111 $
