2026/01/10 11:53
KLAX 101153Z 00000KT 10SM CLR 08/M01 A3039 RMK AO2 SLP290 T00831006 10117 20061 58002 $
