2024/09/27 09:53
KLAX 270953Z 19005KT 2SM BR VV003 16/14 A2986 RMK AO2 SLP109 VIS 1V3 T01560144
