2023/10/16 19:53
KLAX 161953Z 25007KT 10SM SCT009 22/18 A2999 RMK AO2 SLP153 T02170178
