2024/09/22 09:53
KLAX 220953Z 27006KT 10SM OVC010 18/16 A2992 RMK AO2 SLP131 T01780156 $
