2026/06/05 10:53
KLAX 051053Z 00000KT 8SM FEW009 OVC011 18/15 A2985 RMK AO2 SLP104 T01780150 $
