2025/01/05 23:53
KLAX 052353Z 26009KT 10SM FEW180 FEW250 18/04 A3008 RMK AO2 SLP186 T01780039 10239 20178 50000
