2024/07/07 21:53
KLAX 072153Z 24009KT 10SM CLR 24/17 A2992 RMK AO2 SLP130 T02390167 $
