2024/11/20 21:53
KLAX 202153Z 28008KT 10SM CLR 20/04 A3014 RMK AO2 SLP205 T02000039 $
