2023/11/10 03:53
KLAX 100353Z 34003KT 10SM FEW250 20/M06 A3001 RMK AO2 SLP162 T02001061
