2025/04/17 13:53
KLAX 171353Z 24007KT 7SM FEW010 SCT025 OVC070 14/10 A2997 RMK AO2 SLP148 T01390100 $
