2026/02/22 05:53
KLAX 220553Z 05005KT 10SM FEW250 13/09 A3020 RMK AO2 SLP227 T01330089 10178 20128 53015 $
