2022/12/25 11:53
KLAX 251153Z 05003KT 10SM CLR 15/02 A3017 RMK AO2 SLP215 T01500017 10194 20133 58003 $
