2026/06/18 12:53
KLAX 181253Z 00000KT 10SM FEW008 SCT016 OVC020 18/14 A2993 RMK AO2 SLP134 T01780139 $
