2023/03/15 17:53
KLAX 151753Z 23005KT 1SM R25L/P6000FT BR OVC004 14/14 A2993 RMK AO2 RAE12 SLP134 VIS NE-E 1 1/2 SW-W 1/2 P0001 60015 T01440139 10150 20144 51011 $
