2022/11/27 03:53
KLAX 270353Z 00000KT 10SM CLR 14/12 A3005 RMK AO2 SLP173 T01440117 $
