2025/09/02 07:53
KLAX 020753Z 24006KT 9SM BKN008 OVC120 21/19 A2992 RMK AO2 SLP131 T02110189 402670200 $
