2026/04/11 21:53
KLAX 112153Z 27014G21KT 10SM FEW022 FEW040 SCT080 19/12 A2998 RMK AO2 SLP153 T01940117 $
