2024/05/15 07:53
KLAX 150753Z 26005KT 10SM FEW009 OVC014 15/12 A2993 RMK AO2 SLP132 T01500117 401890139 $
