2025/12/06 01:53
KLAX 060153Z 27003KT 10SM CLR 16/11 A3004 RMK AO2 SLP173 T01610106 $
