2023/07/02 05:53
KLAX 020553Z 23003KT 7SM OVC006 16/15 A2994 RMK AO2 SLP137 VIS W 1 T01560150 10194 20156 51014 $
