2026/05/21 08:53
KLAX 210853Z 28003KT 10SM FEW250 17/13 A2987 RMK AO2 SLP111 T01670133 50005
