2025/07/10 01:53
KLAX 100153Z 24008KT 10SM FEW250 20/14 A2995 RMK AO2 SLP139 T02000144 $
