2024/08/05 11:53
KLAX 051153Z 27005KT 10SM FEW002 FEW200 18/15 A2987 RMK AO2 SLP112 T01780150 10189 20172 55004 $
