2023/03/17 21:53
KLAX 172153Z 26011KT 10SM FEW025 SCT060 BKN150 16/11 A3000 RMK AO2 SLP157 T01610106
