2025/06/07 15:53
KLAX 071553Z 25005KT 10SM OVC013 16/13 A3000 RMK AO2 SLP158 T01610128
