2024/05/04 05:53
KLAX 040553Z 23007KT 10SM FEW014 14/12 A2990 RMK AO2 SLP123 T01440122 10183 20144 51015
