2024/07/15 03:53
KLAX 150353Z 27010KT 10SM SCT009 18/16 A3001 RMK AO2 SLP161 T01830161
