2025/12/13 09:53
KLAX 130953Z 00000KT 1 3/4SM BR OVC005 13/13 A3004 RMK AO2 SLP169 VIS W 1 T01330128 $
