2023/12/25 15:53
KLAX 251553Z 07003KT 9SM FEW025 SCT160 SCT250 12/08 A3018 RMK AO2 SLP217 T01170083
