2024/01/26 11:53
KLAX 261153Z 06004KT 10SM FEW007 FEW015 SCT200 10/09 A3016 RMK AO2 SLP211 T01000094 10139 20100 58002 $
