2026/06/19 17:53
KLAX 191753Z 28008KT 10SM FEW009 SCT022 BKN032 19/14 A3003 RMK A02 SLP166 T01940139 10194 20167 
