2022/10/07 11:53
KLAX 071153Z 00000KT 6SM HZ FEW009 OVC012 20/17 A3002 RMK AO2 SLP162 T02000172 10206 20200 56010
