2023/02/26 05:53
KLAX 260553Z 03004KT 10SM -RA BKN029 BKN037 BKN044 07/06 A2998 RMK AO2 RAB0457E17B53 SLP152 P0000 60013 T00720056 10078 20067 53016 $
