2023/06/26 03:53
KLAX 260353Z 25012KT 10SM CLR 17/13 A2997 RMK AO2 SLP146 T01670128
