2025/12/07 01:53
KLAX 070153Z 25004KT 10SM CLR 16/11 A3004 RMK AO2 SLP172 T01560111 $
