2023/12/12 17:53
KLAX 121753Z 06005KT 9SM FEW009 FEW040 SCT070 16/10 A2993 RMK AO2 SLP134 T01560100 10156 20100 51012
