2023/01/21 05:53
KLAX 210553Z 03004KT 10SM CLR 11/07 A3027 RMK AO2 SLP249 T01110072 10139 20106 51008
