2022/12/19 05:53
KLAX 190553Z 00000KT 10SM CLR 12/06 A3012 RMK AO2 SLP198 T01170061 10150 20111 53025 $
