2022/11/21 09:53
KLAX 210953Z 03007KT 10SM CLR 16/M09 A3011 RMK AO2 SLP195 T01561094 $
