2023/04/14 11:53
KLAX 141153Z 26004KT 9SM FEW009 BKN016 OVC022 12/09 A2988 RMK AO2 SLP115 70006 T01220094 10128 20122 56003 $
