2024/02/22 13:53
KLAX 221353Z 08004KT 10SM FEW008 FEW015 SCT160 SCT250 11/10 A3019 RMK AO2 SLP221 T01110100 $
