2024/02/20 23:53
KLAX 202353Z 11006KT 10SM FEW045 OVC050 14/12 A3009 RMK AO2 RAB03E14 SLP189 P0000 60039 T01440122 10150 20139 55006 $
