2025/05/31 15:53
KLAX 311553Z 13003KT 1 1/2SM BR SCT003 OVC006 18/16 A3000 RMK AO2 SLP157 VIS S-NW 1/2 T01780161 $
