2026/07/19 13:53
KLAX 191353Z VRB03KT 10SM BKN013 BKN220 21/18 A2997 RMK AO2 SLP146 T02110178 $
