2025/12/15 07:53
KLAX 150753Z 00000KT 10SM BKN009 16/13 A3011 RMK AO2 SLP194 T01560133 401720144
