2026/01/07 03:53
KLAX 070353Z 00000KT 10SM FEW070 SCT180 BKN210 15/11 A3001 RMK AO2 SLP162 T01500111 $
