2025/09/11 17:53
KLAX 111753Z 25012KT 10SM FEW009 SCT024 BKN036 22/16 A2999 RMK AO2 SLP153 T02170161 10222 20189 51013 $
