2024/06/28 07:53
KLAX 280753Z 23004KT 10SM FEW015 18/15 A2980 RMK AO2 SLP087 T01780150 402440178
