2024/08/02 19:53
KLAX 021953Z 26010KT 10SM FEW003 FEW110 BKN190 BKN250 22/16 A3003 RMK AO2 SLP168 CB DSNT NE T02170161
