2025/02/25 07:53
KLAX 250753Z 10005KT 10SM CLR 15/11 A3004 RMK AO2 SLP169 T01500111 402060100 $
