2024/07/24 02:10
KLAX 240210Z 27008KT 10SM SCT007 SCT150 19/17 A2992 RMK AO2 T01940172 $
