2025/05/03 13:53
KLAX 031353Z 06004KT 9SM OVC013 15/12 A2994 RMK AO2 SLP137 T01500117 $
