2024/01/20 21:53
KLAX 202153Z 09009KT 10SM SCT008 BKN015 OVC029 13/13 A2989 RMK AO2 RAE01 SLP119 P0000 T01330128 $
