2025/09/30 15:53
KLAX 301553Z 32004KT 8SM FEW008 BKN016 OVC036 19/16 A3003 RMK AO2 SLP167 T01940156 $
