2025/01/08 11:53
KLAX 081153Z 36008KT 10SM FEW008 SCT022 BKN032 BKN250 17/M02 A3008 RMK AO2 SLP183 FU FEW008 FU SCT022 T01671022 10178 20161 51012
