2024/05/28 15:53
KLAX 281553Z 00000KT 6SM HZ OVC011 15/12 A3005 RMK AO2 SLP176 T01500122
