2026/01/03 05:53
KLAX 030553Z 22003KT 10SM FEW005 SCT070 BKN180 16/15 A3006 RMK AO2 DZE0454RAB0454E06 SLP178 P0001 60005 T01610150 10178 20161 53005
