2022/12/03 11:53
KLAX 031153Z 00000KT 10SM SCT120 12/12 A3006 RMK AO2 SLP177 70010 T01220117 10150 20122 56011
