2022/11/06 05:53
KLAX 060553Z 00000KT 10SM CLR 14/11 A2995 RMK AO2 SLP139 T01390106 10167 20139 50000
