2025/02/08 23:53
KLAX 082353Z 25009KT 10SM FEW010 BKN250 15/08 A3007 RMK AO2 SLP180 T01500083 $
