2026/01/01 07:53
KLAX 010753Z 07007G18KT 5SM BR BKN007 OVC011 14/13 A3001 RMK AO2 SLP159 T01440133 402000139 $
