2023/04/16 05:53
KLAX 160553Z 24006KT 10SM FEW010 13/10 A3013 RMK AO2 SLP200 T01280100 10161 20128 51015
