2024/01/30 13:53
KLAX 301353Z 07003KT 10SM FEW009 FEW220 11/06 A3006 RMK AO2 SLP177 T01110056 $
