2023/10/07 15:53
KLAX 071553Z 16005KT 5SM BR SCT003 SCT150 18/17 A2990 RMK AO2 SLP124 T01830172
