2024/05/08 03:53
KLAX 080353Z 27004KT 10SM CLR 16/08 A2986 RMK AO2 SLP110 T01560083 $
