2023/02/04 05:53
KLAX 040553Z 22005KT 10SM CLR 14/07 A3016 RMK AO2 SLP212 T01440067 10161 20133 53002 $
