2025/08/26 00:53
KLAX 260053Z 24009KT 10SM SCT009 SCT120 BKN220 BKN300 22/18 A2986 RMK AO2 SLP111 TCU DSNT NE CB DSNT E T02220183 $
