2023/09/09 05:53
KLAX 090553Z 32004KT 10SM SCT200 21/19 A3001 RMK AO2 SLP159 T02060189 10244 20206 50008
