2025/06/18 13:53
KLAX 181353Z 12005KT 8SM FEW010 18/16 A2983 RMK AO2 SLP098 T01830156 $
