2024/04/16 17:53
KLAX 161753Z 27005KT 10SM CLR 21/12 A3006 RMK AO2 SLP178 T02060122 10206 20106 51001
