2024/07/31 03:53
KLAX 310353Z 27010KT 10SM CLR 18/16 A2991 RMK AO2 SLP126 T01780156 $
