2026/03/07 11:53
KLAX 071153Z 04009KT 10SM CLR 18/M07 A3000 RMK AO2 SLP155 T01781072 10183 20139 56008 $
