2023/07/19 09:53
KLAX 190953Z 26006KT 10SM FEW004 FEW008 19/17 A2995 RMK AO2 SLP140 T01890172 $
