2024/03/02 17:53
KLAX 021753Z 24015KT 10SM SCT013 BKN028 OVC048 15/12 A3004 RMK AO2 RAE04B22E48 SLP170 P0001 60009 T01500117 10150 20128 51012 $
