2024/11/07 03:53
KLAX 070353Z 21004KT 10SM FEW100 18/M12 A2999 RMK AO2 SLP156 FU FEW100 T01781122 $
