2022/09/06 09:53
KLAX 060953Z 00000KT 10SM CLR 23/21 A2979 RMK AO2 SLP082 T02330206 $
