2025/01/10 13:53
KLAX 101353Z 00000KT 10SM FEW010 FEW050 09/00 A3029 RMK AO2 SLP256 FU FEW010 FU FEW050 T00890000 VISNO RWY24 $
