2024/01/24 21:53
KLAX 242153Z 23007KT 8SM FEW030 SCT040 SCT090 OVC130 16/12 A3011 RMK AO2 SLP196 T01610117
