2025/10/15 05:53
KLAX 150553Z 05006KT 5SM RA FEW012 OVC040 15/12 A2998 RMK AO2 RAB18 SLP151 P0002 60002 T01500122 10172 20150 52009 $
