2022/09/19 07:53
KLAX 190753Z 25007KT 10SM FEW018 FEW220 19/15 A2985 RMK AO2 SLP105 T01940150 402330194
