2024/06/01 19:53
KLAX 011953Z 25007KT 230V300 10SM OVC023 18/13 A2994 RMK AO2 SLP138 T01780128
