2023/12/20 03:53
KLAX 200353Z 12006KT 6SM -RA BR BKN005 BKN011 OVC029 15/15 A2989 RMK AO2 RAB0258 SLP119 P0008 T01500150
