2025/05/27 11:53
KLAX 271153Z 00000KT 10SM FEW016 OVC020 17/12 A2996 RMK AO2 SLP143 T01720122 10172 20161 55003 $
