2026/02/24 21:53
KLAX 242153Z 24010KT 10SM SCT090 BKN140 BKN200 BKN250 19/12 A3002 RMK AO2 SLP164 T01890117
