2023/09/25 17:53
KLAX 251753Z 14003KT 7SM FEW010 SCT017 SCT150 21/16 A3007 RMK AO2 SLP181 T02110156 10211 20150 50007
