2024/04/19 07:53
KLAX 190753Z VRB04KT 10SM FEW009 OVC014 14/11 A2999 RMK AO2 SLP154 T01390111 402060117 $
