2026/05/29 19:53
KLAX 291953Z 27016G23KT 10SM FEW035 FEW070 SCT160 19/11 A3003 RMK AO2 SLP168 T01940111 $
