2024/09/10 17:53
KLAX 101753Z 21008KT 10SM FEW080 23/17 A2988 RMK AO2 SLP116 FU FEW080 T02330167 10239 20194 51011
