2025/10/04 17:53
KLAX 041753Z VRB04KT 10SM BKN030 22/13 A2994 RMK AO2 SLP137 T02220128 10222 20156 50003 $
