2024/05/11 21:53
KLAX 112153Z 25010KT 10SM OVC011 16/12 A2993 RMK AO2 SLP133 T01560122 $
