2024/04/28 11:53
KLAX 281153Z 09003KT 10SM CLR 12/10 A2999 RMK AO2 SLP154 T01170100 10144 20117 56007
