2024/05/08 09:53
KLAX 080953Z 10005KT 10SM FEW012 14/12 A2985 RMK AO2 SLP106 T01390117 $
