2024/07/22 19:53
KLAX 221953Z 26009KT 10SM FEW025 FEW050 SCT090 24/16 A2987 RMK AO2 SLP112 T02440161 $
