2023/01/26 21:53
KLAX 262153Z 25010KT 10SM FEW200 FEW250 19/00 A3029 RMK AO2 SLP257 T01940000 $
