2022/12/25 03:53
KLAX 250353Z 10003KT 10SM CLR 15/12 A3019 RMK AO2 SLP223 T01500117 $
