2023/01/11 19:53
KLAX 111953Z 07003KT 10SM FEW025 FEW045 SCT140 BKN270 15/09 A3025 RMK AO2 SLP242 T01500089 $
