2025/01/24 05:53
KLAX 240553Z 00000KT 10SM CLR 17/M02 A3022 RMK AO2 SLP230 T01721017 10239 20172 55001
