2023/05/28 07:53
KLAX 280753Z 27007KT 10SM BKN020 16/12 A2995 RMK AO2 SLP142 T01610122 401940144
