2023/07/05 21:53
KLAX 052153Z 26015KT 10SM FEW010 21/14 A2994 RMK AO2 SLP138 T02060139 $
