2024/07/18 21:53
KLAX 182153Z 27011KT 9SM FEW007 BKN010 BKN100 BKN170 22/17 A2997 RMK AO2 SLP148 T02170172
