2024/08/16 19:53
KLAX 161953Z 28010KT 10SM FEW220 26/19 A2990 RMK AO2 SLP122 T02610189 $
