2026/03/11 17:53
KLAX 111753Z 25008KT 10SM CLR 18/11 A3026 RMK AO2 SLP247 T01830111 10183 20117 51008 $
