2023/05/11 21:53
KLAX 112153Z 25013KT 10SM FEW020 FEW035 18/12 A2998 RMK AO2 SLP152 T01830117
