2025/09/21 13:53
KLAX 211353Z 00000KT 3SM BR OVC005 18/18 A2993 RMK AO2 SLP134 VIS SW-W 2 T01830178
