2025/06/27 13:53
KLAX 271353Z VRB03KT 4SM HZ FEW007 OVC013 18/15 A2993 RMK AO2 SLP132 VIS NW 2 1/2 T01830150 $
