2025/08/22 03:53
KLAX 220353Z 20005KT 10SM FEW150 FEW250 23/18 A2982 RMK AO2 SLP094 T02280183
