2025/11/25 15:53
KLAX 251553Z 12003KT 10SM FEW006 14/09 A3009 RMK AO2 SLP189 T01440094
