2024/07/21 11:53
KLAX 211153Z 28004KT 9SM FEW007 FEW160 18/17 A2987 RMK AO2 SLP112 T01830167 10194 20183 56006 $
