2025/12/12 19:53
KLAX 121953Z 26007KT 6SM HZ FEW008 FEW250 19/14 A3001 RMK AO2 SLP160 T01890139 $
