2024/11/13 05:53
KLAX 130553Z 09005KT 10SM CLR 15/08 A3007 RMK AO2 SLP181 T01500078 10178 20144 51011
