2024/07/25 11:53
KLAX 251153Z 24004KT 3/4SM R25L/P6000FT BR BKN002 18/17 A3003 RMK AO2 SLP168 VIS 1/4V1 T01780172 10200 20178 55008 $
