2023/07/25 07:53
KLAX 250753Z 24003KT 9SM FEW002 SCT008 18/17 A2999 RMK AO2 SLP151 T01830172 402330183 $
