2022/12/14 23:53
KLAX 142353Z 26011KT 10SM FEW250 14/07 A3015 RMK AO2 SLP210 T01390067 10150 20128 55000
