2026/05/09 02:53
KLAX 090253Z 27008KT 10SM SCT008 OVC010 16/13 A2994 RMK AO2 SLP137 T01560133 53002
