2026/05/18 08:53
KLAX 180853Z 08005KT 10SM SCT020 BKN050 BKN250 16/12 A2981 RMK AO2 SLP093 T01560122 51007
