2023/02/25 11:53
KLAX 251153Z 10008KT 6SM RA BR SCT007 BKN029 OVC039 08/08 A2984 RMK AO2 SLP102 P0013 60104 70246 T00830078 10133 20083 58006 $
