2024/01/28 01:53
KLAX 280153Z 24005KT 10SM FEW220 SCT270 BKN300 18/06 A3013 RMK AO2 SLP200 T01830056 $
