2023/11/11 11:53
KLAX 111153Z 09004KT 10SM CLR 12/M02 A3003 RMK AO2 SLP167 T01171017 10161 20111 55000
