2026/03/25 05:53
KLAX 250553Z 26004KT 10SM OVC008 17/14 A3001 RMK AO2 SLP161 T01670144 10194 20161 53012
