2026/02/23 03:53
KLAX 230353Z 26006KT 10SM CLR 14/10 A3017 RMK AO2 SLP215 T01440100 $
