2025/12/08 15:53
KLAX 081553Z 00000KT 9SM CLR 14/10 A3016 RMK AO2 SLP210 T01390100 $
