2024/04/22 19:53
KLAX 221953Z 26007KT 3SM BR SCT009 OVC011 16/13 A2992 RMK AO2 SLP131 VIS SW-NW 1 T01560133
