2026/06/10 10:53
KLAX 101053Z 13004KT 10SM FEW011 18/16 A2983 RMK AO2 SLP098 T01780156
