2024/06/03 05:53
KLAX 030553Z 24005KT 10SM CLR 15/13 A2993 RMK AO2 SLP134 T01500128 10183 20150 51009
