2022/12/28 16:00
KLAX 281600Z 07005KT 3/4SM R25L/0300VP6000FT BR FEW000 BKN002 BKN008 12/12 A2993 RMK AO2 VIS 1/2V2 FG FEW000 T01170117
