2025/07/03 19:53
KLAX 031953Z 24013KT 10SM CLR 22/14 A2993 RMK AO2 SLP134 T02220144 $
