2026/03/25 17:53
KLAX 251753Z 26008KT 6SM HZ SCT012 19/14 A3002 RMK AO2 SLP164 SCT V BKN T01890144 10189 20167 51004
