2024/06/11 17:53
KLAX 111753Z 24007KT 6SM HZ OVC011 17/14 A2993 RMK AO2 SLP135 T01720144 10172 20144 53007
