2023/12/22 21:53
KLAX 222153Z 03005KT 10SM FEW010 SCT032 SCT046 BKN130 20/09 A2987 RMK AO2 SLP114 TCU DSNT N T02000094
