2022/12/26 19:53
KLAX 261953Z 26010KT 10SM FEW045 SCT140 BKN180 BKN250 22/06 A3008 RMK AO2 SLP185 T02170061 $
