2024/01/26 21:53
KLAX 262153Z 23004KT 10SM FEW140 SCT250 21/06 A3017 RMK AO2 SLP218 T02060061 $
