2025/10/03 04:53
KLAX 030453Z 26009KT 10SM FEW007 19/18 A2999 RMK AO2 SLP154 T01940178 $
