2024/05/19 07:53
KLAX 190753Z 24008KT 10SM OVC016 15/11 A3003 RMK AO2 SLP168 T01500111 401890139 $
