2023/02/11 03:53
KLAX 110353Z 00000KT 10SM SCT150 BKN250 15/10 A3002 RMK AO2 SLP165 T01500100 $
