2023/04/02 23:53
KLAX 022353Z 25010KT 10SM FEW015 16/11 A3002 RMK AO2 SLP164 T01560106 10167 20150 56017 $
