2026/03/16 19:53
KLAX 161953Z 26009KT 8SM FEW008 SCT160 BKN250 21/14 A2997 RMK AO2 SLP148 FG BANK W T02060144 $
