2025/07/19 05:53
KLAX 190553Z 25004KT 10SM BKN016 BKN100 19/16 A2999 RMK AO2 SLP153 T01940156 10222 20189 50014 $
