2024/02/25 05:53
KLAX 250553Z 00000KT 10SM FEW080 FEW150 14/11 A3005 RMK AO2 SLP173 T01440111 10178 20144 51002 $
