2023/10/06 17:53
KLAX 061753Z 26008KT 10SM CLR 26/17 A2991 RMK AO2 SLP125 T02610167 10289 20167 50001
