2024/03/19 05:53
KLAX 190553Z 26007KT 10SM FEW012 FEW060 SCT250 16/11 A3006 RMK AO2 SLP178 T01560106 10183 20156 51005
