2024/01/23 15:58
KLAX 231558Z 08004KT 1/4SM R25L/1200V3500FT FG BKN000 BKN002 11/11 A2990 RMK AO2 VIS 1/8V1 VIS SW-W 1 FG BKN000 T01110111
