2022/08/25 20:53
KLAX 252053Z 27009KT 10SM FEW110 FEW250 26/19 A2995 RMK AO2 SLP140 CB DSNT E AND SE T02610189 58012 $
