2022/10/26 19:53
KLAX 261953Z 22011G19KT 10SM FEW019 FEW090 SCT160 21/14 A2996 RMK AO2 SLP143 T02110139
