2023/05/11 19:53
KLAX 111953Z 25009KT 9SM FEW019 SCT036 18/12 A3001 RMK AO2 SLP162 T01830117
