2023/12/03 05:53
KLAX 030553Z 00000KT 10SM FEW012 12/10 A3020 
