2026/03/21 17:53
KLAX 211753Z 26007KT 10SM FEW220 SCT300 23/17 A2996 RMK AO2 SLP145 T02280167 10233 20156 51009
