2026/03/09 17:53
KLAX 091753Z 13008KT 10SM SCT027 SCT180 BKN250 19/12 A2994 RMK AO2 SLP137 T01940117 10194 20133 51018 $
