2023/03/23 15:53
KLAX 231553Z VRB03KT 9SM SCT015 BKN024 BKN034 12/09 A3022 RMK AO2 SLP234 T01220089
