2025/07/21 17:53
KLAX 211753Z 12006KT 8SM FEW009 OVC023 21/15 A3000 RMK AO2 SLP158 T02060150 10206 20183 51003 $
