2023/04/29 05:53
KLAX 290553Z 24005KT 1SM R25L/P6000FT BR OVC004 13/12 A3004 RMK AO2 SLP169 VIS NW 3/4 T01280117 10150 20128 51016
