2026/01/28 19:53
KLAX 281953Z 24005KT 10SM FEW140 SCT180 BKN250 20/02 A3021 RMK AO2 SLP231 T02000022
