2025/11/12 07:53
KLAX 120753Z 00000KT 8SM SCT008 BKN200 16/14 A3005 RMK AO2 SLP176 T01610144 401890139 $
