2024/12/27 09:53
KLAX 270953Z 05003KT 10SM FEW003 FEW009 SCT150 BKN250 09/09 A3007 RMK AO2 SLP180 T00940094 $
