2024/07/25 23:53
KLAX 252353Z 26012KT 10SM FEW050 23/17 A2995 RMK AO2 SLP140 T02280172 10244 20217 58019
