2025/05/16 13:53
KLAX 161353Z 14004KT 7SM FEW010 OVC017 16/12 A2996 RMK AO2 SLP144 T01560117 $
