2025/07/20 18:53
KLAX 201853Z 25009KT 10SM OVC019 21/16 A3000 RMK AO2 SLP156 T02060156 $
