2025/09/11 05:53
KLAX 110553Z 25009KT 10SM CLR 21/17 A2993 RMK AO2 SLP131 T02060167 10228 20206 51011 $
