2023/01/27 15:53
KLAX 271553Z 00000KT 10SM CLR 12/M01 A3021 RMK AO2 SLP227 T01171011 $
