2023/01/09 15:53
KLAX 091553Z 09012KT 7SM FEW009 OVC012 12/09 A3014 RMK AO2 RAB10E40 SLP205 P0000 T01170094
