2023/11/20 05:53
KLAX 200553Z VRB04KT 10SM FEW250 17/01 A3004 RMK AO2 SLP169 T01670011 10217 20161 51018
