2025/01/19 06:53
KLAX 190653Z 00000KT 10SM FEW010 12/08 A3025 RMK AO2 SLP241 T01170083
