2023/10/27 07:53
KLAX 270753Z 00000KT 10SM FEW015 FEW200 16/14 A3000 RMK AO2 SLP158 T01610139 402110156
