2023/09/26 05:53
KLAX 260553Z 00000KT 10SM CLR 18/16 A3003 RMK AO2 SLP168 T01780161 10206 20178 51007 $
