2025/09/02 01:53
KLAX 020153Z 25012KT 10SM FEW015 FEW150 SCT200 SCT250 21/18 A2987 RMK AO2 SLP113 T02110183 $
