2024/03/19 03:53
KLAX 190353Z 34006KT 10SM FEW060 FEW250 16/11 A3006 RMK AO2 SLP179 T01610111
