2023/05/02 23:53
KLAX 022353Z 24016KT 10SM FEW020 FEW060 16/09 A2991 RMK AO2 SLP129 T01610089 10178 20156 55005
