2024/04/24 19:53
KLAX 241953Z 25011G19KT 10SM FEW027 FEW045 SCT060 18/11 A3006 RMK AO2 SLP179 T01780106
