2023/12/06 13:53
KLAX 061353Z 07005KT 10SM FEW010 FEW180 13/06 A3006 RMK AO2 SLP178 T01330061
