2024/12/17 05:53
KLAX 170553Z 00000KT 10SM FEW200 FEW250 13/09 A3012 RMK AO2 SLP199 T01330094 10156 20128 50005 $
