2025/06/04 03:53
KLAX 040353Z 26010KT 10SM FEW010 FEW070 17/14 A2991 RMK AO2 SLP126 T01670139 $
