2026/04/11 23:53
KLAX 112353Z 26012G18KT 10SM FEW019 FEW040 SCT070 19/12 A2995 RMK AO2 SLP140 T01890117 10206 20189 58016 $
