2025/11/27 19:53
KLAX 271953Z 00000KT 10SM FEW140 SCT180 BKN250 27/00 A3002 RMK AO2 SLP162 T02670000 $
