2025/08/04 18:53
KLAX 041853Z 26008KT 8SM FEW010 FEW060 SCT250 23/16 A2996 RMK AO2 SLP144 T02280161
