2023/09/25 21:53
KLAX 252153Z 25012KT 10SM FEW250 21/15 A3002 RMK AO2 SLP165 T02110150
