2024/08/30 21:53
KLAX 302153Z 27011KT 10SM FEW014 SCT120 21/16 A3000 RMK AO2 SLP157 T02110156
