2022/08/29 15:53
KLAX 291553Z VRB03KT 8SM FEW009 OVC015 21/17 A2992 RMK AO2 SLP130 T02110167 $
