2023/07/09 19:53
KLAX 091953Z 23009KT 9SM FEW014 21/15 A2995 RMK AO2 SLP139 T02060150
