2023/04/11 15:53
KLAX 111553Z 21004KT 1 1/2SM BR OVC005 13/12 A3004 RMK AO2 SLP169 VIS 1V2 1/2 T01280117
