2024/06/30 05:53
KLAX 300553Z 26003KT 3/4SM R25L/1600VP6000FT BR VV002 14/14 A2991 RMK AO2 SLP127 T01440139 10194 20144 51008
