2023/09/07 11:53
KLAX 071153Z 00000KT 10SM FEW010 18/17 A2992 RMK AO2 SLP130 T01830167 10194 20172 55005
