2024/11/10 19:53
KLAX 101953Z 26007KT 9SM SCT280 21/08 A3000 RMK AO2 SLP160 T02060083
