2023/02/06 07:53
KLAX 060753Z VRB06KT 10SM FEW050 FEW090 13/01 A3016 RMK AO2 SLP212 T01330011 401720100 $
