2025/12/16 21:53
KLAX 162153Z 26005KT 3SM BR FEW000 SCT006 SCT140 16/12 A3002 RMK AO2 SLP165 VIS S-W 2 FG FEW000 T01610122 $
