2023/04/18 15:53
KLAX 181553Z 26007KT 9SM FEW010 BKN022 BKN035 15/11 A3000 RMK AO2 SLP157 T01500111
