2026/01/11 01:53
KLAX 110153Z 00000KT 10SM FEW250 18/M02 A3028 RMK AO2 SLP253 T01781017 $
