2022/10/13 19:53
KLAX 131953Z 23006KT 5SM HZ FEW011 BKN018 21/17 A2999 RMK AO2 SLP153 T02060167
