2025/02/27 02:22
KLAX 270222Z 27007KT 1/2SM R25L/P6000FT FG BKN002 12/12 A2995 RMK AO2 T01220117
