2024/12/14 01:53
KLAX 140153Z 25005KT 10SM FEW027 SCT070 SCT200 13/09 A3018 RMK AO2 SLP221 T01330089
