2023/02/04 11:53
KLAX 041153Z 06003KT 10SM CLR 10/05 A3014 RMK AO2 SLP203 T01000050 10144 20089 58009 $
