2024/08/11 11:53
KLAX 111153Z 00000KT 10SM CLR 19/17 A2990 RMK AO2 SLP123 T01940172 10217 20189 53001 $
