2024/08/07 11:53
KLAX 071153Z 12005KT 9SM FEW006 FEW012 20/18 A2997 RMK AO2 SLP145 T02000183 10217 20200 55002 $
