2023/05/15 13:53
KLAX 151353Z 22005KT 4SM BR FEW008 OVC010 16/14 A3003 RMK AO2 SLP168 T01560139
