2023/09/13 21:53
KLAX 132153Z 24008KT 10SM FEW015 23/16 A2992 RMK AO2 SLP131 T02280161 $
