2023/04/15 01:53
KLAX 150153Z 25009KT 10SM SCT029 BKN045 14/09 A2997 RMK AO2 SLP148 T01390094
