2025/01/12 21:53
KLAX 122153Z 24010KT 10SM CLR 20/01 A3002 RMK AO2 SLP166 T02000006 $
