2025/10/27 03:53
KLAX 270353Z 23004KT 10SM FEW010 17/15 A2999 RMK AO2 SLP154 T01720150 $
