2023/09/16 21:53
KLAX 162153Z 25006KT 10SM SCT013 OVC020 20/17 A2997 RMK AO2 SLP148 T02000167
