2022/09/29 15:53
KLAX 291553Z 22003KT 2SM BR OVC006 21/19 A3000 RMK AO2 SLP156 VIS 1V2 1/2 T02060194
