2024/10/22 07:53
KLAX 220753Z 14003KT 10SM CLR 18/11 A3002 RMK AO2 SLP163 T01780111 402390150 $
