2025/03/15 03:53
KLAX 150353Z 30003KT 10SM FEW010 BKN016 BKN045 10/07 A2997 RMK AO2 SLP148 T01000072 $
