2026/06/06 13:53
KLAX 061353Z 16004KT 10SM SCT012 OVC018 18/14 A2986 RMK AO2 SLP108 T01830139 $
