2023/05/23 07:53
KLAX 230753Z 27003KT 6SM -DZ BR OVC006 15/14 A2996 RMK AO2 DZB20 SLP142 P0000 T01500144 401780150
