2023/05/09 19:53
KLAX 091953Z 26005KT 7SM SCT018 OVC022 17/12 A3002 RMK AO2 SLP165 T01670117
