2023/02/27 01:53
KLAX 270153Z 24005KT 10SM BKN060 11/04 A3016 RMK AO2 RAB14E24 SLP213 P0000 T01060044 $
