2023/07/27 11:53
KLAX 271153Z 00000KT 10SM FEW007 20/18 A2988 RMK AO2 SLP116 T02000178 10211 20200 55006 $
