2023/11/29 07:53
KLAX 290753Z 00000KT 10SM FEW180 13/09 A3006 RMK AO2 SLP178 T01280089 402170117
