2023/04/29 17:53
KLAX 291753Z 25006KT 7SM SCT013 17/12 A3003 RMK AO2 SLP168 T01670122 10172 20122 56003
