2026/04/08 21:53
KLAX 082153Z 24012KT 10SM FEW015 FEW040 21/14 A2990 RMK AO2 SLP125 T02110144 $
