2023/11/14 07:53
KLAX 140753Z 02003KT 10SM FEW003 14/08 A3001 RMK AO2 SLP160 T01440078 402330117
