2024/01/08 15:53
KLAX 081553Z VRB03KT 10SM CLR 09/M04 A3023 RMK AO2 SLP236 T00941044
