2024/11/07 17:53
KLAX 071753Z 25007KT 10SM FEW070 FEW180 21/M09 A3014 RMK AO2 SLP204 T02111094 10211 20094 51015 VISNO RWY24 $
