2024/12/14 17:53
KLAX 141753Z 33003KT 10SM BKN150 15/08 A3024 RMK AO2 SLP240 T01500078 10150 20089 53018
