2024/12/01 13:53
KLAX 011353Z 11003KT 10SM SCT200 13/06 A3009 RMK AO2 SLP188 T01330061 $
