2024/03/15 07:53
KLAX 150753Z 16008KT 10SM FEW060 FEW110 15/00 A2978 RMK AO2 SLP081 T01500000 402110111 $
