2025/04/21 21:53
KLAX 212153Z 24011G17KT 10SM FEW012 FEW080 SCT250 17/11 A2997 RMK AO2 SLP149 T01670106 $
