2025/09/04 03:53
KLAX 040353Z 22007KT 10SM CLR 22/17 A2989 RMK AO2 SLP118 T02220172 
