2023/04/20 19:53
KLAX 201953Z 27013KT 10SM FEW140 SCT180 BKN250 21/05 A3013 RMK AO2 SLP204 T02060050
