2025/05/11 03:53
KLAX 110353Z 24007KT 10SM FEW200 19/14 A2986 RMK AO2 SLP107 T01940144
