2023/01/18 03:53
KLAX 180353Z 33007KT 10SM FEW050 13/01 A2999 RMK AO2 SLP156 T01280006 $
