2023/06/03 17:53
KLAX 031753Z 25008KT 230V290 10SM SCT018 18/13 A2997 RMK AO2 SLP146 T01830133 10189 20144 51006
