2026/03/02 07:53
KLAX 020753Z 24009KT 10SM BKN180 17/13 A2998 RMK AO2 SLP150 T01670133 402560139
