2024/05/29 07:53
KLAX 290753Z 00000KT 8SM OVC007 14/12 A3004 RMK AO2 SLP171 T01440122 401830133 $
