2024/11/04 17:53
KLAX 041753Z 20006KT 10SM CLR 22/M01 A3008 RMK AO2 SLP184 T02221011 10228 20128 51011
