2024/08/11 07:53
KLAX 110753Z 16004KT 10SM CLR 21/16 A2990 RMK AO2 SLP124 T02110161 402670178 $
