2024/08/20 23:53
KLAX 202353Z 26012KT 10SM FEW070 25/17 A2990 RMK AO2 SLP124 T02500167 10278 20250 58010
