2025/05/22 23:53
KLAX 222353Z 24012KT 10SM FEW010 FEW230 SCT270 21/15 A2992 RMK AO2 SLP131 T02060150 10217 20200 55006 $
