2025/06/05 09:53
KLAX 050953Z 27005KT 10SM FEW006 SCT010 OVC014 17/14 A2990 RMK AO2 SLP121 T01670139
