2024/04/16 13:53
KLAX 161353Z 00000KT 9SM MIFG FEW005 SCT250 12/11 A3005 RMK AO2 SLP173 T01170106 $
