2023/09/26 15:53
KLAX 261553Z 00000KT 7SM FEW020 19/15 A3003 RMK AO2 SLP168 T01890150 $
