2023/09/19 21:53
KLAX 192153Z 23012KT 10SM FEW027 23/16 A2989 RMK AO2 SLP122 T02280156
