2024/03/25 07:53
KLAX 250753Z 28011KT 10SM FEW025 FEW150 13/07 A2985 RMK AO2 SLP107 T01280072 401670100 $
