2023/02/20 09:53
KLAX 200953Z 01004KT 10SM FEW150 FEW250 11/05 A3009 RMK AO2 SLP188 T01110050 $
