2025/09/13 13:53
KLAX 131353Z 25005KT 10SM OVC021 19/16 A2992 RMK AO2 SLP128 T01940161 $
