2026/04/21 14:17
KLAX 211417Z 09007KT 10SM FEW017 SCT025 BKN160 14/12 A3002 RMK AO2 T01440122 $
