2024/12/06 13:53
KLAX 061353Z 00000KT 0SM R25L/0800V1000FT FG VV001 09/09 A3007 RMK AO2 SLP181 T00940094 $
