2025/08/05 23:53
KLAX 052353Z 26010KT 7SM FEW250 23/18 A2996 RMK AO2 SLP144 T02330178 10244 20228 56008
