2026/04/02 02:53
KLAX 020253Z 25013KT 10SM FEW015 FEW050 SCT250 17/13 A2997 RMK AO2 SLP149 T01670133 53005 $
