2023/11/24 04:07
KLAX 240407Z 10006KT 10SM FEW019 FEW025 16/13 A2983 RMK AO2 T01560133
