2026/01/12 21:53
KLAX 122153Z 26006KT 10SM FEW140 FEW220 21/01 A3014 RMK AO2 SLP205 T02110006 $
