2022/11/01 02:53
KLAX 010253Z 28006KT 10SM FEW010 BKN150 BKN200 18/17 A2985 RMK AO2 SLP107 T01830167 50004 VISNO RWY24 $
