2025/04/14 11:53
KLAX 141153Z 33003KT 5SM BR OVC007 13/12 A2995 RMK AO2 SLP140 T01330117 10139 20133 58007 $
