2024/10/19 13:53
KLAX 191353Z 00000KT 10SM FEW200 15/03 A3003 RMK AO2 SLP165 T01500033
