2024/05/11 07:53
KLAX 110753Z 21004KT 7SM OVC005 13/12 A2996 RMK AO2 SLP144 T01330122 401720133 $
