2023/03/21 18:01
KLAX 211801Z 23016G22KT 2 1/2SM BR SCT020 BKN029 OVC034 14/11 A2972 RMK AO2 RAE00 VIS 1 1/2V3 P0000 T01390111
