2024/04/04 21:53
KLAX 042153Z 24009KT 10SM FEW020 BKN037 OVC060 14/11 A2991 RMK AO2 SLP127 SHRA S T01390106 $
