2022/11/27 05:53
KLAX 270553Z 00000KT 10SM CLR 14/11 A3006 RMK AO2 SLP177 T01440106 10172 20144 51009 $
