2024/02/29 09:53
KLAX 290953Z 24007KT 10SM FEW008 SCT011 BKN016 13/12 A3010 RMK AO2 SLP191 T01330117 $
