2023/11/18 15:53
KLAX 181553Z 10006KT 10SM FEW014 SCT028 BKN037 17/16 A3004 RMK AO2 SLP172 T01720156 $
