2022/10/06 15:53
KLAX 061553Z VRB04KT 4SM HZ OVC012 21/17 A3003 RMK AO2 SLP169 T02060172
