2025/07/08 07:53
KLAX 080753Z 25006KT 10SM FEW015 17/14 A3004 RMK AO2 SLP168 T01670144 402220167 $
