2026/05/23 11:53
KLAX 231153Z 19005KT 10SM OVC021 17/12 A2991 RMK AO2 SLP127 T01670122 10167 20156 57000
