2023/12/02 23:53
KLAX 022353Z 23008KT 10SM FEW018 SCT250 16/12 A3015 RMK AO2 SLP208 T01610117 10194 20161 51002
