2026/05/27 21:53
KLAX 272153Z 24015G22KT 10SM FEW020 FEW048 18/09 A2985 RMK AO2 SLP108 T01780089 $
