2024/06/17 19:53
KLAX 171953Z 23011G19KT 9SM FEW025 SCT032 22/14 A2976 RMK AO2 SLP076 T02170144
