2024/09/24 11:53
KLAX 241153Z 12003KT 3SM BR FEW004 OVC006 17/16 A2982 RMK AO2 SLP098 VIS SW-N 2 1/2 T01720156 10172 20167 58004 $
