2024/08/24 15:53
KLAX 241553Z VRB03KT 10SM FEW009 SCT020 21/15 A3004 RMK AO2 SLP170 T02060150 $
