2022/11/28 07:53
KLAX 280753Z 08005KT 5SM BR SCT008 BKN015 13/12 A2999 RMK AO2 SLP154 T01330122 401940094 $
