2025/11/14 01:53
KLAX 140153Z 24006KT 10SM FEW015 SCT110 BKN250 18/16 A3000 RMK AO2 SLP157 T01830161
