2024/05/19 19:53
KLAX 191953Z 23011KT 10SM FEW016 SCT024 18/11 A3005 RMK AO2 SLP176 T01830106 $
