2024/10/29 11:53
KLAX 291153Z 27007KT 10SM FEW012 FEW200 15/09 A2988 RMK AO2 SLP118 T01500094 10172 20139 55002
