2024/05/13 19:53
KLAX 131953Z 27009KT 8SM SCT015 BKN021 OVC090 17/13 A2997 RMK AO2 SLP149 T01720128
