2022/12/09 19:53
KLAX 091953Z 00000KT 10SM FEW015 17/06 A3014 RMK AO2 SLP205 T01670056 $
