2023/03/14 23:53
KLAX 142353Z 10010KT 1 1/2SM R25L/4500VP6000FT RA BR BKN009 OVC014 14/13 A2999 RMK AO2 CIG 005V011 SLP154 P0011 60050 T01390128 10150 20139 56017
