2023/07/15 23:53
KLAX 152353Z 25010KT 10SM SCT007 SCT250 20/17 A2984 RMK AO2 SLP102 T02000167 10228 20200 58013
