2025/11/23 07:53
KLAX 230753Z 33005KT 10SM FEW120 19/04 A2996 RMK AO2 SLP144 T01890044 402110094
