2025/04/04 05:53
KLAX 040553Z 00000KT 10SM FEW015 12/08 A3001 RMK AO2 SLP159 60000 T01170083 10156 20117 51021
