2023/08/15 07:53
KLAX 150753Z 25005KT 1SM R25L/P6000FT BR VV003 18/18 A2997 RMK AO2 SLP145 VIS 3/4V2 T01830178 402330183 $
