2023/11/25 03:53
KLAX 250353Z 27007KT 10SM SCT016 SCT050 16/13 A2996 RMK AO2 SLP144 T01610133 $
