2024/04/09 01:53
KLAX 090153Z 26017KT 10SM CLR 18/08 A2993 RMK AO2 SLP134 T01780078 $
