2023/08/13 09:53
KLAX 130953Z 00000KT 9SM SCT010 19/18 A2995 RMK AO2 SLP141 T01940178 $
