2025/01/21 11:53
KLAX 211153Z 08004KT 10SM CLR 07/M09 A3044 RMK AO2 SLP304 T00671094 10150 20067 50007 VISNO RWY24 $
