2023/11/02 13:53
KLAX 021353Z 08004KT 9SM CLR 14/M03 A3004 RMK AO2 SLP172 T01441028 $
