2022/09/28 09:53
KLAX 280953Z VRB03KT 10SM CLR 21/18 A2989 RMK AO2 SLP117 T02110183
