2024/02/06 17:53
KLAX 061753Z 00000KT 10SM -RA SCT007 SCT039 OVC055 12/11 A2970 RMK AO2 RAE14B46 SLP056 P0000 60028 T01170106 10122 20106 51005
