2023/12/09 01:53
KLAX 090153Z 27008KT 10SM CLR 15/09 A3002 RMK AO2 SLP165 T01500094 $
