2026/02/19 21:53
KLAX 192153Z 27021G30KT 7SM SCT021 SCT046 BKN055 13/08 A2986 RMK AO2 PK WND 28034/2111 RAE2054B10E37 SLP112 P0001 T01330083
