2025/10/24 09:53
KLAX 240953Z 05004KT 9SM FEW009 16/14 A2999 RMK AO2 SLP154 T01610144
