2023/01/09 09:53
KLAX 090953Z 08005KT 10SM -RA BKN024 OVC030 14/11 A3013 RMK AO2 RAB39 SLP203 P0000 T01440111 $
