2024/01/29 07:53
KLAX 290753Z 02005KT 10SM SCT250 18/04 A3012 RMK AO2 SLP197 T01830044 402560106 $
