2022/12/19 19:53
KLAX 191953Z 00000KT 10SM FEW090 FEW160 SCT250 17/01 A3023 RMK AO2 SLP236 T01720006 $
