2025/04/13 20:53
KLAX 132053Z 28009G16KT 10SM FEW014 SCT023 18/12 A2996 RMK AO2 SLP146 T01830122 58006 $
