2025/11/02 13:53
KLAX 021353Z 07005KT 2SM BR OVC005 16/14 A3005 RMK AO2 SLP173 T01560139 $
