2025/01/15 07:53
KLAX 150753Z VRB03KT 10SM CLR 12/M06 A3024 RMK AO2 SLP239 T01221061 401890050
