2026/03/13 11:53
KLAX 131153Z 06003KT 10SM FEW250 19/04 A2996 RMK AO2 SLP141 T01890044 10250 20172 56017 $
