2024/05/15 21:53
KLAX 152153Z 24009KT 10SM OVC028 18/12 A2991 RMK AO2 SLP128 T01780117
