2024/12/13 00:17
KLAX 130017Z 26006KT 10SM FEW031 SCT042 14/10 A2998 RMK AO2 T01390100
