2023/11/02 11:53
KLAX 021153Z VRB03KT 10SM CLR 15/M02 A3003 RMK AO2 SLP165 T01501017 10194 20139 53001 $
