2023/09/17 13:53
KLAX 171353Z 33003KT 3SM -DZ BR FEW003 BKN006 OVC010 18/18 A2997 RMK AO2 SLP147 VIS 2 1/2V5 VIS N 2 P0001 T01830178 $
