2024/06/05 21:53
KLAX 052153Z 26009KT 10SM SCT011 SCT095 20/15 A2988 RMK AO2 SLP117 T02000150
