2023/05/16 23:53
KLAX 162353Z 26013KT 10SM BKN012 BKN060 17/13 A2997 RMK AO2 SLP147 T01670128 10189 20156 56021
