2023/06/19 17:53
KLAX 191753Z 24007KT 10SM SCT009 OVC014 17/15 A2998 RMK AO2 SLP152 T01720150 10178 20161 51014
