2023/04/01 05:53
KLAX 010553Z 25008KT 10SM BKN190 13/09 A3016 RMK AO2 SLP211 T01330094 10139 20128 51007 $
