2023/11/18 05:53
KLAX 180553Z 00000KT 10SM -RA SCT015 BKN110 18/15 A3000 RMK AO2 RAB51 SLP156 P0000 60000 T01780150 10183 20167 51008 $
