2022/11/25 21:53
KLAX 252153Z 26010KT 10SM FEW080 SCT140 SCT250 22/M02 A3019 RMK AO2 SLP224 T02171022 $
