2023/02/03 15:53
KLAX 031553Z 09005KT 10SM FEW180 BKN210 OVC280 12/03 A3024 RMK AO2 SLP237 T01170028 $
