2025/05/21 13:53
KLAX 211353Z 12004KT 7SM FEW004 SCT010 17/14 A2991 RMK AO2 SLP125 T01670139 $
