2023/10/13 11:53
KLAX 131153Z 00000KT 10SM FEW008 FEW020 SCT250 16/14 A2982 RMK AO2 SLP094 T01610144 10194 20156 56008
