2024/02/20 13:53
KLAX 201353Z 10008KT 5SM BR SCT004 BKN007 OVC010 13/13 A3009 RMK AO2 RAB28E42 SLP187 P0000 T01330128 $
