2025/08/30 16:53
KLAX 301653Z 26006KT 10SM CLR 25/19 A2995 RMK AO2 SLP141 T02500189 $
