2023/10/13 09:53
KLAX 130953Z 05004KT 10SM FEW012 FEW250 17/14 A2983 RMK AO2 SLP098 T01670139
