2026/01/09 23:53
KLAX 092353Z 24007KT 10SM FEW190 16/00 A3032 RMK AO2 SLP266 T01560000 10172 20139 53007 $
