2024/11/06 13:53
KLAX 061353Z 02005KT 10SM FEW005 FEW200 SCT250 13/11 A2985 RMK AO2 SLP106 T01330111 $
