2025/04/05 23:53
KLAX 052353Z 25015G22KT 10SM SCT250 21/01 A3015 RMK AO2 SLP210 T02060011 10239 20200 56012
