2026/05/04 21:53
KLAX 042153Z 26018KT 10SM SCT020 BKN085 BKN150 19/12 A2999 RMK AO2 SLP154 T01890117
