2023/04/12 19:53
KLAX 121953Z 23003KT 8SM FEW009 OVC014 14/12 A2989 RMK AO2 SLP121 T01440117 $
