2024/11/08 03:53
KLAX 080353Z 25003KT 10SM CLR 16/09 A3013 RMK AO2 SLP200 T01560094 $
