2024/02/29 11:53
KLAX 291153Z 24003KT 10SM FEW008 BKN011 OVC015 13/11 A3010 RMK AO2 SLP190 T01330111 10150 20133 51001 $
