2026/06/05 20:28
KLAX 052028Z 26008KT 10SM FEW010 BKN015 20/15 A2988 RMK AO2 T02000150 $
