2026/03/30 02:53
KLAX 300253Z 27009KT 10SM SCT008 17/14 A2992 RMK AO2 SLP131 T01670144 53003 $
