2023/04/05 05:53
KLAX 050553Z 32006KT 10SM BKN250 13/M03 A3012 RMK AO2 SLP200 T01331028 10144 20111 50010 $
