2024/01/18 09:53
KLAX 180953Z 05005KT 9SM FEW009 SCT020 SCT032 13/12 A3008 RMK AO2 SLP184 T01280117
