2024/08/31 11:53
KLAX 311153Z 00000KT 9SM FEW010 18/16 A2996 RMK AO2 SLP143 T01780161 10183 20178 56004 $
