2024/05/26 03:53
KLAX 260353Z 24007KT 10SM SCT015 SCT031 14/12 A3000 RMK AO2 SLP157 T01440117
