2024/01/14 03:53
KLAX 140353Z 00000KT 10SM FEW200 12/09 A3007 RMK AO2 SLP183 T01220089 $
