2023/10/29 05:53
KLAX 290553Z 13003KT 10SM CLR 16/13 A2996 RMK AO2 SLP143 T01560133 10189 20150 51013
