2026/02/25 17:53
KLAX 251753Z 10003KT 10SM FEW250 SCT280 19/11 A3007 RMK AO2 SLP181 T01940106 10194 20117 51012
