2023/02/07 07:53
KLAX 070753Z 11005KT 10SM CLR 13/M01 A3021 RMK AO2 SLP227 T01281006 402170117 $
