2024/09/14 15:53
KLAX 141553Z 31005KT 10SM BKN015 OVC020 20/15 A2990 RMK AO2 DZE12 SLP124 P0000 T02000150
