2024/01/02 13:53
KLAX 021353Z 06003KT 10SM FEW220 10/04 A3021 RMK AO2 SLP226 T01000044 $
