2023/06/30 17:53
KLAX 301753Z 23005KT 5SM HZ FEW006 BKN010 18/15 A2993 RMK AO2 SLP132 T01830150 10183 20150 58001 $
