2023/02/02 03:53
KLAX 020353Z 11004KT 10SM CLR 13/06 A3019 RMK AO2 SLP221 T01280061 $
