2025/01/17 01:53
KLAX 170153Z 23007KT 10SM FEW200 13/07 A3012 RMK AO2 SLP200 T01330067 $
