2024/08/09 15:53
KLAX 091553Z 00000KT 4SM HZ SCT011 21/17 A2991 RMK AO2 SLP127 T02060167 $
