2025/08/19 13:53
KLAX 191353Z 08004KT 4SM BR FEW002 OVC007 19/18 A3002 RMK AO2 SLP162 VIS SE-S 2 1/2 T01890178 $
