2025/10/06 15:53
KLAX 061553Z 07004KT 7SM FEW009 OVC017 19/14 A2985 RMK AO2 SLP105 T01890144 $
