2026/01/19 07:53
KLAX 190753Z 08005KT 10SM FEW220 14/07 A3004 RMK AO2 SLP169 T01440072 402560122
