2025/03/05 03:53
KLAX 050353Z 25011KT 10SM FEW009 FEW170 SCT230 BKN260 12/11 A3009 RMK AO2 SLP190 T01220106 $
