2022/12/09 21:53
KLAX 092153Z 26011KT 10SM FEW020 FEW280 16/07 A3011 RMK AO2 SLP197 T01560072 $
