2024/04/22 23:53
KLAX 222353Z 26010KT 6SM BR BKN008 OVC013 15/13 A2990 RMK AO2 SLP123 VIS W-NW 2 1/2 T01500128 10161 20144 55006
