2025/04/15 21:53
KLAX 152153Z 26009KT 10SM FEW038 BKN250 16/07 A3005 RMK AO2 SLP176 T01610072
