2025/11/27 07:53
KLAX 270753Z 01006KT 10SM SCT250 21/02 A3006 RMK AO2 SLP176 T02060017 402780139 $
