2023/09/01 05:53
KLAX 010553Z 33005KT 9SM FEW008 SCT011 BKN150 21/18 A2981 RMK AO2 SLP092 T02060183 10233 20200 50006 $
