2023/03/14 07:53
KLAX 140753Z 15003KT 3SM BR FEW001 SCT003 OVC005 13/12 A3009 RMK AO2 SLP188 VIS SW-NW 2 T01280117 401670122 $
