2025/01/09 21:53
KLAX 092153Z 26007KT 10SM FEW045 SCT070 18/05 A3006 RMK AO2 SLP179 FU FEW045 FU SCT070 T01780050
