2025/01/02 19:53
KLAX 021953Z 00000KT 9SM FEW009 FEW180 22/04 A3006 RMK AO2 SLP180 T02170039
