2022/10/10 02:53
KLAX 100253Z 27014KT 10SM SCT011 BKN040 19/17 A2998 RMK AO2 SLP148 T01890167 50004 $
