2026/01/18 01:53
KLAX 180153Z 00000KT 10SM SCT200 SCT250 20/06 A3006 RMK AO2 SLP180 T02000061 $
