2025/06/09 05:53
KLAX 090553Z 25007KT 10SM BKN008 16/14 A2994 RMK AO2 SLP137 T01560139 10183 20156 52004 $
