2022/09/30 23:53
KLAX 302353Z 26009KT 10SM FEW012 22/16 A2981 RMK AO2 SLP093 T02220161 10244 20217 56014
