2024/01/14 21:53
KLAX 142153Z 23005KT 10SM FEW026 SCT220 SCT280 15/09 A3002 RMK AO2 SLP164 CCSL DSNT N-NE T01500094 $
