2024/01/13 21:53
KLAX 132153Z 26010KT 10SM SCT220 15/06 A3006 RMK AO2 SLP179 T01500056 $
