2024/06/11 05:53
KLAX 110553Z 27008KT 5SM BR FEW003 OVC005 15/13 A2993 RMK AO2 SLP133 T01500133 10194 20144 51010
