2026/04/14 11:53
KLAX 141153Z 06005KT 10SM FEW015 13/09 A3007 RMK AO2 SLP182 T01280089 10150 20117 55002 $
