2025/06/26 07:53
KLAX 260753Z 30005KT 8SM FEW004 OVC006 17/15 A2995 RMK AO2 SLP140 T01670150 402220167
