2024/05/01 07:53
KLAX 010753Z 12006KT 10SM FEW008 BKN015 16/13 A2988 RMK AO2 SLP117 T01560128 402060128 $
