2023/12/19 19:53
KLAX 191953Z 26003KT 9SM SCT039 SCT050 BKN060 19/12 A2990 RMK AO2 SLP124 T01890122
