2025/07/07 19:53
KLAX 071953Z 25010KT 9SM FEW027 21/14 A2999 RMK AO2 SLP154 T02110139 $
