2025/09/09 01:53
KLAX 090153Z 24009G17KT 10SM FEW007 22/18 A2995 RMK AO2 SLP139 T02220178 $
