2026/06/19 00:53
KLAX 190053Z 28012KT 10SM SCT012 19/14 A2995 RMK AO2 SLP140 T01890144 $
