2023/10/22 19:53
KLAX 221953Z 25010KT 10SM FEW024 22/14 A2982 RMK AO2 SLP096 T02170144 $
