2024/04/28 09:53
KLAX 280953Z 34004KT 10SM CLR 14/11 A3000 RMK AO2 SLP158 T01390106
