2024/12/27 13:53
KLAX 271353Z 10005KT 1/2SM R25L/P6000FT FG VV002 11/11 A3004 RMK AO2 SLP172 VIS 1/4V1 1/2 T01110111 $
