2024/07/14 21:53
KLAX 142153Z 25012KT 10SM FEW010 FEW065 SCT100 22/17 A3002 RMK AO2 SLP164 T02220172
