2025/08/14 15:53
KLAX 141553Z 25004KT 4SM HZ FEW009 BKN013 20/17 A2994 RMK AO2 SLP138 T02000172 $
