2024/05/08 17:53
KLAX 081753Z 25007KT 10SM FEW025 SCT032 18/12 A2989 RMK AO2 SLP120 T01830122 10194 20128 51006 $
