2025/01/28 21:53
KLAX 282153Z 24010KT 10SM FEW021 FEW030 SCT160 14/09 A3002 RMK AO2 SLP165 T01440089
