2023/11/15 11:53
KLAX 151153Z 24005KT 10SM FEW018 BKN100 BKN200 15/06 A2995 RMK AO2 SLP139 T01500056 10167 20133 53005
