2022/11/06 21:53
KLAX 062153Z 26009KT 10SM FEW022 19/12 A2988 RMK AO2 SLP119 T01890122
