2025/06/29 15:53
KLAX 291553Z 27007KT 8SM SCT008 19/15 A2999 RMK AO2 SLP153 T01890150
