2023/04/22 01:53
KLAX 220153Z 25010KT 10SM CLR 21/06 A2997 RMK AO2 SLP148 T02110061
