2023/06/21 21:53
KLAX 212153Z 26014KT 10SM FEW150 22/12 A2997 RMK AO2 SLP146 T02170122
