2024/12/13 03:53
KLAX 130353Z VRB04KT 10SM FEW250 13/10 A3002 RMK AO2 SLP166 T01330100
