2023/06/09 13:53
KLAX 091353Z VRB04KT 10SM FEW009 BKN014 BKN023 16/13 A3001 RMK AO2 SLP162 T01610133
