2024/03/09 15:53
KLAX 091553Z 00000KT 10SM SCT250 12/07 A3014 RMK AO2 SLP205 T01220072 $
