2022/09/26 19:53
KLAX 261953Z 26009KT 10SM FEW045 FEW140 26/17 A2991 RMK AO2 SLP125 T02560172
