2026/04/10 21:53
KLAX 102153Z 25011KT 10SM FEW015 SCT045 BKN100 BKN240 19/13 A2996 RMK AO2 SLP144 T01890128
