2024/02/15 21:53
KLAX 152153Z 28014KT 10SM FEW010 FEW140 SCT160 BKN250 16/12 A3012 RMK AO2 SLP199 T01560117
