2023/01/14 01:53
KLAX 140153Z 28006KT 10SM SCT100 BKN140 14/10 A3009 RMK AO2 SLP188 T01390100
