2023/10/31 23:53
KLAX 312353Z 27009KT 10SM FEW250 26/M11 A2999 RMK AO2 SLP153 T02561106 10283 20244 56006 $
