2024/12/15 17:53
KLAX 151753Z VRB03KT 9SM FEW018 FEW022 SCT230 14/08 A3022 RMK AO2 SLP231 T01440083 10144 20089 51012 $
