2025/02/10 21:53
KLAX 102153Z 26010KT 10SM BKN037 16/09 A3001 RMK AO2 SLP160 T01610094
