2025/10/28 19:53
KLAX 281953Z 25009KT 10SM CLR 26/14 A2996 RMK AO2 SLP145 T02610139 $
