2023/11/23 05:53
KLAX 230553Z 08004KT 10SM FEW150 SCT200 BKN250 17/08 A2994 RMK AO2 SLP136 T01720083 10222 20172 58005
