2023/07/07 21:53
KLAX 072153Z 25014KT 10SM FEW011 21/14 A2985 RMK AO2 SLP108 T02060139
