2023/12/26 17:53
KLAX 261753Z VRB03KT 9SM FEW011 SCT032 BKN180 BKN250 16/09 A3018 RMK AO2 SLP218 T01610094 10161 20111 53013
