2023/10/04 05:53
KLAX 040553Z VRB05KT 10SM FEW014 18/14 A2990 RMK AO2 SLP121 T01830144 10211 20183 53006
