2026/01/20 09:53
KLAX 200953Z 10003KT 10SM FEW250 13/10 A3004 RMK AO2 SLP169 T01330100 $
