2026/03/22 09:53
KLAX 220953Z 00000KT 5SM BR OVC008 16/14 A2990 RMK AO2 SLP121 T01610144
