2025/09/21 03:53
KLAX 210353Z 25007KT 9SM BKN008 20/18 A2992 RMK AO2 SLP131 T02000178
