2024/02/12 21:53
KLAX 122153Z 25009KT 10SM CLR 17/03 A3005 RMK AO2 SLP177 T01720033
