2022/10/29 11:53
KLAX 291153Z 00000KT 10SM CLR 13/12 A3010 RMK AO2 SLP190 T01330117 10172 20133 55008 CHINO RWY24 VISNO RWY24 $
