2023/11/02 07:53
KLAX 020753Z 06004KT 10SM FEW250 17/M01 A3002 RMK AO2 SLP162 T01721006 403000150 $
