2023/09/13 05:53
KLAX 130553Z 23006KT 10SM FEW009 19/17 A2994 RMK AO2 SLP137 T01940172 10222 20194 51017 $
