2023/02/18 05:53
KLAX 180553Z 05005KT 10SM SCT250 12/02 A3001 RMK AO2 SLP160 T01170017 10178 20117 53014
