2025/02/22 00:10
KLAX 220010Z 25010KT 8SM SCT003 BKN200 14/13 A3007 RMK AO2 VIS S-W 1 1/2SM T01440128
