2024/07/06 05:53
KLAX 060553Z 15003KT 10SM FEW010 21/17 A2980 RMK AO2 SLP087 T02110172 10222 20194 53012
