2025/01/30 11:53
KLAX 301153Z 06005KT 8SM FEW008 BKN022 OVC030 11/08 A3021 RMK AO2 T01060083 10122 20100 $
