2024/04/21 03:53
KLAX 210353Z 27008KT 10SM FEW012 14/12 A3001 RMK AO2 SLP161 T01390117 $
