2024/08/20 07:53
KLAX 200753Z 17003KT 10SM CLR 20/17 A2993 RMK AO2 SLP132 T02000172 402610183 $
