2025/04/03 21:53
KLAX 032153Z 26015G22KT 10SM FEW025 FEW045 16/09 A2994 RMK AO2 SLP137 T01560089
