2023/09/27 17:53
KLAX 271753Z 19003KT 8SM FEW200 BKN280 23/16 A2991 RMK AO2 SLP127 T02330156 10239 20161 58002 $
