2024/07/19 07:53
KLAX 190753Z VRB03KT 10SM FEW004 BKN009 18/16 A2999 RMK AO2 SLP153 T01830161 402330172
