2026/05/27 19:53
KLAX 271953Z 24015G24KT 10SM FEW030 FEW044 SCT050 18/10 A2986 RMK AO2 SLP109 T01830100 $
