2023/08/29 11:53
KLAX 291153Z 00000KT 9SM CLR 19/18 A2983 RMK AO2 SLP097 T01940183 10217 20194 58001
