2026/01/07 23:53
KLAX 072353Z 26017KT 10SM FEW015 FEW060 SCT150 17/11 A2990 RMK AO2 SLP125 T01670111 10178 20161 55003 $
