2023/04/26 03:53
KLAX 260353Z 25007KT 10SM CLR 15/12 A2994 RMK AO2 SLP137 T01500117 $
