2023/07/11 03:53
KLAX 110353Z 23007KT 10SM CLR 17/15 A2989 RMK AO2 SLP120 T01720150
