2024/09/16 03:53
KLAX 160353Z 26010KT 10SM FEW013 19/14 A2985 RMK AO2 SLP107 T01890144 $
