2022/10/20 09:53
KLAX 200953Z 08003KT 10SM FEW200 BKN250 22/13 A2995 RMK AO2 SLP137 T02170128 $
