2024/07/02 19:53
KLAX 021953Z 27009KT 10SM CLR 22/16 A2986 RMK AO2 SLP110 T02220156
