2026/01/27 21:53
KLAX 272153Z 26011KT 10SM FEW180 SCT250 19/05 A3020 RMK AO2 SLP227 T01940050 $
