2023/11/05 17:53
KLAX 051753Z 00000KT 5SM HZ FEW009 FEW140 SCT250 20/12 A3000 RMK AO2 SLP157 T02000122 10200 20117 50003
