2025/04/30 09:53
KLAX 300953Z VRB03KT 8SM OVC012 14/12 A3001 RMK AO2 SLP160 T01440117 $
