2024/12/16 15:53
KLAX 161553Z 13003KT 10SM SCT220 SCT280 11/02 A3013 RMK AO2 SLP203 T01110017 $
