2026/05/19 14:53
KLAX 191453Z 00000KT 5SM HZ FEW014 FEW240 18/14 A2997 RMK AO2 SLP149 FU FEW014 T01780139 53016
