2025/06/05 11:53
KLAX 051153Z 26006KT 10SM FEW007 SCT010 OVC015 17/14 A2990 RMK AO2 SLP122 T01670139 10172 20161 55002
