2023/01/12 11:53
KLAX 121153Z 01007KT 10SM FEW220 12/06 A3018 RMK AO2 SLP218 T01220061 10133 20106 56006 $
