2023/05/02 05:53
KLAX 020553Z 22014KT 10SM FEW012 SCT024 13/09 A2987 RMK AO2 SLP114 T01330094 10167 20133 51013
