2026/04/05 03:53
KLAX 050353Z 25009KT 10SM SCT240 20/10 A2997 RMK AO2 SLP145 T02000100 $
