2025/05/31 03:53
KLAX 310353Z 24009KT 10SM OVC010 18/16 A2995 RMK AO2 SLP138 T01830156 $
