2024/12/26 09:53
KLAX 260953Z 00000KT 10SM FEW200 11/07 A3006 RMK AO2 SLP178 T01060072
