2024/06/13 11:53
KLAX 131153Z 27005KT 9SM OVC008 16/13 A2995 RMK AO2 SLP141 T01560133 10161 20156 53004
