2023/06/06 09:53
KLAX 060953Z 09004KT 10SM FEW011 FEW020 BKN044 15/09 A2989 RMK AO2 SLP120 T01500094
