2024/07/19 15:53
KLAX 191553Z 00000KT 3SM HZ SCT005 BKN009 21/17 A3000 RMK AO2 SLP156 T02110172
