2025/09/20 15:53
KLAX 201553Z 21004KT 7SM BKN008 21/18 A2999 RMK AO2 SLP154 T02110183
