2023/09/02 09:53
KLAX 020953Z 12005KT 10SM FEW009 BKN014 OVC022 21/18 A2995 RMK AO2 DZE13 SLP139 P0000 T02060183
