2023/10/17 07:53
KLAX 170753Z 10004KT 10SM FEW004 FEW010 SCT250 17/14 A2992 RMK AO2 SLP130 T01720144 402440150
