2023/08/17 18:32
KLAX 171832Z 26010KT 2SM BCFG BR SCT007 21/17 A2989 RMK AO2 VIS 1/4V3 VIS SW-NW 1/4 T02060172
