2026/05/04 19:53
KLAX 041953Z 25014KT 10SM FEW035 FEW050 SCT160 BKN250 19/09 A3000 RMK AO2 SLP158 T01940089
