2025/01/27 21:53
KLAX 272153Z 26008KT 10SM FEW025 FEW060 SCT160 SCT250 14/07 A3008 RMK AO2 SLP187 T01390067
