2024/01/02 01:53
KLAX 020153Z 27011KT 10SM CLR 15/10 A3010 RMK AO2 SLP193 T01500100
