2025/05/13 19:53
KLAX 131953Z 25012KT 10SM FEW030 SCT040 19/11 A3000 RMK AO2 SLP158 T01890106 $
