2023/10/12 09:53
KLAX 120953Z VRB04KT 10SM CLR 17/13 A2969 RMK AO2 SLP052 T01670133
