2022/08/24 07:53
KLAX 240753Z VRB03KT 10SM FEW003 BKN010 21/17 A2983 RMK AO2 SLP099 T02060172 402440178 $
