2025/02/21 03:53
KLAX 210353Z 15004KT 10SM CLR 16/11 A2995 RMK AO2 SLP142 T01560111
