2025/02/07 04:53
KLAX 070453Z 14007KT 3SM -RA BR BKN005 OVC013 15/14 A3004 RMK AO2 VIS 2 1/2 RWY24 SLP173 P0003 T01500139
