2023/03/07 15:53
KLAX 071553Z 03004KT 10SM FEW100 FEW150 SCT190 11/06 A3016 RMK AO2 SLP211 T01110061 $
