2023/12/20 09:53
KLAX 200953Z 09007KT 7SM -RA SCT008 BKN010 OVC016 16/15 A2986 RMK AO2 RAB50 SLP111 P0000 T01560150
