2024/05/03 11:53
KLAX 031153Z 00000KT 9SM FEW009 OVC016 16/13 A2986 RMK AO2 SLP110 T01560128 10156 20150 55002 $
