2022/10/16 21:53
KLAX 162153Z 25010KT 10SM FEW025 BKN040 22/15 A3002 RMK AO2 SLP163 T02170150 $
