2023/09/11 15:53
KLAX 111553Z 24006KT 9SM FEW090 SCT160 SCT230 BKN280 22/19 A2993 RMK AO2 SLP134 T02170194 VISNO RWY24 $
