2024/01/13 15:53
KLAX 131553Z 08004KT 10SM FEW250 08/01 A3010 RMK AO2 SLP193 T00830011 $
