2026/04/01 08:24
KLAX 010824Z 29005KT 8SM -RA FEW008 SCT020 OVC060 17/16 A2994 RMK AO2 P0002 T01670156 $
