2024/04/25 13:53
KLAX 251353Z 27007KT 10SM SCT016 OVC028 13/11 A3004 RMK AO2 SLP172 T01330106
