2026/03/20 13:53
KLAX 201353Z 00000KT 9SM CLR 18/15 A2996 RMK AO2 SLP144 T01780150
