2025/03/12 07:53
KLAX 120753Z 09004KT 5SM -RA BR FEW020 BKN035 BKN045 OVC150 12/11 A2991 RMK AO2 RAB47 SLP126 P0000 T01220106 401560106 $
