2025/09/01 19:53
KLAX 011953Z 26014KT 10SM FEW022 24/18 A2992 RMK AO2 SLP131 T02440178 $
