2023/07/03 19:53
KLAX 031953Z 26009KT 7SM SCT010 19/15 A2992 RMK AO2 SLP131 T01940150 $
