2023/09/19 19:53
KLAX 191953Z VRB06KT 10SM SCT025 23/16 A2993 RMK AO2 SLP132 T02280156
