2022/11/28 15:53
KLAX 281553Z 10006KT 8SM SCT014 BKN033 14/11 A2997 RMK AO2 SLP146 T01390111 $
