2025/11/11 17:53
KLAX 111753Z 20004KT 4SM BR FEW005 SCT027 BKN140 17/15 A3011 RMK AO2 SLP193 T01670150 10167 20139 50009 $
