2024/05/30 17:53
KLAX 301753Z 27007KT 9SM OVC016 17/13 A2999 RMK AO2 SLP155 T01670128 10178 20150 51005
