2023/01/27 09:53
KLAX 270953Z 07003KT 10SM CLR 10/00 A3027 RMK AO2 SLP248 T01000000 $
