2023/01/28 07:53
KLAX 280753Z 00000KT 10SM FEW030 11/09 A2999 RMK AO2 SLP154 T01110089 401940072 $
