2024/04/30 05:53
KLAX 300553Z 21003KT 10SM CLR 16/12 A2985 RMK AO2 SLP105 T01610117 10189 20150 50005 $
