2022/11/30 17:53
KLAX 301753Z 12007KT 8SM SCT026 BKN032 BKN041 15/09 A3005 RMK AO2 SLP176 T01500094 10150 20100 53008
