2024/07/17 07:53
KLAX 170753Z 26005KT 10SM CLR 19/16 A2994 RMK AO2 SLP136 T01940161 402440178
