2025/09/12 15:53
KLAX 121553Z 00000KT 8SM FEW009 SCT017 OVC025 21/16 A2996 RMK AO2 SLP143 T02060156 $
