2024/12/28 07:53
KLAX 280753Z 12005KT 6SM BR BKN022 14/13 A3010 RMK AO2 SLP190 T01390128 401610094
