2024/11/18 19:53
KLAX 181953Z 13006KT 10SM FEW022 FEW045 SCT180 18/08 A2999 RMK AO2 SLP155 T01780083 $
