2025/09/01 12:53
KLAX 011253Z 25003KT 9SM FEW008 20/19 A2992 RMK AO2 SLP128 T02000189 $
