2023/01/07 15:53
KLAX 071553Z VRB04KT 10SM BKN180 12/04 A3016 RMK AO2 SLP213 T01220039 $
