2026/05/08 13:53
KLAX 081353Z 10004KT 8SM OVC011 17/14 A3001 RMK AO2 SLP161 T01670139
