2023/06/01 23:53
KLAX 012353Z 25009KT 10SM SCT030 OVC040 18/13 A2995 RMK AO2 SLP140 T01780128 10183 20167 52002
