2023/02/01 09:53
KLAX 010953Z 12004KT 10SM CLR 06/02 A3012 RMK AO2 SLP196 T00610017 $
