2023/12/03 07:53
KLAX 030753Z AUTO VRB03KT 9SM CLR 13/11 A3020 RMK AO2 SLP224 T01330106 402170089
