2025/01/11 01:53
KLAX 110153Z 31003KT 10SM FEW023 FEW042 17/04 A3021 RMK AO2 SLP229 FU FEW023 FU FEW042 T01670044
