2022/08/27 09:53
KLAX 270953Z 00000KT 9SM OVC011 21/18 A2990 RMK AO2 SLP122 T02060178 $
