2023/05/05 01:53
KLAX 050153Z 23010KT 200V260 10SM SCT028 BKN036 BKN200 15/09 A2997 RMK AO2 SLP147 T01500094
