2024/02/09 03:53
KLAX 090353Z 27015KT 10SM FEW023 SCT036 BKN065 12/08 A3004 RMK AO2 SLP172 T01220083 $
