2024/09/29 03:18
KLAX 290318Z 27010KT 10SM OVC008 17/14 A2989 RMK AO2 T01670144 $
