2022/08/22 01:53
KLAX 220153Z 25011KT 10SM FEW020 22/17 A2997 RMK AO2 SLP145 T02220172 $
