2023/12/24 21:53
KLAX 242153Z 25009KT 10SM FEW038 SCT270 17/12 A3012 RMK AO2 SLP198 T01720117
