2025/06/14 01:53
KLAX 140153Z 25010KT 10SM BKN011 BKN200 18/15 A2986 RMK AO2 SLP111 T01830150 $
