2024/11/18 15:53
KLAX 181553Z 06003KT 10SM BKN014 BKN160 12/04 A3002 RMK AO2 SLP163 BKN014 V SCT T01220044 $
