2023/03/05 15:53
KLAX 051553Z 09004KT 10SM BKN024 BKN039 OVC050 11/07 A3010 RMK AO2 RAB18E28 SLP190 P0000 T01110072 $
