2022/09/04 15:53
KLAX 041553Z 00000KT 10SM FEW120 SCT170 SCT280 34/17 A2984 RMK AO2 SLP103 T03390167
