2022/11/06 15:53
KLAX 061553Z 06004KT 10SM FEW013 FEW036 15/08 A2994 RMK AO2 SLP138 T01500078
