2023/11/18 11:53
KLAX 181153Z 00000KT 10SM SCT042 BKN055 16/16 A2999 RMK AO2 SLP153 60000 T01610156 10178 20156 56002 $
