2025/04/06 03:53
KLAX 060353Z 23007KT 9SM FEW250 17/05 A3018 RMK AO2 SLP217 T01720050
