2023/02/05 01:53
KLAX 050153Z 24006KT 10SM SCT250 14/10 A3014 RMK AO2 SLP208 T01440100 $
