2025/04/18 19:59
KLAX 181959Z 26010KT 10SM SCT025 BKN036 16/09 A3001 RMK AO2 T01610089 $
