2023/10/03 19:53
KLAX 031953Z 26011KT 10SM FEW250 22/14 A2995 RMK AO2 SLP139 T02220144 $
