2025/07/15 15:53
KLAX 151553Z 12005KT 8SM SCT010 BKN019 19/14 A2997 RMK AO2 SLP148 T01940144
