2025/02/25 21:53
KLAX 252153Z 26009KT 9SM SCT005 17/13 A2991 RMK AO2 SLP129 T01720128 $
