2025/05/03 19:53
KLAX 031953Z 27005KT 6SM BR SCT010 OVC014 15/13 A2996 RMK AO2 SLP144 T01500133 $
