2023/08/22 07:53
KLAX 220753Z 23005KT 10SM FEW007 FEW060 19/18 A2999 RMK AO2 SLP152 T01940178 402440183 $
