2025/06/14 07:53
KLAX 140753Z 24006KT 9SM BKN009 OVC010 17/15 A2988 RMK AO2 SLP117 T01720150 402220172 $
