2025/10/15 23:53
KLAX 152353Z 25013KT 10SM FEW060 18/09 A2997 RMK AO2 SLP149 T01830089 10194 20172 58006 $
