2024/12/22 21:53
KLAX 222153Z 26009KT 10SM SCT180 BKN210 OVC240 16/12 A3007 RMK AO2 SLP182 T01560117
