2024/06/12 11:53
KLAX 121153Z 00000KT 7SM FEW004 FEW008 OVC011 17/14 A2993 RMK AO2 SLP135 T01670144 10172 20161 53005
