2022/09/20 17:53
KLAX 201753Z 24009KT 10SM FEW007 FEW027 SCT160 24/17 A2994 RMK AO2 SLP135 T02440167 10244 20189 53005 $
