2024/12/30 11:53
KLAX 301153Z 04005KT 4SM BR FEW008 SCT011 12/10 A3006 RMK AO2 SLP178 T01170100 10139 20117 58013
