2024/05/21 16:01
KLAX 211601Z 26008KT 10SM FEW009 SCT021 SCT033 16/11 A2998 RMK AO2 T01560106
