2022/08/28 01:53
KLAX 280153Z 27011KT 10SM BKN012 22/18 A2980 RMK AO2 SLP087 T02170178 $
