2022/12/13 07:53
KLAX 130753Z 07004KT 10SM FEW012 FEW042 BKN060 10/06 A2997 RMK AO2 SLP148 T01000056 401390078
