2025/01/15 15:53
KLAX 151553Z 06004KT 10SM CLR 12/M06 A3022 RMK AO2 SLP233 T01171061
