2025/06/04 00:03
KLAX 040003Z 25016KT 10SM SCT010 OVC120 16/14 A2990 RMK AO2 LTG DSNT S RAE2358 P0000 T01610144 $
