2026/02/22 17:53
KLAX 221753Z VRB04KT 10SM FEW170 FEW230 SCT280 19/01 A3024 RMK AO2 SLP239 T01890011 10189 20089 51016 $
