2026/03/16 05:53
KLAX 160553Z 22004KT 10SM FEW006 FEW200 16/14 A2999 RMK AO2 SLP154 T01610144 10189 20156 51012 $
