2023/07/02 17:53
KLAX 021753Z 25005KT 3SM HZ OVC009 19/16 A2993 RMK AO2 SLP135 T01940156 10194 20161 51006 $
