2024/02/29 13:53
KLAX 291353Z 00000KT 10SM FEW008 SCT015 OVC028 14/11 A3013 RMK AO2 SLP203 T01390111 $
