2022/11/12 11:53
KLAX 121153Z 06004KT 10SM CLR 12/M01 A3002 RMK AO2 SLP164 T01171011 10150 20094 58005
