2024/01/14 07:53
KLAX 140753Z VRB03KT 10SM FEW020 FEW250 11/08 A3006 RMK AO2 SLP178 T01110083 401560067 $
