2022/12/08 13:53
KLAX 081353Z 09004KT 10SM FEW008 FEW014 07/04 A3029 RMK AO2 SLP257 T00670044
