2025/02/13 12:07
KLAX 131207Z 10005KT 1 1/2SM RA BR VV003 13/13 A2994 RMK AO2 VIS 1 1/4V2 1/2 P0006 T01280128 $
