2023/11/16 09:53
KLAX 160953Z 08004KT 10SM FEW008 BKN022 BKN038 15/14 A2999 RMK AO2 SLP154 T01500139
