2026/01/31 07:53
KLAX 310753Z 09005KT 10SM CLR 17/02 A3017 RMK AO2 SLP211 T01720017 402830117 $
