2024/06/16 03:53
KLAX 160353Z 23011KT 10SM CLR 19/11 A2976 RMK AO2 SLP076 T01890111
