2025/07/07 04:06
KLAX 070406Z 26010KT 10SM BKN008 18/16 A2992 RMK AO2 T01780156
