2026/06/08 12:53
KLAX 081253Z 11007KT 10SM FEW020 OVC024 18/12 A2985 RMK AO2 SLP105 T01830122 $
