2024/12/31 13:53
KLAX 311353Z 00000KT 3/4SM R25L/P6000FT BR VV002 11/11 A3003 RMK AO2 SLP169 VIS 1/4V1 1/2 T01060106
