2022/09/23 02:53
KLAX 230253Z 25008KT 10SM CLR 22/18 A2988 RMK AO2 SLP115 T02170183 53003
