2025/10/22 11:53
KLAX 221153Z 00000KT 9SM FEW008 BKN010 BKN090 BKN150 17/15 A3001 RMK AO2 SLP160 T01670150 10178 20156 53003
