2022/09/15 23:53
KLAX 152353Z 27014KT 10SM FEW019 24/17 A2990 RMK AO2 SLP123 T02390172 10256 20239 58012 $
