2025/01/05 19:53
KLAX 051953Z VRB03KT 10SM FEW200 SCT270 23/03 A3011 RMK AO2 SLP195 CCSL DSNT NE-E T02330033
