2023/01/12 17:53
KLAX 121753Z 04010KT 10SM FEW150 SCT180 BKN250 18/06 A3022 RMK AO2 SLP234 T01780056 10178 20122 51009 $
