2023/01/05 03:53
KLAX 050353Z 14006KT 10SM OVC028 15/13 A3006 RMK AO2 RAB03E30 SLP178 P0001 T01500128 $
