2026/02/10 07:53
KLAX 100753Z 00000KT 10SM FEW008 OVC200 16/14 A2994 RMK AO2 SLP136 T01610139 402500117 $
