2023/09/26 21:53
KLAX 262153Z 24011KT 10SM CLR 23/15 A2995 RMK AO2 SLP139 T02280150 $
