2025/06/06 17:53
KLAX 061753Z 24005KT 9SM FEW011 OVC014 18/13 A2995 RMK AO2 SLP142 T01780133 10178 20161 50003
