2025/06/20 15:53
KLAX 201553Z 09003KT 8SM SCT012 OVC021 19/14 A2987 RMK AO2 SLP114 T01940139 $
