2023/01/01 19:53
KLAX 011953Z 27023G31KT 10SM SCT027 SCT034 BKN065 16/10 A2976 RMK AO2 PK WND 27031/1952 SLP077 T01560100
