2025/09/24 11:53
KLAX 241153Z 09003KT 7SM FEW004 SCT006 BKN090 BKN200 20/18 A2992 RMK AO2 SLP130 T02000183 10206 20200 56001 $
