2022/12/01 07:53
KLAX 010753Z VRB04KT 10SM FEW024 FEW030 BKN038 14/06 A3000 RMK AO2 SLP156 T01390061 401830094 $
