2023/05/23 03:53
KLAX 230353Z 23006KT 10SM OVC006 16/14 A2992 RMK AO2 SLP129 T01560144
