2023/07/02 02:19
KLAX 020219Z 26009KT 2SM BR OVC006 17/15 A2989 RMK AO2 T01670150 $
