2024/04/25 23:53
KLAX 252353Z 23012KT 10SM FEW019 SCT035 16/10 A3004 RMK AO2 SLP171 T01610100 10183 20150 56019
