2023/07/07 13:53
KLAX 071353Z 00000KT 7SM FEW008 OVC016 17/13 A2988 RMK AO2 SLP117 T01720133 $
