2025/03/09 19:53
KLAX 091953Z 26010KT 10SM CLR 20/08 A3018 RMK AO2 SLP221 T02000078
