2024/09/07 21:53
KLAX 072153Z 27008KT 10SM FEW100 SCT180 30/17 A2976 RMK AO2 SLP074 CB DSNT NE AND SE T03000167
