2024/03/25 19:53
KLAX 251953Z 25010G18KT 10SM FEW070 FEW120 BKN160 17/07 A2994 RMK AO2 SLP137 T01670067
