2026/05/26 16:53
KLAX 261653Z 22010KT 10SM BKN023 BKN043 17/11 A2989 RMK AO2 SLP119 T01720111 $
