2023/11/19 21:53
KLAX 192153Z VRB06G18KT 10SM FEW100 21/10 A3002 RMK AO2 SLP163 T02060100
