2025/02/09 17:53
KLAX 091753Z 22003KT 10SM FEW200 FEW240 BKN300 16/07 A3009 RMK AO2 SLP190 ACSL DSNT NE T01560072 10156 20094 53012
