2022/12/18 17:53
KLAX 181753Z VRB04KT 10SM FEW300 14/M02 A3002 RMK AO2 SLP163 T01441022 10150 20078 51017 $
