2022/09/07 15:53
KLAX 071553Z 00000KT 9SM FEW140 27/21 A2995 RMK AO2 SLP141 T02720206 $
