2026/02/05 11:53
KLAX 051153Z 35007KT 310V010 10SM SCT220 18/M02 A3002 RMK AO2 SLP162 T01781017 10222 20156 58012 $
