2024/02/28 03:53
KLAX 280353Z 26005KT 10SM FEW045 14/11 A2999 RMK AO2 SLP155 T01390111 $
