2023/08/03 01:53
KLAX 030153Z 24012KT 10SM CLR 22/16 A2995 RMK AO2 SLP140 T02170156 $
