2024/05/11 05:53
KLAX 110553Z 28003KT 8SM FEW005 OVC008 14/12 A2996 RMK AO2 SLP146 T01390122 10156 20139 50007 $
