2026/02/03 09:53
KLAX 030953Z 00000KT 6SM BR FEW004 FEW008 14/13 A3018 RMK AO2 SLP217 T01390128 $
