2024/10/05 15:53
KLAX 051553Z 24005KT 1SM R25L/P6000FT BR OVC003 18/17 A2998 RMK AO2 SLP151 T01830167
