2025/07/18 03:53
KLAX 180353Z 26010KT 10SM SCT011 SCT150 19/16 A2993 RMK AO2 SLP134 T01890156 $
