2024/06/30 03:53
KLAX 300353Z 27012KT 1SM R25L/4000VP6000FT BR OVC003 15/14 A2989 RMK AO2 SLP121 T01500144
