2024/10/02 11:53
KLAX 021153Z 25004KT 4SM BR FEW002 BKN004 17/16 A2986 RMK AO2 SLP109 VIS W 2 1/2 T01670161 10178 20167 56006
