2023/08/17 16:53
KLAX 171653Z 24008KT 4SM BR BKN006 20/17 A2989 RMK AO2 SLP118 VIS SW-NW 1 BKN V SCT T02000172
