2024/12/31 11:53
KLAX 311153Z 07003KT 1/16SM R25L/1800V4000FT FG VV001 11/06 A3002 RMK AO2 SLP165 T01060061 10128 20094 50000
