2024/05/31 19:53
KLAX 311953Z 24008KT 7SM SCT017 OVC020 18/13 A2993 RMK AO2 SLP133 T01830133
