2024/07/19 17:53
KLAX 191753Z 24009KT 4SM HZ SCT007 23/18 A3000 RMK AO2 SLP158 T02280178 10233 20178 53002
