2025/01/05 01:53
KLAX 050153Z 23005KT 10SM SCT180 BKN250 14/09 A3008 RMK AO2 SLP186 T01390089
