2024/03/26 03:53
KLAX 260353Z 22007KT 10SM FEW200 SCT250 12/09 A2995 RMK AO2 SLP142 T01220094
