2024/10/24 11:53
KLAX 241153Z 09004KT 9SM FEW002 FEW005 SCT220 16/13 A2994 RMK AO2 SLP137 T01560133 10178 20150 58012 $
