2024/04/26 17:53
KLAX 261753Z 25010KT 10SM FEW019 FEW025 SCT040 17/12 A2996 RMK AO2 SLP146 T01720117 10178 20133 58001
