2025/11/09 13:53
KLAX 091353Z 00000KT 1/8SM R25L/0800V1200FT FG VV001 15/15 A3004 RMK AO2 SLP170 T01500150
