2024/09/06 19:53
KLAX 061953Z 31005KT 10SM FEW130 SCT180 36/17 A2982 RMK AO2 SLP097 T03610167
