2023/05/09 11:53
KLAX 091153Z 23005KT 10SM FEW007 FEW018 SCT032 13/12 A2999 RMK AO2 SLP155 T01330122 10144 20133 53001
