2026/01/15 23:53
KLAX 152353Z 27011KT 10SM FEW250 23/05 A2995 RMK AO2 SLP143 T02280050 10283 20228 56009 $
