2023/08/11 03:53
KLAX 110353Z 27010KT 10SM BKN010 19/17 A2995 RMK AO2 SLP138 T01940172 $
