2024/08/15 21:53
KLAX 152153Z 26011KT 10SM CLR 25/18 A2989 RMK AO2 SLP122 T02500183 $
