2024/02/13 17:53
KLAX 131753Z VRB04KT 10SM FEW025 SCT180 BKN250 15/09 A3004 RMK AO2 SLP173 T01500089 10150 20067 50010 $
