2023/04/25 07:53
KLAX 250753Z 00000KT 9SM FEW008 BKN011 14/12 A2991 RMK AO2 SLP125 T01440122 401940139 $
