2024/06/16 17:53
KLAX 161753Z 27011G19KT 7SM FEW009 SCT014 SCT100 22/16 A2977 RMK AO2 SLP080 T02170156 10217 20167 52002
