2023/03/26 11:53
KLAX 261153Z 34011G21KT 310V010 10SM CLR 12/M05 A3009 RMK AO2 SLP186 T01221050 10133 20117 55001 $
