2024/06/03 17:53
KLAX 031753Z 26006KT 8SM OVC016 17/13 A2992 RMK AO2 SLP129 T01720133 10172 20150 50000 $
