2023/05/14 03:53
KLAX 140353Z VRB04KT 8SM OVC008 15/13 A2986 RMK AO2 SLP108 T01500133
