2023/03/14 01:53
KLAX 140153Z 27012KT 10SM OVC006 13/12 A3008 RMK AO2 SLP184 T01330117 $
