2022/08/24 15:53
KLAX 241553Z VRB04KT 6SM HZ BKN013 22/18 A2986 RMK AO2 SLP110 T02170183
