2024/04/07 19:53
KLAX 071953Z 27011KT 10SM FEW023 FEW039 SCT210 SCT280 17/08 A3010 RMK AO2 SLP193 T01670078 $
