2024/08/18 19:53
KLAX 181953Z 26010KT 10SM FEW018 23/17 A2995 RMK AO2 SLP141 T02330172 $
