2024/07/16 15:53
KLAX 161553Z 12005KT 9SM FEW019 FEW040 SCT065 22/17 A3002 RMK AO2 SLP163 T02170167
