2026/02/06 19:53
KLAX 061953Z 25012KT 10SM FEW025 FEW045 SCT160 BKN250 19/13 A3014 RMK AO2 SLP206 T01940128 $
