2024/05/21 01:53
KLAX 210153Z 26014KT 10SM FEW015 16/11 A2993 RMK AO2 SLP136 T01560106 $
