2022/12/02 21:53
KLAX 022153Z 08007KT 8SM FEW009 SCT019 OVC025 16/11 A3010 RMK AO2 SLP193 T01610106
