2025/02/02 03:53
KLAX 020353Z 26008KT 10SM BKN006 BKN180 14/14 A3009 RMK AO2 SLP189 T01440139
