2024/12/21 19:53
KLAX 211953Z 25006KT 6SM HZ FEW000 FEW220 SCT270 16/10 A3018 RMK AO2 SLP220 VIS SW 2 FG FEW000 T01560100 $
