2025/03/07 19:53
KLAX 071953Z 24012KT 10SM FEW035 FEW055 SCT080 15/05 A3002 RMK AO2 SLP164 T01500050 $
