2023/07/02 09:53
KLAX 020953Z 00000KT 5SM BR SCT007 16/14 A2990 RMK AO2 SLP121 VIS W 1 1/2 T01610144 $
