2024/12/15 07:53
KLAX 150753Z 35005KT 10SM FEW005 FEW009 BKN250 13/12 A3018 RMK AO2 SLP219 T01280117 401780089
