2023/12/13 07:53
KLAX 130753Z 10005KT 9SM BKN014 14/12 A2996 RMK AO2 SLP145 T01390117 401890100
