2025/03/28 07:53
KLAX 280753Z 25005KT 10SM FEW009 FEW015 SCT044 14/11 A3003 RMK AO2 SLP167 T01390111 401780139 $
