2024/03/18 07:53
KLAX 180753Z 11004KT 10SM FEW007 FEW070 13/11 A3005 RMK AO2 SLP174 T01280106 401890100 $
