2025/08/22 19:53
KLAX 221953Z 26011KT 10SM FEW080 FEW180 SCT250 27/19 A2985 RMK AO2 SLP104 T02720189
