2024/04/18 03:53
KLAX 180353Z 28004KT 10SM BKN200 14/12 A2999 RMK AO2 SLP154 T01390117 $
