2023/07/19 15:53
KLAX 191553Z 25005KT 8SM FEW009 21/17 A3001 RMK AO2 SLP160 T02110172 $
