2023/08/30 11:53
KLAX 301153Z 24004KT 10SM CLR 19/19 A2980 RMK AO2 SLP090 T01940189 10222 20194 55000
