2023/07/16 11:53
KLAX 161153Z 25004KT 10SM FEW015 18/17 A2986 RMK AO2 SLP110 T01780167 10189 20178 55001
