2025/09/13 15:53
KLAX 131553Z 25004KT 10SM BKN016 OVC025 21/16 A2993 RMK AO2 SLP134 T02060161 $
