2025/05/22 13:53
KLAX 221353Z 08005KT 3SM BR FEW002 OVC008 16/14 A2991 RMK AO2 SLP128 VIS 2 1/2V4 VIS N-NE 2 T01610144 $
