2024/05/12 03:53
KLAX 120353Z 25005KT 7SM OVC007 14/12 A2994 RMK AO2 SLP137 T01390122 $
