2023/07/23 17:53
KLAX 231753Z 13007KT 10SM OVC016 21/17 A2996 RMK AO2 SLP144 T02110172 10217 20189 50009
