2023/06/07 15:53
KLAX 071553Z 20005KT 10SM SCT022 BKN029 OVC039 16/12 A2999 RMK AO2 SLP155 T01560117
