2025/05/03 18:29
KLAX 031829Z 25007KT 4SM BR SCT007 BKN012 OVC017 14/13 A2997 RMK AO2 T01440133 $
