2024/08/03 11:53
KLAX 031153Z 26004KT 10SM FEW005 17/16 A2997 RMK AO2 SLP148 T01720156 10189 20172 58003 $
