2026/06/02 06:53
KLAX 020653Z 24003KT 9SM BKN011 16/14 A3001 RMK AO2 SLP161 T01610139 $
