2023/12/23 01:53
KLAX 230153Z 28009KT 10SM BKN100 BKN150 17/11 A2989 RMK AO2 SLP119 T01720111
