2023/05/25 23:53
KLAX 252353Z 26012KT 10SM SCT023 SCT034 BKN046 17/11 A2988 RMK AO2 SLP118 60001 T01670106 10183 20150 56009 $
