2022/08/23 19:53
KLAX 231953Z 26011KT 6SM HZ FEW011 FEW110 24/18 A2980 RMK AO2 SLP088 T02390178 $
