2025/08/09 19:53
KLAX 091953Z 27011G21KT 7SM SCT010 22/17 A2993 RMK AO2 SLP134 T02220172 $
