2023/10/15 07:53
KLAX 150753Z 09004KT 10SM CLR 16/14 A3003 RMK AO2 SLP167 T01610139 402280156
