2024/08/06 05:53
KLAX 060553Z 24004KT 10SM FEW250 20/16 A2992 RMK AO2 SLP130 T02000161 10228 20189 53023 $
