2022/08/21 15:53
KLAX 211553Z VRB05KT 10SM FEW015 OVC018 22/17 A3005 RMK AO2 SLP173 T02170172
