2025/11/28 09:53
KLAX 280953Z 10004KT 1 1/4SM R25L/0700V2000FT BR SCT001 SCT003 BKN250 12/12 A3003 RMK AO2 SLP166 VIS 1/2V2 VIS SE-S 1/4 T01220122 $
