2023/09/04 17:53
KLAX 041753Z 28004KT 10SM FEW027 SCT033 22/17 A2994 RMK AO2 SLP136 T02220167 10228 20167 50001 $
