2024/04/23 19:53
KLAX 231953Z 28012KT 10SM SCT019 SCT041 18/11 A3004 RMK AO2 SLP172 T01780106
