2025/09/06 01:53
KLAX 060153Z 27015KT 10SM FEW015 FEW050 SCT100 21/18 A2981 RMK AO2 SLP091 CB DSNT E T02110178
