2023/01/14 15:53
KLAX 141553Z 11005KT 10SM FEW008 BKN044 OVC060 12/09 A2999 RMK AO2 SLP155 T01170089
