2025/01/24 23:53
KLAX 242353Z 27009KT 10SM SCT180 BKN250 19/M11 A2993 RMK AO2 SLP136 T01891111 10222 20189 56021
