2025/10/04 21:53
KLAX 042153Z 22011KT 10SM FEW030 22/14 A2985 RMK AO2 SLP108 T02220139 $
