2023/07/12 17:53
KLAX 121753Z 26009KT 9SM FEW002 FEW100 22/15 A3000 RMK AO2 SLP157 VIS SW-NW 3 T02220150 10228 20150 51002 $
