2023/10/30 21:53
KLAX 302153Z 23013KT 10SM FEW250 26/M07 A3001 RMK AO2 SLP162 T02561072
