2023/06/01 09:53
KLAX 010953Z 00000KT 10SM FEW011 BKN022 OVC038 16/12 A2989 RMK AO2 SLP121 T01610122
