2024/06/26 19:53
KLAX 261953Z 26009KT 10SM FEW011 22/16 A2997 RMK AO2 SLP146 T02170156
