2024/05/06 11:53
KLAX 061153Z 05006KT 10SM FEW012 FEW018 12/08 A3001 RMK AO2 SLP162 T01220083 10172 20122 53001 $
