2025/02/02 15:53
KLAX 021553Z VRB04KT 1 1/2SM R25L/5500VP6000FT BR OVC003 13/12 A3013 RMK AO2 SLP201 T01280122 $
