2025/12/22 00:13
KLAX 220013Z 25009KT 7SM FEW009 SCT250 16/13 A3004 RMK AO2 T01560128 $
