2022/08/29 21:53
KLAX 292153Z 27015KT 10SM FEW020 23/17 A2989 RMK AO2 SLP121 T02280167 $
