2024/05/24 08:53
KLAX 240853Z 24005KT 10SM FEW010 BKN035 14/12 A2992 RMK SLP130 T01440122 57009 
