2025/01/23 13:53
KLAX 231353Z 09004KT 10SM CLR 11/M08 A3025 RMK AO2 SLP241 T01111078
