2024/02/01 17:53
KLAX 011753Z 08015G24KT 10SM SCT009 BKN029 OVC035 11/08 A2975 RMK AO2 PK WND 09031/1701 RAE03 SLP073 P0000 60231 T01060083 10117 20094 55009 $
