2023/01/03 11:53
KLAX 031153Z 06011KT 4SM -RA BR FEW009 BKN016 OVC025 10/09 A3002 RMK AO2 SLP166 P0002 60003 70005 T01000089 10117 20100 50000
