2024/11/26 17:53
KLAX 261753Z 24004KT 9SM FEW018 SCT025 BKN032 18/13 A3016 RMK AO2 SLP211 T01780133 10178 20144 51011
