2023/07/23 05:53
KLAX 230553Z 23003KT 10SM FEW010 SCT100 19/18 A2984 RMK AO2 SLP102 T01940178 10211 20189 53011
