2024/05/06 01:53
KLAX 060153Z 30010KT 10SM CLR 17/09 A2993 RMK AO2 SLP134 T01670089
