2024/08/17 15:53
KLAX 171553Z VRB03KT 10SM OVC020 22/17 A2994 RMK AO2 SLP137 T02220172 $
