2026/01/19 01:53
KLAX 190153Z 26006KT 10SM FEW150 FEW250 17/08 A3002 RMK AO2 SLP165 T01720078
