2023/06/07 01:53
KLAX 070153Z 27006KT 10SM FEW035 FEW045 BKN150 BKN200 16/11 A2989 RMK AO2 SLP119 T01610111
