2024/08/18 13:53
KLAX 181353Z 00000KT 9SM OVC013 19/17 A2993 RMK AO2 SLP132 T01940167 $
