2023/04/02 21:53
KLAX 022153Z 24011KT 10SM FEW015 FEW025 16/11 A3005 RMK AO2 SLP174 T01560111 $
