2024/06/15 19:53
KLAX 151953Z 23009KT 10SM FEW008 21/15 A2983 RMK AO2 SLP098 T02060150
