2022/09/25 15:53
KLAX 251553Z 23003KT 10SM FEW180 SCT230 23/19 A3001 RMK AO2 SLP160 T02280189
