2022/10/09 19:53
KLAX 091953Z 26010KT 10SM FEW010 SCT110 SCT170 22/16 A3003 RMK AO2 SLP168 TCU DSNT NE T02220161 $
