2025/05/18 15:10
KLAX 181510Z 11004KT 10SM FEW016 FEW024 SCT029 17/12 A2999 RMK AO2 T01670117
