2022/08/26 13:53
KLAX 261353Z 00000KT 5SM BR FEW004 OVC007 19/18 A2996 RMK AO2 SLP142 T01940178 $
