2024/02/08 11:53
KLAX 081153Z 29011G19KT 10SM FEW018 FEW040 SCT200 09/03 A2992 RMK AO2 PK WND 29026/1101 SLP129 70017 T00940033 10122 20089 51005 $
