2024/12/10 13:53
KLAX 101353Z 20006KT 10SM FEW012 FEW035 16/M06 A3026 RMK AO2 SLP246 FU FEW012 FU FEW035 T01561061 VISNO RWY24 $
