2025/06/20 05:53
KLAX 200553Z 23005KT 10SM FEW011 SCT014 17/14 A2983 RMK AO2 SLP099 T01720144 10206 20172 50003 $
