2024/11/03 07:53
KLAX 030753Z 24003KT 9SM FEW015 14/13 A2988 RMK AO2 SLP117 T01440128 401890117 $
