2025/05/02 07:53
KLAX 020753Z 24008KT 10SM BKN011 14/12 A2998 RMK AO2 SLP152 T01440117 401890139 $
