2024/06/14 01:53
KLAX 140153Z 26016KT 10SM BKN010 17/14 A2997 RMK AO2 CIG 008V013 SLP149 T01720139
