2022/10/20 19:53
KLAX 201953Z 27008KT 10SM FEW070 FEW110 SCT160 BKN250 29/10 A2993 RMK AO2 SLP131 T02890100 $
