2024/10/21 17:53
KLAX 211753Z 26007KT 10SM SCT090 SCT180 BKN250 24/06 A3008 RMK AO2 SLP184 T02390056 10239 20150 50001 $
