2022/11/28 19:53
KLAX 281953Z 25007KT 7SM FEW008 SCT025 BKN035 BKN140 16/11 A2994 RMK AO2 SLP137 SCT V BKN T01610111
