2024/03/03 05:53
KLAX 030553Z 25012KT 10SM FEW019 OVC023 13/09 A3005 RMK AO2 SLP175 60002 T01330089 10139 20122 53008 $
