2025/05/06 23:53
KLAX 062353Z 25008KT 10SM FEW015 OVC021 16/12 A2997 RMK AO2 SLP148 60000 T01560117 10172 20150 56003 $
