2025/11/07 07:53
KLAX 070753Z 09003KT 9SM FEW007 FEW010 16/14 A3000 RMK AO2 SLP156 T01560144 402060128 $
