2025/06/27 01:53
KLAX 270153Z 26008KT 10SM OVC009 18/16 A2989 RMK AO2 SLP118 T01830156
