2026/01/10 17:53
KLAX 101753Z 11006KT 10SM FEW230 FEW280 14/M01 A3041 RMK AO2 SLP298 T01441006 10144 20056 51006 $
