2025/10/08 07:53
KLAX 080753Z 28007KT 10SM SCT015 18/14 A2989 RMK AO2 SLP121 T01780144 402110172 $
