2026/01/20 21:53
KLAX 202153Z 26005KT 10SM FEW000 SCT140 BKN160 BKN250 20/13 A3003 RMK AO2 SLP168 VIS W 2 FG FEW000 T02000133 $
