2023/03/17 05:53
KLAX 170553Z 25005KT 10SM FEW012 FEW028 SCT044 12/09 A3008 RMK AO2 SLP186 T01220094 10150 20122 51015 $
