2025/11/29 09:53
KLAX 290953Z 04004KT 6SM BR SCT009 BKN270 14/12 A3001 RMK AO2 SLP158 T01390122 $
