2024/03/12 05:53
KLAX 120553Z 28011KT 10SM FEW012 FEW016 SCT090 BKN220 14/09 A3012 RMK AO2 SLP197 T01390094 10161 20133 53009 $
