2022/12/19 15:53
KLAX 191553Z VRB03KT 10SM FEW250 09/01 A3022 RMK AO2 SLP234 T00890011 VISNO RWY24 $
