2024/09/05 13:53
KLAX 051353Z 14003KT 10SM FEW010 23/17 A2989 RMK AO2 SLP119 FU FEW010 T02280167 $
