2023/11/29 21:53
KLAX 292153Z 26009KT 10SM FEW010 SCT100 BKN150 17/11 A2994 RMK AO2 SLP140 T01670111
