2022/10/31 07:53
KLAX 310753Z 00000KT 10SM CLR 17/11 A2994 RMK AO2 SLP136 T01670111 402390133 VISNO RWY24 $
