2022/08/21 23:53
KLAX 212353Z 23012KT 10SM FEW023 24/17 A2998 RMK AO2 SLP149 T02390172 10250 20228 56019 $
