2022/11/20 01:53
KLAX 200153Z 31006KT 10SM CLR 21/M08 A3007 RMK AO2 SLP184 T02061083 $
