2023/08/25 13:53
KLAX 251353Z 35005KT 7SM FEW005 OVC008 17/16 A2996 RMK AO2 SLP142 T01720161
