2023/06/05 01:53
KLAX 050153Z 26014KT 10SM OVC013 17/13 A2987 RMK AO2 SLP112 T01670133
