2025/06/11 11:53
KLAX 111153Z 26007KT 4SM BR FEW003 OVC008 17/15 A2991 RMK AO2 SLP126 T01670150 10172 20161 55006 $
