2024/07/25 21:53
KLAX 252153Z 27014KT 10SM FEW110 24/16 A2999 RMK AO2 SLP154 T02390161
