2023/08/02 11:53
KLAX 021153Z 20003KT 10SM FEW008 FEW170 SCT220 19/17 A2997 RMK AO2 SLP145 T01940167 10206 20194 55001 $
