2025/11/18 21:53
KLAX 182153Z 26007KT 10SM FEW022 BKN075 BKN120 BKN160 16/08 A2991 RMK AO2 SLP126 TCU DSNT N T01560078
