2023/01/11 15:53
KLAX 111553Z 03004KT 9SM FEW006 FEW150 SCT230 BKN280 11/07 A3024 RMK AO2 SLP238 T01060072 $
