2025/04/26 09:53
KLAX 260953Z 26007KT 10SM FEW033 BKN060 13/08 A2994 RMK AO2 SLP137 T01280078
