2022/12/17 03:53
KLAX 170353Z 35006KT 10SM SCT250 15/M03 A3008 RMK AO2 SLP186 T01501033 $
