2024/05/22 23:53
KLAX 222353Z 26014KT 10SM FEW014 17/12 A2994 RMK AO2 SLP138 T01720122 10194 20167 56014 
