2023/07/02 07:53
KLAX 020753Z 00000KT 5SM BR OVC006 16/15 A2993 RMK AO2 SLP131 VIS SW-NW 3/4 T01610150 402110156 $
