2022/12/15 13:53
KLAX 151353Z 00000KT 10SM FEW200 FEW280 09/03 A3012 RMK AO2 SLP198 T00890033
