2024/10/20 03:53
KLAX 200353Z 23005KT 10SM CLR 20/05 A3005 RMK AO2 SLP173 T02000050
