2025/08/16 17:53
KLAX 161753Z VRB05KT 10SM FEW015 OVC022 21/16 A3005 RMK AO2 SLP174 T02110156 10211 20189 51007 $
