2023/05/22 07:53
KLAX 220753Z 30004KT 8SM FEW004 OVC007 16/14 A2997 RMK AO2 SLP147 T01560144 401940150
