2025/10/07 09:53
KLAX 070953Z 25005KT 10SM BKN010 18/15 A2985 RMK AO2 SLP107 T01780150 $
