2023/11/18 21:53
KLAX 182153Z 24009KT 10SM SCT025 SCT033 BKN037 20/14 A3002 RMK AO2 SLP163 T02000144
