2023/05/09 13:59
KLAX 091359Z 00000KT 8SM FEW009 SCT017 BKN025 14/12 A3000 RMK AO2 T01440122
