2023/05/19 13:53
KLAX 191353Z 10003KT 4SM BR SCT008 OVC010 16/13 A3002 RMK AO2 SLP163 T01560133
