2025/10/26 01:53
KLAX 260153Z 26009KT 10SM OVC010 17/14 A3000 RMK AO2 SLP156 T01670139 $
