2023/09/15 21:53
KLAX 152153Z 22010KT 10SM SCT022 22/17 A2994 RMK AO2 SLP137 T02220167
