2023/02/15 09:53
KLAX 150953Z 32010KT 10SM FEW090 08/M01 A2998 RMK AO2 SLP152 T00831011 $
