2024/11/03 19:53
KLAX 031953Z 33013G24KT 10SM FEW065 FEW100 23/04 A2985 RMK AO2 SLP107 T02330039
