2024/11/27 05:53
KLAX 270553Z 00000KT 2SM BR OVC003 16/15 A3008 RMK AO2 SLP184 T01610150 10167 20156 58001
