2025/09/30 05:53
KLAX 300553Z 23009KT 10SM BKN035 BKN200 19/14 A2995 RMK AO2 SLP140 T01940144 10217 20194 50002 $
