2025/04/17 11:53
KLAX 171153Z 26007KT 10SM FEW016 FEW024 BKN070 14/09 A2995 RMK AO2 SLP142 T01390094 10150 20139 56007 $
