2022/12/30 03:53
KLAX 300353Z 00000KT 10SM OVC020 14/11 A3004 RMK AO2 SLP173 T01440111 $
