2026/04/13 11:53
KLAX 131153Z 00000KT 10SM FEW014 FEW045 SCT060 14/08 A3001 RMK AO2 SLP161 70016 T01390083 10161 20139 56008 $
