2024/04/13 15:53
KLAX 131553Z 10015KT 10SM FEW024 OVC065 15/08 A3003 RMK AO2 SLP168 T01500083 $
