2024/07/07 01:53
KLAX 070153Z 26007KT 10SM FEW010 22/17 A2985 RMK AO2 SLP104 T02170172
