2026/03/16 02:53
KLAX 160253Z 22004KT 9SM FEW250 16/14 A2996 RMK AO2 SLP143 T01610139 53004 $
