2024/04/22 17:53
KLAX 221753Z 25007KT 2SM BR OVC007 14/13 A2994 RMK AO2 CIG 004V008 SLP136 VIS SW-NW 1 T01440133 10156 20139 53012
