2024/09/21 17:53
KLAX 211753Z VRB03KT 10SM OVC023 21/14 A2994 RMK AO2 SLP138 T02060144 10206 20178 51006 $
