2022/08/22 21:53
KLAX 222153Z 28014KT 10SM BKN011 BKN110 23/17 A2994 RMK AO2 SLP138 T02280172 $
