2023/02/09 03:53
KLAX 090353Z 21003KT 10SM CLR 14/09 A3020 RMK AO2 SLP224 T01440089 $
