2024/12/04 01:53
KLAX 040153Z 26006KT 10SM FEW150 14/12 A3011 RMK AO2 SLP196 T01390117
