2026/05/21 17:53
KLAX 211753Z 26012G17KT 9SM FEW012 21/16 A2990 RMK AO2 SLP125 T02110156 10228 20161 51004 $
