2023/02/06 17:53
KLAX 061753Z 36012KT 10SM CLR 16/M01 A3024 RMK AO2 SLP239 T01611011 10161 20117 51008 $
