2025/02/25 01:53
KLAX 250153Z 24005KT 10SM FEW050 16/13 A3002 RMK AO2 SLP164 T01560128 $
