2024/09/29 07:53
KLAX 290753Z 25006KT 10SM OVC008 16/13 A2991 RMK AO2 SLP128 T01560133 401940144 $
