2024/03/04 01:53
KLAX 040153Z 27021G27KT 10SM FEW060 13/08 A3001 RMK AO2 PK WND 26028/0113 SLP160 T01330083 $
