2024/04/13 03:53
KLAX 130353Z 15007KT 10SM FEW020 OVC035 15/09 A2999 RMK AO2 SLP154 T01500089 $
