2024/06/11 07:53
KLAX 110753Z 25004KT 5SM BR FEW003 OVC005 14/13 A2991 RMK AO2 SLP128 T01440133 402110144
