2023/06/11 15:53
KLAX 111553Z VRB05KT 10SM FEW018 SCT034 OVC049 18/13 A2990 RMK AO2 SLP122 T01780128
