2025/01/21 05:53
KLAX 210553Z 18005KT 10SM CLR 14/M05 A3036 RMK AO2 SLP279 T01441050 10222 20139 53025 $
