2024/02/13 19:53
KLAX 131953Z 00000KT 10SM FEW027 BKN160 BKN200 18/08 A3001 RMK AO2 SLP162 T01780083 $
