2022/10/30 01:53
KLAX 300153Z 23006KT 10SM FEW250 19/12 A3002 RMK AO2 SLP165 T01890122 VISNO RWY24 $
