2024/09/11 21:53
KLAX 112153Z 26012KT 10SM CLR 22/15 A2978 RMK AO2 SLP085 T02220150
