2024/04/04 19:53
KLAX 041953Z 21014KT 10SM FEW013 SCT025 BKN036 14/09 A2991 RMK AO2 SLP129 T01440094 $
