2024/05/30 21:53
KLAX 302153Z 26010KT 10SM FEW011 SCT016 19/13 A2994 RMK AO2 SLP138 T01890133
