2024/01/20 05:53
KLAX 200553Z 29003KT 10SM FEW007 FEW044 SCT110 BKN140 OVC230 15/12 A2998 RMK AO2 SLP151 T01500122 10156 20144 50002 $
