2026/01/09 19:53
KLAX 091953Z 24007KT 10SM FEW120 FEW160 SCT250 16/M03 A3031 RMK AO2 SLP264 ACSL E T01611028 $
