2026/03/05 15:53
KLAX 051553Z 31013KT 10SM FEW005 FEW025 17/01 A2995 RMK AO2 SLP141 T01670006
