2024/07/02 11:53
KLAX 021153Z 16005KT 9SM FEW007 OVC010 18/15 A2984 RMK AO2 SLP102 T01780150 10183 20167 55002
