2024/03/24 01:53
KLAX 240153Z 27025G31KT 10SM FEW020 SCT031 SCT200 14/07 A2981 RMK AO2 PK WND 27040/0116 SLP095 T01390072 $
