2026/06/05 16:38
KLAX 051638Z 26007KT 5SM HZ OVC009 18/15 A2987 RMK AO2 T01780150 $
