2024/03/15 13:53
KLAX 151353Z 25008KT 10SM FEW060 FEW100 SCT140 BKN180 13/07 A2976 RMK AO2 SLP074 T01330072 $
