2022/11/03 07:53
KLAX 030753Z 27016KT 10SM FEW045 FEW090 SCT120 14/07 A3001 RMK AO2 PK WND 26027/0732 SLP159 T01440067 401940144 VISNO RWY24 $
