2023/06/22 11:53
KLAX 221153Z 26005KT 10SM FEW008 FEW014 15/13 A2994 RMK AO2 SLP135 T01500128 10167 20150 55001
