2026/07/06 22:53
KLAX 062253Z 25015KT 10SM FEW009 22/16 A2992 RMK AO2 SLP130 T02220156
