2025/06/08 15:53
KLAX 081553Z 16004KT 9SM OVC010 17/14 A3001 RMK AO2 SLP160 T01670139 $
