2023/01/13 05:53
KLAX 130553Z VRB05KT 10SM BKN280 17/05 A3017 RMK AO2 SLP216 T01670050 10211 20156 53011 $
