2023/09/19 13:53
KLAX 191353Z 05004KT 8SM FEW009 BKN014 18/16 A2994 RMK SLP135 T01780161 
