2022/10/27 07:53
KLAX 270753Z VRB03KT 10SM FEW016 16/12 A2996 RMK AO2 SLP142 T01610122 402170144
