2025/12/11 11:53
KLAX 111153Z 10003KT 10SM CLR 13/06 A3000 RMK AO2 SLP156 T01330061 10183 20128 58004 $
