2025/10/19 15:53
KLAX 191553Z 11004KT 10SM FEW220 SCT280 19/10 A3004 RMK AO2 SLP171 T01940100 $
