2023/05/27 11:53
KLAX 271153Z 28004KT 10SM FEW010 OVC039 15/12 A2996 RMK AO2 SLP142 T01500117 10156 20144 56004
