2024/11/02 17:53
KLAX 021753Z 12005KT 10SM BKN021 BKN200 17/12 A2997 RMK AO2 SLP147 T01720122 10178 20122 50009 $
