2023/04/28 09:53
KLAX 280953Z 23003KT 2 1/2SM BR SCT002 OVC005 12/11 A2993 RMK AO2 DZE0859 SLP134 VIS 1 1/2V3 P0000 T01220111 $
