2023/06/19 05:53
KLAX 190553Z 24004KT 10SM FEW014 BKN020 17/13 A2991 RMK AO2 SLP127 T01720133 10189 20167 51007
