2024/09/25 09:53
KLAX 250953Z 25003KT 2SM BR VV003 16/15 A2986 RMK AO2 SLP110 VIS 1 1/2V2 1/2 T01610150 $
