2023/10/23 09:53
KLAX 230953Z 08006KT 10SM SCT012 OVC018 18/16 A2975 RMK AO2 SLP071 T01780156 $
