2025/01/07 21:53
KLAX 072153Z 02022G32KT 10SM FEW050 FEW090 SCT250 22/02 A2992 RMK AO2 PK WND 05036/2137 SLP132 FU FEW050 T02220022
