2022/10/21 17:53
KLAX 211753Z 11006KT 8SM FEW018 SCT200 23/17 A2994 RMK AO2 SLP138 T02280172 10233 20194 50006 $
