2025/12/31 03:53
KLAX 310353Z 01008KT 10SM BKN110 OVC250 20/02 A3003 RMK AO2 SLP167 T02000017 $
