2024/10/13 19:53
KLAX 131953Z 11004KT 6SM HZ FEW016 22/14 A3002 RMK AO2 SLP164 T02170144 $
