2024/10/31 21:53
KLAX 312153Z 26010KT 10SM FEW250 18/09 A3002 RMK AO2 SLP163 T01830094 $
