2022/09/27 09:53
KLAX 270953Z 27004KT 10SM FEW150 21/19 A2986 RMK AO2 SLP108 T02060189
