2025/03/18 09:53
KLAX 180953Z 29013G17KT 10SM FEW015 FEW250 11/07 A3018 RMK AO2 SLP219 T01110072 $
