2024/02/27 17:53
KLAX 271753Z 00000KT 10SM FEW009 SCT018 BKN160 16/11 A3002 RMK AO2 SLP163 T01560111 10161 20117 51012 $
