2022/12/08 05:53
KLAX 080553Z VRB03KT 10SM CLR 12/07 A3028 RMK AO2 SLP251 T01220067 10144 20111 53010
