2023/02/10 13:53
KLAX 101353Z 01010KT 10SM CLR 14/M06 A3014 RMK AO2 SLP203 T01441056 $
