2024/05/18 23:53
KLAX 182353Z 28013KT 10SM SCT012 BKN020 BKN034 17/12 A2999 RMK AO2 SLP156 T01720122 10189 20161 58004 $
