2024/04/06 05:53
KLAX 060553Z 31005KT 10SM SCT190 11/02 A3007 RMK AO2 SLP182 T01060022 10133 20106 51029 $
