2022/09/01 05:53
KLAX 010553Z 10005KT 10SM BKN150 24/16 A2975 RMK AO2 SLP069 T02390156 10289 20233 51005
