2026/07/09 06:53
KLAX 090653Z 00000KT 10SM CLR 19/14 A2988 RMK AO2 SLP114 T01940144
