2023/06/13 05:53
KLAX 130553Z 25008KT 10SM FEW012 SCT044 16/14 A3005 RMK AO2 SLP173 T01610139 10194 20161 53006
