2024/10/10 17:04
KLAX 101704Z VRB05KT 3SM HZ SCT012 19/15 A3003 RMK AO2 VIS 2 RWY24 VIS 2 1/2V4 SCT V BKN T01890150 $
