2023/03/13 02:15
KLAX 130215Z 24008KT 8SM OVC005 13/12 A3011 RMK AO2 T01330122 $
