2025/08/19 09:53
KLAX 190953Z VRB03KT 9SM FEW006 FEW010 19/18 A2996 RMK AO2 SLP144 T01940178 $
