2024/12/20 23:53
KLAX 202353Z 26010KT 5SM HZ SCT005 BKN200 13/10 A3015 RMK AO2 SLP208 T01330100 10139 20117 53002
