2022/11/22 05:53
KLAX 220553Z 05004KT 10SM SCT280 17/M04 A3008 RMK AO2 SLP184 T01721039 10194 20150 55000 $
