2024/03/31 09:53
KLAX 310953Z 08011KT 10SM BKN036 10/08 A2975 RMK AO2 RAB23E38 SLP075 P0000 T01000083
