2024/01/19 07:53
KLAX 190753Z 26004KT 10SM FEW004 FEW008 SCT200 BKN280 13/12 A3007 RMK AO2 SLP180 T01330122 401890117 $
