2024/02/29 03:53
KLAX 290353Z 25007KT 10SM FEW010 14/13 A3004 RMK AO2 SLP171 T01440128 $
