2022/10/04 09:53
KLAX 040953Z 07003KT 10SM CLR 18/16 A2993 RMK AO2 SLP133 T01830161
