2023/12/21 09:53
KLAX 210953Z 09011KT 6SM -RA BR FEW006 BKN008 OVC020 16/15 A2993 RMK AO2 SLP134 P0003 T01560150
