2023/12/02 17:53
KLAX 021753Z 08005KT 10SM FEW023 17/07 A3021 RMK AO2 SLP229 T01670067 10167 20089 53015
