2025/06/19 09:53
KLAX 190953Z 13006KT 10SM FEW009 BKN012 19/16 A2982 RMK AO2 SLP094 T01890156 $
