2023/03/04 17:53
KLAX 041753Z VRB04KT 10SM FEW019 BKN025 BKN042 14/08 A3002 RMK AO2 SLP165 T01390083 10144 20078 51019 $
