2022/09/22 13:53
KLAX 221353Z 04004KT 10SM FEW010 18/13 A2995 RMK AO2 SLP139 T01780133
