2024/09/21 15:53
KLAX 211553Z VRB05KT 10SM OVC021 19/14 A2994 RMK AO2 SLP137 T01890139 $
