2024/07/01 11:53
KLAX 011153Z 11006KT 5SM BR FEW006 OVC008 18/16 A2989 RMK AO2 SLP121 T01830161 10183 20156 53001
