2023/12/17 07:53
KLAX 170753Z 36008KT 310V020 10SM SCT250 18/M01 A3003 RMK AO2 SLP166 T01831011 402610133 $
