2022/08/31 15:53
KLAX 311553Z 21005KT 9SM FEW160 25/17 A2989 RMK AO2 SLP118 T02500172
