2022/11/05 21:53
KLAX 052153Z 26011KT 10SM SCT300 18/09 A2997 RMK AO2 SLP149 T01830089
