2025/03/01 19:53
KLAX 011953Z 26007KT 10SM SCT022 BKN026 BKN280 15/11 A2997 RMK AO2 SLP148 T01500106 $
