2023/10/25 07:53
KLAX 250753Z 00000KT 10SM OVC016 18/16 A2992 RMK AO2 SLP129 T01830156 402280144 $
