2023/08/08 21:53
KLAX 082153Z 24011KT 10SM BKN150 23/18 A3000 RMK AO2 SLP156 ACSL NE T02330178 $
