2023/05/22 19:53
KLAX 221953Z 23006KT 6SM BR OVC007 17/14 A2996 RMK AO2 SLP143 T01670144
