2023/06/04 03:53
KLAX 040353Z 27008KT 10SM BKN014 16/13 A2993 RMK AO2 SLP134 T01610128
