2026/06/09 17:53
KLAX 091753Z 24008KT 10SM FEW016 22/14 A2991 RMK AO2 SLP128 T02170139 10217 20161 51004 $
