2026/01/19 09:53
KLAX 190953Z 12003KT 10SM SCT220 13/07 A3004 RMK AO2 SLP169 T01330067
