2025/01/24 03:53
KLAX 240353Z 25005KT 10SM CLR 19/01 A3021 RMK AO2 SLP232 T01940006
