2024/12/03 03:53
KLAX 030353Z 26003KT 10SM SCT250 14/11 A3008 RMK AO2 SLP186 T01390111
