2024/01/07 21:53
KLAX 072153Z 01015G22KT 10SM FEW038 FEW075 SCT220 14/M04 A2994 RMK AO2 PK WND 34029/2137 SLP137 T01441039
