2023/08/07 07:53
KLAX 070753Z 00000KT 2 1/2SM BR FEW003 OVC006 19/17 A3001 RMK SLP159 T01890172 402440178 
