2024/04/12 05:53
KLAX 120553Z 18005KT 1 1/4SM BR VV003 12/11 A2986 RMK AO2 SLP110 VIS W 1/2 T01220111 10139 20117 53013 $
