2023/03/15 19:53
KLAX 151953Z 26014KT 1/4SM R25L/4500VP6000FT FG OVC002 14/13 A2994 RMK AO2 DZE53 SLP136 P0000 T01390133 $
