2023/03/08 11:53
KLAX 081153Z 09005KT 10SM FEW014 FEW020 SCT200 07/05 A3011 RMK AO2 SLP196 T00670050 10117 20067 55002 $
