2023/03/25 11:53
KLAX 251153Z 34005KT 10SM BKN021 11/01 A3012 RMK AO2 SLP197 T01060006 10133 20100 56013
