2025/05/09 23:53
KLAX 092353Z 25014KT 10SM FEW002 FEW045 21/13 A2989 RMK AO2 SLP122 T02110133 10217 20189 57020
