2022/12/16 11:53
KLAX 161153Z 01005KT 10SM BKN200 11/02 A3010 RMK AO2 SLP191 T01110022 10133 20100 50000
