2024/05/28 01:53
KLAX 280153Z 25009KT 10SM BKN011 15/12 A3002 RMK AO2 SLP165 T01500117
