2024/07/17 11:53
KLAX 171153Z 00000KT 10SM FEW010 19/16 A2995 RMK AO2 SLP140 T01890156 10194 20183 53004
