2024/11/16 03:53
KLAX 160353Z 32007KT 10SM FEW070 14/01 A2987 RMK AO2 SLP114 T01390011
