2025/12/01 15:53
KLAX 011553Z 08003KT 5SM HZ FEW018 SCT180 13/11 A3005 RMK AO2 SLP176 T01330106 $
