2026/06/19 08:53
KLAX 190853Z 29007G17KT 10SM FEW012 OVC018 17/14 A2997 RMK AO2 SLP148 T01720139 56006 $
