2025/11/15 12:03
KLAX 151203Z 09005KT 5SM BR SCT015 SCT042 BKN070 17/16 A2981 RMK AO2 T01670161 $
