2025/10/25 07:53
KLAX 250753Z 17003KT 4SM BR OVC006 16/15 A3000 RMK AO2 SLP155 T01610150 402280150
