2024/07/14 05:53
KLAX 140553Z 25007KT 10SM FEW008 FEW120 18/17 A2999 RMK AO2 SLP155 T01830167 10211 20183 53010 $
