2025/03/14 23:53
KLAX 142353Z 07010KT 3SM BR SCT009 OVC014 09/08 A2996 RMK AO2 RAE21 SLP147 P0000 60002 T00940083 10106 20089 56013 $
