2025/06/29 07:53
KLAX 290753Z 23006KT 8SM OVC005 17/16 A2996 RMK AO2 SLP144 T01720156 402330167 $
