2025/02/14 05:53
KLAX 140553Z 24009KT 10SM FEW013 BKN026 14/13 A2998 RMK AO2 SLP152 60072 T01390128 10156 20139 51008 $
