2023/02/19 21:53
KLAX 192153Z 24009KT 10SM FEW008 FEW200 SCT230 SCT300 18/04 A3004 RMK AO2 SLP171 T01780044 $
