2024/03/25 03:53
KLAX 250353Z 32010G17KT 10SM FEW055 FEW150 13/06 A2982 RMK AO2 SLP097 T01330056 $
