2023/07/15 15:53
KLAX 151553Z 23004KT 6SM HZ FEW007 FEW250 20/17 A2989 RMK AO2 SLP120 T02000167
