2025/06/10 09:53
KLAX 100953Z 00000KT 6SM BR OVC007 17/14 A2992 RMK AO2 SLP131 T01670144 $
