2024/02/29 21:53
KLAX 292153Z 24010KT 10SM SCT026 BKN031 16/11 A3016 RMK AO2 SLP213 T01560106 $
