2024/01/06 15:53
KLAX 061553Z 08003KT 10SM FEW250 09/02 A3018 RMK AO2 SLP218 T00890022
