2025/09/21 01:53
KLAX 210153Z 26009KT 2SM BR VCFG OVC003 19/18 A2992 RMK AO2 SLP129 T01940178
