2023/02/15 17:53
KLAX 151753Z 11007KT 080V140 10SM CLR 13/M08 A3016 RMK AO2 SLP214 T01331078 10139 20078 53029 $
