2023/06/09 01:53
KLAX 090153Z 27017KT 10SM FEW015 FEW250 18/13 A3001 RMK AO2 SLP159 T01780128
