2023/11/01 11:53
KLAX 011153Z 04005KT 10SM SCT280 16/M07 A3001 RMK AO2 SLP158 T01561072 10211 20150 57003 $
