2026/06/12 16:53
KLAX 121653Z 23005KT 10SM FEW009 SCT015 22/17 A2989 RMK AO2 SLP119 T02220167
