2023/08/28 07:53
KLAX 280753Z 00000KT 10SM CLR 21/17 A2985 RMK AO2 SLP104 T02110172 402500178 $
