2025/09/10 21:53
KLAX 102153Z 24012KT 10SM FEW032 FEW055 24/15 A2991 RMK AO2 SLP125 T02390150 $
