2025/03/28 21:53
KLAX 282153Z 27014KT 10SM FEW016 FEW040 SCT180 17/11 A2997 RMK AO2 SLP149 T01720106 $
