2022/10/23 05:53
KLAX 230553Z 24007KT 10SM BKN015 BKN023 OVC034 18/14 A2977 RMK AO2 RAE0459 SLP079 P0000 60001 T01780144 10189 20178 53006
