2023/02/16 23:53
KLAX 162353Z 26012KT 10SM OVC250 15/M03 A3018 RMK AO2 SLP220 T01501033 10172 20144 56016 $
