2024/07/17 05:53
KLAX 170553Z 27008KT 10SM CLR 19/16 A2995 RMK AO2 SLP138 T01890161 10222 20189 53005
