2025/07/19 23:53
KLAX 192353Z 27015KT 10SM BKN012 BKN060 21/17 A2996 RMK AO2 SLP143 T02110167 10239 20206 58010 $
