2023/09/04 05:53
KLAX 040553Z 20003KT 10SM FEW025 20/16 A2995 RMK AO2 SLP138 T02000161 10228 20194 58003 $
