2023/03/19 19:53
KLAX 191953Z 26009KT 10SM -RA FEW016 SCT050 OVC075 16/12 A3000 RMK AO2 RAB1855E22B41 SLP157 P0000 T01560122
