2023/05/22 01:53
KLAX 220153Z 23009KT 10SM OVC008 16/14 A2994 RMK AO2 SLP136 T01610139
