2022/11/14 13:53
KLAX 141353Z 00000KT 10SM FEW250 10/03 A3011 RMK AO2 SLP193 T01000028 $
