2022/12/11 05:53
KLAX 110553Z 14005KT 10SM SCT039 BKN050 BKN075 15/11 A3006 RMK AO2 SLP177 T01500111 10161 20139 55000 $
