2025/03/09 03:53
KLAX 090353Z 29007KT 10SM CLR 12/09 A3027 RMK AO2 SLP250 T01220089
