2023/11/30 03:53
KLAX 300353Z 27007KT 10SM FEW031 FEW070 15/12 A2994 RMK AO2 SLP138 T01500122
