2023/08/06 05:53
KLAX 060553Z 26006KT 10SM CLR 19/17 A2988 RMK SLP117 T01940172 
