2025/04/04 19:53
KLAX 041953Z 26010KT 10SM FEW010 FEW025 18/06 A3008 RMK AO2 SLP187 T01780061
