2023/08/29 13:53
KLAX 291353Z 00000KT 6SM BR FEW005 20/18 A2985 RMK AO2 SLP104 T02000183
