2023/07/29 13:53
KLAX 291353Z VRB04KT 6SM BR FEW008 SCT200 20/19 A2996 RMK AO2 SLP142 T02000189 $
