2023/08/02 17:53
KLAX 021753Z 25008KT 10SM FEW090 FEW140 SCT250 24/18 A3002 RMK AO2 SLP163 T02390178 10244 20194 50005 $
