2025/02/26 13:53
KLAX 261353Z 00000KT 1/8SM R25L/1400V2200FT FG VV001 12/12 A2994 RMK AO2 SLP136 T01170117 $
