2026/07/01 06:53
KLAX 010653Z 28007KT 10SM BKN018 BKN038 18/14 A2992 RMK AO2 SLP131 T01780144 $
