2023/05/14 17:53
KLAX 141753Z 11006KT 9SM OVC012 18/14 A2994 RMK AO2 SLP137 T01830139 10183 20144 50003
