2025/11/15 13:53
KLAX 151353Z 12006KT 10SM OVC039 17/16 A2977 RMK AO2 SLP079 T01720161 $
