2026/05/11 06:53
KLAX 110653Z 25003KT 9SM FEW008 OVC010 16/14 A2998 RMK AO2 SLP149 T01610139
