2025/12/15 19:53
KLAX 151953Z 26009KT 3SM HZ SCT009 19/13 A3010 RMK AO2 SLP193 T01890128
