2026/04/03 23:53
KLAX 032353Z 27012KT 10SM FEW240 BKN280 21/13 A2996 RMK AO2 SLP144 T02060133 10256 20200 58014 $
