2022/12/01 05:53
KLAX 010553Z 12003KT 10SM BKN036 OVC045 14/07 A3002 RMK AO2 SLP164 T01390072 10150 20139 51012 $
