2024/07/12 23:53
KLAX 122353Z 27010KT 9SM OVC010 19/16 A2986 RMK AO2 SLP111 T01940161 10217 20189 58003 $
