2025/11/20 21:53
KLAX 202153Z 19005KT 9SM -RA FEW030 SCT060 OVC070 16/09 A2995 RMK AO2 RAB33 SLP142 P0001 T01560094 $
