2025/05/12 13:53
KLAX 121353Z 14005KT 7SM FEW011 OVC019 17/13 A2993 RMK AO2 SLP132 T01670133 $
