2024/07/31 09:53
KLAX 310953Z 32004KT 10SM BKN007 16/15 A2990 RMK AO2 SLP123 T01610150 $
