2023/03/22 02:28
KLAX 220228Z 20011G22KT 10SM -RA SCT016 BKN034 BKN055 12/10 A2973 RMK AO2 P0000 T01220100
