2025/01/05 07:53
KLAX 050753Z 00000KT 9SM SCT250 13/07 A3011 RMK AO2 SLP196 T01280072 401670089
