2024/06/12 13:53
KLAX 121353Z 00000KT 6SM BR SCT009 OVC012 17/15 A2996 RMK AO2 DZE53 SLP145 SCT V BKN P0000 T01720150
