2023/04/12 07:53
KLAX 120753Z 08004KT 3SM BR SCT002 OVC005 13/12 A2995 RMK AO2 SLP140 VIS SW-N 1 1/2 T01330117 401610117 $
