2024/07/13 23:53
KLAX 132353Z 24011KT 10SM SCT010 BKN070 BKN180 21/17 A2994 RMK AO2 SLP138 T02110167 10233 20211 57003 $
