2023/08/01 09:53
KLAX 010953Z 35003KT 9SM FEW006 BKN160 BKN250 21/19 A2995 RMK AO2 SLP139 T02110194 $
