2025/03/30 17:53
KLAX 301753Z 00000KT 10SM FEW014 BKN039 OVC090 15/09 A3011 RMK AO2 SLP196 60002 T01500089 10150 20117 53017 $
