2025/05/23 01:53
KLAX 230153Z 25007KT 10SM FEW010 SCT240 19/15 A2992 RMK AO2 SLP131 T01890150 $
