2022/09/27 05:53
KLAX 270553Z 17003KT 10SM FEW150 21/18 A2988 RMK AO2 SLP114 T02110178 10244 20211 52013
