2025/05/18 05:53
KLAX 180553Z 23007KT 10SM FEW029 15/11 A2994 RMK AO2 SLP137 T01500111 10172 20150 53003
