2025/07/02 17:53
KLAX 021753Z 24009KT 9SM SCT020 SCT060 19/13 A2991 RMK AO2 SLP128 T01940133 10194 20167 53010 $
