2024/08/06 15:53
KLAX 061553Z 13005KT 10SM FEW150 SCT180 SCT250 23/18 A2995 RMK AO2 SLP140 T02330178
