2024/05/10 01:53
KLAX 100153Z 24011KT 10SM BKN013 16/12 A2994 RMK AO2 SLP138 T01610122 $
