2025/02/19 11:53
KLAX 191153Z 29003KT 8SM FEW007 FEW200 SCT250 12/11 A3006 RMK AO2 SLP179 T01170106 10139 20106 53000 $
