2024/07/05 13:53
KLAX 051353Z 23004KT 3SM BCFG BR FEW000 BKN004 17/16 A2987 RMK AO2 SLP113 VIS 2V4 VIS SW-N 2 FG FEW000 BKN V SCT T01720161
