2023/09/21 11:53
KLAX 211153Z 14003KT 10SM FEW012 FEW020 BKN042 18/16 A2989 RMK AO2 SLP119 T01830156 10189 20183 55001
