2026/02/14 02:53
KLAX 140253Z VRB04KT 10SM FEW080 16/11 A3001 RMK AO2 SLP162 T01610106 53010
