2023/10/29 17:53
KLAX 291753Z VRB04KT 10SM CLR 22/03 A3005 RMK AO2 SLP176 T02220028 10222 20106 50009
