2023/04/24 19:53
KLAX 241953Z 25010KT 9SM FEW011 BKN022 BKN140 18/13 A2991 RMK AO2 SLP127 T01830128 $
