2025/12/16 15:53
KLAX 161553Z 00000KT 1/16SM R25L/1200V1400FT FG VV001 12/12 A3011 RMK AO2 SLP194 T01220122
