2024/03/28 11:53
KLAX 281153Z 25006KT 9SM BKN007 12/11 A3010 RMK AO2 SLP193 T01170106 10128 20111 56007 $
