2024/01/04 11:53
KLAX 041153Z 28005KT 10SM FEW090 12/02 A3008 RMK AO2 PK WND 33026/1112 SLP184 70020 T01170017 10139 20111 50001
