2022/09/06 13:53
KLAX 061353Z 00000KT 10SM FEW120 FEW160 24/21 A2981 RMK AO2 SLP092 T02390206 $
