2025/01/10 11:53
KLAX 101153Z 00000KT 10SM FEW010 FEW040 09/M01 A3026 RMK AO2 SLP245 FU FEW010 FU FEW040 T00941006 10150 20078 50009
