2025/07/23 04:53
KLAX 230453Z 25010KT 10SM BKN011 18/15 A3000 RMK AO2 SLP157 T01780150 $
