2025/04/19 01:53
KLAX 190153Z 24008KT 10SM FEW023 BKN045 14/09 A3000 RMK AO2 SLP157 T01390089 $
