2025/03/14 21:53
KLAX 142153Z 10014KT 3SM BR SCT010 BKN015 OVC022 10/08 A3000 RMK AO2 RAE06B17E52 SLP159 P0000 T01000083 $
