2023/02/09 13:53
KLAX 091353Z 00000KT 10SM CLR 11/03 A3019 RMK AO2 SLP220 T01060033 $
