2025/11/23 01:53
KLAX 230153Z 35004KT 10SM SCT070 BKN120 19/07 A2993 RMK AO2 SLP134 T01940067
