2025/04/10 07:53
KLAX 100753Z 00000KT 10SM FEW250 15/12 A3011 RMK AO2 SLP196 T01500117 402220122 $
