2024/03/10 09:53
KLAX 100953Z 09003KT 10SM SCT300 11/09 A3010 RMK AO2 SLP190 T01110094 $
