2024/04/01 05:53
KLAX 010553Z VRB06KT 10SM FEW030 FEW090 13/08 A2982 RMK AO2 SLP096 T01330083 10156 20122 51012
