2025/02/09 13:53
KLAX 091353Z 00000KT 10SM CLR 11/06 A3005 RMK AO2 SLP175 T01060061 $
