2026/06/18 05:31
KLAX 180531Z 28008KT 10SM FEW010 BKN015 BKN030 17/14 A2995 RMK AO2 T01720144 $
