2025/03/19 21:53
KLAX 192153Z 26013KT 10SM FEW160 FEW220 19/08 A3024 RMK AO2 SLP242 T01890078 $
