2023/03/06 11:53
KLAX 061153Z 24003KT 10SM FEW012 SCT024 BKN060 11/08 A3011 RMK AO2 SLP196 60000 70006 T01060083 10122 20106 58004 $
