2026/06/01 15:53
KLAX 011553Z 12006KT 8SM FEW009 BKN018 19/14 A2996 RMK AO2 SLP144 T01890139 $
