2025/09/22 01:53
KLAX 220153Z 25009KT 8SM FEW008 BKN150 21/18 A2986 RMK AO2 SLP110 T02060183
