2023/05/20 21:53
KLAX 202153Z 23010G18KT 10SM BKN012 18/14 A3006 RMK AO2 SLP179 T01830139
