2025/10/26 17:53
KLAX 261753Z VRB03KT 4SM HZ OVC011 18/13 A3005 RMK AO2 SLP175 VIS SW-NW 2 1/2 T01830133 10183 20156 51010 $
