2025/08/08 21:53
KLAX 082153Z 25010KT 10SM FEW015 24/17 A2990 RMK AO2 SLP124 T02390172 $
