2023/08/01 13:53
KLAX 011353Z 26004KT 3SM BR BKN004 OVC160 21/20 A2999 RMK AO2 SLP152 VIS S-SW 1 T02060200 $
