2023/10/07 19:53
KLAX 071953Z 25007KT 10SM FEW003 FEW070 26/17 A2988 RMK AO2 SLP117 T02560172
