2024/10/22 17:53
KLAX 221753Z 26007KT 10SM CLR 23/08 A3006 RMK AO2 SLP176 T02280078 10239 20150 50007 $
