2026/07/09 20:53
KLAX 092053Z 27008KT 9SM FEW009 SCT016 23/17 A2989 RMK AO2 SLP120 T02330167 58006 $
