2024/04/02 23:53
KLAX 022353Z 26012KT 10SM FEW040 18/12 A3023 RMK AO2 SLP236 T01780122 10200 20172 58007
