2026/05/06 14:53
KLAX 061453Z 09004KT 10SM FEW018 FEW035 SCT160 16/11 A3008 RMK AO2 SLP184 T01560111 53012
