2023/08/01 03:53
KLAX 010353Z 24005KT 9SM FEW010 SCT150 BKN250 21/19 A2995 RMK AO2 SLP139 T02110194 $
