2022/09/19 21:53
KLAX 192153Z 25014KT 10SM FEW050 24/16 A2984 RMK AO2 SLP103 T02390156 $
