2024/12/02 11:53
KLAX 021153Z 00000KT 10SM FEW008 FEW250 11/07 A3012 RMK AO2 SLP198 T01110067 10150 20100 55001 $
