2025/01/07 14:53
KLAX 071453Z 00000KT 10SM FEW005 SCT120 BKN200 10/09 A2995 RMK AO2 SLP141 T01000089 53010
