2022/11/09 07:53
KLAX 090753Z 25009KT 10SM -RA FEW008 BKN030 OVC050 13/08 A2992 RMK AO2 PK WND 28027/0712 RAB09 SLP128 P0012 T01330083 401940122
