2025/10/12 19:53
KLAX 121953Z 26009KT 10SM FEW005 FEW230 22/11 A2973 RMK AO2 SLP067 T02220111 $
