2024/01/08 13:53
KLAX 081353Z 34011KT 10SM CLR 09/M06 A3018 RMK AO2 SLP220 T00941061
