2023/02/25 03:53
KLAX 250353Z 14016G28KT 3SM -RA BR BKN010 BKN014 OVC023 13/11 A2983 RMK AO2 PK WND 16034/0338 SLP102 P0010 T01280111 $
