2024/04/23 21:53
KLAX 232153Z 27013KT 10SM FEW017 FEW023 SCT040 18/11 A3004 RMK AO2 SLP171 T01780106
