2022/12/01 23:53
KLAX 012353Z 21008KT 10SM FEW050 BKN150 OVC200 14/08 A3002 RMK AO2 SLP166 T01440078 10167 20144 55005 $
