2023/06/28 01:53
KLAX 280153Z 26012KT 10SM FEW012 18/14 A2984 RMK AO2 SLP105 T01780139
