2023/01/17 09:53
KLAX 170953Z 35006KT 10SM FEW022 FEW040 SCT110 10/05 A2984 RMK AO2 SLP104 T01000050 $
