2026/02/17 03:53
KLAX 170353Z 29007KT 10SM FEW030 FEW040 SCT055 13/08 A2985 RMK AO2 SLP108 T01280078 $
