2024/02/27 01:53
KLAX 270153Z 32003KT 10SM FEW018 BKN046 OVC090 14/12 A2997 RMK AO2 RAE20 SLP146 P0001 T01390122 $
