2023/07/24 09:53
KLAX 240953Z 33003KT 10SM FEW007 FEW010 SCT250 20/18 A2996 RMK AO2 SLP142 T02000178
