2025/07/09 03:53
KLAX 090353Z 22010G20KT 10SM FEW150 18/14 A3001 RMK AO2 SLP161 T01830144 $
