2023/11/02 21:53
KLAX 022153Z 26009KT 10SM FEW250 24/06 A3003 RMK AO2 SLP168 T02440061 $
