2024/01/20 15:53
KLAX 201553Z 09007KT 5SM BR FEW009 BKN035 OVC060 13/12 A2992 RMK AO2 SLP132 VIS SW 3 T01330122 $
