2024/07/24 19:53
KLAX 241953Z 27014KT 10SM FEW002 FEW110 SCT170 23/16 A3005 RMK AO2 SLP172 T02280156 $
