2022/09/25 07:53
KLAX 250753Z 17003KT 10SM CLR 21/18 A3001 RMK AO2 SLP157 T02060183 402670206
