2023/03/11 17:53
KLAX 111753Z 24005KT 1SM R25L/4500VP6000FT BR OVC004 15/14 A3009 RMK AO2 CIG 003V008 SLP187 60003 T01500144 10156 20139 53017
