2024/08/28 13:53
KLAX 281353Z 24005KT 6SM HZ OVC012 18/16 A2997 RMK AO2 SLP148 T01830156
