2026/06/16 00:53
KLAX 160053Z 24012G21KT 10SM FEW008 FEW100 20/15 A2996 RMK AO2 SLP145 T02000150 $
