2025/01/15 11:53
KLAX 151153Z 00000KT 10SM CLR 09/M07 A3021 RMK AO2 SLP228 T00891067 10144 20067 58005
