2024/11/06 05:53
KLAX 060553Z VRB03KT 10SM FEW011 SCT150 BKN250 16/13 A2984 RMK AO2 SLP100 T01560133 56007 $
