2025/02/01 21:53
KLAX 012153Z 24008KT 10SM FEW200 17/09 A3010 RMK AO2 SLP193 T01720089
