2026/04/28 21:53
KLAX 282153Z 24016G21KT 10SM FEW250 19/10 A3003 RMK AO2 SLP169 T01940100 $
