2025/06/28 21:53
KLAX 282153Z 25013KT 10SM FEW200 22/16 A2997 RMK AO2 SLP147 T02220156 $
