2022/10/02 15:53
KLAX 021553Z VRB05KT 10SM FEW021 OVC024 21/15 A2996 RMK AO2 SLP144 T02110150
