2025/07/28 07:53
KLAX 280753Z 18004KT 10SM FEW012 18/16 A3002 RMK AO2 SLP162 T01780156 402220167
