2025/12/22 19:53
KLAX 221953Z 23005KT 4SM HZ FEW006 SCT210 BKN270 17/13 A3000 RMK AO2 SLP159 T01720133 $
