2023/07/22 21:53
KLAX 222153Z 23008KT 9SM FEW014 SCT200 22/17 A2987 RMK AO2 SLP113 T02220172
