2024/02/29 17:53
KLAX 291753Z 27006KT 10SM SCT020 BKN026 BKN050 16/12 A3019 RMK AO2 SLP221 T01560117 10156 20133 51011 $
