2024/11/29 05:53
KLAX 290553Z 01008KT 10SM FEW230 FEW280 17/M04 A3004 RMK AO2 SLP171 T01671044 10206 20161 51009 $
