2024/03/08 21:53
KLAX 082153Z 26017KT 10SM FEW009 FEW040 17/12 A3010 RMK AO2 SLP192 T01670122 $
