2026/07/17 12:53
KLAX 171253Z 11010KT 9SM SCT011 BKN014 21/18 A2990 RMK AO2 SLP122 T02110178 $
