2024/12/17 19:53
KLAX 171953Z VRB03KT 10SM FEW065 FEW180 SCT250 20/06 A3010 RMK AO2 SLP192 T02000056 $
