2023/10/24 07:53
KLAX 240753Z 00000KT 10SM FEW025 18/14 A2979 RMK AO2 SLP086 T01780144 402280167 $
