2025/05/06 11:53
KLAX 061153Z 20003KT 10SM FEW011 BKN020 OVC040 15/11 A2992 RMK AO2 SLP130 T01500106 10156 20150 55001 $
