2025/07/06 09:53
KLAX 060953Z 21003KT 10SM CLR 17/16 A2997 RMK AO2 SLP145 T01720156
