2024/12/07 01:53
KLAX 070153Z 00000KT 9SM FEW005 14/12 A3003 RMK AO2 SLP168 T01390122
