2023/06/18 19:53
KLAX 181953Z 25010KT 10SM FEW006 OVC013 18/14 A2994 RMK AO2 SLP138 T01780144
