2023/03/01 19:53
KLAX 011953Z 27026KT 10SM FEW017 SCT045 SCT090 BKN140 13/02 A2974 RMK AO2 PK WND 26032/1951 SLP072 T01280017
