2025/07/12 07:53
KLAX 120753Z 31003KT 8SM SCT009 OVC011 18/16 A2995 RMK AO2 SLP140 T01830156 402390172
