2024/05/03 15:53
KLAX 031553Z 12008G15KT 9SM OVC026 17/12 A2990 RMK AO2 SLP124 T01720117
