2025/06/06 19:53
KLAX 061953Z 26010KT 9SM FEW011 BKN016 18/14 A2995 RMK AO2 SLP141 T01830139
