2024/01/17 21:53
KLAX 172153Z 26003KT 6SM HZ FEW009 OVC017 14/11 A3002 RMK AO2 SLP165 T01440111
