2024/02/17 03:53
KLAX 170353Z 26008KT 10SM BKN010 13/12 A3009 RMK AO2 SLP187 T01330117
