2024/08/07 09:53
KLAX 070953Z 15003KT 9SM CLR 21/18 A2997 RMK AO2 SLP145 T02060183 $
