2024/03/30 23:53
KLAX 302353Z 09012KT 10SM SCT014 SCT019 BKN080 13/09 A2973 RMK AO2 SLP065 60001 T01330094 10133 20111 58009
