2026/05/17 04:53
KLAX 170453Z 24003KT 9SM FEW035 17/13 A2985 RMK AO2 SLP108 T01670128
