2024/03/01 07:53
KLAX 010753Z 25005KT 10SM FEW012 SCT024 BKN032 13/09 A3016 RMK AO2 SLP213 T01330094 401610133 $
