2024/11/30 05:53
KLAX 300553Z 02007KT 10SM SCT120 BKN180 17/M07 A3004 RMK AO2 SLP172 T01721067 10217 20172 50006 $
