2025/05/15 19:53
KLAX 151953Z 25010KT 9SM FEW029 19/12 A3000 RMK AO2 SLP159 T01890117 $
