2025/06/27 03:53
KLAX 270353Z 24007KT 10SM OVC008 17/15 A2989 RMK AO2 SLP120 T01720150
