2024/12/29 11:59
KLAX 291159Z 15004KT 1/4SM R25L/1400V1800FT FG BKN001 09/09 A3011 RMK AO2 T00890089
