2023/02/05 03:53
KLAX 050353Z 23004KT 10SM FEW220 14/12 A3016 RMK AO2 SLP213 T01390122 $
