2026/07/23 13:21
KLAX 231321Z 00000KT 10SM FEW009 FEW011 SCT250 21/18 A2988 RMK AO2 T02060178 $
