2025/08/16 15:53
KLAX 161553Z 17005KT 10SM OVC020 19/16 A3004 RMK AO2 SLP172 T01940161 $
