2024/06/03 03:53
KLAX 030353Z 24007KT 10SM SCT033 16/13 A2992 RMK AO2 SLP130 T01560128
