2023/12/09 07:53
KLAX 090753Z VRB03KT 10SM CLR 14/05 A3007 RMK AO2 SLP180 T01440050 402060111 $
