2025/09/29 05:53
KLAX 290553Z 24009KT 10SM CLR 20/16 A2999 RMK AO2 SLP153 T02000156 10222 20200 50005 $
