2025/11/11 14:01
KLAX 111401Z 10005KT 1/16SM R25L/1400V2200FT FG VV001 14/14 A3007 RMK AO2 T01440144 $
