2024/10/24 21:53
KLAX 242153Z 28009KT 6SM HZ FEW005 FEW150 19/14 A2989 RMK AO2 SLP120 FG BNK S-NW T01890144 $
