2025/09/19 23:53
KLAX 192353Z 24012KT 10SM FEW045 SCT080 23/18 A2988 RMK AO2 SLP117 T02280178 10261 20228 56007
