2025/12/19 17:53
KLAX 191753Z 00000KT 6SM BR FEW009 SCT140 BKN190 17/12 A3005 RMK AO2 SLP173 T01720122 10172 20100 53013 $
