2023/03/25 13:53
KLAX 251353Z 36005KT 10SM FEW020 FEW150 09/00 A3013 RMK AO2 SLP201 T00940000
