2026/06/22 00:53
KLAX 220053Z 24014KT 10SM FEW015 FEW250 20/14 A2987 RMK AO2 SLP113 T02000139 $
