2024/10/07 23:53
KLAX 072353Z 27009KT 1/2SM R25L/2400VP6000FT FG OVC002 17/16 A2983 RMK AO2 SLP101 T01720161 10206 20172 56010
