2023/11/30 07:53
KLAX 300753Z 25007KT 10SM CLR 14/10 A2994 RMK AO2 SLP135 T01390100 401830106
