2025/10/03 17:53
KLAX 031753Z 28008KT 8SM FEW009 SCT017 BKN026 21/16 A3001 RMK AO2 SLP161 T02060156 10211 20189 51008 $
