2025/06/22 01:53
KLAX 220153Z 24009KT 10SM FEW030 20/12 A2983 RMK AO2 SLP100 T02000122
