2023/07/02 15:53
KLAX 021553Z 24005KT 1 1/2SM BR OVC004 17/16 A2993 RMK AO2 SLP134 T01670156 $
