2022/09/12 09:53
KLAX 120953Z 27010KT 10SM FEW100 SCT150 SCT220 23/20 A2995 RMK AO2 SLP139 T02330200 $
