2025/04/28 07:53
KLAX 280753Z 27009KT 10SM FEW014 FEW024 SCT050 SCT160 13/10 A3008 RMK AO2 SLP186 T01330100 401720106 $
