2025/02/08 03:53
KLAX 080353Z 35005KT 10SM FEW015 SCT028 SCT200 12/11 A3011 
