2025/03/04 03:53
KLAX 040353Z 24009KT 10SM FEW085 13/10 A3008 RMK AO2 SLP185 T01280100 $
