2023/12/05 17:53
KLAX 051753Z VRB04KT 10SM FEW250 24/03 A3013 RMK AO2 SLP200 T02440028 10244 20133 53011
