2024/04/23 03:53
KLAX 230353Z 29006KT 7SM SCT008 OVC015 14/12 A2993 RMK AO2 SLP134 T01440122
