2025/04/17 09:53
KLAX 170953Z VRB04KT 10SM FEW014 FEW022 OVC070 14/10 A2996 RMK AO2 SLP144 T01440100 $
