2024/05/16 07:53
KLAX 160753Z 25005KT 10SM FEW011 OVC024 16/11 A2995 RMK AO2 SLP142 T01560111 401830144
