2025/02/14 19:53
KLAX 141953Z 26022G27KT 10SM SCT014 SCT031 BKN190 16/11 A3014 RMK AO2 PK WND 26027/1952 SLP205 T01610111 $
