2025/12/25 03:53
KLAX 250353Z 20003KT 10SM BKN041 BKN250 16/14 A2998 RMK AO2 SLP149 T01610139 $
