2022/10/22 11:53
KLAX 221153Z 14005KT 10SM FEW015 OVC029 19/14 A2985 RMK AO2 SLP105 T01890144 10194 20189 56010
