2024/07/15 23:53
KLAX 152353Z 27015KT 10SM FEW012 FEW070 22/17 A2994 RMK AO2 SLP139 T02170167 10228 20211 56017
