2024/11/11 13:53
KLAX 111353Z 00000KT 5SM BR FEW003 FEW009 11/08 A3005 RMK AO2 SLP174 T01060083
