2025/01/13 07:53
KLAX 130753Z 13003KT 10SM CLR 11/M02 A3013 RMK AO2 SLP200 T01061017 402060078 $
