2025/09/30 07:53
KLAX 300753Z 26009KT 10SM SCT038 BKN200 19/15 A2996 RMK AO2 SLP142 T01940150 402390183 $
