2023/07/20 13:53
KLAX 201353Z 25003KT 8SM FEW005 FEW280 19/18 A2997 RMK AO2 SLP145 T01940178 $
