2023/12/03 23:53
KLAX 032353Z 27008KT 10SM FEW180 SCT250 17/10 A3014 RMK AO2 SLP206 T01670100 10189 20161 56009
