2023/01/11 13:53
KLAX 111353Z 07003KT 10SM FEW006 FEW016 SCT140 SCT220 08/08 A3019 RMK AO2 SLP220 T00830078 $
