2025/02/12 05:53
KLAX 120553Z 21003KT 10SM FEW180 BKN250 13/08 A2990 RMK AO2 SLP122 T01330083 10150 20128 58001 $
