2025/07/06 13:53
KLAX 061353Z 01003KT 6SM BR SCT011 18/16 A2998 RMK AO2 SLP151 T01780156
