2022/12/22 15:53
KLAX 221553Z 00000KT 10SM FEW100 SCT160 BKN250 12/03 A3009 RMK AO2 SLP186 T01220033
