2023/06/20 13:59
KLAX 201359Z 00000KT 10SM FEW009 SCT019 17/14 A2999 RMK AO2 T01670139
