2025/07/18 11:53
KLAX 181153Z 31005KT 10SM BKN011 BKN080 BKN250 18/15 A2996 RMK AO2 SLP143 OCNL LTGICCA DSNT SE CB DSNT E-SE T01780150 10183 20178 53004 $
