2023/11/18 07:53
KLAX 180753Z 16004KT 10SM FEW010 BKN060 17/15 A2999 RMK AO2 RAE12 SLP153 P0000 T01720150 402220128 $
