2023/07/12 03:53
KLAX 120353Z 25007KT 5SM BR SCT008 17/16 A2996 RMK AO2 SLP144 VIS W 1/2 T01670156 $
