2023/04/25 11:53
KLAX 251153Z 28004KT 8SM FEW009 OVC015 15/12 A2988 RMK AO2 SLP117 T01500122 10150 20139 56003 $
