2023/11/20 13:53
KLAX 201353Z 02003KT 10SM FEW200 FEW250 12/06 A3008 RMK AO2 SLP183 T01220056
