2023/08/19 07:53
KLAX 190753Z 24004KT 10SM FEW010 19/17 A2985 RMK AO2 SLP106 T01890167 402280172 $
