2024/12/23 21:53
KLAX 232153Z 26010KT 5SM HZ FEW009 FEW120 SCT140 BKN160 16/12 A3008 RMK AO2 SLP186 T01560117
