2025/01/02 17:53
KLAX 021753Z 15004KT 10SM FEW009 FEW250 16/04 A3013 RMK AO2 SLP203 T01560044 10156 20083 52013
