2024/03/01 11:53
KLAX 011153Z 09005KT 10SM FEW014 SCT028 BKN040 13/09 A3013 RMK AO2 SLP202 60000 T01280094 10139 20122 58012 $
