2023/12/31 17:53
KLAX 311753Z 09005KT 10SM FEW014 BKN029 BKN042 OVC160 13/11 A3018 RMK AO2 RAB12E34 SLP219 P0000 60000 T01330106 10133 20106 51024
