2023/03/11 09:53
KLAX 110953Z 09005KT 2SM -RA BR OVC004 14/14 A3003 RMK AO2 DZE49RAB49 SLP168 VIS W 1 P0004 T01390139
