2025/08/10 19:53
KLAX 101953Z 25007KT 7SM FEW010 FEW110 23/17 A2997 RMK AO2 SLP148 T02280167 $
