2025/07/22 05:27
KLAX 220527Z 26009KT 10SM FEW015 BKN025 19/16 A2998 RMK AO2 T01890156 $
