2024/01/29 23:53
KLAX 292353Z 26010KT 10SM FEW250 20/07 A3004 RMK AO2 SLP172 T02000072 10256 20200 56006 $
