2023/02/09 09:53
KLAX 090953Z 09004KT 10SM CLR 10/06 A3018 RMK AO2 SLP217 T01000056 $
