2025/03/10 17:53
KLAX 101753Z 00000KT 10SM FEW050 SCT160 SCT200 17/03 A2996 RMK AO2 SLP146 T01720033 10172 20089 58001 $
