2024/07/03 23:53
KLAX 032353Z 26012KT 10SM FEW006 21/16 A2986 RMK AO2 SLP110 T02060156 10211 20189 58014
