2024/10/29 07:53
KLAX 290753Z 07003KT 10SM FEW160 14/11 A2988 RMK AO2 SLP115 T01390111 402000139
