2023/11/27 19:53
KLAX 271953Z VRB06KT 10SM FEW180 FEW240 BKN280 22/M04 A3006 RMK AO2 SLP179 T02171044 $
