2025/01/30 15:53
KLAX 301553Z 12003KT 6SM HZ FEW008 SCT025 OVC040 12/08 A3024 RMK AO2 SLP238 T01170083 $
