2025/02/16 17:53
KLAX 161753Z 31003KT 10SM SCT240 BKN280 18/04 A3011 RMK AO2 SLP196 T01830039 10183 21117 50003 $
