2024/08/30 15:53
KLAX 301553Z 00000KT 7SM OVC011 18/16 A3003 RMK AO2 SLP168 T01830156
