2023/01/10 07:53
KLAX 100753Z 15011KT 3SM -RA BR BKN006 OVC011 15/14 A3004 RMK AO2 RAB12 SLP171 P0009 T01500144 401560117 $
