2023/09/22 07:53
KLAX 220753Z 21003KT 9SM FEW010 SCT150 17/14 A2995 RMK AO2 SLP139 T01720139 402170172
