2025/08/31 05:53
KLAX 310553Z 23005KT 10SM SCT008 21/19 A2990 RMK AO2 SLP122 T02110189 10261 20211 51012 $
