2025/01/31 21:53
KLAX 312153Z 27008KT 9SM FEW065 SCT180 BKN250 14/09 A3022 RMK AO2 SLP233 T01440089
