2025/01/15 21:53
KLAX 152153Z 29009KT 10SM CLR 21/01 A3015 RMK AO2 SLP210 T02110011 $
