2024/11/14 03:53
KLAX 140353Z 25004KT 10SM CLR 16/09 A3004 RMK AO2 SLP171 T01560094
