2023/01/19 03:53
KLAX 190353Z 26006KT 10SM SCT250 12/08 A3016 RMK AO2 SLP214 T01170078
