2023/12/18 01:53
KLAX 180153Z 00000KT 10SM FEW150 SCT200 SCT250 19/02 A2994 RMK AO2 SLP136 T01940022 $
