2023/11/17 05:53
KLAX 170553Z 05004KT 10SM CLR 17/14 A3000 RMK AO2 SLP158 T01670144 10189 20167 58000 $
