2023/09/27 07:53
KLAX 270753Z 00000KT 10SM SCT280 18/15 A2993 RMK AO2 SLP132 T01830150 402390150 $
