2024/12/25 13:53
KLAX 251353Z 34010KT 10SM FEW006 FEW012 14/02 A3005 RMK AO2 SLP175 T01390022 $
