2022/12/11 13:53
KLAX 111353Z 16010KT 2SM +RA BR OVC012 14/13 A2989 RMK AO2 SLP119 VIS W 1 P0019 T01440133 $
