2024/09/07 09:53
KLAX 070953Z 04005KT 10SM FEW160 SCT190 23/18 A2982 RMK AO2 SLP093 T02330183
