2023/11/29 11:53
KLAX 291153Z 00000KT 10SM FEW040 BKN060 BKN160 12/05 A3003 RMK AO2 SLP167 T01170050 10139 20106 58003
