2024/07/28 01:53
KLAX 280153Z 26015KT 10SM FEW006 19/13 A2985 RMK AO2 SLP105 T01940128
