2024/11/23 09:53
KLAX 230953Z 00000KT 8SM BKN010 12/11 A3002 RMK AO2 SLP166 T01220111
