2023/06/28 11:53
KLAX 281153Z 07003KT 10SM FEW008 BKN012 16/13 A2989 RMK AO2 SLP119 T01560133 10161 20150 53002
