2025/12/25 13:53
KLAX 251353Z 12009KT 10SM FEW010 SCT018 BKN075 15/14 A3007 RMK AO2 RAB32E46 SLP182 SCT V BKN P0001 T01500139 $
