2024/03/31 01:53
KLAX 310153Z 09008KT 10SM -RA BKN020 BKN060 OVC100 11/09 A2974 RMK AO2 RAE04B52 SLP068 P0000 T01110089
