2022/09/02 19:53
KLAX 021953Z 26012KT 10SM FEW130 28/19 A2978 RMK AO2 SLP082 T02830189
