2023/02/27 09:53
KLAX 270953Z 03005KT 10SM -RA FEW014 SCT025 BKN030 09/07 A3017 RMK AO2 RAB32 SLP216 P0000 T00890067 $
