2022/12/06 21:53
KLAX 062153Z 25007KT 10SM FEW035 SCT045 BKN140 BKN160 16/09 A3002 RMK AO2 SLP163 T01610094 $
