2023/08/20 19:53
KLAX 201953Z 34010KT 5SM -RA BR FEW004 SCT024 OVC055 23/22 A2958 RMK AO2 SLP013 P0012 T02280217 $
