2024/03/18 01:53
KLAX 180153Z 25010KT 10SM FEW015 FEW080 14/11 A3003 RMK AO2 SLP170 T01390111 $
