2023/10/03 21:53
KLAX 032153Z 26012KT 10SM CLR 22/16 A2990 RMK AO2 SLP124 T02220156
