2023/07/24 17:53
KLAX 241753Z 26011KT 6SM BR SCT005 SCT100 BKN160 22/18 A3000 RMK AO2 SLP155 VIS SW-NW 1 1/2 T02220183 10228 20194 50005
