2023/10/18 17:53
KLAX 181753Z 27009KT 6SM BCFG BR FEW000 SCT005 19/16 A2992 RMK AO2 SLP131 VIS S-NW 1 FG FEW000 T01940161 10200 20167 51006 $
