2025/05/04 11:53
KLAX 041153Z 25009KT 10SM OVC060 13/10 A2976 RMK AO2 CIG 013 RWY24 SLP078 70001 T01330100 10144 20133 57013
