2025/07/22 09:53
KLAX 220953Z 28006KT 10SM FEW009 OVC028 18/15 A2996 RMK AO2 SLP142 T01830150 $
