2023/10/11 17:53
KLAX 111753Z 24008KT 10SM FEW019 FEW050 21/16 A2972 RMK AO2 SLP062 T02110161 10217 20167 51004
