2024/11/15 13:53
KLAX 151353Z 28006KT 10SM FEW016 BKN029 13/10 A2988 RMK AO2 SLP118 T01330100
