2023/04/18 07:53
KLAX 180753Z 26005KT 10SM FEW012 BKN024 14/10 A2997 RMK AO2 SLP146 T01390100 401780128
