2023/07/19 05:53
KLAX 190553Z 25005KT 10SM FEW004 SCT007 19/17 A2997 RMK AO2 SLP145 T01890172 10233 20189 51012 $
