2023/01/16 21:53
KLAX 162153Z 26025KT 10SM FEW020 SCT030 BKN045 14/09 A2976 RMK AO2 PK WND 26030/2138 SLP076 T01440089 $
