2025/04/25 17:53
KLAX 251753Z 24009KT 10SM BKN024 BKN029 BKN060 16/09 A3001 RMK AO2 SLP161 T01560089 10161 20133 53010
