2022/09/26 21:53
KLAX 262153Z 27016KT 10SM FEW045 FEW110 26/14 A2986 RMK AO2 SLP111 T02560144
