2023/03/02 11:53
KLAX 021153Z 32011KT 10SM FEW220 09/M03 A2997 RMK AO2 SLP149 70004 T00941028 10122 20083 56002 $
