2025/02/24 15:53
KLAX 241553Z 25004KT 8SM FEW010 FEW250 15/12 A3015 RMK AO2 SLP210 T01500122
