2025/10/11 03:53
KLAX 110353Z 24010KT 10SM SCT130 SCT230 19/15 A2982 RMK AO2 SLP094 T01940150 $
