2025/10/31 15:53
KLAX 311553Z 08006KT 7SM SCT009 BKN011 17/14 A3000 RMK AO2 SLP156 T01720139 $
