2024/04/11 05:53
KLAX 110553Z 24003KT 10SM FEW009 FEW016 14/12 A3000 RMK AO2 SLP156 T01440122 10183 20139 51006 $
