2025/08/14 17:53
KLAX 141753Z 25007KT 5SM HZ FEW009 BKN012 20/17 A2994 RMK AO2 SLP138 T02000172 10206 20194 50004 $
