2024/12/28 03:53
KLAX 280353Z 24003KT 10SM SCT007 BKN011 OVC019 15/13 A3009 RMK AO2 SLP187 T01500128
