2024/12/28 21:53
KLAX 282153Z 27007KT 10SM OVC011 14/11 A3009 RMK AO2 SLP190 T01440111
