2022/11/02 23:53
KLAX 022353Z 27029G34KT 10SM FEW070 FEW250 17/09 A2997 RMK AO2 PK WND 26034/2344 SLP146 T01720094 10194 20172 56008 VISNO RWY24 $
