2026/07/22 17:04
KLAX 221704Z 00000KT 8SM FEW006 BKN010 22/19 A2999 RMK AO2 T02220194
