2025/04/14 15:53
KLAX 141553Z 26007KT 6SM HZ FEW012 OVC020 14/11 A3000 RMK AO2 SLP158 T01440111 $
