2023/09/22 01:53
KLAX 220153Z 26011KT 10SM FEW045 FEW250 19/14 A2993 RMK AO2 SLP133 T01890139
