2025/08/11 09:53
KLAX 110953Z 26005KT 10SM FEW008 18/16 A2994 RMK AO2 SLP134 T01780156 $
