2026/07/11 21:53
KLAX 112153Z 26008KT 10SM FEW011 FEW220 BKN280 23/16 A2992 RMK AO2 SLP129 T02280156 $
