2025/06/14 19:53
KLAX 141953Z 25009KT 10SM FEW021 SCT220 22/15 A2993 RMK AO2 SLP134 T02170150 $
