2025/02/23 21:53
KLAX 232153Z 25010KT 10SM CLR 19/11 A3014 RMK AO2 SLP205 T01890106 $
