2025/04/03 03:53
KLAX 030353Z 26011KT 10SM FEW080 13/08 A2983 RMK AO2 SLP101 T01280078
