2024/02/03 21:53
KLAX 032153Z 24006KT 10SM SCT025 BKN045 BKN220 13/08 A3000 RMK AO2 SLP159 T01330078 $
