2022/11/21 07:53
KLAX 210753Z 01006KT 10SM CLR 17/M08 A3012 RMK AO2 SLP197 T01671083 402500106 $
