2025/01/10 05:53
KLAX 100553Z 05003KT 10SM FEW070 12/02 A3021 RMK AO2 SLP228 FU FEW070 T01220022 10178 20117 51028
