2023/09/16 07:53
KLAX 160753Z 22006KT 10SM OVC015 19/16 A2997 RMK AO2 SLP144 T01940161 402280189
