2025/10/15 17:53
KLAX 151753Z 27007KT 10SM FEW010 FEW047 SCT060 17/09 A3004 RMK AO2 SLP170 T01720089 10172 20128 50008 $
