2023/07/22 17:53
KLAX 221753Z 25009KT 3SM HZ SCT011 21/17 A2991 RMK AO2 SLP126 VIS W 2 T02110172 10228 20178 51007
