2025/08/16 03:53
KLAX 160353Z 25007KT 10SM BKN014 OVC020 20/17 A2996 RMK AO2 SLP143 T02000167 $
