2023/11/30 19:53
KLAX 301953Z 00000KT 10SM FEW010 FEW035 SCT050 BKN140 18/11 A2992 RMK AO2 SLP131 T01780106 $
