2024/04/14 09:53
KLAX 140953Z 05004KT 7SM SCT046 09/07 A3011 RMK AO2 SLP193 T00890072 $
