2023/07/21 21:53
KLAX 212153Z 24011KT 10SM FEW007 SCT280 22/17 A2994 RMK AO2 SLP135 T02220172
