2025/05/21 17:53
KLAX 211753Z 26009KT 7SM FEW009 22/16 A2993 RMK AO2 SLP131 T02170156 10233 20161 52003 $
