2025/03/20 19:53
KLAX 201953Z 25010KT 10SM SCT180 BKN250 17/08 A3011 RMK AO2 SLP197 T01720083 $
