2025/07/30 11:53
KLAX 301153Z 00000KT 10SM FEW008 18/16 A2999 RMK AO2 SLP155 T01780156 10183 20172 55001 $
