2024/11/28 23:53
KLAX 282353Z 28006KT 10SM FEW170 SCT220 SCT280 21/07 A2996 RMK AO2 SLP146 T02060067 10239 20206 56010 $
