2023/04/05 21:53
KLAX 052153Z 26014KT 10SM FEW250 16/04 A3010 RMK AO2 SLP193 T01610044 $
