2025/10/13 17:53
KLAX 131753Z 11009G18KT 10SM FEW025 BKN034 BKN048 20/12 A2978 RMK AO2 SLP081 T02000117 10217 20156 51008 $
