2024/11/28 19:53
KLAX 281953Z 24008KT 10SM FEW160 SCT190 23/02 A3003 RMK AO2 SLP169 T02280017 $
