2026/07/16 12:53
KLAX 161253Z 09005KT 9SM FEW010 FEW200 SCT250 21/19 A2981 RMK AO2 SLP091 T02060189 $
