2023/05/24 17:53
KLAX 241753Z 23006KT 8SM FEW008 OVC019 16/12 A2997 RMK AO2 SLP148 60000 T01610122 10161 20139 53004 $
