2025/08/12 19:53
KLAX 121953Z 25009KT 9SM FEW012 23/17 A2993 RMK AO2 SLP135 T02330167
