2025/03/19 23:53
KLAX 192353Z 26012KT 10SM FEW220 19/03 A3021 RMK AO2 SLP230 T01890028 10228 20178 57017 $
