2025/02/22 23:53
KLAX 222353Z 26008KT 8SM FEW003 BKN250 17/12 A3017 RMK AO2 SLP217 T01670122 10194 20156 56012 $
