2023/02/26 07:53
KLAX 260753Z 05004KT 10SM FEW010 FEW080 SCT100 07/05 A2999 RMK AO2 RAE10 SLP155 P0000 T00670050 401220067 $
