2024/08/19 09:53
KLAX 190953Z 08003KT 10SM CLR 19/16 A2993 RMK AO2 SLP132 T01890161
