2025/01/15 19:53
KLAX 151953Z 20008KT 10SM CLR 22/02 A3019 RMK AO2 SLP223 T02170017 $
