2025/04/20 17:53
KLAX 201753Z 26008KT 8SM FEW009 SCT014 17/11 A3011 RMK AO2 SLP196 T01670106 10172 20117 50005 $
