2022/10/19 07:53
KLAX 190753Z 09003KT 10SM CLR 20/14 A2997 RMK AO2 SLP144 T02000144 402780172 $
