2024/12/27 03:53
KLAX 270353Z VRB03KT 10SM FEW210 SCT260 13/11 A3005 RMK AO2 SLP176 T01330111 CHINO RWY24 $
