2025/04/08 13:53
KLAX 081353Z 10005KT 8SM FEW009 FEW090 SCT140 BKN180 13/11 A3002 RMK AO2 SLP165 T01280111 $
