2023/08/01 01:53
KLAX 010153Z 23006KT 10SM FEW010 FEW100 SCT150 BKN200 23/19 A2991 RMK AO2 SLP126 T02330194 $
