2024/09/06 05:53
KLAX 060553Z 14005KT 10SM SCT150 23/18 A2982 RMK AO2 SLP093 T02280183 10256 20228 51006 $
