2023/12/19 17:53
KLAX 191753Z 11005KT 8SM SCT025 BKN036 17/12 A2993 RMK AO2 SLP135 60000 T01720117 10172 20144 53003
