2025/02/10 07:53
KLAX 100753Z VRB03KT 10SM SCT200 BKN250 13/08 A3007 RMK AO2 SLP180 T01280083 401890094 $
