2023/12/20 19:53
KLAX 201953Z 14009KT 5SM -RA BR FEW007 BKN015 OVC037 17/16 A2986 RMK AO2 RAE34B51 SLP110 P0005 T01720156
