2025/11/30 15:53
KLAX 301553Z 09005KT 1SM R25L/6000VP6000FT BR BKN004 BKN011 OVC017 14/13 A3001 RMK AO2 SLP162 VIS SW-NW 1/2 T01390128 $
