2024/12/30 09:53
KLAX 300953Z 04004KT 4SM BR BKN009 13/11 A3009 RMK AO2 SLP187 T01280106
