2023/09/07 19:53
KLAX 071953Z 23009KT 10SM FEW015 23/17 A2997 RMK AO2 SLP146 T02330167
