2025/08/28 05:53
KLAX 280553Z 25005KT 10SM SCT150 BKN230 BKN290 21/18 A3006 RMK AO2 SLP175 T02060178 10244 20206 51011 $
