2022/12/09 07:53
KLAX 090753Z 12003KT 10SM FEW150 FEW200 11/06 A3020 RMK AO2 SLP225 T01060056 401560067
