2023/09/30 05:53
KLAX 300553Z 25005KT 10SM BKN025 OVC041 18/16 A2985 RMK AO2 SLP105 T01830156 10200 20183 50003
