2025/06/01 23:53
KLAX 012353Z 26015KT 10SM FEW150 SCT200 20/16 A2987 RMK AO2 SLP112 T02000156 10244 20200 56013 $
