2025/07/06 17:53
KLAX 061753Z 23007KT 10SM FEW011 21/15 A2998 RMK AO2 SLP151 T02110150 10217 20161 58000
