2024/12/11 19:53
KLAX 111953Z VRB06KT 10SM BKN180 OVC250 21/M12 A3009 RMK AO2 SLP188 T02061117
