2024/07/08 14:29
KLAX 081429Z VRB03KT 1SM R25L/P6000FT BR OVC002 17/16 A2986 RMK AO2 VIS 1/2V1 1/4 VIS SW-NW 1/2 T01670161 $
