2024/04/23 15:53
KLAX 231553Z 26010KT 9SM SCT009 OVC013 14/12 A3001 RMK AO2 SLP162 T01440117
