2023/10/10 15:53
KLAX 101553Z 07004KT 7SM FEW013 SCT017 18/16 A2981 RMK AO2 SLP094 T01830161
