2025/08/26 16:53
KLAX 261653Z 11006KT 8SM FEW010 OVC016 22/17 A3000 RMK AO2 SLP157 T02170172 $
