2022/09/22 15:53
KLAX 221553Z VRB03KT 10SM CLR 22/13 A2996 RMK AO2 SLP145 T02220128
