2024/05/28 13:53
KLAX 281353Z 00000KT 7SM OVC008 14/12 A3003 RMK AO2 SLP169 T01390122
