2024/11/08 07:53
KLAX 080753Z 00000KT 10SM CLR 15/01 A3015 RMK AO2 SLP208 T01500006 402280094 $
