2024/05/03 09:53
KLAX 030953Z 25004KT 9SM FEW009 OVC015 15/12 A2986 RMK AO2 SLP109 T01500122 $
