2023/12/23 11:53
KLAX 231153Z 08003KT 10SM FEW030 12/11 A2994 RMK AO2 SLP138 70001 T01170106 10167 20111 58001
