2023/08/28 01:53
KLAX 280153Z 25014KT 10SM FEW007 FEW120 22/16 A2984 RMK AO2 SLP101 T02170161 $
