2025/09/03 08:53
KLAX 030853Z 27003KT 10SM CLR 21/19 A2994 RMK SLP135 T02110189 51006 
