2025/08/14 07:53
KLAX 140753Z VRB04KT 10SM OVC012 19/16 A2991 RMK AO2 SLP127 T01940161 402390183 $
