2024/05/11 13:53
KLAX 111353Z 36005KT 10SM SCT007 OVC010 14/12 A2994 RMK AO2 SLP139 T01390117 $
