2024/10/04 02:21
KLAX 040221Z 22004KT 1SM R25L/P6000FT BR OVC003 18/17 A2978 RMK AO2 VIS W 1/4 T01830172
