2024/10/02 05:53
KLAX 020553Z 20003KT 10SM SCT005 18/16 A2990 RMK AO2 SLP123 T01780161 10194 20172 51011
