2024/05/22 13:53
KLAX 221353Z 02004KT 6SM BR SCT009 OVC015 14/12 A2997 RMK A02 SLP147 T01440117 
