2025/07/08 05:53
KLAX 080553Z 25006KT 10SM FEW015 17/14 A3004 RMK AO2 SLP171 T01670144 10206 20167 53019 $
