2023/05/05 15:53
KLAX 051553Z 00000KT 8SM FEW017 SCT044 BKN060 14/11 A3006 RMK AO2 SLP180 T01440106
