2025/04/03 19:53
KLAX 031953Z 23012KT 9SM SCT045 17/08 A2994 RMK AO2 SLP137 T01720078
