2026/05/21 12:53
KLAX 211253Z 07003KT 9SM FEW008 FEW012 SCT220 SCT280 17/13 A2987 RMK AO2 SLP111 T01670133
