2025/08/13 13:53
KLAX 131353Z VRB04KT 7SM FEW008 OVC013 19/17 A2994 RMK AO2 SLP135 T01940167
