2023/02/09 11:53
KLAX 091153Z 27006KT 10SM FEW018 11/03 A3018 RMK AO2 SLP218 T01060033 10139 20094 55003 $
