2026/06/28 13:53
KLAX 281353Z 00000KT 10SM FEW019 BKN035 18/13 A2992 RMK AO2 SLP128 T01780133
