2024/01/24 15:53
KLAX 241553Z 09004KT 8SM SCT014 SCT022 BKN028 13/11 A3012 RMK AO2 SLP197 T01330111
