2026/04/27 23:53
KLAX 272353Z 25010KT 10SM FEW030 FEW090 18/08 A3000 RMK AO2 SLP159 T01780078 10189 20178 55007
