2023/10/23 21:53
KLAX 232153Z 25010KT 10SM FEW015 FEW045 21/16 A2973 RMK AO2 SLP067 T02110156 $
