2024/05/05 07:53
KLAX 050753Z 25007KT 5SM -RA BR SCT006 BKN011 OVC023 13/13 A2991 RMK AO2 RAB20 SLP127 P0001 T01330128 401830133
