2024/11/09 01:53
KLAX 090153Z 26007KT 10SM CLR 16/10 A3002 RMK AO2 SLP166 T01560100
