2023/03/02 13:53
KLAX 021353Z 32006KT 10SM FEW220 FEW280 09/M03 A3002 RMK AO2 SLP167 T00941028 $
