2025/09/21 15:53
KLAX 211553Z 10004KT 3SM BR OVC007 19/18 A2994 RMK AO2 SLP136 VIS SW-W 2 T01940178
