2025/02/16 05:53
KLAX 160553Z 04005KT 10SM SCT250 13/09 A3019 RMK AO2 SLP220 T01280094 10161 20128 55000 $
