2023/08/05 05:53
KLAX 050553Z 22005KT 10SM FEW010 19/17 A2988 RMK SLP114 T01940172 
