2026/06/23 17:53
KLAX 231753Z 25008KT 10SM FEW009 OVC018 19/15 A3006 RMK AO2 SLP179 T01940150 10194 20178 50010 $
