2026/06/12 06:53
KLAX 120653Z 28008KT 10SM BKN007 18/17 A2988 RMK AO2 SLP114 T01830167
