2025/10/04 15:53
KLAX 041553Z 11006KT 10SM SCT025 19/14 A2995 RMK AO2 SLP138 T01890139 $
