2024/09/24 09:53
KLAX 240953Z VRB03KT 4SM BR OVC005 17/16 A2984 RMK AO2 SLP101 T01720156 $
