2025/12/18 02:01
KLAX 180201Z 32016G24KT 10SM SCT280 21/08 A2994 RMK AO2 WSHFT 0146 T02110078 $
