2026/07/22 22:53
KLAX 222253Z 23012KT 10SM FEW009 FEW050 25/18 A2992 RMK AO2 SLP129 T02500178
