2024/04/07 05:53
KLAX 070553Z 32006KT 10SM CLR 12/06 A3018 RMK AO2 SLP218 T01170061 10144 20117 58002 $
