2025/07/12 05:53
KLAX 120553Z 26003KT 10SM SCT009 OVC011 18/16 A2996 RMK AO2 SLP143 T01780156 10217 20178 51013
