2023/02/17 17:53
KLAX 171753Z 05006KT 10SM FEW160 BKN250 OVC300 15/M07 A3007 RMK AO2 SLP183 T01501072 10150 20089 53006 VISNO RWY24 $
