2023/07/16 21:53
KLAX 162153Z 26010KT 10SM FEW006 FEW110 SCT250 23/18 A2990 RMK AO2 SLP123 T02330178
