2023/07/31 13:53
KLAX 311353Z 09005KT 8SM FEW009 SCT140 BKN190 BKN250 21/19 A2993 RMK AO2 SLP132 T02110194 $
