2024/11/03 03:53
KLAX 030353Z 24007KT 10SM SCT011 SCT026 BKN045 15/13 A2990 RMK AO2 SLP124 T01500133 $
