2024/07/22 05:53
KLAX 220553Z 25004KT 10SM FEW200 20/16 A2989 RMK AO2 SLP120 T02000156 10228 20200 51010 $
