2024/01/09 11:53
KLAX 091153Z 09004KT 10SM FEW200 07/M03 A3027 RMK AO2 SLP248 T00671028 10106 20067 58007
