2022/08/28 21:53
KLAX 282153Z 27013KT 10SM FEW016 FEW110 24/17 A2983 RMK AO2 SLP100 CB DSNT E T02390167 $
