2024/09/26 17:53
KLAX 261753Z VRB06KT 6SM HZ FEW012 SCT014 19/14 A2992 RMK AO2 SLP129 T01940144 10194 20156 51010
