2022/09/02 15:53
KLAX 021553Z 10004KT 10SM FEW190 28/19 A2979 RMK AO2 SLP084 T02830194
