2026/05/03 19:53
KLAX 031953Z 22010KT 10SM SCT034 BKN046 19/08 A2995 RMK AO2 SLP142 T01890083
