2026/01/02 13:53
KLAX 021353Z 05005KT 10SM FEW008 FEW028 BKN050 14/11 A3006 RMK AO2 SLP176 T01390111 $
