2023/09/06 07:53
KLAX 060753Z 28005KT 10SM FEW016 BKN028 20/17 A2993 RMK AO2 SLP134 T02000167 402220183 $
