2024/03/27 21:53
KLAX 272153Z 27012KT 10SM FEW025 FEW200 SCT250 17/11 A3016 RMK AO2 SLP213 T01720111 $
