2024/02/23 11:53
KLAX 231153Z 07004KT 10SM BKN200 BKN280 12/09 A3007 RMK AO2 SLP181 T01170089 10144 20117 56022
