2025/10/22 13:53
KLAX 221353Z 36005KT 9SM FEW009 BKN014 16/14 A3003 RMK AO2 SLP168 T01610144
