2025/11/30 01:53
KLAX 300153Z 25008KT 8SM FEW017 SCT220 16/13 A2999 RMK AO2 SLP154 T01560128 $
