2024/04/05 19:53
KLAX 051953Z 26017KT 10SM FEW010 SCT047 BKN050 13/06 A2997 RMK AO2 SLP150 T01330056 $
