2026/04/04 21:53
KLAX 042153Z 24013KT 10SM FEW250 SCT300 26/07 A2997 RMK AO2 SLP148 T02610072 $
