2022/09/08 23:53
KLAX 082353Z 26015KT 10SM FEW090 SCT150 28/20 A2964 RMK AO2 SLP036 T02780200 10361 20278 56033
