2024/10/20 11:53
KLAX 201153Z 00000KT 10SM CLR 16/03 A3006 RMK AO2 SLP178 T01560028 10194 20150 55001
