2022/09/22 03:53
KLAX 220353Z 27012KT 10SM CLR 21/16 A2992 RMK AO2 SLP130 T02110161
