2024/07/26 05:53
KLAX 260553Z 27004KT 10SM FEW002 FEW006 SCT009 18/16 A2997 RMK AO2 SLP145 T01830161 10228 20183 51011
