2024/09/17 01:53
KLAX 170153Z 26020G26KT 10SM FEW015 FEW050 18/12 A2987 RMK AO2 PK WND 25026/0108 SLP112 T01830122 $
