2026/01/28 05:53
KLAX 280553Z 00000KT 10SM FEW200 FEW250 15/09 A3026 RMK AO2 SLP245 T01500094 10183 20144 53008
