2023/10/26 07:53
KLAX 260753Z 26006KT 10SM FEW024 BKN045 18/14 A3001 RMK AO2 SLP159 T01780144 402170172 $
