2023/12/28 15:53
KLAX 281553Z VRB05KT 5SM BR FEW009 BKN017 BKN085 13/11 A3020 RMK AO2 SLP224 T01280106 $
