2025/03/26 03:53
KLAX 260353Z 23006KT 9SM OVC006 13/11 A3000 RMK AO2 SLP157 T01280111 $
