2025/08/05 05:53
KLAX 050553Z 24005KT 9SM FEW250 19/17 A2991 RMK AO2 SLP127 T01940172 10228 20194 51007
