2024/04/19 17:53
KLAX 191753Z 30005KT 8SM FEW018 BKN025 17/11 A3000 RMK AO2 SLP157 T01720111 10172 20139 51008 $
