2025/07/01 05:53
KLAX 010553Z 27010KT 10SM BKN008 17/14 A2988 RMK AO2 SLP114 T01670144 10200 20167 51009
