2025/08/15 13:53
KLAX 151353Z 15006KT 7SM OVC017 19/16 A2992 RMK AO2 SLP129 T01940156 $
