2024/04/30 03:53
KLAX 300353Z 27008KT 10SM CLR 16/11 A2984 RMK AO2 SLP104 T01560111 $
