2022/09/26 11:53
KLAX 261153Z 00000KT 10SM FEW200 21/18 A2989 RMK AO2 SLP120 T02060178 10211 20200 56006
