2025/01/18 11:53
KLAX 181153Z 07005KT 10SM BKN024 11/08 A3021 RMK AO2 SLP227 T01060078 10117 20089 58003
