2022/10/07 01:53
KLAX 070153Z 26007KT 10SM OVC013 20/17 A2999 RMK AO2 SLP153 T02000172
