2024/04/12 21:53
KLAX 122153Z 13008KT 10SM BKN026 OVC030 16/11 A2997 RMK AO2 SLP147 T01560106 $
