2024/05/14 05:53
KLAX 140553Z 23006KT 10SM FEW009 OVC014 14/12 A2996 RMK AO2 SLP144 T01440117 10178 20144 51008
