2026/04/13 09:53
KLAX 130953Z 32003KT 10SM FEW015 BKN060 BKN160 14/08 A3002 RMK AO2 SLP165 T01440083 $
