2024/10/20 17:53
KLAX 201753Z 16003KT 10SM CLR 24/01 A3011 RMK AO2 SLP193 T02440011 10250 20144 50004 $
