2025/04/30 03:53
KLAX 300353Z 27009KT 10SM OVC008 14/12 A3002 RMK AO2 SLP165 T01390122 $
