2025/07/06 19:53
KLAX 061953Z 25010KT 10SM FEW009 21/15 A2997 RMK AO2 SLP146 T02110150
