2022/10/01 21:53
KLAX 012153Z 23014KT 10SM FEW021 SCT110 21/15 A2985 RMK AO2 SLP106 T02110150
