2023/07/10 07:53
KLAX 100753Z 23004KT 10SM FEW014 16/13 A2991 RMK AO2 SLP126 T01610128 402220156
