2026/07/22 20:53
KLAX 222053Z 27014KT 10SM FEW009 FEW018 24/18 A2996 RMK AO2 SLP143 T02440183 58010
