2022/09/30 05:53
KLAX 300553Z 25005KT 10SM FEW010 20/17 A2992 RMK AO2 SLP130 T02000172 10222 20200 51009
