2022/11/23 19:53
KLAX 231953Z 29003KT 10SM FEW090 SCT150 SCT280 20/08 A3006 RMK AO2 SLP177 T02000083
