2023/06/10 07:53
KLAX 100753Z 25006KT 10SM FEW002 SCT015 BKN230 17/13 A2995 RMK AO2 SLP140 FU FEW002 T01670133 402000144
