2026/07/01 04:53
KLAX 010453Z 25007KT 10SM FEW015 FEW045 18/14 A2994 RMK AO2 SLP135 T01780139 $
