2023/07/01 07:53
KLAX 010753Z VRB04KT 5SM BR BKN008 16/15 A2990 RMK AO2 SLP123 VIS W-NW 1 T01610150 402060139 $
