2024/11/22 01:53
KLAX 220153Z 24007KT 10SM CLR 14/09 A3009 RMK AO2 SLP188 T01440089 $
