2024/06/15 17:53
KLAX 151753Z 26008KT 9SM FEW008 21/16 A2984 RMK AO2 SLP104 T02060156 10211 20156 56004
