2024/07/20 17:53
KLAX 201753Z 26007KT 10SM FEW005 FEW200 21/17 A2996 RMK AO2 SLP144 T02110167 10211 20167 51003
