2023/07/29 07:53
KLAX 290753Z 00000KT 9SM FEW011 20/18 A2993 RMK AO2 SLP132 T02000178 402560194 $
