2026/02/14 07:53
KLAX 140753Z 09008KT 9SM FEW012 FEW250 14/12 A3007 RMK AO2 SLP181 T01390122 402000089
