2026/05/24 11:53
KLAX 241153Z 26007KT 10SM FEW014 OVC016 16/12 A2999 RMK AO2 SLP155 T01560117 10161 20156 55004 $
