2022/12/11 15:53
KLAX 111553Z 24013KT 10SM -RA SCT009 BKN016 OVC055 14/13 A2992 RMK AO2 SLP129 P0001 T01390128 $
