2025/07/06 01:53
KLAX 060153Z 26013KT 10SM FEW010 20/16 A3000 RMK AO2 SLP156 T02000156
