2026/04/03 02:53
KLAX 030253Z 25008KT 10SM FEW015 FEW055 SCT250 17/13 A2992 RMK AO2 SLP131 T01670133 50001 $
