2023/12/15 19:53
KLAX 151953Z 36007KT 300V030 10SM FEW140 SCT180 SCT250 25/M03 A3010 RMK AO2 SLP192 T02501033 $
