2025/05/07 05:53
KLAX 070553Z 25005KT 10SM FEW017 BKN022 BKN042 16/12 A3003 RMK AO2 SLP168 T01560122 10156 20150 51011 $
