2025/03/11 17:53
KLAX 111753Z 09011KT 10SM OVC033 13/07 A2987 RMK AO2 SLP114 60005 T01330067 10133 20106 50012
