2022/10/17 11:53
KLAX 171153Z 10005KT 10SM FEW015 15/13 A3000 RMK AO2 SLP157 T01500133 10183 20150 56011 $
