2022/10/17 23:53
KLAX 172353Z 26013KT 10SM FEW020 SCT250 21/17 A2993 RMK AO2 SLP135 T02110167 10233 20211 56016 $
