2025/10/09 11:53
KLAX 091153Z 00000KT 10SM FEW200 16/13 A2991 RMK AO2 SLP127 T01560128 10183 20156 51001 $
