2024/04/07 13:53
KLAX 071353Z 10004KT 10SM FEW011 FEW100 SCT210 SCT270 08/04 A3012 RMK AO2 SLP200 T00830039 $
