2026/06/14 11:53
KLAX 141153Z 26005KT 10SM OVC008 17/15 A2993 RMK AO2 SLP132 T01670150 10167 20161 55001 $
