2023/04/09 07:53
KLAX 090753Z 25004KT 3/4SM R25L/P6000FT BR OVC002 12/11 A3010 RMK AO2 SLP191 T01170111 401830106
