2024/09/04 05:53
KLAX 040553Z 27003KT 10SM CLR 21/17 A2990 RMK AO2 SLP121 T02060167 10228 20200 53015 $
