2025/06/19 11:53
KLAX 191153Z 12007KT 10SM FEW010 OVC015 18/14 A2982 RMK AO2 SLP095 T01830144 10194 20183 53000 $
