2024/02/07 13:53
KLAX 071353Z 10004KT 10SM FEW015 BKN030 BKN045 08/07 A2984 RMK AO2 SLP105 T00830072
