2023/08/30 07:53
KLAX 300753Z 33004KT 10SM CLR 21/18 A2981 RMK AO2 SLP092 T02110178 402780189
