2025/03/20 03:53
KLAX 200353Z 27010KT 10SM SCT250 16/07 A3021 RMK AO2 SLP228 T01560067 $
