2024/11/15 19:53
KLAX 151953Z 26025G31KT 10SM FEW022 SCT040 17/08 A2988 RMK AO2 PK WND 26031/1948 SLP118 T01670083
