2026/05/13 09:53
KLAX 130953Z 27008KT 10SM BKN019 OVC028 16/12 A3007 RMK AO2 SLP179 T01610122
