2024/04/15 11:53
KLAX 151153Z 09003KT 6SM BR FEW003 FEW008 08/08 A3007 RMK AO2 SLP181 70038 T00830078 10122 20083 55003 $
