2024/07/21 05:53
KLAX 210553Z 27006KT 10SM FEW008 FEW170 19/16 A2989 RMK AO2 SLP121 T01890161 10222 20189 53007 $
