2024/05/25 17:53
KLAX 251753Z 27009KT 10SM FEW021 SCT029 BKN035 17/10 A3002 RMK AO2 SLP164 T01720100 10172 20133 51010
