2023/06/03 03:53
KLAX 030353Z 26010KT 10SM FEW014 16/13 A2997 RMK AO2 SLP145 T01560128
