2025/10/30 17:53
KLAX 301753Z 11004KT 10SM CLR 27/05 A2996 RMK AO2 SLP143 T02720050 10272 20150 50006 $
