2026/02/19 19:53
KLAX 191953Z 20013G21KT 2 1/2SM R25L/6000VP6000FT -RA BR BKN007 BKN011 OVC030 12/11 A2991 RMK AO2 PK WND 19027/1939 SLP128 VIS 1/2V3 P0012 T01220111
