2025/12/28 17:53
KLAX 281753Z 00000KT 10SM FEW230 FEW270 15/05 A3020 RMK AO2 SLP227 T01500050 10150 20072 51016 $
