2022/09/21 19:53
KLAX 211953Z 26012KT 10SM FEW005 24/12 A2995 RMK AO2 SLP139 T02440122
