2025/03/09 09:53
KLAX 090953Z 04003KT 10SM CLR 11/08 A3026 RMK AO2 SLP244 T01060083
