2025/01/06 17:53
KLAX 061753Z 00000KT 10SM FEW300 18/01 A3011 RMK AO2 SLP196 T01830006 10183 20083 53008
