2025/06/09 15:53
KLAX 091553Z 13005KT 5SM HZ OVC009 17/14 A2997 RMK AO2 SLP146 T01670139 $
