2024/04/26 21:53
KLAX 262153Z 26019G28KT 10SM FEW011 SCT028 18/12 A2990 RMK AO2 PK WND 25028/2148 SLP125 T01830117
