2024/12/18 15:53
KLAX 181553Z 04003KT 10SM FEW140 17/02 A3014 RMK A02 SLP203 T01670022 
