2025/12/26 15:58
KLAX 261558Z 22007G15KT 2 1/2SM BR SCT007 BKN011 OVC022 15/13 A3007 RMK AO2 RAEMM VIS 3/4V3 P0001 T01500133 $
