2026/01/29 17:53
KLAX 291753Z 32007KT 10SM FEW280 21/M02 A3021 RMK AO2 SLP230 T02061017 10206 20100 53014
