2025/12/18 19:53
KLAX 181953Z 27008KT 5SM HZ FEW009 SCT100 BKN140 BKN250 20/14 A2997 RMK AO2 SLP146 T02000144 $
