2023/06/28 03:53
KLAX 280353Z 25008KT 10SM FEW250 16/13 A2986 RMK AO2 SLP111 T01610128
