2024/06/01 01:53
KLAX 010153Z 26010KT 10SM OVC012 16/12 A2990 RMK AO2 SLP124 T01560122
