2026/05/27 04:53
KLAX 270453Z 24010KT 10SM FEW050 16/11 A2979 RMK AO2 SLP086 T01560106 $
