2025/03/26 09:53
KLAX 260953Z 24006KT 9SM FEW005 OVC008 13/11 A3001 RMK AO2 SLP161 T01280111 $
