2022/10/07 19:53
KLAX 071953Z 26011KT 7SM FEW012 FEW025 SCT050 23/17 A3002 RMK AO2 SLP164 T02280172 $
