2024/01/16 21:53
KLAX 162153Z 26012KT 10SM FEW150 SCT180 BKN250 16/12 A3005 RMK AO2 SLP174 T01560122
