2023/12/10 21:53
KLAX 102153Z 27008KT 10SM SCT250 BKN300 21/04 A3008 RMK AO2 SLP185 T02110044 $
