2025/04/22 13:53
KLAX 221353Z 01003KT 7SM FEW010 OVC018 13/09 A2996 RMK AO2 SLP144 T01330089 $
