2022/11/27 07:53
KLAX 270753Z 00000KT 7SM VCFG SCT002 13/11 A3007 RMK AO2 SLP179 T01280111 402170083 $
