2026/06/03 08:53
KLAX 030853Z 00000KT 10SM BKN013 16/13 A2999 RMK AO2 SLP154 T01610133 58012 $
