2025/04/15 09:53
KLAX 150953Z 22003KT 10SM FEW009 OVC014 13/10 A3002 RMK AO2 SLP166 T01330100 $
