2024/07/01 07:53
KLAX 010753Z 30005KT 1 1/4SM BR FEW002 BKN003 16/14 A2989 RMK AO2 SLP121 VIS N-E 3/4 T01610144 402110150
