2023/10/18 11:53
KLAX 181153Z 00000KT 1/4SM R25L/P6000FT FG VV002 18/17 A2990 RMK AO2 SLP122 VIS SE-S 1 T01780172 10189 20172 53002 $
