2022/10/25 09:53
KLAX 250953Z 07004KT 10SM CLR 15/03 A3013 RMK AO2 SLP200 T01500028
