2024/07/15 07:53
KLAX 150753Z 26007KT 10SM CLR 18/16 A3003 RMK AO2 SLP165 T01780161 402390178
