2023/12/13 03:53
KLAX 130353Z 14004KT 10SM CLR 14/12 A2993 RMK AO2 SLP134 T01440117
