2023/11/15 15:53
KLAX 151553Z 09005KT 9SM FEW090 SCT120 BKN220 18/04 A2992 RMK AO2 SLP131 T01780039
