2024/10/23 21:53
KLAX 232153Z 26009KT 10SM FEW250 24/11 A2999 RMK AO2 SLP152 T02440111
