2024/08/27 07:53
KLAX 270753Z 25006KT 10SM FEW005 FEW008 19/17 A3001 RMK AO2 SLP158 T01890172 402610178 $
