2024/12/27 07:53
KLAX 270753Z VRB04KT 10SM FEW140 BKN160 BKN250 11/10 A3007 RMK AO2 SLP180 T01060100 401830078 CHINO RWY24 $
