2024/12/14 05:53
KLAX 140553Z 27004KT 10SM FEW200 13/10 A3018 RMK AO2 SLP219 T01330100 10144 20122 53004
