2024/08/24 13:53
KLAX 241353Z 02003KT 10SM FEW009 SCT018 18/15 A3001 RMK AO2 SLP162 T01780150 $
