2025/09/09 13:53
KLAX 091353Z 00000KT 10SM SCT009 BKN014 19/17 A2993 RMK AO2 SLP133 T01940167 $
