2023/11/28 21:53
KLAX 282153Z 27009KT 10SM CLR 19/07 A3008 RMK AO2 SLP185 T01940072
