2025/12/11 05:53
KLAX 110553Z 11003KT 10SM CLR 18/09 A3003 RMK AO2 SLP164 T01780089 10217 20172 53004 $
