2024/08/27 01:53
KLAX 270153Z 26010KT 10SM FEW008 22/18 A2998 RMK AO2 SLP150 T02170178 $
