2025/01/14 15:53
KLAX 141553Z 05004KT 10SM CLR 09/M08 A3032 RMK AO2 SLP265 T00891078 VISNO RWY24 $
