2026/02/09 03:53
KLAX 090353Z 00000KT 10SM FEW250 18/12 A3013 RMK AO2 SLP202 T01830122 $
