2024/11/13 15:53
KLAX 131553Z 01005KT 10SM FEW180 FEW250 18/M04 A3011 RMK AO2 SLP196 T01831039
