2023/05/16 16:00
KLAX 161600Z 27007KT 7SM SCT005 OVC010 16/13 A3004 RMK AO2 T01560133
