2022/10/26 01:53
KLAX 260153Z 24005KT 10SM FEW250 18/13 A2998 RMK AO2 SLP152 T01830133
