2024/09/12 09:53
KLAX 120953Z 09005KT 10SM FEW009 SCT012 17/16 A2970 RMK AO2 SLP057 T01720156
