2025/04/09 09:53
KLAX 090953Z 26003KT 10SM CLR 14/12 A3003 RMK AO2 SLP166 T01390117 $
