2024/08/27 11:53
KLAX 271153Z 24005KT 10SM FEW006 SCT008 18/16 A2998 RMK AO2 SLP148 T01780161 10200 20178 55006 $
