2024/07/24 17:53
KLAX 241753Z 26008KT 10SM FEW000 FEW110 SCT170 SCT220 21/16 A3005 RMK AO2 SLP174 FG FEW000 T02110156 10217 20172 50004 $
