2024/06/05 19:53
KLAX 051953Z 26005KT 6SM HZ BKN011 19/16 A2990 RMK AO2 SLP125 BKN V SCT T01940156
