2023/04/04 19:53
KLAX 041953Z 24016KT 10SM FEW016 15/01 A3013 RMK AO2 SLP202 T01500006
