2024/04/14 05:53
KLAX 140553Z 11006KT 10SM FEW010 09/07 A3009 RMK AO2 SLP188 60006 T00940072 10139 20094 51015 $
