2026/03/27 19:53
KLAX 271953Z 29006KT 4SM HZ FEW018 SCT160 BKN250 21/14 A2996 RMK AO2 SLP143 T02060144
