2022/11/08 19:53
KLAX 081953Z 21016G25KT 8SM FEW014 SCT030 BKN050 18/13 A2985 RMK AO2 PK WND 19029/1943 SLP106 T01830133
