2023/02/24 09:53
KLAX 240953Z 08010KT 10SM FEW012 BKN030 OVC070 08/05 A3002 RMK AO2 SLP164 SHRA NW T00780050
