2022/08/22 07:59
KLAX 220759Z 25006KT 10SM CLR 19/17 A3000 RMK AO2 T01940172 $
