2026/06/28 04:53
KLAX 280453Z 25009KT 10SM SCT009 17/15 A2993 RMK AO2 SLP131 T01720150
