2024/05/17 21:53
KLAX 172153Z 28010KT 10SM FEW018 OVC032 19/13 A2994 RMK AO2 SLP139 T01890128 $
