2023/03/18 15:53
KLAX 181553Z 06006KT 10SM FEW250 16/05 A3005 RMK AO2 SLP174 T01610050
