2023/01/29 01:53
KLAX 290153Z 22005KT 10SM BKN031 14/09 A2996 RMK AO2 SLP144 T01390089 $
