2022/12/22 13:53
KLAX 221353Z 08005KT 10SM FEW006 FEW200 BKN250 09/05 A3005 RMK AO2 SLP174 T00940050
