2024/12/21 21:53
KLAX 212153Z 26009KT 10SM FEW000 SCT005 SCT220 BKN270 15/12 A3015 RMK AO2 SLP207 VIS SW-W 1 1/2 FG FEW000 T01500117
