2023/05/28 13:53
KLAX 281353Z 10004KT 10SM -DZ FEW016 OVC021 16/13 A2992 RMK AO2 DZB09 SLP132 P0000 T01560128
