2023/08/26 15:48
KLAX 261548Z 25006KT 9SM SCT005 19/17 A2996 RMK AO2 SCT V BKN
