2025/04/12 11:53
KLAX 121153Z 00000KT 3SM BR BKN005 14/13 A2995 RMK AO2 SLP138 T01440133 10161 20139 56009 $
