2023/09/02 01:53
KLAX 020153Z 19003KT 10SM BKN022 BKN050 BKN080 22/18 A2989 RMK AO2 SLP118 T02170178
