2024/02/12 11:53
KLAX 121153Z 06003KT 10SM FEW012 FEW250 08/02 A3013 RMK AO2 SLP201 T00830017 10128 20072 58018 $
