2025/03/27 05:53
KLAX 270553Z 25007KT 10SM FEW024 OVC032 14/11 A3008 RMK AO2 SLP186 T01440111 10161 20144 50007 $
