2026/04/28 17:53
KLAX 281753Z 22003KT 10SM FEW160 FEW180 19/06 A3006 RMK AO2 SLP179 T01940061 10194 20117 58004 $
