2024/01/25 03:53
KLAX 250353Z 25004KT 10SM SCT016 BKN045 OVC200 14/13 A3013 RMK AO2 SLP203 T01440128
