2026/01/19 11:53
KLAX 191153Z 09003KT 10SM FEW220 12/06 A3001 RMK AO2 SLP161 T01170056 10167 20111 58011
