2023/03/10 20:01
KLAX 102001Z 11011KT 3/4SM R25L/5000VP6000FT -RA BR BKN006 OVC012 13/12 A3005 RMK AO2 RAB1957 VIS 1/4V2 1/2 P0000 T01280117 $
