2022/12/02 07:53
KLAX 020753Z 11006KT 10SM FEW024 BKN030 OVC040 13/09 A3008 RMK AO2 RAE52 SLP183 P0000 T01280089 401670128 $
