2022/10/31 03:53
KLAX 310353Z 12004KT 10SM CLR 18/13 A2993 RMK AO2 SLP134 T01780133 CHINO RWY24 VISNO RWY24 $
