2025/07/03 13:53
KLAX 031353Z 12005KT 8SM OVC019 18/13 A2990 RMK AO2 SLP123 T01780128 $
