2023/08/02 19:53
KLAX 021953Z 25011KT 10SM FEW090 FEW140 SCT250 24/17 A3000 RMK AO2 SLP158 T02440172 $
