2023/09/04 15:53
KLAX 041553Z 14004KT 10SM SCT014 SCT022 21/17 A2994 RMK AO2 SLP135 T02060167 $
