2024/01/16 13:53
KLAX 161353Z 00000KT 3SM BR FEW001 FEW005 SCT200 09/08 A3006 RMK AO2 SLP179 VIS NE AND SE 2 1/2 T00940083 $
