2023/07/24 05:53
KLAX 240553Z 34004KT 10SM FEW007 FEW160 SCT250 20/18 A2997 RMK AO2 SLP147 T02000178 10211 20194 51017
