2025/08/12 07:53
KLAX 120753Z 24003KT 10SM FEW008 19/17 A2991 RMK AO2 SLP125 T01890172 402390178 $
