2025/03/21 09:53
KLAX 210953Z 09005KT 10SM FEW250 11/08 A3002 RMK AO2 SLP163 T01110083 $
