2022/09/06 05:53
KLAX 060553Z 24006KT 10SM FEW006 24/21 A2978 RMK AO2 SLP080 T02390211 10289 20233 51018 $
