2026/07/03 01:53
KLAX 030153Z 27013KT 10SM FEW014 FEW250 20/15 A2992 RMK AO2 SLP129 T02000150 $
