2023/11/05 11:53
KLAX 051153Z 00000KT 5SM R25L/0800VP6000FT BR FEW001 12/12 A2997 RMK AO2 SLP147 T01170117 10156 20117 56006
