2024/09/17 19:53
KLAX 171953Z 23012KT 10SM FEW025 FEW040 22/13 A2997 RMK AO2 SLP148 T02170128 $
