2023/03/22 05:53
KLAX 220553Z 25009KT 10SM FEW020 SCT035 BKN044 10/08 A2981 RMK AO2 PK WND 27034/0516 RAB20E53 TSB11E40 SLP092 CB DSNT N-NE MOV NE P0000 60013 T01000078 10139 20100 53025
