2022/11/21 15:53
KLAX 211553Z 04010KT 10SM SCT180 BKN250 16/M08 A3013 RMK AO2 SLP201 T01561078 $
