2024/07/16 03:53
KLAX 160353Z 24006KT 10SM FEW012 19/16 A2995 RMK AO2 SLP141 T01890161
