2023/09/16 23:53
KLAX 162353Z 26009KT 10SM SCT014 OVC023 20/17 A2995 RMK AO2 SLP140 T02000167 10206 20183 56010 $
