2026/01/31 09:53
KLAX 310953Z 36007KT 10SM CLR 18/00 A3016 RMK AO2 SLP210 T01830000 $
