2023/11/01 03:53
KLAX 010353Z 00000KT 10SM FEW250 21/02 A3000 RMK AO2 SLP158 T02110022 $
