2025/06/03 13:53
KLAX 031353Z 26007KT 8SM FEW004 SCT006 OVC019 16/14 A2997 RMK AO2 SLP148 T01610144 $
