2022/10/12 23:53
KLAX 122353Z 25012KT 10SM OVC013 21/17 A3004 RMK AO2 SLP169 T02060167 10233 20206 56005
