2024/07/23 17:53
KLAX 231753Z 25009KT 10SM FEW003 FEW110 SCT170 22/17 A2992 RMK AO2 SLP131 T02220172 10228 20183 50009 $
