2024/12/21 15:55
KLAX 211555Z 06005KT 1/4SM R25L/0800V2400FT FG BKN000 BKN220 09/09 A3019 RMK AO2 VIS SW 1/16 FG BKN000 T00940089 $
