2026/06/24 23:53
KLAX 242353Z 27014KT 10SM FEW011 SCT022 SCT060 20/14 A2996 RMK AO2 SLP143 T02000144 10217 20200 56014 $
