2025/04/24 19:53
KLAX 241953Z 26010KT 10SM FEW022 SCT037 BKN230 BKN280 17/11 A2999 RMK AO2 SLP155 T01720106
