2022/09/30 13:53
KLAX 301353Z 11004KT 7SM FEW009 OVC016 21/17 A2990 RMK AO2 SLP121 T02060167
