2022/10/22 01:53
KLAX 220153Z 25010KT 9SM OVC008 18/17 A2986 RMK AO2 SLP108 T01830167
