2023/08/11 11:53
KLAX 111153Z VRB05KT 10SM FEW010 OVC012 19/17 A2997 RMK AO2 SLP144 T01940172 10200 20194 55000 $
