2025/04/18 11:53
KLAX 181153Z 28011G20KT 10SM FEW012 BKN028 BKN036 13/09 A2997 RMK AO2 SLP147 T01330089 10139 20133 56001 $
