2024/07/22 03:53
KLAX 220353Z 26006KT 10SM CLR 20/16 A2987 RMK AO2 SLP114 T02000156 $
