2023/11/17 07:53
KLAX 170753Z VRB03KT 10SM CLR 16/14 A2999 RMK AO2 SLP154 T01610139 402280144 $
