2025/11/11 21:53
KLAX 112153Z 25005KT 6SM BR SCT006 SCT070 BKN140 BKN200 18/14 A3003 RMK AO2 SLP166 VIS SW-NW 2 T01780144 $
