2025/01/31 11:53
KLAX 311153Z VRB03KT 10SM FEW250 07/05 A3024 RMK AO2 SLP238 T00720050 10122 20067 58006 $
