2024/06/23 07:53
KLAX 230753Z 24005KT 3SM BR BKN003 16/16 A2988 RMK AO2 SLP116 VIS SW-NW 2 T01610156 402280161
