2024/11/25 17:53
KLAX 251753Z VRB03KT 8SM FEW009 BKN075 OVC095 16/09 A3020 RMK AO2 SLP226 T01560089 10156 20106 51013
