2024/10/13 04:53
KLAX 130453Z 25006KT 10SM BKN007 17/16 A3002 RMK AO2 SLP165 T01720161
