2025/07/24 16:53
KLAX 241653Z 18004KT 10SM FEW016 SCT200 22/16 A3009 RMK AO2 SLP189 T02170156 $
