2026/03/03 17:53
KLAX 031753Z 00000KT 10SM FEW018 SCT040 BKN180 17/11 A3006 RMK AO2 SLP179 T01720111 10172 20133 51015
