2025/05/15 09:53
KLAX 150953Z 34005KT 10SM FEW012 14/12 A2997 RMK AO2 SLP148 T01390117 $
