2023/05/18 21:53
KLAX 182153Z VRB04KT 10SM FEW020 FEW090 21/13 A2993 RMK AO2 SLP135 T02060133
