2025/01/15 09:53
KLAX 150953Z 12003KT 10SM CLR 09/M04 A3023 RMK AO2 SLP234 T00891044
