2023/09/10 21:53
KLAX 102153Z 25009KT 10SM FEW095 FEW150 27/18 A2990 RMK AO2 SLP122 T02670178
