2024/02/23 23:53
KLAX 232353Z 27008KT 10SM SCT150 BKN270 21/08 A2997 RMK AO2 SLP149 T02060078 10244 20206 56016
