2025/06/10 05:53
KLAX 100553Z 25005KT 9SM OVC008 17/14 A2994 RMK AO2 SLP137 T01670144 10200 20167 52011 $
