2026/06/01 11:53
KLAX 011153Z 09003KT 6SM HZ FEW007 OVC010 17/14 A2993 RMK AO2 SLP131 T01670139 10178 20161 53006 $
