2025/12/10 01:53
KLAX 100153Z 28005KT 10SM CLR 19/08 A2999 RMK AO2 SLP153 T01940083 $
