2024/01/27 01:53
KLAX 270153Z 23005KT 10SM FEW140 FEW180 SCT280 17/11 A3020 RMK AO2 SLP228 T01670106 $
