2023/07/19 13:53
KLAX 191353Z 24004KT 7SM FEW006 SCT014 19/17 A2997 RMK AO2 SLP148 T01890172 $
