2025/06/25 11:53
KLAX 251153Z 00000KT 10SM FEW012 OVC016 18/13 A2997 RMK AO2 SLP147 T01780133 10178 20167 55003
