2025/12/29 21:53
KLAX 292153Z VRB03KT 10SM FEW250 23/M03 A3008 RMK AO2 SLP186 T02281033 $
