2025/05/05 13:53
KLAX 051353Z 14004KT 9SM FEW009 OVC026 15/11 A2981 RMK AO2 SLP093 T01500106
