2025/03/09 05:53
KLAX 090553Z 24004KT 10SM CLR 12/08 A3029 RMK AO2 SLP254 T01220078 10150 20117 51009
