2024/04/16 19:53
KLAX 161953Z 27012KT 10SM CLR 20/12 A3002 RMK AO2 SLP165 T02000117
