2024/09/14 07:53
KLAX 140753Z 28007KT 10SM FEW012 OVC019 18/16 A2986 RMK AO2 SLP109 T01830161 402440183
