2025/06/08 11:53
KLAX 081153Z 14004KT 10SM OVC009 16/13 A2996 RMK AO2 SLP145 T01560133 10161 20150 56004 $
