2023/05/27 01:53
KLAX 270153Z 25012KT 10SM SCT021 BKN047 17/11 A2996 RMK AO2 SLP143 T01670111
