2023/12/15 17:53
KLAX 151753Z 04009KT 10SM FEW140 SCT180 BKN250 21/M03 A3017 RMK AO2 SLP213 T02061028 10206 20117 50006 $
