2023/01/08 05:53
KLAX 080553Z 24004KT 10SM FEW090 SCT200 13/12 A3017 RMK AO2 SLP214 T01330117 10156 20128 53011 $
