2024/08/02 15:53
KLAX 021553Z 24006KT 4SM BR BCFG FEW000 FEW004 SCT200 SCT270 19/17 A3004 RMK AO2 SLP172 VIS SW 1 1/2 W 1 NW 1 1/2 FG FEW000 T01940167
