2025/06/16 03:53
KLAX 160353Z 24005KT 10SM FEW150 18/15 A2987 RMK AO2 SLP114 T01830150 $
