2024/05/11 11:53
KLAX 111153Z 27004KT 8SM OVC010 13/12 A2994 RMK AO2 SLP138 T01330117 10139 20133 55003 $
