2023/02/12 23:53
KLAX 122353Z 24012KT 10SM FEW030 SCT120 BKN250 13/07 A2985 RMK AO2 SLP108 T01280067 10150 20128 55005 $
