2024/07/18 15:53
KLAX 181553Z 22005KT 10SM FEW009 SCT085 BKN140 22/18 A2997 RMK AO2 SLP147 T02170178
