2024/03/27 03:53
KLAX 270353Z 24005KT 10SM CLR 13/09 A3010 RMK AO2 SLP190 T01280094
