2022/11/19 05:53
KLAX 190553Z VRB03KT 9SM CLR 14/11 A2998 RMK AO2 SLP151 T01440111 10167 20133 51010 $
