2025/06/08 19:53
KLAX 081953Z 24008KT 10SM FEW009 OVC014 18/14 A2999 RMK AO2 SLP155 T01830139 $
