2023/09/05 21:53
KLAX 052153Z 25008KT 10SM OVC028 21/17 A2992 RMK AO2 SLP129 T02110167 $
