2026/07/20 20:53
KLAX 202053Z 26009KT 10SM FEW012 SCT035 BKN120 BKN180 26/18 A2992 RMK AO2 SLP129 T02560183 58007 $
