2026/03/15 05:53
KLAX 150553Z 11004KT 6SM BR VCFG FEW004 15/14 A2996 RMK AO2 SLP144 VIS W 2 T01500139 10178 20139 53012 $
