2023/02/14 21:53
KLAX 142153Z 27017G22KT 10SM FEW014 FEW030 SCT040 14/07 A2982 RMK AO2 SLP095 T01440067 $
