2024/05/21 19:53
KLAX 211953Z 24010KT 10SM SCT027 SCT035 19/12 A2999 
