2024/07/29 21:53
KLAX 292153Z 27013KT 10SM CLR 21/14 A2997 RMK AO2 SLP147 T02110139
