2025/07/22 07:53
KLAX 220753Z 27009KT 10SM FEW015 BKN028 18/15 A2997 RMK AO2 SLP145 T01830150 402220183 $
