2024/11/22 11:53
KLAX 221153Z 00000KT 10SM FEW003 FEW250 09/07 A3007 RMK AO2 SLP179 T00940067 10139 20083 56005 $
