2024/05/25 19:53
KLAX 251953Z 25009KT 10SM FEW019 SCT035 18/11 A3002 RMK AO2 SLP166 T01780106
