2024/05/23 01:53
KLAX 230153Z 27009KT 10SM SCT015 16/12 A2994 RMK AO2 SLP139 T01610122 
