2023/01/07 11:53
KLAX 071153Z 02006KT 10SM BKN180 12/04 A3013 RMK AO2 SLP202 T01170039 10139 20089 58003 $
