2026/06/30 17:53
KLAX 301753Z 27010KT 10SM FEW009 FEW017 SCT037 20/14 A2996 RMK AO2 SLP145 T02000139 10206 20178 51007 $
