2024/05/31 07:53
KLAX 310753Z 28005KT 5SM BR FEW002 SCT004 OVC006 15/13 A2993 RMK AO2 SLP133 T01500133 402000144
