2025/11/09 23:53
KLAX 092353Z 25013KT 10SM FEW005 18/16 A3003 RMK AO2 SLP168 T01780161 10200 20178 55003 $
