2024/06/02 03:53
KLAX 020353Z 27008KT 10SM OVC015 16/12 A2992 RMK AO2 SLP131 T01560122
