2023/09/22 21:53
KLAX 222153Z 27010KT 10SM FEW030 SCT140 BKN180 OVC250 20/14 A3000 RMK AO2 SLP157 FU S T02000144 $
