2025/01/14 07:53
KLAX 140753Z 29003KT 10SM CLR 13/M07 A3028 RMK AO2 SLP252 T01331067 402000061
