2025/09/14 03:53
KLAX 140353Z 21005KT 7SM OVC013 20/17 A2990 RMK AO2 SLP121 T02000172 $
