2025/07/02 19:53
KLAX 021953Z 23009KT 10SM FEW025 20/13 A2989 RMK AO2 SLP122 T02000133 $
