2025/03/15 11:53
KLAX 151153Z 00000KT 10SM CLR 08/07 A3000 RMK AO2 SLP159 70004 T00830067 10111 20078 51001 $
