2023/09/08 21:53
KLAX 082153Z 26012KT 10SM FEW250 24/18 A2998 RMK AO2 SLP150 T02440183
