2025/03/15 07:53
KLAX 150753Z 28007KT 10SM FEW018 FEW030 11/08 A3000 RMK AO2 SLP158 T01110078 401110089 $
