2023/06/24 01:53
KLAX 240153Z 25015KT 10SM CLR 18/12 A2999 RMK AO2 SLP153 T01780122
