2023/06/30 07:53
KLAX 300753Z 30006KT 3/4SM R25L/P6000FT BR VV002 15/14 A2991 RMK AO2 SLP127 VIS E 1/4 VIS SE 2 T01500139 402170144
