2024/10/27 07:53
KLAX 270753Z 00000KT 5SM BR SCT250 17/14 A3003 RMK AO2 VIS 2 1/2 RWY24 SLP165 T01670144 402170133 $
