2024/07/14 11:53
KLAX 141153Z 27006KT 9SM OVC008 19/17 A3001 RMK AO2 SLP161 T01890167 10189 20183 53006 $
