2026/01/20 05:53
KLAX 200553Z 00000KT 7SM CLR 16/13 A3005 RMK AO2 SLP174 T01560133 10178 20144 51013 $
