2024/08/09 21:53
KLAX 092153Z 26013G19KT 10SM FEW011 23/17 A2985 RMK AO2 SLP107 T02330172 $
