2025/09/24 14:29
KLAX 241429Z 00000KT 6SM BR SCT007 BKN110 BKN160 21/19 A2994 RMK AO2 SCT V BKN T02060189 $
