2023/08/19 13:53
KLAX 191353Z 00000KT 10SM FEW011 SCT050 SCT200 18/16 A2984 RMK AO2 SLP102 T01780156 $
