2023/05/20 11:53
KLAX 201153Z 26004KT 7SM FEW006 OVC014 16/14 A3006 RMK AO2 SLP176 VIS W 2 T01560144 10161 20156 56007
