2024/01/22 19:53
KLAX 221953Z 07012G20KT 3SM -RA BR SCT007 OVC027 14/13 A2974 RMK AO2 PK WND 06027/1859 SLP068 P0001 T01390133
