2024/05/07 21:53
KLAX 072153Z 24012KT 10SM FEW015 19/11 A2989 RMK AO2 SLP122 T01940106 $
