2025/04/06 21:53
KLAX 062153Z 23012KT 10SM FEW250 21/10 A3016 RMK AO2 SLP212 T02060100 $
