2025/03/27 01:53
KLAX 270153Z 26011KT 10SM OVC032 15/10 A3005 RMK AO2 SLP176 T01500100 $
