2025/09/08 11:53
KLAX 081153Z 00000KT 10SM CLR 20/17 A3002 RMK AO2 SLP163 T02000172 10222 20200 56006 $
