2022/10/04 15:53
KLAX 041553Z 32003KT 9SM CLR 22/17 A2995 RMK AO2 SLP141 T02170167
