2024/01/21 17:53
KLAX 211753Z 10004KT 9SM -RA SCT009 BKN029 OVC037 15/14 A2994 RMK AO2 RAB43 SLP138 P0000 60000 T01500139 10150 20133 53020 $
