2022/11/20 15:53
KLAX 201553Z 05003KT 10SM FEW280 16/M08 A3019 RMK AO2 SLP223 T01561078 $
