2023/05/18 07:53
KLAX 180753Z 12004KT 6SM BR OVC008 16/13 A2987 RMK AO2 SLP112 T01560133 401780133
