2022/10/25 15:53
KLAX 251553Z 07004KT 10SM CLR 18/01 A3011 RMK AO2 SLP195 T01780011
