2023/06/04 19:53
KLAX 041953Z 25007KT 200V290 10SM FEW008 BKN013 OVC016 17/13 A2991 RMK AO2 SLP128 T01720133
