2024/12/08 13:53
KLAX 081353Z 00000KT 10SM VCFG FEW001 FEW250 10/04 A3008 RMK AO2 SLP184 T01000044
