2025/01/31 19:53
KLAX 311953Z 27008KT 9SM FEW050 SCT180 BKN250 16/07 A3028 RMK AO2 SLP254 T01560072
