2022/12/28 07:59
KLAX 280759Z 10004KT 7SM -RA SCT008 BKN042 OVC090 12/12 A2992 RMK AO2 P0000 T01220117
