2023/06/01 17:53
KLAX 011753Z 26008KT 10SM FEW017 BKN022 OVC029 17/13 A2994 RMK AO2 SLP136 T01670128 10167 20161 51009
