2025/07/08 11:53
KLAX 081153Z 18007KT 10SM FEW008 FEW012 17/15 A3003 RMK AO2 SLP167 T01670150 10172 20167 53001 $
