2025/12/06 05:53
KLAX 060553Z 09004KT 10SM CLR 14/12 A3006 RMK AO2 SLP178 T01440117 10172 20139 51004 $
