2025/11/18 23:53
KLAX 182353Z 24005KT 10SM FEW050 FEW080 SCT250 14/08 A2991 RMK AO2 SLP129 60002 T01440083 10156 20128 55001
