2026/04/15 02:53
KLAX 150253Z 24011KT 10SM FEW250 16/12 A3002 RMK AO2 SLP166 T01610117 55005
