2025/01/26 00:53
KLAX 260053Z 17009G16KT 10SM BKN033 OVC046 13/08 A2990 RMK AO2 SLP124 T01330078
