2025/06/05 15:53
KLAX 051553Z 27007KT 10SM BKN011 OVC018 17/14 A2993 RMK AO2 SLP135 T01670139
