2025/04/28 03:53
KLAX 280353Z 28012KT 10SM FEW036 FEW060 14/11 A3007 RMK AO2 SLP182 T01390106 $
