2025/04/01 21:53
KLAX 012153Z 27029G34KT 10SM FEW060 SCT150 BKN200 16/07 A2991 RMK AO2 PK WND 27040/2124 SLP129 T01560072
