2022/11/30 23:53
KLAX 302353Z 22007KT 10SM BKN037 15/09 A2997 RMK AO2 SLP146 T01500094 10183 20150 55003 $
