2024/09/03 13:58
KLAX 031358Z 26003KT 2 1/2SM BR BKN004 19/18 A2990 RMK AO2 VIS 1 1/2 RWY24 VIS 1 1/2V3 T01940183 $
