2025/03/23 17:53
KLAX 231753Z VRB05KT 10SM FEW018 18/11 A3005 RMK AO2 SLP173 T01830111 10183 20133 53011 $
