2024/01/10 11:53
KLAX 101153Z 07005KT 10SM FEW025 FEW220 08/01 A3002 RMK AO2 SLP165 T00780011 10111 20061 58007
