2023/10/15 13:53
KLAX 151353Z 08003KT 10SM CLR 17/10 A3001 RMK AO2 SLP161 T01670100
