2023/09/11 01:53
KLAX 110153Z 22008KT 10SM FEW095 FEW150 22/18 A2989 RMK AO2 SLP118 T02220178
