2023/12/05 19:53
KLAX 051953Z VRB05KT 10SM R25L/3500VP6000FT FEW250 28/03 A3009 RMK AO2 SLP187 T02780028
