2022/09/21 13:53
KLAX 211353Z 36003KT 10SM FEW018 18/13 A2994 RMK AO2 SLP137 T01830128 $
