2025/10/01 01:53
KLAX 010153Z 26013KT 10SM CLR 21/16 A2999 RMK AO2 SLP153 T02060156 $
