2025/01/01 01:53
KLAX 010153Z 24007KT 3SM HZ BKN008 OVC018 13/07 A3006 RMK AO2 SLP178 T01280072 $
