2022/11/19 17:53
KLAX 191753Z 00000KT 10SM CLR 21/M03 A3009 RMK AO2 SLP190 T02061033 10206 20089 51020 $
