2022/10/08 15:53
KLAX 081553Z 00000KT 3SM HZ BKN011 21/18 A3007 RMK AO2 SLP182 VIS SW-NW 2 T02060178 $
