2026/05/12 14:53
KLAX 121453Z 23005KT 5SM HZ FEW005 OVC010 16/13 A2997 RMK AO2 SLP149 T01560128 53010
