2024/12/19 19:53
KLAX 191953Z 26006KT 10SM FEW009 SCT160 BKN250 21/11 A3010 RMK AO2 SLP190 T02110111
