2022/09/28 17:53
KLAX 281753Z 00000KT 8SM FEW025 27/20 A2994 RMK AO2 SLP137 T02720200 10272 20206 51008
