2024/06/23 05:53
KLAX 230553Z 26007KT 10SM FEW004 18/16 A2989 RMK AO2 SLP118 T01780161 10217 20167 51012
