2025/11/06 17:53
KLAX 061753Z 00000KT 10SM FEW011 19/11 A3015 RMK AO2 SLP209 T01940111 10194 20128 50004 $
