2026/06/05 21:53
KLAX 052153Z 26010KT 10SM FEW011 SCT016 21/16 A2986 RMK AO2 SLP111 T02060156 $
