2023/02/11 05:53
KLAX 110553Z 12004KT 10SM BKN200 OVC250 15/09 A3000 RMK AO2 SLP158 T01500089 10194 20144 58007 $
