2024/04/12 09:53
KLAX 120953Z 00000KT 5SM BR FEW003 OVC005 12/11 A2984 RMK AO2 SLP104 T01220106 $
