2025/08/03 17:53
KLAX 031753Z 25009KT 7SM FEW011 SCT270 22/16 A3004 RMK AO2 SLP170 T02170156 10217 20178 53003 $
