2024/01/08 17:53
KLAX 081753Z 00000KT 10SM CLR 13/M06 A3028 RMK AO2 SLP253 T01281061 10128 20072 52026
