2024/01/12 09:53
KLAX 120953Z 07004KT 10SM FEW200 FEW250 08/M07 A3017 RMK AO2 SLP213 T00831067
