2023/10/05 05:53
KLAX 050553Z VRB03KT 10SM CLR 20/14 A2991 RMK AO2 SLP125 T02000139 10233 20194 51012 $
