2022/11/22 07:53
KLAX 220753Z VRB04KT 10SM FEW200 BKN280 15/M06 A3008 RMK AO2 SLP182 T01501056 402500111 $
