2024/01/16 07:53
KLAX 160753Z 00000KT 6SM BR FEW006 SCT200 BKN250 12/11 A3008 RMK AO2 SLP183 T01220111 401610078 $
