2023/12/08 17:53
KLAX 081753Z 03005KT 10SM FEW014 FEW027 SCT160 17/09 A3008 RMK AO2 SLP186 T01670089 10167 20111 51011
