2024/08/15 05:53
KLAX 150553Z 24004KT 10SM FEW010 19/18 A2992 RMK AO2 SLP130 T01940178 10233 20194 58002 $
