2022/11/19 23:53
KLAX 192353Z 25005KT 10SM CLR 23/M07 A3004 RMK AO2 SLP171 T02281072 10239 20200 55002 $
