2025/04/15 07:53
KLAX 150753Z 26006KT 10SM BKN012 13/11 A3003 RMK AO2 SLP166 T01280106 401830122 $
