2023/01/28 05:53
KLAX 280553Z 00000KT 10SM CLR 12/09 A2999 RMK AO2 SLP154 T01170094 10156 20117 55001 $
