2023/11/22 13:53
KLAX 221353Z 02006KT 10SM FEW200 SCT250 16/M02 A3015 RMK AO2 SLP207 T01561017
