2025/12/18 15:53
KLAX 181553Z 11004KT 1/2SM R25L/0700V1200FT FG FEW000 BKN002 BKN120 13/13 A3000 RMK AO2 SLP155 VIS 1/8V3/4 BKN002 V SCT FG FEW000 T01280128 $
