2023/08/12 19:53
KLAX 121953Z 26009KT 10SM FEW011 FEW100 24/18 A3002 RMK AO2 SLP163 T02390178 $
