2023/02/16 09:53
KLAX 160953Z 06003KT 10SM CLR 08/M04 A3026 RMK AO2 SLP244 T00781039 $
