2023/05/16 09:53
KLAX 160953Z 26005KT 10SM FEW007 OVC009 14/13 A3002 RMK AO2 SLP165 T01440133
