2022/10/12 15:53
KLAX 121553Z 25005KT 8SM FEW012 SCT024 BKN120 20/18 A3009 RMK AO2 LTG DSNT S SLP185 CB DSNT S T02000178
