2025/12/23 13:53
KLAX 231353Z 07009KT 5SM BR FEW008 OVC014 16/13 A2992 RMK AO2 SLP130 T01560133 $
