2025/11/14 23:53
KLAX 142353Z 10010KT 10SM FEW012 SCT032 OVC045 18/16 A2992 RMK AO2 RAE41 SLP131 P0002 60097 T01830156 10183 20161 56009 $
