2025/01/13 03:53
KLAX 130353Z 08003KT 10SM CLR 13/07 A3009 RMK AO2 SLP188 T01280067 $
