2023/04/16 17:53
KLAX 161753Z 26006KT 10SM OVC011 14/11 A3014 RMK AO2 SLP206 T01390106 10139 20122 51009
