2026/02/17 23:53
KLAX 172353Z 23014KT 10SM SCT036 BKN047 BKN065 14/07 A3003 RMK AO2 SLP170 60027 T01440067 10156 20117 56013
