2025/11/25 05:53
KLAX 250553Z 03004KT 10SM CLR 15/13 A3011 RMK AO2 SLP195 T01500133 10172 20150 53003
