2025/03/21 21:53
KLAX 212153Z 26015KT 10SM FEW160 FEW250 18/09 A3002 RMK AO2 SLP164 T01780094 $
