2024/01/15 11:53
KLAX 151153Z 00000KT 10SM FEW015 FEW250 08/07 A3005 RMK AO2 SLP172 T00780072 10122 20078 58006 $
