2024/08/09 03:53
KLAX 090353Z 28007KT 5SM BR OVC004 18/16 A2989 RMK AO2 SLP118 T01780161 $
