2025/06/13 15:53
KLAX 131553Z 24007KT 9SM FEW012 OVC018 19/14 A2989 RMK AO2 SLP119 T01890139
