2023/09/14 21:53
KLAX 142153Z 25010KT 10SM FEW016 FEW100 22/16 A2993 RMK AO2 SLP132 T02220156 $
