2023/09/10 19:53
KLAX 101953Z 25011KT 10SM FEW100 SCT160 SCT220 27/18 A2993 RMK AO2 SLP133 ACSL DSNT NE T02720178
