2024/12/22 17:53
KLAX 221753Z 00000KT 6SM HZ FEW170 BKN200 OVC240 14/10 A3015 RMK AO2 SLP209 T01440100 10144 20100 51009
