2025/04/29 09:53
KLAX 290953Z 00000KT 10SM FEW011 FEW016 13/11 A3004 RMK AO2 SLP172 T01330106 $
