2022/09/05 07:53
KLAX 050753Z 10005KT 10SM FEW070 FEW150 25/21 A2979 RMK AO2 SLP084 T02500211 403780250
