2024/10/12 01:29
KLAX 120129Z 27011KT 8SM BKN006 BKN180 BKN259 17/16 A3000 RMK AO2 T01720156 $
