2023/12/29 19:53
KLAX 291953Z 00000KT 6SM HZ FEW090 SCT140 BKN180 OVC250 17/13 A3012 RMK AO2 SLP199 T01720128 $
