2025/12/24 13:53
KLAX 241353Z 14017G29KT 5SM -RA BR FEW008 BKN010 OVC016 18/16 A2985 RMK AO2 PK WND 15032/1259 SLP105 CB DSNT N-NE P0010 T01780161 $
