2024/06/07 19:53
KLAX 071953Z 26007KT 10SM FEW004 SCT008 OVC017 19/15 A2992 RMK AO2 SLP132 T01890150 $
