2025/02/25 03:53
KLAX 250353Z 18003KT 10SM CLR 15/13 A3003 RMK AO2 SLP167 T01500128 $
