2026/03/20 07:53
KLAX 200753Z 00000KT 10SM CLR 20/14 A2999 RMK AO2 SLP153 T02000139 402830167
