2022/11/01 11:53
KLAX 011153Z 07004KT 6SM BR FEW006 BKN012 BKN150 17/15 A2986 RMK AO2 SLP110 T01670150 10183 20167 56006 VISNO RWY24 $
