2025/12/21 05:53
KLAX 210553Z 00000KT 5SM BR SCT008 15/13 A3010 RMK AO2 SLP191 T01500128 10161 20144 52010 $
