2023/07/20 07:53
KLAX 200753Z 24005KT 10SM FEW014 19/17 A2996 RMK AO2 SLP141 T01890167 402390183 $
