2025/03/02 11:53
KLAX 021153Z 11005KT 10SM BKN048 13/11 A3007 RMK AO2 SLP181 T01330106 10139 20128 58005 $
