2023/08/14 05:53
KLAX 140553Z 26005KT 10SM OVC008 19/18 A2994 RMK AO2 SLP136 T01890178 10217 20189 51010 $
