2024/01/13 09:53
KLAX 130953Z 08004KT 10SM SCT250 08/02 A3009 RMK AO2 SLP189 T00830022 $
