2023/07/26 19:53
KLAX 261953Z 25011KT 10SM FEW009 FEW080 SCT140 SCT250 26/18 A2995 RMK AO2 SLP139 T02610183 $
