2023/06/06 15:53
KLAX 061553Z 00000KT 10SM FEW018 SCT035 BKN050 17/09 A2990 RMK AO2 SLP124 T01720089
