2022/11/16 21:53
KLAX 162153Z 26009KT 10SM CLR 23/M07 A3020 RMK AO2 SLP228 T02281072
