2026/06/24 11:53
KLAX 241153Z 27006KT 6SM BR FEW004 BKN006 OVC010 17/15 A3000 RMK AO2 SLP158 T01670150 10178 20167 56003 $
