2024/05/30 05:53
KLAX 300553Z 25006KT 10SM FEW011 14/12 A3000 RMK AO2 SLP158 T01440122 10183 20144 53007 $
