2026/02/04 09:53
KLAX 040953Z 00000KT 10SM CLR 14/06 A3015 RMK AO2 SLP208 T01440056 $
