2023/10/19 15:53
KLAX 191553Z 27009KT 3/4SM R25L/P6000FT BR OVC003 17/16 A2996 RMK AO2 SLP143 T01720161 $
