2025/03/21 17:53
KLAX 211753Z 00000KT 9SM FEW018 SCT160 BKN250 19/07 A3007 RMK AO2 SLP181 T01890072 10189 20106 50003 $
