2025/11/14 15:53
KLAX 141553Z 07007KT 7SM -RA BKN030 BKN039 OVC055 16/13 A2999 RMK AO2 SLP154 P0004 T01610133
