2023/10/18 15:53
KLAX 181553Z 31003KT 1SM R25L/P6000FT BCFG BR BKN002 17/17 A2992 RMK AO2 SLP130 VIS 1/2V1 1/2 VIS S-NW 1/2 T01670167 $
