2023/04/16 09:53
KLAX 160953Z 27003KT 10SM FEW010 12/09 A3009 RMK AO2 SLP186 T01170094
