2025/04/18 17:53
KLAX 181753Z 28008KT 8SM FEW018 SCT029 OVC034 15/09 A3002 RMK AO2 SLP166 T01500089 10150 20133 53010
