2025/10/31 03:53
KLAX 310353Z 20003KT 10SM CLR 19/15 A2991 RMK AO2 SLP128 T01890150 $
