2026/02/02 05:53
KLAX 020553Z 11006KT 10SM CLR 17/08 A3004 RMK AO2 SLP169 T01670083 10222 20161 53014
