2026/04/24 11:53
KLAX 241153Z 08004KT 10SM FEW011 FEW018 SCT200 SCT250 14/11 A2991 RMK AO2 SLP125 T01390111 10172 20139 55005 $
