2023/05/24 09:53
KLAX 240953Z 15004KT 10SM FEW011 OVC014 15/12 A2992 RMK AO2 SLP132 T01500122 $
