2023/07/09 11:53
KLAX 091153Z 00000KT 9SM OVC014 17/14 A2987 RMK AO2 SLP113 T01670139 10172 20156 55000
