2024/10/15 03:53
KLAX 150353Z 27008KT 10SM BKN014 17/14 A3004 RMK AO2 SLP169 T01720144 $
