2025/02/18 03:53
KLAX 180353Z 15003KT 10SM FEW200 BKN250 14/11 A2997 RMK AO2 SLP146 T01440111
