2024/12/13 07:53
KLAX 130753Z VRB04KT 10SM FEW200 FEW250 11/09 A3005 RMK AO2 SLP175 T01110094 401560067
