2023/01/24 13:53
KLAX 241353Z 09004KT 10SM CLR 07/M01 A3027 RMK AO2 SLP248 T00721006 $
