2023/05/05 03:53
KLAX 050353Z 25007KT 10SM FEW024 BKN034 OVC075 14/10 A3000 RMK AO2 SLP157 T01440100
