2026/01/08 17:53
KLAX 081753Z 33007KT 10SM FEW010 FEW070 15/03 A3007 RMK AO2 SLP180 T01500033 10150 20089 53011 $
