2025/06/14 03:53
KLAX 140353Z 24009KT 10SM OVC010 17/14 A2987 RMK AO2 SLP112 T01720144 $
