2024/12/31 09:53
KLAX 310953Z 00000KT 3/4SM R25L/1600V5000FT BR FEW001 SCT004 10/08 A3003 RMK AO2 SLP168 VIS SE 1/4 T01000078
