2025/03/31 03:53
KLAX 310353Z VRB04KT 9SM OVC014 13/11 A3012 RMK AO2 SLP197 T01330106 $
