2024/03/07 03:53
KLAX 070353Z 11007KT 5SM -RA BR OVC021 12/10 A2983 RMK AO2 SLP099 P0017 T01170100
