2025/01/13 01:53
KLAX 130153Z 22007KT 10SM CLR 14/06 A3004 RMK AO2 SLP171 T01440061 $
