2025/04/25 23:53
KLAX 252353Z 24012G19KT 10SM FEW032 SCT041 SCT050 16/07 A2997 RMK AO2 SLP148 T01610072 10178 20156 58010
