2024/12/20 02:22
KLAX 200222Z 27007KT 2 1/2SM R25L/4000VP6000FT BR BKN002 11/10 A3008 RMK AO2 T01110100
