2023/04/17 21:53
KLAX 172153Z 24011KT 9SM FEW026 FEW033 17/11 A2996 RMK AO2 SLP144 T01720106
