2023/02/02 15:53
KLAX 021553Z 12006KT 10SM SCT180 BKN250 10/M01 A3031 RMK AO2 SLP261 T01001006 $
