2025/03/10 03:53
KLAX 100353Z 20003KT 10SM CLR 14/06 A3008 RMK AO2 SLP186 T01390056 $
