2023/11/22 15:53
KLAX 221553Z 07005KT 10SM FEW180 FEW200 SCT250 17/M02 A3015 RMK AO2 SLP208 T01671017
