2023/04/27 21:53
KLAX 272153Z 27012KT 10SM BKN008 16/12 A2994 RMK AO2 SLP137 T01610122 $
