2022/11/12 21:53
KLAX 122153Z 25007KT 10SM CLR 18/02 A3001 RMK AO2 SLP163 T01830022 $
