2025/08/04 21:53
KLAX 042153Z 25009KT 10SM FEW200 SCT250 23/16 A2993 RMK AO2 SLP132 T02330161
