2023/09/24 17:53
KLAX 241753Z 00000KT 6SM HZ CLR 22/15 A3002 RMK AO2 SLP165 T02170150 10222 20167 52000 $
