2024/04/10 11:53
KLAX 101153Z 07004KT 10SM CLR 14/06 A3004 RMK AO2 SLP169 T01390061 10161 20133 58003 $
