2023/02/18 13:53
KLAX 181353Z 06003KT 10SM BKN150 09/M06 A3000 RMK AO2 SLP157 T00891061
