2025/07/29 19:53
KLAX 291953Z 24008G16KT 8SM FEW015 23/16 A3005 RMK AO2 SLP173 T02280156
