2023/10/29 03:53
KLAX 290353Z VRB03KT 10SM CLR 16/13 A2994 RMK AO2 SLP136 T01610133
