2026/07/21 14:53
KLAX 211453Z 00000KT 7SM FEW008 FEW014 SCT140 BKN180 23/19 A2999 RMK AO2 SLP152 T02280194 51017 $
