2023/03/20 01:53
KLAX 200153Z 12011KT 10SM OVC028 13/09 A2993 RMK AO2 SLP134 T01280089
