2023/11/12 21:53
KLAX 122153Z 26009KT 10SM FEW250 24/05 A2994 RMK AO2 SLP137 T02390050
