2025/05/23 15:53
KLAX 231553Z VRB04KT 8SM OVC019 18/13 A2995 RMK AO2 SLP142 T01780128 $
