2025/06/11 01:53
KLAX 110153Z 27011KT 10SM OVC007 17/14 A2991 RMK AO2 SLP128 T01720144 $
