2023/04/02 07:53
KLAX 020753Z 10004KT 10SM CLR 12/09 A3013 RMK AO2 SLP200 T01170094 401890089 $
