2024/01/18 07:59
KLAX 180759Z 03005KT 9SM FEW020 OVC033 14/12 A3008 RMK AO2 T01440122
