2022/11/20 07:53
KLAX 200753Z 02006KT 10SM CLR 17/M11 A3014 RMK AO2 SLP202 T01671106 402390089 $
