2023/07/09 01:53
KLAX 090153Z 25009KT 10SM SCT013 18/14 A2982 RMK AO2 SLP098 T01830144
