2025/07/27 17:05
KLAX 271705Z 23007KT 10SM SCT019 21/14 A3000 RMK AO2 T02110144
