2023/10/11 15:53
KLAX 111553Z 17003KT 10SM FEW017 FEW045 19/15 A2972 RMK AO2 SLP063 T01940150 $
