2023/11/04 07:53
KLAX 040753Z 00000KT 3SM BR BKN003 16/15 A3006 RMK AO2 SLP175 VIS W 1 T01560150 402500122
