2024/07/21 03:53
KLAX 210353Z 23008KT 10SM FEW006 20/16 A2987 RMK AO2 SLP115 T02000161 $
