2023/02/04 01:53
KLAX 040153Z 26010KT 10SM SCT150 SCT220 15/08 A3015 RMK AO2 SLP208 T01500078 $
