2024/02/17 19:53
KLAX 171953Z 26005KT 7SM BKN010 OVC019 14/11 A3010 RMK AO2 SLP193 T01440106
