2024/09/17 13:53
KLAX 171353Z 09004KT 9SM FEW018 SCT025 BKN031 16/12 A2995 RMK AO2 SLP139 T01610122 $
