2025/02/08 07:53
KLAX 080753Z 06004KT 10SM FEW011 FEW020 SCT180 10/10 A3013 RMK AO2 SLP272 T01000100 401560100 $
