2025/10/06 23:53
KLAX 062353Z 25014KT 10SM CLR 21/16 A2980 RMK AO2 SLP089 T02060156 10222 20200 55006 $
