2025/09/27 17:53
KLAX 271753Z 09004KT 10SM FEW019 SCT027 OVC034 22/16 A2992 RMK AO2 SLP129 T02170156 10217 20189 50007 $
