2023/08/26 01:53
KLAX 260153Z 24014KT 10SM FEW007 20/16 A2989 RMK AO2 SLP120 T02000161
