2023/03/16 03:53
KLAX 160353Z 20004KT 10SM OVC016 13/10 A2997 RMK AO2 SLP148 T01330100 $
