2023/11/18 19:53
KLAX 181953Z 17007KT 10SM SCT022 BKN031 BKN040 20/15 A3004 RMK AO2 SLP170 T02000150
