2023/12/28 09:53
KLAX 280953Z 09005KT 9SM FEW010 SCT200 11/10 A3018 RMK AO2 SLP216 T01060100 $
