2026/01/20 07:53
KLAX 200753Z 06003KT 10SM FEW004 14/11 A3005 RMK AO2 SLP173 T01440111 402390100 $
