2022/12/13 03:53
KLAX 130353Z 32006KT 10SM FEW027 11/07 A2995 RMK AO2 SLP141 T01110067
