2024/03/16 01:53
KLAX 160153Z 24009G20KT 10SM SCT085 BKN110 BKN180 16/07 A2987 RMK AO2 SLP113 CB DSNT E T01560072 $
