2023/12/23 05:53
KLAX 230553Z 31008KT 10SM SCT080 17/11 A2993 RMK AO2 SLP132 T01670111 10183 20161 51009
