2025/02/03 07:53
KLAX 030753Z 23003KT 1/8SM R25L/2400V3500FT FG VV002 12/12 A3003 RMK AO2 SLP166 T01170117 401890117 $
