2023/10/15 01:53
KLAX 150153Z 24008KT 10SM CLR 20/14 A3000 RMK AO2 SLP158 T02000139
