2023/03/16 02:07
KLAX 160207Z 18006KT 10SM BKN016 BKN021 13/11 A2995 RMK AO2 T01280106 $
