2024/11/13 07:53
KLAX 130753Z 00000KT 10SM CLR 17/03 A3006 RMK AO2 SLP176 T01670033 402170133
