2023/05/20 05:53
KLAX 200553Z 24005KT 10SM OVC009 16/14 A3007 RMK AO2 SLP181 T01610144 10178 20161 50007
