2024/01/02 09:53
KLAX 020953Z 09004KT 10SM CLR 09/06 A3017 RMK AO2 SLP214 T00940056
