2023/11/25 15:53
KLAX 251553Z 04005KT 10SM SCT025 13/09 A3005 RMK AO2 SLP173 T01330089 $
