2025/05/30 07:53
KLAX 300753Z 30005KT 10SM FEW012 17/14 A2995 RMK AO2 SLP139 T01720144 402060161
