2024/02/13 09:53
KLAX 130953Z 09005KT 10SM FEW009 08/05 A3000 RMK AO2 SLP155 T00830050 $
