2024/12/06 12:09
KLAX 061209Z 29004KT 0SM R25L/0800FT FG VV001 10/10 A3008 RMK AO2 T01000100 $
