2024/02/11 05:53
KLAX 110553Z 05005KT 10SM CLR 12/04 A3011 RMK AO2 SLP194 T01170039 51016 $
