2025/08/21 04:53
KLAX 210453Z 00000KT 10SM FEW250 22/18 A2989 RMK AO2 SLP118 T02170178
