2023/03/24 01:53
KLAX 240153Z 27019KT 10SM FEW020 FEW075 13/09 A3018 RMK AO2 SLP219 T01330089
