2023/03/08 17:53
KLAX 081753Z 00000KT 8SM BKN023 BKN031 BKN160 13/08 A3018 RMK AO2 SLP219 T01280078 10128 20067 51011 $
