2024/03/22 03:53
KLAX 220353Z 27006KT 10SM SCT010 14/12 A3009 RMK AO2 SLP187 T01390122 $
