2024/06/05 15:53
KLAX 051553Z 24006KT 5SM BR OVC011 17/15 A2990 RMK AO2 SLP122 T01720150
