2023/08/06 01:53
KLAX 060153Z 23009KT 10SM SCT010 22/18 A2986 RMK A02 SLP109 T02170183 
