2024/10/27 01:53
KLAX 270153Z 27007KT 10SM FEW004 BKN250 17/14 A3001 RMK AO2 SLP163 T01670144 $
