2023/02/05 17:53
KLAX 051753Z 26013KT 10SM FEW009 BKN015 BKN021 15/11 A3024 RMK AO2 SLP239 60001 T01500111 10150 20117 52016 $
