2025/08/31 17:53
KLAX 311753Z 26006KT 10SM FEW005 FEW120 SCT160 24/18 A2993 RMK AO2 SLP134 T02440178 10244 20200 50000 $
