2024/09/22 19:53
KLAX 221953Z 25009KT 7SM SCT014 21/16 A2992 RMK AO2 SLP129 SCT V BKN T02110156 $
