2024/03/28 23:53
KLAX 282353Z 25016G22KT 10SM FEW013 FEW180 SCT250 16/11 A3000 RMK AO2 SLP159 T01560111 10167 20144 56014 $
