2023/05/09 21:53
KLAX 092153Z 29011KT 10SM SCT026 SCT043 18/13 A2999 RMK AO2 SLP155 T01830128
