2024/12/29 15:53
KLAX 291553Z 00000KT 1/8SM R25L/1200V1400FT FG VV001 11/11 A3015 RMK AO2 SLP208 T01060106
