2025/09/11 01:53
KLAX 110153Z 26014KT 10SM FEW016 FEW038 SCT050 21/16 A2989 RMK AO2 SLP119 T02110161 $
