2025/03/22 23:53
KLAX 222353Z 25010KT 10SM FEW005 BKN250 16/12 A2994 RMK AO2 SLP138 T01610122 10200 20156 56010 $
