2024/12/15 09:53
KLAX 150953Z 10005KT 10SM FEW005 FEW009 BKN250 11/09 A3017 RMK AO2 SLP215 T01060094
