2025/04/26 13:53
KLAX 261353Z VRB04KT 5SM -RA BR SCT022 BKN031 BKN043 11/09 A2993 RMK AO2 RAB33 SLP134 P0002 T01110089 $
