2025/09/05 15:53
KLAX 051553Z 16003KT 6SM HZ FEW009 BKN013 21/17 A2987 RMK AO2 SLP112 T02110172
