2024/12/09 21:53
KLAX 092153Z 26008KT 7SM FEW240 SCT290 16/09 A3008 RMK AO2 SLP186 T01560094
