2023/05/19 05:53
KLAX 190553Z 23004KT 10SM OVC012 16/13 A2996 RMK AO2 SLP143 T01560133 10189 20156 51008
