2024/01/13 13:53
KLAX 131353Z 08005KT 10SM SCT250 07/01 A3008 RMK AO2 SLP186 T00720006 $
