2024/03/15 01:53
KLAX 150153Z 07010G17KT 10SM FEW050 FEW080 19/M07 A2975 RMK AO2 SLP073 FU FEW050 T01941067 $
