2025/05/29 17:53
KLAX 291753Z 23007KT 10SM FEW017 OVC025 19/13 A2996 RMK AO2 SLP145 T01890133 10189 20161 53004
