2023/11/15 13:53
KLAX 151353Z 03005KT 10SM FEW004 FEW070 BKN110 BKN200 17/10 A2994 RMK AO2 SLP138 T01670100
