2025/02/27 17:53
KLAX 271753Z VRB03KT 10SM FEW000 FEW240 BKN280 23/08 A3009 RMK AO2 SLP189 FG FEW000 T02280083 10228 20100 51009
