2024/09/07 23:53
KLAX 072353Z 27012KT 10SM FEW080 SCT150 26/18 A2973 RMK AO2 SLP064 T02560183 10317 20256 56019
