2023/04/10 11:53
KLAX 101153Z 26004KT 1/4SM R25L/P2600VP6000FT FG VV002 12/12 A3005 RMK AO2 SLP173 VIS SW-W 1/16 T01170117 10128 20117 55000
