2023/01/16 09:53
KLAX 160953Z 09013KT 2 1/2SM +RA BR SCT006 OVC009 11/10 A2969 RMK AO2 SLP051 VIS N 1 1/2 P0013 T01060100 $
