2023/04/18 23:53
KLAX 182353Z 27010KT 10SM FEW022 FEW180 SCT250 16/08 A2996 RMK AO2 SLP145 T01560083 10183 20156 58012
