2025/08/25 09:53
KLAX 250953Z 23006KT 10SM FEW015 FEW200 21/18 A2987 RMK AO2 SLP112 T02060183
