2023/08/31 17:53
KLAX 311753Z 25008KT 4SM HZ FEW010 24/19 A2983 RMK AO2 SLP099 T02390189 10239 20183 53002 $
