2024/02/26 07:53
KLAX 260753Z 26007KT 10SM FEW008 FEW012 SCT160 BKN220 13/12 A3008 RMK AO2 SLP185 T01330117 401780128 $
