2023/11/18 13:53
KLAX 181353Z 08006KT 8SM FEW014 BKN028 16/15 A3001 RMK AO2 SLP159 T01610150 $
