2022/10/10 15:53
KLAX 101553Z 13005KT 5SM HZ FEW009 OVC012 19/16 A3002 RMK AO2 SLP162 T01940161 $
