2025/09/23 11:53
KLAX 231153Z 24005KT 2 1/2SM BR FEW002 OVC004 19/18 A2982 RMK AO2 SLP093 VIS 2V3 T01890178 10194 20189 55001 $
