2025/08/11 21:53
KLAX 112153Z 26011KT 10SM FEW007 FEW120 23/17 A2994 RMK AO2 SLP135 T02280172 $
