2026/06/03 18:53
KLAX 031853Z 26010KT 10SM FEW025 BKN160 19/13 A3000 RMK AO2 SLP156 T01940128 $
