2025/03/20 05:53
KLAX 200553Z VRB04KT 10SM SCT250 16/06 A3021 RMK AO2 SLP226 T01560056 10189 20144 50003 $
