2024/05/21 03:53
KLAX 210353Z 26012KT 10SM CLR 14/11 A2995 RMK AO2 SLP141 T01390106 $
