2024/06/07 04:53
KLAX 070453Z 27007KT 2 1/2SM BR OVC003 16/15 A2988 RMK AO2 SLP115 VIS W-NW 1 T01560150 $
