2025/11/18 02:02
KLAX 180202Z 28014G24KT 4SM RA BR FEW019 OVC032 13/12 A2986 RMK AO2 P0004 T01280117 $
