2024/10/21 21:53
KLAX 212153Z 25011KT 10SM FEW200 FEW250 22/13 A3001 RMK AO2 SLP163 T02220133 $
