2024/03/02 13:53
KLAX 021353Z 21008KT 10SM SCT022 OVC028 13/11 A3000 RMK AO2 RAE53 SLP159 P0002 T01280111 $
