2025/03/14 01:53
KLAX 140153Z 27028G36KT 10SM FEW020 FEW080 SCT250 12/04 A2989 RMK AO2 PK WND 26039/0136 SLP122 T01170044
