2023/03/22 15:53
KLAX 221553Z 09005KT 7SM -RA SCT036 OVC060 11/08 A3002 RMK AO2 RAB47 SLP165 P0000 T01060083
