2025/03/11 21:53
KLAX 112153Z 10011KT 10SM SCT029 SCT034 OVC044 16/09 A2983 RMK AO2 RAB2057E08B29E42 SLP102 P0000 T01560094
