2023/09/14 03:53
KLAX 140353Z 25009KT 10SM SCT011 19/17 A2992 RMK AO2 SLP129 T01890167 $
