2025/02/04 21:53
KLAX 042153Z 23009KT 10SM FEW030 FEW055 18/09 A2998 RMK AO2 SLP151 T01780094
