2023/12/10 17:53
KLAX 101753Z 36008KT 10SM FEW230 SCT280 21/M12 A3020 RMK AO2 SLP225 T02061117 10206 20106 53002 $
