2023/10/21 13:53
KLAX 211353Z 14004KT 8SM CLR 18/17 A2984 RMK AO2 SLP102 T01780167
