2024/10/27 17:53
KLAX 271753Z 27006KT 6SM HZ SCT190 BKN230 BKN280 21/15 A3004 RMK AO2 SLP170 T02110150 10211 20150 50003
