2024/08/25 15:53
KLAX 251553Z 00000KT 10SM CLR 22/16 A3005 RMK AO2 SLP173 T02170161
