2025/01/27 19:53
KLAX 271953Z VRB04KT 10SM FEW020 SCT060 BKN140 BKN250 14/06 A3012 RMK AO2 SLP201 T01440056 $
