2023/02/17 11:53
KLAX 171153Z 04008KT 10SM SCT200 BKN250 09/M08 A3009 RMK AO2 SLP189 T00941083 10128 20083 58020 $
