2025/01/24 13:53
KLAX 241353Z 02010KT 10SM CLR 14/M06 A3012 RMK AO2 SLP195 T01391056
