2025/03/20 21:53
KLAX 202153Z 26012KT 10SM FEW200 SCT250 17/07 A3007 RMK AO2 SLP183 T01720067 $
