2024/09/26 21:53
KLAX 262153Z 26011KT 10SM FEW014 21/14 A2986 RMK AO2 SLP109 T02060144
