2024/03/11 09:53
KLAX 110953Z 23010KT 10SM FEW008 SCT014 12/11 A3004 RMK AO2 SLP171 T01220106 $
