2025/12/26 09:53
KLAX 260953Z 12007KT 10SM -RA FEW012 SCT022 BKN045 16/14 A3007 RMK AO2 RAB39 SLP180 P0000 T01610144 $
