2023/06/19 01:53
KLAX 190153Z 23009KT 10SM BKN015 17/14 A2989 RMK AO2 SLP119 T01720139
