2024/09/19 03:53
KLAX 190353Z 24004KT 10SM CLR 18/14 A2985 RMK AO2 SLP107 T01780139 $
