2026/02/15 07:53
KLAX 150753Z 22003KT 10SM FEW016 BKN022 BKN250 14/10 A3006 RMK AO2 SLP176 T01440100 402000111 $
