2025/09/19 13:53
KLAX 191353Z 32004KT 7SM FEW007 SCT018 BKN090 BKN140 21/18 A2990 RMK AO2 SLP121 SCT V BKN T02060178
