2022/11/08 02:31
KLAX 080231Z 24004KT 10SM FEW015 FEW250 15/13 A2996 RMK AO2 DZE08 P0000 T01500128
