2025/08/15 03:53
KLAX 150353Z 23005KT 10SM OVC012 19/16 A2989 RMK AO2 SLP118 T01890161 $
