2022/12/22 17:53
KLAX 221753Z 11004KT 10SM SCT100 BKN160 BKN250 16/07 A3011 RMK AO2 SLP195 T01610067 10167 20089 51016
