2025/06/30 15:53
KLAX 301553Z 22005KT 10SM FEW011 19/15 A2992 RMK AO2 SLP131 T01940150
