2023/07/03 01:53
KLAX 030153Z 27012KT 3SM BR OVC004 16/15 A2987 RMK AO2 SLP114 VIS W 1/2 T01610150 $
