2023/10/28 21:53
KLAX 282153Z 24010KT 10SM FEW020 20/14 A2992 RMK AO2 SLP132 T02000139
