2025/07/04 11:53
KLAX 041153Z 16003KT 10SM OVC015 18/14 A2998 RMK AO2 SLP151 T01830144 10189 20183 53005 $
