2025/03/15 19:53
KLAX 151953Z 24012KT 10SM FEW035 BKN250 15/08 A3011 RMK AO2 SLP196 T01500078 $
