2023/07/04 13:53
KLAX 041353Z 00000KT 3SM BR FEW002 OVC007 14/13 A2993 RMK AO2 SLP134 VIS 2V4 VIS N-NE 1 1/2 T01440133
