2023/11/02 17:53
KLAX 021753Z VRB03KT 10SM CLR 26/M04 A3008 RMK AO2 SLP183 T02561039 10256 20128 50007 $
