2023/01/09 13:53
KLAX 091353Z 04007KT 2 1/2SM -RA BR FEW007 BKN012 OVC020 13/12 A3014 RMK AO2 SLP206 VIS N 2 VIS SW-W 1 1/2 P0005 T01280117 $
