2022/09/11 07:53
KLAX 110753Z 13006KT 10SM BKN030 OVC080 24/21 A2994 RMK AO2 SLP136 T02440206 402720217 $
