2024/05/29 21:53
KLAX 292153Z 27010KT 10SM FEW025 19/12 A3002 RMK AO2 SLP164 T01890122 $
