2025/06/20 07:53
KLAX 200753Z 24004KT 10SM FEW010 BKN014 17/15 A2982 RMK AO2 SLP096 T01720150 402280172 $
