2024/02/26 11:53
KLAX 261153Z 00000KT 10SM FEW008 FEW014 BKN160 12/11 A3004 RMK AO2 SLP172 T01220111 10139 20117 56003 $
