2024/06/29 15:53
KLAX 291553Z 24007KT 7SM OVC014 18/15 A2991 RMK AO2 SLP127 T01780150
