2023/05/22 11:53
KLAX 221153Z 02003KT 4SM BR FEW003 FEW007 OVC009 16/14 A2993 RMK AO2 SLP132 T01610139 10161 20156 56013
