2025/08/13 02:04
KLAX 130204Z 24009KT 8SM BKN009 20/17 A2989 RMK AO2 T02000172
