2025/09/28 17:53
KLAX 281753Z 26005KT 10SM SCT032 BKN039 OVC044 23/15 A3003 RMK AO2 SLP168 T02280150 10228 20200 51010 $
