2025/11/07 11:53
KLAX 071153Z 08003KT 2 1/2SM BR FEW002 OVC004 15/14 A2996 RMK AO2 SLP145 T01500144 10167 20150 58007 $
