2023/09/21 07:53
KLAX 210753Z 24003KT 10SM SCT015 BKN044 18/16 A2989 RMK AO2 SLP119 T01830156 402280183
