2025/10/21 01:53
KLAX 210153Z 26007KT 10SM CLR 19/16 A3000 RMK AO2 SLP159 T01890156
