2023/06/25 13:53
KLAX 251353Z 10004KT 10SM FEW013 BKN017 16/13 A3006 RMK AO2 SLP176 T01560128
