2025/09/07 01:53
KLAX 070153Z 26013KT 10SM FEW012 FEW100 22/17 A2994 RMK AO2 SLP135 T02170172
