2024/02/02 15:53
KLAX 021553Z 09003KT 10SM FEW012 SCT031 BKN070 11/09 A2991 RMK AO2 SLP127 T01110094
