2025/05/08 21:53
KLAX 082153Z 24011KT 10SM FEW008 FEW100 20/13 A3003 RMK AO2 SLP169 T02000133 $
