2024/04/18 09:53
KLAX 180953Z 32003KT 4SM BR FEW002 OVC004 13/12 A2997 RMK AO2 SLP148 T01280117 $
