2024/09/02 11:53
KLAX 021153Z 00000KT 6SM BR SCT008 19/18 A2989 RMK AO2 SLP117 T01940178 10206 20194 55002 $
