2023/12/10 07:53
KLAX 100753Z VRB05KT 10SM CLR 16/M10 A3023 RMK AO2 SLP233 T01561100 402280094 $
