2024/11/19 03:53
KLAX 190353Z 29004KT 10SM FEW250 13/09 A2999 RMK AO2 SLP156 T01330089 $
