2024/07/31 05:53
KLAX 310553Z 27010KT 10SM FEW003 17/15 A2991 RMK AO2 SLP127 T01720150 10211 20172 50005 $
