2024/05/08 21:53
KLAX 082153Z 25012G19KT 10SM FEW030 18/12 A2985 RMK AO2 SLP108 T01830122 $
