2023/03/17 07:53
KLAX 170753Z 00000KT 10SM FEW013 BKN021 12/10 A3008 RMK AO2 SLP183 T01220100 401560117 $
