2025/05/01 11:53
KLAX 011153Z 26003KT 10SM FEW011 OVC020 14/12 A2996 RMK AO2 SLP143 T01440117 10156 20144 57004
