2024/09/09 07:53
KLAX 090753Z 25006KT 10SM CLR 24/19 A2977 RMK AO2 SLP079 T02440194 403330217
