2024/11/19 05:53
KLAX 190553Z 31006KT 10SM FEW200 14/M01 A3001 RMK AO2 SLP159 T01441006 10150 20128 51011 $
