2026/05/18 14:53
KLAX 181453Z 11003KT 7SM SCT020 SCT042 17/12 A2987 RMK AO2 SLP114 T01720122 51015
