2025/11/16 19:53
KLAX 161953Z 19009KT 10SM FEW018 BKN029 BKN120 18/12 A2998 RMK AO2 SLP150 T01780122 $
