2026/04/03 15:53
KLAX 031553Z 13003KT 10SM FEW010 SCT160 BKN180 17/12 A3001 RMK AO2 SLP160 T01720122 $
