2024/07/20 19:53
KLAX 201953Z 25009KT 10SM FEW005 FEW200 21/16 A2995 RMK AO2 SLP139 T02110161
