2025/05/13 01:53
KLAX 130153Z 24017KT 10SM FEW020 FEW200 SCT250 17/11 A2989 RMK AO2 PK WND 25026/0126 SLP122 T01720106 $
