2024/09/23 17:53
KLAX 231753Z 20005KT 4SM HZ BKN010 19/16 A2989 RMK AO2 SLP120 T01890161 10189 20156 58003 $
