2026/04/07 21:53
KLAX 072153Z 26011KT 10SM FEW015 FEW060 21/13 A2995 RMK AO2 SLP139 T02060133 $
