2023/05/25 09:53
KLAX 250953Z 11007KT 10SM BKN028 OVC040 16/09 A2988 RMK AO2 SLP118 T01560094 $
