2023/03/28 11:53
KLAX 281153Z 00000KT 10SM FEW170 SCT220 13/M03 A3005 RMK AO2 SLP176 T01281028 10156 20111 56013 $
