2024/08/02 21:53
KLAX 022153Z 27010KT 10SM FEW120 SCT200 SCT250 23/16 A3000 RMK AO2 SLP156 CB DSNT NE T02280161 $
