2024/09/09 11:53
KLAX 091153Z 00000KT 10SM CLR 23/18 A2978 RMK AO2 SLP080 T02280183 10272 20222 53001
