2026/03/16 18:00
KLAX 161800Z 26007KT 3SM BCFG BR SCT000 SCT005 BKN250 18/14 A3000 RMK AO2 VIS SW-N 1/2 FG SCT000 T01830144 $
