2023/09/17 19:53
KLAX 171953Z 26007KT 10SM FEW007 SCT018 OVC028 21/17 A3001 RMK AO2 SLP160 T02060167 $
