2026/04/26 11:53
KLAX 261153Z 28010KT 10SM FEW012 FEW025 BKN049 13/10 A2987 RMK AO2 SLP115 60029 70030 T01330100 10144 20128 55002 $
