2026/06/13 04:53
KLAX 130453Z 25009KT 10SM BKN007 19/17 A2989 RMK AO2 SLP120 T01890167 $
