2024/05/22 05:53
KLAX 220553Z 28010KT 10SM OVC010 14/12 A2998 RMK SLP148 T01440117 
