2024/06/01 23:53
KLAX 012353Z 28015KT 10SM SCT012 18/13 A2990 RMK AO2 SLP125 T01780128 10194 20161 56010
