2025/01/24 21:53
KLAX 242153Z 26009KT 10SM SCT140 BKN180 BKN250 21/01 A2996 RMK AO2 SLP145 T02110006
