2025/05/17 19:53
KLAX 171953Z 21006KT 10SM BKN021 OVC029 16/12 A2999 RMK AO2 SLP153 T01610122
