2023/11/22 07:53
KLAX 220753Z VRB03KT 10SM FEW200 BKN250 19/M02 A3020 RMK AO2 SLP222 T01891022 402780106
