2026/03/13 15:53
KLAX 131553Z 08004KT 10SM SCT190 BKN250 22/05 A2999 RMK AO2 SLP153 T02170050 $
