2022/11/17 01:53
KLAX 170153Z 24007KT 10SM FEW250 19/M01 A3020 RMK AO2 SLP228 T01891006
