2024/03/24 09:53
KLAX 240953Z 28013KT 10SM CLR 11/06 A2977 RMK AO2 SLP078 T01110056 $
