2024/02/08 15:53
KLAX 081553Z 02004KT 10SM FEW018 FEW030 SCT250 09/03 A2999 RMK AO2 SLP157 T00940033 $
