2024/09/23 15:53
KLAX 231553Z 22003KT 1 1/2SM BCFG BR OVC005 17/16 A2990 RMK AO2 SLP123 VIS S-NW 1/2 T01670156 $
