2023/12/09 21:53
KLAX 092153Z 20003KT 10SM FEW160 SCT180 BKN280 22/M05 A3019 RMK AO2 SLP221 T02171050 $
