2023/10/22 01:53
KLAX 220153Z 23009KT 10SM CLR 19/13 A2982 RMK AO2 SLP095 T01940128
