2023/02/02 13:53
KLAX 021353Z 00000KT 10SM FEW280 08/M02 A3027 RMK AO2 SLP250 T00831017 $
