2024/10/26 09:53
KLAX 260953Z 00000KT 3/4SM R25L/P6000FT BR SCT001 BKN004 15/14 A3003 RMK AO2 SLP166 T01500144 $
