2026/01/08 11:53
KLAX 081153Z 00000KT 10SM FEW012 12/07 A3001 RMK AO2 SLP160 T01170067 10161 20111 58000 $
