2025/03/22 07:53
KLAX 220753Z 22003KT 10SM CLR 13/11 A3002 RMK AO2 SLP162 T01330106 401940106 $
