2024/03/21 13:53
KLAX 211353Z VRB05KT 6SM HZ FEW009 OVC012 14/11 A3007 RMK AO2 SLP181 T01390111 $
