2025/09/13 11:53
KLAX 131153Z 25005KT 10SM BKN019 19/17 A2991 RMK AO2 SLP126 T01940167 10200 20189 53002 $
