2024/12/21 05:53
KLAX 210553Z 25007KT 7SM SCT009 SCT120 11/10 A3019 RMK AO2 SLP222 VIS N 2 T01110100 10133 20111 51007 $
