2024/09/29 05:53
KLAX 290553Z 24007KT 10SM OVC008 16/14 A2991 RMK AO2 SLP127 T01610139 10183 20161 51010 $
