2025/04/26 03:53
KLAX 260353Z 27013KT 10SM BKN049 14/07 A2996 RMK AO2 SLP144 T01390072
