2023/12/25 19:53
KLAX 251953Z VRB03KT 9SM FEW060 SCT160 BKN250 18/11 A3015 RMK AO2 SLP209 T01780106
