2025/01/01 21:53
KLAX 012153Z 24008KT 8SM BCFG SCT003 SCT160 BKN200 14/11 A3006 RMK AO2 SLP179 VIS W 1 1/2 SCT003 V BKN T01440111
