2022/09/01 15:53
KLAX 011553Z 09005KT 8SM FEW160 SCT220 26/18 A2977 RMK AO2 SLP079 T02610178
