2025/11/02 21:53
KLAX 022153Z 26011KT 6SM HZ FEW008 SCT011 BKN230 BKN270 18/14 A3002 RMK AO2 SLP164 T01830139 $
