2025/03/25 15:53
KLAX 251553Z 27007KT 3/4SM R25L/P6000FT BCFG BR OVC004 13/12 A3001 RMK AO2 SLP159 VIS 1/4V1 1/2 T01330122 $
