2023/07/27 15:53
KLAX 271553Z 24003KT 8SM FEW010 FEW160 SCT250 23/19 A2992 RMK AO2 SLP131 T02330189 $
