2023/09/12 03:53
KLAX 120353Z 23007KT 10SM BKN150 21/17 A2991 RMK AO2 SLP124 T02110172
