2025/04/02 13:53
KLAX 021353Z 30004KT 10SM FEW029 FEW090 SCT160 10/02 A2982 RMK AO2 SLP095 T01000022
