2023/08/13 21:53
KLAX 132153Z 25015KT 10SM BKN012 OVC100 23/18 A2994 RMK AO2 SLP135 T02330178 $
