2024/12/07 21:53
KLAX 072153Z 27009KT 10SM FEW300 22/05 A3006 RMK AO2 SLP178 T02170050
