2023/05/22 09:53
KLAX 220953Z 00000KT 5SM BR FEW004 OVC008 16/14 A2995 RMK AO2 SLP140 T01610144
