2025/02/15 17:53
KLAX 151753Z 06005KT 10SM FEW013 SCT250 16/09 A3026 RMK AO2 SLP246 T01560094 10156 20083 50013 $
