2023/08/25 15:53
KLAX 251553Z 24005KT 8SM FEW008 19/16 A2996 RMK AO2 SLP144 T01940161
