2024/11/30 07:53
KLAX 300753Z 02005KT 10SM BKN200 17/M07 A3006 RMK AO2 SLP175 T01671067 402330144 $
