2022/11/13 17:53
KLAX 131753Z 33015G23KT 10SM FEW032 FEW047 SCT070 17/02 A3004 RMK AO2 PK WND 34028/1736 SLP171 T01720022 10172 20094 53008 $
