2025/04/07 13:53
KLAX 071353Z 11003KT 10SM FEW014 SCT250 11/09 A3010 RMK AO2 SLP190 T01110094 $
