2024/02/27 05:53
KLAX 270553Z 34004KT 10SM OVC037 13/11 A2998 RMK AO2 SLP150 60004 T01330111 10144 20122 53000 $
