2025/07/24 11:53
KLAX 241153Z 15003KT 10SM FEW008 SCT011 17/16 A3005 RMK AO2 SLP175 T01720156 10183 20167 51002 $
