2025/08/15 07:53
KLAX 150753Z 26004KT 10SM OVC014 19/16 A2989 RMK AO2 SLP120 T01890161 402280189 $
