2025/11/30 09:53
KLAX 300953Z 00000KT 2 1/2SM BR CLR 13/12 A2999 RMK AO2 VIS 1 1/4 RWY24 SLP156 T01280117 $
