2023/03/26 21:53
KLAX 262153Z 27021KT 10SM FEW060 SCT200 BKN250 16/07 A3010 RMK AO2 PK WND 26026/2141 SLP192 T01610067 $
