2025/11/27 15:53
KLAX 271553Z 36008KT 10SM SCT160 BKN250 20/01 A3004 RMK AO2 SLP171 T02000011 $
