2023/09/24 05:53
KLAX 240553Z 23006KT 7SM FEW270 18/16 A2998 RMK AO2 SLP151 T01780156 10206 20178 51008 $
