2023/04/24 09:53
KLAX 240953Z 15004KT 9SM FEW008 OVC014 16/12 A2986 RMK AO2 SLP108 T01560122 $
