2024/12/21 11:53
KLAX 211153Z 00000KT 4SM BR BKN005 12/10 A3017 RMK AO2 VIS 1 1/2 RWY24 SLP216 T01170100 10122 20094 55005 $
