2023/02/25 07:53
KLAX 250753Z 26016G20KT 2 1/2SM RA BR BKN009 OVC018 09/08 A2984 RMK AO2 PK WND 13030/0701 WSHFT 0704 SLP105 P0041 T00940083 401330078 $
