2024/10/15 09:53
KLAX 150953Z 35003KT 10SM FEW009 OVC014 17/15 A3003 RMK AO2 SLP168 T01720150 $
