2024/06/08 05:53
KLAX 080553Z 25004KT 10SM SCT007 OVC011 17/15 A2990 RMK AO2 SLP125 T01720150 10200 20167 53007 $
