2026/04/23 04:53
KLAX 230453Z 27013KT 10SM CLR 16/12 A3005 RMK AO2 SLP172 T01610117 $
