2022/12/07 05:53
KLAX 070553Z 00000KT 10SM FEW020 FEW090 13/08 A3008 RMK AO2 SLP184 T01280083 10150 20117 53009 $
