2026/01/03 15:53
KLAX 031553Z 09006KT 3SM BCFG BR FEW000 SCT004 BKN043 OVC070 14/14 A3004 RMK AO2 SLP173 VIS E-SE 1 1/2 FG FEW000 T01440144 $
