2024/01/18 15:53
KLAX 181553Z 02004KT 4SM BR FEW008 BKN035 13/11 A3012 RMK AO2 SLP197 T01280106
