2024/05/19 21:53
KLAX 192153Z 25012KT 10SM FEW025 FEW031 18/11 A3005 RMK AO2 SLP173 T01830106 $
