2024/08/04 15:53
KLAX 041553Z VRB04KT 8SM FEW009 FEW160 SCT250 21/17 A2990 RMK AO2 SLP125 T02110167 $
