2022/11/11 03:53
KLAX 110353Z 20005KT 10SM CLR 15/09 A3009 RMK AO2 SLP188 T01500094
