2025/11/17 03:59
KLAX 170359Z 03004KT 10SM FEW011 FEW026 OVC032 15/13 A2999 RMK AO2 CIG 018 RWY24 T01500133 $
