2024/02/03 19:53
KLAX 031953Z 25010G17KT 10SM FEW012 SCT027 BKN200 14/07 A3003 RMK AO2 SLP169 T01390072 $
