2023/05/13 09:53
KLAX 130953Z 00000KT 9SM OVC010 14/13 A2990 RMK AO2 SLP124 T01440128
