2023/05/29 03:53
KLAX 290353Z 25008KT 10SM FEW013 OVC032 16/13 A2995 RMK AO2 CIG 012 RWY24 SLP140 T01610133
