2023/04/21 09:53
KLAX 210953Z 00000KT 10SM CLR 16/07 A3011 RMK AO2 SLP193 T01560072 $
