2024/01/30 21:53
KLAX 302153Z 27010KT 10SM SCT100 SCT180 BKN250 20/11 A3000 RMK AO2 SLP158 T02000106 $
