2023/04/06 17:53
KLAX 061753Z VRB03KT 10SM SCT180 BKN250 20/M02 A3008 RMK AO2 SLP186 T02001017 10200 20094 53001 $
