2023/11/17 11:53
KLAX 171153Z 05004KT 10SM FEW012 14/12 A2997 RMK AO2 SLP148 T01440122 10172 20144 58001 $
