2025/07/09 23:53
KLAX 092353Z 26012KT 10SM FEW150 FEW250 21/14 A2996 RMK AO2 SLP144 T02110144 10239 20211 58019 $
