2024/11/11 07:53
KLAX 110753Z 18003KT 10SM FEW004 FEW250 14/12 A3003 RMK AO2 SLP168 T01390122 402170100
