2025/02/28 03:53
KLAX 280353Z 26006KT 10SM BKN200 BKN250 18/09 A2997 RMK AO2 PK WND 25026/0313 SLP148 T01780089
