2024/12/13 11:53
KLAX 131153Z 35005KT 10SM BKN014 BKN250 11/08 A3009 RMK AO2 SLP189 T01110083 10128 20106 50008
