2025/01/10 15:53
KLAX 101553Z 33004KT 8SM FEW010 FEW050 12/00 A3033 RMK AO2 SLP268 FU FEW010 FU FEW050 T01220000 VISNO RWY24 $
