2024/01/17 11:53
KLAX 171153Z 16004KT 5SM BR FEW006 BKN009 OVC011 13/12 A3003 RMK AO2 SLP169 T01280117 10139 20128 58007
