2024/06/11 11:53
KLAX 111153Z VRB04KT 3SM BR FEW002 OVC005 14/13 A2989 RMK AO2 SLP120 VIS N 2 1/2 T01440133 10150 20144 56004
