2024/03/18 17:53
KLAX 181753Z 11005KT 10SM FEW040 SCT080 20/10 A3004 RMK AO2 SLP172 T02000100 10200 20106 50001 $
