2023/09/20 15:53
KLAX 201553Z 12003KT 9SM SCT020 BKN049 21/16 A2989 RMK AO2 SLP119 T02060156
