2022/09/06 03:53
KLAX 060353Z 23005KT 10SM CLR 25/21 A2975 RMK AO2 SLP072 T02500206 $
