2024/04/03 17:53
KLAX 031753Z 26007KT 10SM CLR 19/12 A3018 RMK AO2 SLP218 T01940122 10194 20122 58003
