2025/03/17 01:53
KLAX 170153Z 24009KT 10SM FEW150 SCT200 BKN250 13/09 A3011 RMK AO2 SLP197 T01330094 $
