2023/10/09 13:53
KLAX 091353Z 15004KT 3SM BR SCT002 OVC004 17/16 A2986 RMK AO2 SLP112 VIS SW-N 1 1/2 T01670156
