2025/12/16 19:53
KLAX 161953Z 25007KT 4SM BR FEW000 SCT004 BKN120 16/13 A3007 RMK AO2 VIS 2 RWY24 SLP182 VIS S-SW 2 1/2 FG FEW000 T01560133 $
