2025/09/18 13:53
KLAX 181353Z VRB05KT 7SM -RA SCT025 BKN070 OVC080 21/19 A2983 RMK AO2 RAB11 SLP098 P0004 T02110189
