2024/08/16 11:53
KLAX 161153Z 10003KT 10SM FEW005 FEW008 19/17 A2987 RMK AO2 SLP113 T01940172 10211 20194 53007 $
