2023/09/23 15:53
KLAX 231553Z 26005KT 8SM SCT017 19/16 A3003 RMK AO2 SLP168 T01890156 $
