2024/09/01 15:53
KLAX 011553Z 25003KT 6SM HZ BKN010 21/18 A2994 RMK AO2 SLP136 T02060178 $
