2023/07/03 17:53
KLAX 031753Z 25005KT 4SM BR SCT004 BKN008 18/15 A2993 RMK AO2 SLP135 T01780150 10178 20144 51009 $
