2023/07/06 21:53
KLAX 062153Z 24009KT 10SM FEW010 20/14 A2992 RMK AO2 SLP130 T02000139 $
