2024/09/06 15:53
KLAX 061553Z VRB03KT 10SM BKN170 27/19 A2986 RMK AO2 SLP108 T02720194 $
