2023/06/05 07:53
KLAX 050753Z 24005KT 10SM OVC015 16/12 A2989 RMK AO2 SLP119 T01560122 401940150
