2025/11/01 03:53
KLAX 010353Z 25005KT 6SM BR SCT008 17/16 A2999 RMK AO2 SLP153 T01720156 $
