2024/03/17 15:53
KLAX 171553Z 11005KT 10SM FEW009 FEW095 SCT180 SCT230 BKN280 13/10 A3008 RMK AO2 SLP184 ACSL DSNT NE T01330100 $
