2025/09/13 07:53
KLAX 130753Z 24004KT 10SM BKN012 19/18 A2991 RMK AO2 SLP124 T01940178 402500183 $
