2024/01/31 03:53
KLAX 310353Z 26009KT 10SM FEW240 SCT280 15/12 A3001 RMK AO2 SLP162 T01500122 $
