2024/12/26 21:53
KLAX 262153Z 22004KT 10SM FEW240 BKN280 18/10 A3003 RMK AO2 SLP170 T01830100
