2023/04/04 15:53
KLAX 041553Z 34008KT 10SM FEW080 FEW160 12/M02 A3013 RMK AO2 SLP201 T01221022
