2025/03/01 21:53
KLAX 012153Z 20009G14KT 10SM FEW019 BKN026 BKN110 BKN280 16/10 A2997 RMK AO2 SLP150 T01610100 $
