2025/10/04 23:53
KLAX 042353Z 27016KT 10SM FEW030 22/13 A2982 RMK AO2 SLP097 T02170128 10233 20217 56018 $
