2022/12/04 17:53
KLAX 041753Z 26004KT 10SM -RA SCT009 SCT050 BKN070 OVC270 17/14 A3014 RMK AO2 RAB45 SLP206 P0000 60000 T01670139 10172 20128 51009 $
