2022/12/05 13:53
KLAX 051353Z 30008KT 10SM FEW007 FEW010 SCT090 14/12 A3005 RMK AO2 SLP174 T01390122 $
