2026/07/09 13:53
KLAX 091353Z 10003KT 6SM HZ FEW009 FEW015 19/17 A2988 RMK AO2 SLP115 T01890167
