2023/10/21 21:53
KLAX 212153Z 26017KT 10SM FEW220 23/15 A2981 RMK AO2 SLP094 T02280150
