2024/10/10 20:53
KLAX 102053Z 26009G16KT 4SM HZ FEW010 21/16 A2999 RMK AO2 SLP154 VIS SW-W 2 1/2 T02110156 58014 $
