2024/01/09 07:53
KLAX 090753Z VRB04KT 10SM CLR 10/M01 A3029 RMK AO2 SLP257 T01001011 401500072
