2024/03/30 19:53
KLAX 301953Z 08010KT 7SM -RA SCT009 BKN013 OVC023 12/10 A2978 RMK AO2 RAE1857B45 SLP083 P0001 T01170100
