2023/10/21 09:53
KLAX 210953Z 00000KT 9SM CLR 17/15 A2983 RMK AO2 SLP098 T01670150
