2023/02/18 15:53
KLAX 181553Z 05004KT 10SM SCT170 SCT250 13/M06 A3003 RMK AO2 SLP169 T01331061 $
