2025/08/30 11:53
KLAX 301153Z 25003KT 10SM CLR 21/18 A2993 RMK AO2 SLP132 T02060183 10228 20206 56002 $
