2025/12/05 11:53
KLAX 051153Z 08005KT 10SM CLR 11/M02 A3008 RMK AO2 SLP185 T01061017 10150 20100 58017 $
