2026/06/06 21:53
KLAX 062153Z 24011KT 10SM FEW140 SCT250 22/14 A2985 RMK AO2 SLP107 T02170139 $
