2023/07/11 05:53
KLAX 110553Z 24004KT 10SM FEW014 17/15 A2994 RMK AO2 SLP135 T01670150 10211 20167 53018
