2024/10/24 09:53
KLAX 240953Z 07004KT 10SM CLR 16/14 A2997 RMK AO2 SLP145 T01610144 $
