2023/09/27 11:53
KLAX 271153Z 00000KT 10SM FEW004 FEW200 SCT280 18/15 A2989 RMK AO2 SLP121 T01780150 10194 20167 58007 $
