2023/12/13 21:53
KLAX 132153Z 27009KT 10SM CLR 17/10 A2999 RMK AO2 SLP155 T01720100
