2024/09/15 11:53
KLAX 151153Z 34003KT 10SM SCT014 OVC025 18/16 A2987 RMK AO2 SLP112 T01830156 10183 20172 56009
