2023/04/23 23:53
KLAX 232353Z 24012KT 10SM BKN010 17/13 A2981 RMK AO2 SLP093 T01670128 10206 20167 56009
