2026/04/25 03:53
KLAX 250353Z 21006KT 10SM FEW013 FEW075 SCT280 16/13 A2988 RMK AO2 SLP118 T01610133 $
