2024/10/29 21:53
KLAX 292153Z 27017KT 10SM FEW045 FEW090 20/09 A2990 RMK AO2 SLP125 T02000094
