2024/10/16 21:53
KLAX 162153Z 27008KT 9SM FEW017 OVC024 19/14 A2993 RMK AO2 SLP133 T01890144 $
