2025/06/09 07:53
KLAX 090753Z 24005KT 10SM OVC009 16/14 A2993 RMK AO2 SLP133 T01610139 402060150 $
