2024/06/09 03:53
KLAX 090353Z 25010KT 10SM BKN008 BKN012 16/14 A2994 RMK AO2 SLP136 T01610144 $
