2022/12/31 11:53
KLAX 311153Z 10006KT 2SM -RA BR OVC004 14/13 A3003 RMK AO2 RAB07 SLP169 P0002 60010 70014 T01390133 10139 20139 56012
