2023/03/19 11:53
KLAX 191153Z 00000KT 10SM SCT065 OVC090 14/12 A2996 RMK AO2 RAB1054E05 SLP143 P0000 60000 T01440117 10172 20139 58017
