2025/10/18 15:53
KLAX 181553Z 06006KT 10SM CLR 20/06 A3002 RMK AO2 SLP164 T02000056
