2025/03/17 23:53
KLAX 172353Z 26014KT 10SM SCT005 BKN033 OVC075 14/11 A3006 RMK AO2 RAE31 SLP179 P0003 60003 T01390111 10167 20133 58011 $
