2023/08/20 15:53
KLAX 201553Z 04008KT 020V110 4SM RA BR SCT060 BKN075 OVC110 22/21 A2965 RMK AO2 SLP039 P0003 T02220211 $
