2022/12/02 17:53
KLAX 021753Z 08010KT 4SM -RA BR BKN006 BKN016 OVC022 13/12 A3016 RMK AO2 RAE1659B20 SLP213 P0000 60005 T01280117 10128 20111 51012 $
