2023/02/17 21:53
KLAX 172153Z VRB03KT 10SM FEW160 SCT180 BKN250 19/M09 A2997 RMK AO2 SLP149 T01941094
