2023/04/03 21:53
KLAX 032153Z 27024G32KT 10SM FEW080 16/04 A2992 RMK AO2 PK WND 26032/2145 SLP132 T01560039
