2024/04/09 03:53
KLAX 090353Z 24007KT 10SM CLR 16/08 A2997 RMK AO2 SLP148 T01610078 $
