2025/08/21 21:53
KLAX 212153Z 26010KT 10SM FEW100 FEW150 SCT200 BKN250 29/14 A2983 RMK AO2 SLP099 T02890144
