2026/03/17 09:53
KLAX 170953Z 00000KT 10SM FEW250 18/14 A2991 RMK AO2 SLP126 T01780144 $
