2024/02/15 05:53
KLAX 150553Z 31004KT 10SM FEW250 13/09 A3018 RMK AO2 SLP218 T01280089 10150 20128 53016 $
