2023/08/24 23:53
KLAX 242353Z 26015KT 10SM FEW009 FEW060 21/16 A2991 RMK AO2 SLP128 T02110161 10222 20194 56010
