2025/02/24 07:53
KLAX 240753Z 27004KT 10SM CLR 14/12 A3015 RMK AO2 SLP208 T01440122 402170094 $
