2024/02/20 05:53
KLAX 200553Z 09009KT 5SM -RA BR BKN004 OVC009 13/13 A3013 RMK AO2 RAB00 SLP202 P0004 60021 T01280128 10139 20128 51008 $
