2025/09/12 07:53
KLAX 120753Z 00000KT 10SM FEW011 19/17 A2991 RMK AO2 SLP125 T01940167 402390183 $
