2025/05/09 13:53
KLAX 091353Z 33004KT 1/2SM R25L/P6000FT FG BKN003 15/14 A3003 RMK AO2 SLP165 T01500144 $
