2024/11/16 07:53
KLAX 160753Z 33005KT 10SM FEW070 13/00 A2990 RMK AO2 SLP125 T01330000 401720122
