2026/06/27 06:53
KLAX 270653Z 23004KT 10SM FEW013 BKN022 18/14 A2995 RMK AO2 SLP140 T01780139
