2024/07/12 19:53
KLAX 121953Z 26010KT 6SM HZ SCT009 SCT022 OVC045 21/17 A2989 RMK AO2 SLP119 T02060172 $
