2025/10/12 05:53
KLAX 120553Z 15004KT 10SM CLR 18/14 A2979 RMK AO2 SLP083 T01830139 10211 20183 53008 $
