2022/08/22 11:53
KLAX 221153Z 09003KT 10SM FEW007 OVC010 19/17 A3001 RMK AO2 SLP158 T01940172 10200 20194 53004 $
