2026/05/20 21:53
KLAX 202153Z 26012KT 10SM FEW250 24/12 A2986 RMK AO2 SLP110 T02390122
