2024/09/16 15:53
KLAX 161553Z 23006KT 10SM SCT021 BKN027 BKN045 19/14 A2988 RMK AO2 SLP118 T01890139 $
