2024/09/09 13:53
KLAX 091353Z 00000KT 8SM FEW170 24/18 A2981 RMK AO2 SLP089 T02390183
