2024/11/06 23:53
KLAX 062353Z 14008G17KT 10SM BKN100 BKN250 24/M14 A2991 RMK AO2 SLP127 FU BKN100 T02391144 10256 20211 $
