2024/01/13 19:53
KLAX 131953Z 00000KT 10SM SCT250 15/04 A3009 RMK AO2 VIS 2 1/2 RWY24 SLP188 T01500044 $
