2024/11/29 01:53
KLAX 290153Z 00000KT 10SM FEW170 SCT220 BKN280 20/01 A2999 RMK AO2 SLP155 T02000006 $
