2024/11/12 11:53
KLAX 121153Z 33010G20KT 10SM FEW009 15/02 A3004 RMK AO2 SLP171 T01500022 10156 20139 53003
