2023/01/02 05:53
KLAX 020553Z 31007KT 10SM CLR 13/03 A2984 RMK AO2 SLP104 T01330033 10144 20128 50009
