2025/11/28 11:53
KLAX 281153Z 12004KT 4SM BCFG BR FEW000 SCT002 12/12 A3002 RMK AO2 SLP162 VIS SE-S 1 1/2 FG FEW000 FG BANK SE-SW T01220122 10178 20111 58003 $
