2022/11/16 11:53
KLAX 161153Z 07004KT 10SM CLR 10/04 A3019 RMK AO2 SLP220 T01000044 10167 20089 53006
