2024/04/16 03:53
KLAX 160353Z 27011KT 10SM FEW015 14/12 A3005 RMK AO2 SLP175 T01390117 $
