2024/12/07 05:53
KLAX 070553Z 11005KT 9SM FEW005 14/10 A3006 RMK AO2 SLP177 T01390100 10167 20128 50007
