2023/04/12 23:53
KLAX 122353Z 25006KT 10SM OVC018 14/12 A2982 RMK AO2 SLP097 T01440117 10156 20139 58016 $
