2024/09/09 05:53
KLAX 090553Z 19004KT 10SM CLR 28/17 A2976 RMK AO2 SLP075 T02780172 10306 20261 51009
