2023/06/09 23:53
KLAX 092353Z 27013KT 10SM FEW015 SCT031 BKN100 19/13 A2999 RMK AO2 SLP154 T01890133 10200 20172 56009
