2025/05/25 01:53
KLAX 250153Z 25008KT 10SM FEW013 FEW017 SCT260 18/12 A2997 RMK AO2 SLP149 T01780122
