2026/05/27 14:53
KLAX 271453Z 15006KT 10SM FEW018 BKN024 BKN050 16/10 A2984 RMK AO2 SLP102 T01560100 51015 $
