2024/04/14 21:53
KLAX 142153Z 22013KT 10SM -RA SCT024 BKN055 OVC070 15/11 A3012 RMK AO2 RAB44 SLP201 P0000 T01500106 $
