2024/01/15 03:53
KLAX 150353Z 11004KT 10SM FEW200 BKN250 13/09 A3004 RMK AO2 SLP174 T01280094 $
