2025/11/03 17:53
KLAX 031753Z 09006KT 3SM HZ FEW006 OVC013 18/14 A3009 RMK AO2 SLP189 T01780139 10178 20150 51009 $
