2025/07/02 11:53
KLAX 021153Z 00000KT 9SM OVC009 17/14 A2985 RMK AO2 SLP107 T01670139 10167 20156 55000
