2024/10/25 09:53
KLAX 250953Z 00000KT 1/4SM R25L/1000V1400FT FG VV001 14/14 A2994 RMK AO2 SLP136 T01390139 $
