2023/01/06 07:53
KLAX 060753Z 31004KT 10SM FEW020 FEW028 13/09 A3022 RMK AO2 SLP230 T01280094 401670128 $
