2023/03/01 15:53
KLAX 011553Z 27021G31KT 9SM FEW009 SCT070 BKN090 11/06 A2974 RMK AO2 PK WND 26032/1523 RAE1455 SLP070 P0000 T01060061
