2024/07/08 05:53
KLAX 080553Z 28009KT 1/4SM R25L/P6000FT FG VV002 18/17 A2988 RMK AO2 SLP116 VIS 1/8V1 T01780172 10222 20172 52003 $
