2025/06/24 05:53
KLAX 240553Z VRB04KT 10SM BKN016 17/14 A2995 RMK AO2 SLP139 T01720144 10194 20172 51013
