2024/05/24 17:53
KLAX 241753Z 25008KT 7SM SCT016 BKN021 OVC045 17/12 A2997 RMK AO2 SLP146 T01670122 10172 20139 51008
