2023/07/15 19:53
KLAX 151953Z 25010KT 8SM FEW008 FEW250 22/17 A2988 RMK AO2 SLP117 T02170167
