2025/03/05 09:53
KLAX 050953Z 09004KT 10SM FEW008 FEW200 11/09 A3006 RMK AO2 SLP177 T01060094 $
