2026/02/09 19:53
KLAX 091953Z 14003KT 10SM FEW095 FEW120 SCT160 BKN190 BKN250 24/06 A2999 RMK AO2 SLP156 T02390061 $
