2023/01/11 01:53
KLAX 110153Z 26015KT 10SM FEW015 FEW150 BKN200 14/09 A3008 RMK AO2 SLP183 T01390094 $
