2024/03/05 09:53
KLAX 050953Z 06004KT 10SM FEW011 BKN250 11/08 A3006 RMK AO2 SLP179 T01110078
