2022/10/25 21:53
KLAX 252153Z 24011KT 10SM FEW250 22/09 A3000 RMK AO2 SLP156 T02170094
