2022/12/16 21:53
KLAX 162153Z 31005KT 10SM SCT140 BKN180 BKN250 20/M01 A3007 RMK AO2 SLP181 T02001011 $
