2025/07/06 11:53
KLAX 061153Z 02004KT 10SM FEW010 17/15 A2996 RMK AO2 SLP144 T01670150 10178 20167 56003
