2023/01/25 19:53
KLAX 251953Z 26005KT 10SM FEW200 19/03 A3027 RMK AO2 SLP249 T01940033 $
