2025/08/03 19:53
KLAX 031953Z 26007KT 10SM SCT240 BKN280 22/16 A3001 RMK AO2 SLP161 T02220156 $
