2023/12/27 07:53
KLAX 270753Z 15003KT 9SM FEW004 FEW009 BKN250 14/14 A3015 RMK AO2 SLP208 T01440139 401830111
