2025/01/16 01:53
KLAX 160153Z 27006KT 10SM CLR 15/02 A3018 RMK AO2 SLP221 T01500022 $
