2024/08/10 09:53
KLAX 100953Z 28003KT 10SM FEW007 18/16 A2988 RMK AO2 SLP113 T01780161 $
