2025/08/02 16:53
KLAX 021653Z VRB06KT 6SM HZ SCT017 21/16 A3012 RMK AO2 SLP198 T02060156 $
