2026/04/22 11:53
KLAX 221153Z 00000KT 10SM FEW014 FEW020 SCT060 SCT150 13/09 A3011 RMK AO2 SLP194 70001 T01280094 10161 20128 55001 $
