2024/03/31 03:53
KLAX 310353Z 10010KT 10SM BKN022 BKN048 OVC065 11/09 A2973 RMK AO2 RAB0258E48 SLP068 P0001 T01110094
