2024/09/11 09:53
KLAX 110953Z 22005KT 10SM FEW010 FEW040 17/15 A2978 RMK AO2 SLP081 FU FEW040 T01720150
