2022/12/02 03:53
KLAX 020353Z 22004KT 10SM SCT028 OVC038 14/08 A3006 RMK AO2 SLP179 T01440078 $
