2026/03/20 15:53
KLAX 201553Z 04004KT 9SM CLR 22/14 A2997 RMK AO2 SLP148 T02170144
