2025/08/27 03:16
KLAX 270316Z 26008KT 10SM BKN009 BKN180 21/18 A2997 RMK AO2 T02060178 $
