2024/08/15 23:53
KLAX 152353Z 25011KT 10SM CLR 25/17 A2986 RMK AO2 SLP110 T02500167 10256 20239 56019 $
