2023/01/02 19:53
KLAX 021953Z 00000KT 10SM FEW032 BKN140 BKN180 14/06 A3000 RMK AO2 SLP158 T01390061
