2023/04/09 15:53
KLAX 091553Z VRB03KT 2 1/2SM BR OVC006 13/11 A3014 RMK AO2 SLP205 VIS W 2 T01280111
