2023/04/26 09:53
KLAX 260953Z 31005KT 8SM FEW005 OVC008 13/12 A2996 RMK AO2 SLP144 T01330117 $
