2026/06/09 06:53
KLAX 090653Z 00000KT 10SM FEW012 FEW250 17/13 A2991 RMK AO2 SLP125 T01670128 $
