2023/12/16 13:53
KLAX 161353Z 02007KT 10SM SCT300 16/M04 A3006 RMK AO2 SLP179 T01611039 $
