2024/08/26 03:53
KLAX 260353Z 25008KT 10SM CLR 20/17 A3003 RMK AO2 SLP167 T02000167 $
