2025/03/13 09:53
KLAX 130953Z 26020G28KT 3SM -RA BR SCT010 BKN022 OVC036 11/09 A2984 RMK AO2 PK WND 27028/0949 WSHFT 0930 SLP104 P0016 T01060094 $
