2026/04/27 06:53
KLAX 270653Z 27008KT 10SM FEW022 BKN060 16/08 A3000 RMK AO2 SLP158 T01560078 $
