2025/01/03 13:53
KLAX 031353Z 25004KT 1/2SM R25L/P6000FT FG VV002 11/11 A3005 RMK AO2 SLP174 VIS 1/4V1 T01060106
