2024/11/23 13:53
KLAX 231353Z 10004KT 5SM BR FEW011 11/09 A3001 RMK AO2 SLP162 T01060089
