2022/09/30 15:53
KLAX 301553Z 17005KT 7SM FEW009 OVC016 21/17 A2991 RMK AO2 SLP128 T02110167
