2025/12/18 11:53
KLAX 181153Z 09004KT 2 1/2SM BR FEW001 FEW003 12/11 A2993 RMK AO2 SLP135 T01220111 10150 20111 58004 $
