2023/12/06 11:53
KLAX 061153Z 11004KT 10SM FEW010 14/07 A3006 RMK AO2 SLP177 T01390067 10189 20139 58005
