2023/07/21 17:53
KLAX 211753Z 25008KT 8SM SCT007 SCT220 BKN280 21/17 A2996 RMK AO2 SLP143 T02060172 10217 20183 53014 $
