2024/03/13 19:53
KLAX 131953Z 24010KT 10SM FEW020 SCT140 BKN220 18/10 A3000 RMK AO2 SLP158 T01830100
