2023/09/21 05:53
KLAX 210553Z 24005KT 10SM BKN015 BKN022 BKN045 19/16 A2990 RMK AO2 SLP122 T01890156 10206 20189 51009
