2025/06/21 19:53
KLAX 211953Z 25011G23KT 10SM SCT028 SCT035 21/13 A2988 RMK AO2 SLP116 T02110128
