2023/07/16 03:53
KLAX 160353Z 26006KT 10SM SCT008 18/16 A2985 RMK AO2 SLP107 T01830161
