2024/01/06 17:53
KLAX 061753Z 12007KT 10SM FEW250 13/02 A3018 RMK AO2 SLP219 T01330017 10133 20067 50004
