2025/08/25 03:53
KLAX 250353Z 24007KT 10SM FEW015 21/18 A2987 RMK AO2 SLP112 T02110183
