2024/05/19 23:53
KLAX 192353Z 28013G19KT 10SM SCT016 17/12 A3002 RMK AO2 SLP163 T01720117 10194 20167 56015 $
