2024/11/21 09:53
KLAX 210953Z 00000KT 10SM CLR 11/05 A3014 RMK AO2 SLP205 T01060050
