2023/06/07 05:53
KLAX 070553Z 23004KT 10SM FEW028 SCT045 SCT120 BKN150 16/11 A2994 RMK AO2 SLP136 T01560111 10172 20156 53009
