2024/02/29 05:53
KLAX 290553Z 25006KT 10SM SCT011 14/12 A3007 RMK AO2 SLP183 T01390122 10161 20139 53014 $
