2025/08/16 12:53
KLAX 161253Z 08009KT 10SM OVC016 19/16 A3001 RMK AO2 SLP158 T01940156 $
