2025/02/22 09:53
KLAX 220953Z 00000KT 10SM CLR 13/09 A3015 RMK AO2 SLP208 T01330094
