2024/04/09 09:53
KLAX 090953Z 11003KT 10SM CLR 12/07 A3002 RMK AO2 SLP161 T01220067 $
