2022/12/17 23:53
KLAX 172353Z 29004KT 10SM BKN250 17/00 A2996 RMK AO2 SLP144 T01670000 10189 20150 56015 $
