2025/06/12 15:53
KLAX 121553Z 15003KT 8SM OVC010 18/15 A2989 RMK AO2 SLP120 T01780150
