2022/09/06 02:53
KLAX 060253Z 24005KT 10SM FEW050 FEW090 26/18 A2972 RMK AO2 SLP062 FU FEW050 T02610183 53006 $
