2025/12/12 17:53
KLAX 121753Z 11003KT 8SM FEW004 FEW300 17/11 A3006 RMK AO2 SLP176 T01720111 10172 20117 51011 $
