2025/11/18 19:53
KLAX 181953Z 00000KT 10SM FEW019 BKN050 BKN075 14/08 A2994 RMK AO2 RAB1858E44 SLP136 P0002 T01440083 $
