2024/07/28 17:53
KLAX 281753Z 27006KT 10SM CLR 22/16 A2995 RMK AO2 SLP139 T02170161 10217 20167 53008
