2024/10/02 00:12
KLAX 020012Z 26013KT 10SM SCT007 19/16 A2986 RMK AO2 T01890156
