2024/06/10 19:53
KLAX 101953Z 24009KT 200V270 10SM FEW016 21/14 A2994 RMK AO2 SLP137 T02060144
