2022/11/16 13:53
KLAX 161353Z 13003KT 10SM CLR 09/04 A3021 RMK AO2 SLP228 T00890039
