2026/04/07 03:53
KLAX 070353Z 25009KT 10SM FEW012 17/14 A3000 RMK AO2 SLP158 T01670144 $
