2024/01/16 01:53
KLAX 160153Z 27009KT 10SM FEW250 13/11 A3005 RMK AO2 SLP176 T01280111 $
