2023/09/03 17:53
KLAX 031753Z 26010KT 10SM FEW033 BKN039 BKN049 23/15 A3004 RMK AO2 SLP170 T02330150 10233 20211 52002 $
