2023/01/29 07:53
KLAX 290753Z 10005KT 10SM BKN043 13/08 A2997 RMK AO2 SLP147 T01280083 401720083 $
