2023/07/29 21:53
KLAX 292153Z 24011KT 5SM HZ FEW170 SCT220 BKN280 24/19 A2995 RMK AO2 SLP141 T02440194
