2025/02/23 05:53
KLAX 230553Z VRB03KT 10SM FEW004 FEW200 13/11 A3024 RMK AO2 SLP238 T01330111 10167 20133 52011 $
