2023/08/04 00:53
KLAX 040053Z 25012KT 10SM CLR 22/15 A2994 RMK AO2 SLP138 T02220150 
