2023/03/09 09:53
KLAX 090953Z 07005KT 10SM FEW012 FEW140 BKN200 11/08 A3011 RMK AO2 SLP196 T01060083 $
