2023/10/07 07:53
KLAX 070753Z 25004KT 10SM CLR 19/17 A2986 RMK AO2 SLP109 T01940167 402890167
