2023/06/27 21:53
KLAX 272153Z 24012KT 10SM FEW012 20/14 A2987 RMK AO2 SLP114 T02000144
