2025/02/13 09:53
KLAX 130953Z 10006KT 2 1/2SM -RA BR OVC004 13/12 A2995 RMK AO2 SLP143 P0003 T01280122 $
