2023/11/16 07:53
KLAX 160753Z 08008KT 9SM FEW008 BKN022 BKN029 14/14 A3000 RMK AO2 DZE03 SLP156 P0000 T01440139 402060133
