2024/07/07 11:53
KLAX 071153Z VRB03KT 6SM BR FEW005 BKN009 19/17 A2990 RMK AO2 SLP121 T01890172 10200 20183 53002 $
