2026/06/22 18:53
KLAX 221853Z 27010KT 10SM FEW009 FEW022 21/14 A2996 RMK AO2 SLP144 T02110139 $
