2024/09/09 19:53
KLAX 091953Z 26012KT 10SM FEW060 FEW130 29/17 A2982 RMK AO2 SLP097 FU FEW060 FU PLUME DSNT NE-E T02890167
