2026/05/04 07:53
KLAX 040753Z 27011KT 10SM FEW020 BKN060 16/10 A2999 RMK AO2 SLP152 T01560100 401940150
