2026/02/13 19:53
KLAX 131953Z 22007KT 10SM FEW060 FEW110 19/09 A3000 RMK AO2 SLP159 T01940089
