2025/10/15 01:53
KLAX 150153Z 16003KT 10SM FEW025 FEW030 SCT090 16/10 A2994 RMK AO2 SLP136 T01610100 $
