2024/02/08 05:53
KLAX 080553Z 29016G29KT 10SM FEW023 BKN038 BKN055 12/09 A2989 RMK AO2 PK WND 26029/0549 WSHFT 0440 RAE26 SLP120 P0000 60017 T01170089 10133 20100 56006 $
