2025/10/14 02:11
KLAX 140211Z 15011G16KT 10SM FEW018 SCT024 SCT045 18/12 A2977 RMK AO2 RAE00 P0000 T01780117 $
