2025/07/18 23:53
KLAX 182353Z 25013KT 10SM FEW015 FEW100 SCT150 SCT240 22/16 A2994 RMK AO2 SLP137 CB DSNT E T02220161 10228 20211 58013 $
