2023/08/03 23:53
KLAX 032353Z 25014KT 10SM CLR 23/16 A2996 RMK AO2 SLP142 T02280156 10239 20222 56014 
