2022/09/02 11:53
KLAX 021153Z 08004KT 10SM FEW150 SCT200 23/19 A2977 RMK AO2 SLP079 T02280194 10250 20222 50004
