2023/07/06 17:53
KLAX 061753Z 20009KT 6SM HZ FEW009 SCT021 19/14 A2996 RMK AO2 SLP143 T01940139 10200 20161 51002 $
