2024/09/11 13:53
KLAX 111353Z 01004KT 10SM SCT010 SCT040 17/14 A2981 RMK AO2 SLP093 FU SCT040 T01720144
