2025/03/05 11:53
KLAX 051153Z 00000KT 10SM FEW007 BKN011 11/10 A3003 RMK AO2 SLP168 T01110100 10122 20100 56018 $
