2025/12/31 07:53
KLAX 310753Z 04009G21KT 10SM BKN120 BKN200 20/02 A3006 RMK AO2 SLP176 T02000017 402280150 $
