2025/06/25 17:53
KLAX 251753Z 23008KT 9SM SCT025 21/14 A3000 RMK AO2 SLP159 T02060139 10211 20178 58000
