2026/07/19 21:53
KLAX 192153Z 27010KT 10SM FEW020 FEW120 25/18 A2990 RMK AO2 SLP123 T02500183 $
