2023/01/29 13:53
KLAX 291353Z 08004KT 10SM FEW025 SCT050 11/07 A2993 RMK AO2 SLP134 T01110072 $
