2023/01/25 17:53
KLAX 251753Z 00000KT 10SM FEW160 15/01 A3031 RMK AO2 SLP263 T01500011 10150 20061 51012 $
