2023/06/03 01:53
KLAX 030153Z 26015KT 10SM FEW016 17/13 A2995 RMK AO2 SLP140 T01720133
