2024/11/15 11:59
KLAX 151159Z 35006KT 10SM CLR 13/10 A2985 RMK AO2 T01280100
