2023/03/31 11:53
KLAX 311153Z 05003KT 10SM FEW016 FEW070 SCT250 08/06 A3016 RMK AO2 SLP212 70025 T00780056 10117 20072 51006 $
