2024/06/21 17:53
KLAX 211753Z 24009KT 10SM CLR 21/15 A2978 RMK AO2 SLP084 T02060150 10217 20156 51003
