2026/04/13 05:53
KLAX 130553Z 31006G18KT 10SM FEW014 FEW030 SCT080 16/09 A3004 RMK AO2 SLP172 T01560094 10183 20156 52009 $
