2026/03/18 15:53
KLAX 181553Z 00000KT 10SM FEW250 23/12 A3001 RMK AO2 SLP161 T02330117 $
