2023/07/04 00:10
KLAX 040010Z 24010KT 10SM BKN008 BKN250 18/14 A2988 RMK AO2 T01830144
