2023/12/09 23:53
KLAX 092353Z 00000KT 10SM FEW160 SCT280 22/M07 A3019 RMK AO2 SLP223 T02221072 10228 20189 56004 $
