2024/10/14 06:53
KLAX 140653Z 21004KT 10SM SCT011 BKN014 17/14 A3005 RMK AO2 SLP172 T01720144 $
