2024/11/25 15:53
KLAX 251553Z 08004KT 8SM FEW007 OVC075 13/09 A3018 RMK AO2 SLP217 T01280089
