2023/11/05 21:53
KLAX 052153Z 27011KT 7SM FEW009 FEW160 SCT250 21/14 A2991 RMK AO2 SLP128 T02110144
