2023/04/24 17:53
KLAX 241753Z 26007KT 210V280 8SM FEW009 BKN019 18/13 A2991 RMK AO2 SLP128 T01780128 10178 20150 51003 $
