2026/01/20 13:53
KLAX 201353Z 09004KT 10SM FEW014 FEW250 13/04 A3004 RMK AO2 SLP172 T01280039 $
