2023/02/08 21:53
KLAX 082153Z 25008KT 10SM FEW160 19/08 A3020 RMK AO2 SLP226 T01890078 $
