2025/11/05 01:53
KLAX 050153Z 27008KT 10SM CLR 16/13 A3007 RMK AO2 SLP180 T01610133 $
