2022/11/24 19:53
KLAX 241953Z 17004KT 10SM FEW250 25/M06 A3016 RMK AO2 SLP214 T02501061
