2025/02/01 11:53
KLAX 011153Z 05004KT 8SM CLR 10/08 A3016 RMK AO2 SLP211 T01000083 10122 20089 58007
