2023/10/05 03:53
KLAX 050353Z 18004KT 10SM CLR 21/14 A2988 RMK AO2 SLP116 T02110144 $
