2022/10/07 03:53
KLAX 070353Z 22005KT 10SM OVC011 20/17 A3003 RMK AO2 SLP167 T02000172
