2024/06/06 07:53
KLAX 060753Z 26005KT 7SM FEW003 OVC007 17/15 A2989 RMK AO2 SLP118 T01670150 402110167
