2022/10/30 03:53
KLAX 300353Z 08004KT 10SM CLR 18/12 A3002 RMK AO2 SLP164 T01780122 CHINO RWY24 VISNO RWY24 $
