2024/03/22 19:53
KLAX 221953Z 21003KT 6SM HZ BKN140 18/12 A3008 RMK AO2 SLP185 T01830122 $
