2024/03/07 11:53
KLAX 071153Z 30003KT 10SM FEW014 FEW045 SCT140 SCT200 10/08 A2983 RMK AO2 SLP101 70067 T01000078 10111 20094 55005
