2025/12/02 01:53
KLAX 020153Z 26009KT 8SM CLR 16/13 A3001 RMK AO2 SLP161 T01610133 $
