2024/10/09 01:53
KLAX 090153Z 27011KT 9SM FEW006 18/16 A2983 RMK AO2 SLP099 T01780156 $
