2025/11/27 01:53
KLAX 270153Z 26007KT 10SM FEW250 19/11 A3004 RMK AO2 SLP171 T01890106 $
