2022/12/25 01:53
KLAX 250153Z 26005KT 10SM CLR 16/12 A3019 RMK AO2 SLP222 T01560122 $
