2024/10/29 23:53
KLAX 292353Z 27019KT 10SM FEW045 FEW090 18/12 A2991 RMK AO2 SLP126 T01780117 10206 20178 56001
