2025/04/21 19:53
KLAX 211953Z 23011KT 8SM FEW009 FEW032 SCT160 SCT250 17/11 A3000 RMK AO2 SLP157 T01720106 $
