2025/11/03 07:53
KLAX 030753Z VRB05KT 5SM BR FEW006 BKN009 16/14 A3003 RMK AO2 SLP169 T01560139 401940150 $
