2025/07/06 21:53
KLAX 062153Z 25012KT 10SM CLR 22/15 A2994 RMK AO2 SLP138 T02170150
