2024/01/21 09:53
KLAX 210953Z 11004KT 7SM FEW004 OVC005 13/13 A2988 RMK AO2 SLP118 T01330128 $
