2024/12/09 19:53
KLAX 091953Z 23010G14KT 7SM FEW014 FEW025 SCT050 17/09 A3011 RMK AO2 SLP196 T01670089
