2025/11/03 23:53
KLAX 032353Z 26012KT 10SM FEW010 FEW250 18/14 A3002 RMK AO2 SLP166 T01780139 10206 20178 55001 $
