2023/06/02 19:53
KLAX 021953Z 25013KT 10SM FEW019 FEW037 SCT040 20/12 A2999 RMK AO2 SLP153 T02000122
