2023/05/02 09:53
KLAX 020953Z 24008KT 10SM FEW014 SCT018 BKN040 13/08 A2988 RMK AO2 SLP117 T01280083
