2025/08/11 07:53
KLAX 110753Z 23005KT 10SM FEW008 18/16 A2996 RMK AO2 SLP141 T01780156 402390178 $
