2023/09/05 15:22
KLAX 051522Z 00000KT 8SM FEW009 BKN015 BKN022 21/17 A2990 RMK AO2 T02110172 $
