2025/08/31 11:53
KLAX 311153Z 23005KT 10SM FEW005 20/19 A2990 RMK AO2 SLP123 T02000189 10211 20200 55000 $
