2023/11/01 07:53
KLAX 010753Z 02005KT 10SM FEW250 18/M06 A3002 RMK AO2 SLP161 T01781061 402830139 $
