2024/07/07 19:53
KLAX 071953Z 24010KT 10SM FEW020 23/17 A2995 RMK AO2 SLP141 T02330167 $
