2023/02/17 13:53
KLAX 171353Z VRB06KT 10SM SCT200 BKN250 09/M08 A3006 RMK AO2 SLP179 T00941083 $
