2024/07/14 03:53
KLAX 140353Z 00000KT 10SM FEW009 SCT050 SCT120 19/17 A2997 RMK AO2 SLP147 T01890167 $
