2026/02/16 03:53
KLAX 160353Z 00000KT 10SM FEW050 FEW150 OVC250 15/09 A2994 RMK AO2 SLP139 T01500089
