2024/05/19 15:53
KLAX 191553Z 20003KT 10SM SCT021 OVC029 16/11 A3006 RMK AO2 SLP179 T01610111 $
