2025/04/17 19:53
KLAX 171953Z 22010KT 8SM FEW019 OVC070 16/11 A3000 RMK AO2 SLP158 T01610106 $
