2025/10/17 01:53
KLAX 170153Z 25006KT 10SM CLR 18/13 A2987 RMK AO2 SLP115 T01830133 $
