2024/10/06 01:53
KLAX 060153Z 26010KT 3/4SM R25L/5000VP6000FT BR OVC002 17/17 A2993 RMK AO2 SLP133 T01720167
