2026/03/15 03:53
KLAX 150353Z 00000KT 6SM BR BKN004 14/14 A2993 RMK AO2 VIS 3/4 RWY24 SLP133 T01440139 $
