2025/11/17 17:53
KLAX 171753Z 14008KT 10SM SCT019 SCT055 BKN080 17/13 A2995 RMK AO2 SLP141 60002 T01720128 10178 20133 58001 $
