2026/03/14 07:53
KLAX 140753Z 10003KT 10SM SCT200 18/11 A2991 RMK AO2 SLP124 T01780106 403110167
