2025/03/28 15:53
KLAX 281553Z 12007KT 9SM FEW017 SCT075 BKN160 14/11 A3000 RMK AO2 SLP158 T01440106 $
