2022/11/25 05:53
KLAX 250553Z 00000KT 10SM CLR 16/01 A3024 RMK AO2 SLP238 T01610006 10217 20161 51020 $
