2023/05/15 21:53
KLAX 152153Z 24008KT 200V280 10SM OVC014 18/14 A3008 RMK AO2 SLP183 T01830139
