2024/04/19 09:53
KLAX 190953Z 10004KT 10SM FEW009 OVC014 14/11 A2997 RMK AO2 SLP147 T01390111 $
