2025/06/12 21:53
KLAX 122153Z 23011KT 10SM FEW011 FEW250 22/15 A2986 RMK AO2 SLP111 T02170150
