2023/10/02 01:53
KLAX 020153Z 24009KT 10SM FEW020 FEW060 17/11 A2991 RMK AO2 SLP126 T01720111 $
