2025/02/06 11:53
KLAX 061153Z 11006KT 3SM BR FEW002 BKN003 OVC013 14/14 A3000 RMK AO2 RAB17E35 SLP156 VIS W 1/2 P0001 60003 70020 T01440139 10150 20139 58006 $
