2023/09/26 07:53
KLAX 260753Z 08005KT 10SM CLR 16/15 A3003 RMK AO2 SLP165 T01560150 402330150 $
