2023/11/06 19:53
KLAX 061953Z 25007KT 10SM CLR 21/14 A2995 RMK AO2 SLP141 T02060144
