2024/12/30 17:53
KLAX 301753Z VRB03KT 6SM BR FEW009 SCT014 15/10 A3010 RMK AO2 SLP193 T01500100 10150 20111 53012
