2024/08/02 09:53
KLAX 020953Z 00000KT 10SM FEW008 FEW220 19/16 A3003 RMK AO2 SLP166 T01890156 $
