2025/09/25 05:53
KLAX 250553Z 19004KT 10SM FEW004 FEW008 20/18 A2997 RMK AO2 SLP145 T02000183 10222 20200 51010 $
