2023/03/30 23:53
KLAX 302353Z 36011KT 7SM R25L/5000VP6000FT FEW024 BKN038 BKN045 11/08 A3002 RMK AO2 RAB23RAEMM SLP166 P0009 60009 T01060078 10150 20106 51014 $
