2025/04/16 07:53
KLAX 160753Z 27008KT 10SM FEW016 SCT220 BKN280 14/10 A3000 RMK AO2 SLP158 T01390100 401670128
