2025/07/06 23:53
KLAX 062353Z 25009G16KT 10SM FEW012 21/16 A2992 RMK AO2 SLP129 T02110156 10217 20206 58013
