2025/12/23 09:53
KLAX 230953Z 11005KT 6SM BR BKN008 OVC250 16/14 A2993 RMK AO2 SLP133 T01560139 $
