2026/04/28 09:53
KLAX 280953Z 08003KT 10SM FEW200 13/08 A3003 RMK AO2 SLP167 T01330078 $
