2022/10/04 05:53
KLAX 040553Z 00000KT 10SM FEW018 21/17 A2994 RMK AO2 SLP137 T02060172 10222 20200 51007
