2023/01/22 01:53
KLAX 220153Z 26007KT 10SM CLR 13/07 A3023 RMK AO2 SLP237 T01280067 $
