2025/12/11 09:53
KLAX 110953Z 09004KT 10SM CLR 13/08 A3001 RMK AO2 SLP159 T01330078 $
