2026/02/11 13:53
KLAX 111353Z 26008KT 10SM FEW012 SCT039 BKN060 15/12 A3003 RMK AO2 SLP168 T01500117 $
