2025/05/21 21:53
KLAX 212153Z 26014KT 10SM FEW009 21/16 A2991 RMK AO2 SLP125 T02060156 $
