2022/11/01 15:53
KLAX 011553Z 10007KT 7SM FEW015 SCT023 BKN140 BKN160 18/16 A2991 RMK AO2 SLP128 T01830156 VISNO RWY24 $
