2022/10/15 13:53
KLAX 151353Z 30003KT 6SM BR FEW002 BKN006 OVC017 18/17 A2988 RMK AO2 DZE24 SLP116 VIS W 2 P0000 T01780172 $
