2025/09/17 15:53
KLAX 171553Z 29008KT 10SM FEW100 SCT160 SCT250 23/18 A2992 RMK AO2 SLP128 T02280183
