2023/11/12 19:53
KLAX 121953Z 00000KT 10SM FEW250 28/M06 A2999 RMK AO2 SLP155 T02831061
