2024/09/28 00:08
KLAX 280008Z 27009KT 10SM FEW008 BKN010 17/13 A2982 RMK AO2 T01670133
