2025/07/30 13:53
KLAX 301353Z 04004KT 6SM HZ FEW008 FEW016 18/16 A3001 RMK AO2 SLP161 T01830156 $
