2022/11/24 11:53
KLAX 241153Z 00000KT 10SM CLR 11/07 A3010 RMK AO2 SLP191 T01110072 10139 20089 51007
