2024/12/22 19:53
KLAX 221953Z 21005KT 5SM HZ FEW180 SCT200 OVC230 17/11 A3011 RMK AO2 SLP197 T01670111
