2024/06/22 13:53
KLAX 221353Z 25003KT 10SM FEW006 17/16 A2981 RMK AO2 SLP092 T01720156
