2024/03/12 14:00
KLAX 121400Z 11005KT 10SM FEW018 BKN023 BKN140 12/10 A3011 RMK AO2 T01170100 $
