2025/08/12 21:53
KLAX 122153Z 24011KT 10SM CLR 23/17 A2991 RMK AO2 SLP126 T02330167
