2022/10/20 11:53
KLAX 201153Z 00000KT 10SM SCT220 BKN280 22/10 A2994 RMK AO2 SLP135 T02170100 10261 20206 56005 $
