2025/08/29 07:53
KLAX 290753Z 27005KT 10SM CLR 22/17 A2999 RMK AO2 SLP151 T02220167 402890200 $
