2022/09/20 15:53
KLAX 201553Z 11005KT 10SM FEW020 FEW060 SCT160 22/16 A2992 RMK AO2 SLP131 T02170161 $
