2026/04/03 17:53
KLAX 031753Z 08004KT 10SM FEW100 SCT160 BKN250 21/11 A3001 RMK AO2 SLP160 T02110111 10211 20133 51005 $
