2022/11/23 05:53
KLAX 230553Z 09005KT 10SM CLR 14/10 A3007 RMK AO2 SLP180 T01390100 10178 20133 51010 $
