2024/09/10 19:53
KLAX 101953Z 26012KT 10SM FEW080 23/15 A2986 RMK AO2 SLP109 FU FEW080 T02280150
