2024/03/25 09:53
KLAX 250953Z 30010KT 10SM FEW150 12/04 A2986 RMK AO2 SLP109 T01220044 $
