2024/12/01 21:53
KLAX 012153Z 26009KT 10SM SCT170 19/08 A3009 RMK AO2 SLP188 T01940083 $
