2025/04/08 17:53
KLAX 081753Z 25007KT 8SM FEW010 FEW140 20/12 A3005 RMK AO2 SLP175 T02000122 10200 20117 51006 $
