2023/09/17 15:53
KLAX 171553Z 23004KT 5SM -DZ BR SCT003 BKN008 OVC012 18/17 A3000 RMK AO2 DZE22B53 SLP155 VIS SW-N 2 1/2 CIG 006V010 P0000 T01780172 $
