2024/08/03 21:53
KLAX 032153Z 27013KT 10SM FEW070 FEW200 23/16 A2991 RMK AO2 SLP128 T02330156 $
