2025/08/26 07:53
KLAX 260753Z 24003KT 10SM FEW010 FEW200 21/18 A2991 RMK AO2 SLP125 T02060178 402500194 $
