2026/02/10 19:53
KLAX 101953Z 12009G16KT 10SM FEW009 SCT017 OVC030 18/13 A2995 RMK AO2 SLP141 T01780133 $
