2023/07/25 23:53
KLAX 252353Z 27010KT 10SM FEW075 FEW150 25/17 A2991 RMK AO2 SLP126 CB DSNT NE-E AND SE T02500172 10250 20217 58016 $
