2023/04/23 03:53
KLAX 230353Z 23007KT 10SM CLR 17/13 A2980 RMK AO2 SLP089 T01720128
