2023/03/08 15:53
KLAX 081553Z 07004KT 8SM BKN018 BKN140 11/07 A3017 RMK AO2 SLP215 T01060067 $
