2025/03/20 15:53
KLAX 201553Z 23005KT 10SM FEW075 SCT180 SCT250 14/07 A3014 RMK AO2 SLP205 T01390067 $
