2024/04/01 19:53
KLAX 011953Z 24011KT 10SM FEW008 FEW045 16/11 A3002 RMK AO2 SLP163 T01610106
