2024/07/06 15:53
KLAX 061553Z 11006KT 5SM BR OVC006 20/18 A2985 RMK AO2 SLP108 T02000183
