2024/11/22 03:53
KLAX 220353Z 18006KT 10SM CLR 14/10 A3008 RMK AO2 SLP184 T01440100 $
