2026/06/20 04:53
KLAX 200453Z 24009KT 10SM FEW011 FEW015 17/13 A2999 RMK AO2 SLP155 FU FEW015 T01720128
