2024/07/23 21:53
KLAX 232153Z 26012KT 10SM FEW100 FEW150 23/17 A2991 RMK AO2 SLP127 CB DSNT NE T02330172 $
