2025/08/03 09:53
KLAX 030953Z 00000KT 8SM OVC008 18/16 A3003 RMK AO2 SLP166 T01780161 $
