2025/02/17 17:53
KLAX 171753Z 09006KT 10SM FEW025 SCT180 SCT250 16/11 A3001 RMK AO2 SLP163 T01610111 10167 20083 50008
