2023/06/07 17:53
KLAX 071753Z 26007KT 10SM BKN028 OVC043 17/12 A3000 RMK AO2 SLP156 T01720117 10178 20150 51008
