2022/12/19 23:53
KLAX 192353Z 26010KT 10SM FEW200 FEW250 14/07 A3021 RMK AO2 SLP229 T01440072 10183 20139 55001 $
