2023/01/28 11:53
KLAX 281153Z 05005KT 7SM BKN011 09/06 A2998 RMK AO2 SLP150 T00890056 10122 20083 57000 $
