2023/02/17 07:53
KLAX 170753Z 06003KT 10SM BKN200 11/M07 A3016 RMK AO2 SLP210 T01111067 401720050 $
