2023/03/29 05:53
KLAX 290553Z 24006KT 10SM FEW012 BKN055 BKN090 12/09 A3004 RMK AO2 SLP170 T01220094 10150 20117 50006 $
