2024/06/27 09:53
KLAX 270953Z 00000KT 10SM FEW008 18/16 A2988 RMK AO2 SLP118 T01780156
