2026/02/09 07:53
KLAX 090753Z 09003KT 10SM CLR 16/10 A3011 RMK AO2 SLP191 T01560100 402780117 $
