2023/02/26 16:53
KLAX 261653Z VRB05KT 10SM SCT028 BKN035 08/06 A3015 RMK AO2 SLP211 T00830056 $
