2022/10/31 05:53
KLAX 310553Z 07003KT 10SM CLR 18/13 A2994 RMK AO2 SLP136 T01780128 10211 20172 53004 VISNO RWY24 $
