2025/05/23 05:53
KLAX 230553Z 22004KT 9SM FEW010 SCT270 17/15 A2995 RMK AO2 SLP139 T01720150 10206 20172 51008 $
