2026/04/20 04:53
KLAX 200453Z 24009KT 10SM SCT011 16/13 A2994 RMK AO2 SLP136 T01610133
