2022/11/24 13:53
KLAX 241353Z VRB03KT 10SM CLR 10/06 A3012 RMK AO2 SLP197 T01000056
