2024/10/27 13:53
KLAX 271353Z 00000KT 4SM BR SCT120 BKN240 16/14 A3000 RMK AO2 SLP159 T01560139 $
