2025/07/09 21:53
KLAX 092153Z 26014KT 10SM FEW250 22/13 A3000 RMK AO2 SLP157 T02170128 $
