2023/12/21 11:53
KLAX 211153Z 08007KT 10SM FEW006 SCT008 OVC016 15/14 A2993 RMK AO2 RAE39 SLP133 P0027 60062 70160 T01500144 10156 20150 58003
