2025/08/30 03:53
KLAX 300353Z 24007KT 10SM CLR 22/16 A2996 RMK AO2 SLP141 T02170161 $
