2022/09/22 17:53
KLAX 221753Z VRB04KT 10SM CLR 27/11 A2996 RMK AO2 SLP144 T02670111 10267 20167 50002
