2023/11/22 17:53
KLAX 221753Z 02006KT 10SM FEW160 SCT180 SCT250 23/M02 A3013 RMK AO2 SLP201 T02331017 10233 20128 58005
