2025/03/14 09:53
KLAX 140953Z 26017G23KT 10SM BKN250 10/04 A3001 RMK AO2 SLP162 T01000039 $
