2024/01/24 01:53
KLAX 240153Z 26007G21KT 10SM FEW010 FEW030 SCT250 15/12 A2994 RMK AO2 SLP136 T01500122
