2026/02/20 21:53
KLAX 202153Z 26004KT 10SM FEW060 SCT160 SCT180 BKN250 14/01 A3002 RMK AO2 SLP165 T01440006 $
