2026/05/20 06:53
KLAX 200653Z 31004KT 10SM FEW032 22/04 A2991 RMK SLP126 FU FEW032 T02220039 
