2023/06/13 01:53
KLAX 130153Z 26010KT 10SM FEW016 SCT037 BKN043 BKN180 17/13 A3002 RMK AO2 SLP163 T01720133
