2024/08/07 17:53
KLAX 071753Z 15007KT 8SM FEW014 SCT140 BKN160 26/18 A3004 RMK AO2 SLP169 T02610178 10261 20194 52008 $
