2025/05/07 17:53
KLAX 071753Z 24009KT 8SM FEW011 BKN028 18/11 A3007 RMK AO2 SLP180 T01830111 10189 20150 50009 $
