2025/03/20 13:53
KLAX 201353Z 00000KT 10SM FEW070 BKN250 12/04 A3012 RMK AO2 SLP198 T01170044 $
