2024/04/05 21:53
KLAX 052153Z 26025G33KT 10SM FEW010 SCT050 SCT110 BKN170 14/04 A2996 RMK AO2 PK WND 27033/2138 SLP144 T01390044 $
