2025/07/13 11:53
KLAX 131153Z 26003KT 7SM BKN004 OVC005 17/16 A2998 RMK AO2 SLP151 T01720156 10183 20167 53001
