2022/11/02 11:53
KLAX 021153Z 10005KT 3SM -RA BR SCT006 BKN011 OVC018 15/14 A2997 RMK AO2 SLP148 VIS N AND S 2 1/2 P0000 60014 70014 T01500144 10172 20144 56005 VISNO RWY24 $
