2023/09/08 17:53
KLAX 081753Z 00000KT 10SM FEW160 FEW250 26/18 A3002 RMK AO2 SLP165 T02610183 10261 20189 50006
