2023/01/14 05:53
KLAX 140553Z 23004KT 10SM FEW060 14/12 A3010 RMK AO2 SLP191 T01390122 10167 20133 53004
