2023/12/21 01:53
KLAX 210153Z 12005KT 10SM SCT008 BKN048 OVC055 16/15 A2987 RMK AO2 SLP115 T01560150
