2024/04/07 07:53
KLAX 070753Z 31004KT 10SM CLR 12/05 A3016 RMK AO2 SLP212 T01170050 401670061 $
