2025/11/04 09:53
KLAX 040953Z 35003KT 6SM BR BKN010 16/14 A3008 RMK AO2 SLP184 T01560139 $
