2025/08/13 21:53
KLAX 132153Z 26010G18KT 8SM FEW015 24/17 A2992 RMK AO2 SLP131 T02390172
