2023/01/16 19:53
KLAX 161953Z 27026G31KT 9SM FEW018 SCT027 SCT040 14/09 A2978 RMK AO2 PK WND 26032/1927 SLP082 T01440089 $
