2026/06/11 04:53
KLAX 110453Z 26003KT 10SM FEW010 19/17 A2982 RMK AO2 SLP093 T01890167
