2024/03/08 07:53
KLAX 080753Z 04006KT 10SM FEW012 FEW200 12/09 A3004 RMK AO2 SLP172 T01220094 401670089
