2023/07/28 15:53
KLAX 281553Z 13004KT 8SM FEW007 SCT180 SCT220 23/18 A2993 RMK AO2 SLP134 T02280183
