2023/12/13 05:53
KLAX 130553Z 13004KT 8SM BKN015 14/12 A2997 RMK AO2 SLP147 T01390117 10156 20133 51020
