2025/04/28 13:53
KLAX 281353Z 14003KT 8SM FEW010 FEW024 SCT110 BKN180 13/11 A3007 RMK AO2 SLP181 T01280106 $
