2025/04/28 01:53
KLAX 280153Z 24012G21KT 10SM FEW020 BKN060 14/10 A3006 RMK AO2 SLP179 T01440100 $
