2023/05/01 09:53
KLAX 010953Z 12005KT 2SM -DZ BR FEW002 BKN004 OVC009 14/13 A2984 RMK AO2 SLP104 VIS SW-N 1 1/4 P0002 T01390128
