2024/12/17 21:53
KLAX 172153Z 25006KT 10SM FEW190 FEW250 20/09 A3005 RMK AO2 SLP177 T02000094 $
