2023/04/20 03:53
KLAX 200353Z 22006KT 10SM FEW100 15/09 A3004 RMK AO2 SLP170 T01500089
