2024/06/20 09:53
KLAX 200953Z 00000KT 10SM FEW012 16/13 A2981 RMK AO2 SLP092 T01610133 $
