2023/01/09 05:53
KLAX 090553Z 12005KT 10SM BKN042 OVC055 15/09 A3015 RMK AO2 SLP210 T01500094 10156 20150 50003 $
