2024/04/25 09:53
KLAX 250953Z 26013KT 10SM OVC025 14/10 A3003 RMK AO2 SLP169 T01390100
