2025/09/02 23:53
KLAX 022353Z 25015KT 10SM FEW120 FEW150 24/18 A2987 RMK AO2 SLP114 CB DSNT NW T02440183 10267 20244 56017
