2024/02/27 19:53
KLAX 271953Z 27008KT 10SM FEW009 BKN033 16/11 A3001 RMK AO2 SLP163 T01610106 $
