2025/12/31 21:53
KLAX 312153Z 06007KT 5SM -RA BR FEW050 OVC060 15/13 A3000 RMK AO2 SLP158 P0009 T01500128 $
