2023/04/09 21:53
KLAX 092153Z 26010KT 10SM FEW008 16/12 A3008 RMK AO2 SLP185 VIS W 1 1/2 T01560117
