2026/07/13 10:53
KLAX 131053Z 26008KT 8SM BKN007 OVC010 20/18 A2993 RMK AO2 SLP133 T02000183 $
