2023/10/05 19:53
KLAX 051953Z 25009KT 10SM CLR 27/15 A2993 RMK AO2 SLP135 T02720150 $
