2023/01/10 09:53
KLAX 100953Z 15009KT 7SM BKN006 OVC009 16/14 A3005 RMK AO2 RAE50 SLP176 P0001 T01560144 $
