2025/01/08 17:53
KLAX 081753Z 02013G27KT 7SM BKN040 BKN070 BKN120 BKN180 18/M01 A3016 RMK AO2 PK WND 01032/1732 SLP211 FU BKN040 FU BKN070 T01781006 10178 20144 51015
