2023/04/04 03:53
KLAX 040353Z 33011G18KT 10SM FEW050 13/M07 A3001 RMK AO2 SLP161 T01281067
