2023/08/28 05:53
KLAX 280553Z 14005KT 10SM CLR 21/18 A2985 RMK AO2 SLP107 T02060178 10233 20206 51005 $
