2022/10/21 09:53
KLAX 210953Z 09004KT 8SM FEW008 19/18 A2992 RMK AO2 SLP127 T01890178 $
