2025/11/05 17:53
KLAX 051753Z 26007KT 9SM FEW022 OVC035 18/11 A3023 RMK AO2 SLP236 T01830111 10183 20161 53015 $
