2025/03/10 19:53
KLAX 101953Z 24009KT 10SM FEW070 SCT160 BKN250 17/07 A2994 RMK AO2 SLP138 T01720072 $
