2025/06/10 15:53
KLAX 101553Z 12005KT 6SM HZ FEW008 OVC014 18/14 A2997 RMK AO2 SLP149 T01830139 $
