2026/01/30 09:53
KLAX 300953Z 00000KT 10SM CLR 17/M01 A3021 RMK AO2 SLP227 T01671011 $
