2022/12/26 11:53
KLAX 261153Z 00000KT 10SM SCT250 13/06 A3008 RMK AO2 SLP184 T01280061 10194 20111 58011 $
