2023/07/11 15:53
KLAX 111553Z 25006KT 3SM HZ BKN006 18/16 A2999 RMK AO2 SLP154 T01830156 $
