2025/07/11 19:53
KLAX 111953Z 25010G19KT 10SM SCT019 22/16 A2996 RMK AO2 SLP144 T02220156 $
