2023/01/21 07:53
KLAX 210753Z 00000KT 10SM CLR 10/07 A3028 RMK AO2 SLP252 T01000067 401500056
