2024/09/05 19:53
KLAX 051953Z 27009KT 10SM FEW050 29/18 A2988 RMK AO2 SLP117 T02940183 $
