2026/06/22 15:07
KLAX 221507Z 24004KT 10SM FEW009 OVC015 18/14 A2994 RMK AO2 T01780139 $
