2024/01/02 19:53
KLAX 021953Z VRB03KT 10SM FEW160 SCT180 SCT250 17/09 A3023 RMK AO2 SLP235 T01720089 $
