2022/11/18 05:53
KLAX 180553Z 00000KT 10SM FEW150 FEW250 15/11 A3006 RMK AO2 SLP179 T01500106 10178 20144 50001
