2024/08/28 03:53
KLAX 280353Z 26009KT 10SM BKN008 18/16 A2995 RMK AO2 SLP139 T01830161
