2024/04/04 05:53
KLAX 040553Z 22006KT 10SM FEW008 FEW010 13/11 A3000 RMK AO2 SLP158 T01330111 10167 20133 50000 $
