2023/04/26 01:53
KLAX 260153Z 27012KT 10SM FEW012 FEW200 SCT250 16/12 A2990 RMK AO2 SLP125 T01560117 $
