2025/07/06 05:53
KLAX 060553Z 25007KT 10SM CLR 18/15 A3001 RMK AO2 SLP159 T01780150 10222 20178 51005
