2025/05/25 03:53
KLAX 250353Z 24007KT 10SM FEW014 SCT270 17/12 A2999 RMK AO2 SLP153 T01670122
