2024/08/09 17:53
KLAX 091753Z 26011KT 4SM HZ CLR 23/17 A2991 RMK AO2 SLP129 VIS W 2 1/2 T02280172 10239 20178 53001 $
