2025/08/01 17:53
KLAX 011753Z VRB03KT 7SM FEW009 SCT015 23/16 A3009 RMK AO2 SLP187 T02280156 10228 20178 51005 $
