2025/12/29 01:53
KLAX 290153Z 11006KT 10SM FEW250 16/11 A3010 RMK AO2 SLP194 T01560106 $
