2024/03/04 23:53
KLAX 042353Z 25009KT 10SM FEW045 FEW250 15/08 A3007 RMK AO2 SLP183 T01500083 10172 20139 56006
