2025/06/02 11:53
KLAX 021153Z 09003KT 10SM OVC012 16/14 A2994 RMK AO2 SLP135 T01610139 10161 20156 50000 $
