2023/09/01 09:53
KLAX 010953Z 10008KT 9SM FEW008 BKN012 20/18 A2982 RMK AO2 SLP094 T02000178 $
