2024/01/05 07:53
KLAX 050753Z 05008KT 10SM CLR 13/03 A3016 RMK AO2 SLP213 T01280033 401830111
