2024/02/08 03:53
KLAX 080353Z 18007KT 5SM -RA BR SCT014 BKN019 OVC050 11/10 A2988 RMK AO2 RAE25B33 SLP119 P0000 T01110100 $
