2024/05/14 21:53
KLAX 142153Z 26012G18KT 10SM FEW020 FEW050 SCT250 18/12 A2990 RMK AO2 SLP124 T01830122 $
