2025/03/01 15:53
KLAX 011553Z 24006KT 10SM SCT018 BKN027 BKN280 14/11 A2996 RMK AO2 SLP146 T01440111 $
