2026/07/19 19:53
KLAX 191953Z 26008KT 10SM FEW011 FEW120 24/18 A2994 RMK AO2 SLP136 T02440183 $
