2025/07/25 13:53
KLAX 251353Z 14004KT 8SM FEW009 FEW015 SCT027 SCT180 BKN250 17/14 A3002 RMK AO2 SLP162 T01720144 $
