2025/10/12 13:53
KLAX 121353Z 00000KT 5SM BR BKN004 16/15 A2977 RMK AO2 SLP079 VIS SW-W 2 T01610150 $
