2025/05/16 19:53
KLAX 161953Z 25010KT 8SM FEW015 SCT025 BKN160 18/12 A2996 RMK AO2 SLP143 T01830122
