2025/01/11 09:53
KLAX 110953Z 10004KT 10SM SCT047 BKN055 09/02 A3012 RMK AO2 SLP196 FU SCT047 FU BKN055 T00940022
