2024/05/25 07:53
KLAX 250753Z 27011KT 10SM FEW035 13/11 A2995 RMK AO2 SLP140 T01330106 401890133
