2025/01/22 05:53
KLAX 220553Z VRB04KT 10SM BKN250 15/M05 A3030 RMK AO2 SLP260 T01501050 10178 20133 53002
