2025/06/08 17:53
KLAX 081753Z 23006KT 10SM OVC009 17/14 A3000 RMK AO2 SLP159 T01670139 10172 20156 51002 $
