2024/03/03 01:53
KLAX 030153Z 25009G19KT 8SM FEW021 BKN026 OVC049 13/11 A3003 RMK AO2 RAB34E48 SLP166 P0000 T01280106 $
