2023/09/12 07:53
KLAX 120753Z 27004KT 10SM FEW150 BKN180 20/17 A2991 RMK AO2 SLP123 T02000172 402940200 $
