2026/07/04 01:53
KLAX 040153Z 26010KT 10SM FEW020 SCT100 SCT220 20/16 A2997 RMK AO2 SLP146 T02000156 $
