2025/02/13 17:53
KLAX 131753Z 17007G20KT 3SM -RA BR SCT010 BKN022 OVC028 15/14 A3000 RMK AO2 SLP157 P0004 60043 T01500139 10150 20128 51006
