2024/03/14 01:53
KLAX 140153Z 25009KT 10SM FEW200 BKN250 15/11 A2989 RMK AO2 SLP122 T01500106
