2023/10/06 21:53
KLAX 062153Z 26011KT 10SM CLR 26/15 A2985 RMK AO2 SLP107 T02560150
