2025/07/15 17:53
KLAX 151753Z 22006KT 9SM SCT025 22/15 A2998 RMK AO2 SLP150 T02170150 10217 20178 51005
