2025/03/08 07:53
KLAX 080753Z 05005KT 9SM FEW050 10/09 A3019 RMK AO2 SLP221 T01000094 401560078 $
