2023/11/19 11:53
KLAX 191153Z 26009KT 10SM FEW023 BKN047 16/14 A3010 RMK AO2 SLP191 60000 T01610144 10178 20161 58001
