2023/11/28 17:53
KLAX 281753Z VRB04KT 10SM FEW220 19/M03 A3016 RMK AO2 SLP213 T01941028 10194 20117 51006 $
