2022/12/09 11:53
KLAX 091153Z 09004KT 10SM FEW011 FEW200 SCT250 07/06 A3016 RMK AO2 SLP213 T00720056 10133 20072 58009
