2026/01/31 23:53
KLAX 312353Z 28009KT 10SM CLR 23/09 A3003 RMK AO2 SLP169 T02280094 10294 20228 56014 $
