2023/03/24 21:53
KLAX 242153Z 26019KT 10SM FEW070 16/07 A3019 RMK AO2 SLP223 T01610067
