2023/06/19 03:53
KLAX 190353Z 24004KT 10SM SCT015 BKN021 17/13 A2990 RMK AO2 SLP122 T01670133
