2023/11/25 11:53
KLAX 251153Z 05004KT 10SM FEW019 12/11 A3000 RMK AO2 SLP156 T01220106 10161 20122 50002 $
