2022/11/01 05:53
KLAX 010553Z 00000KT 6SM BR FEW006 FEW009 BKN150 BKN200 18/16 A2988 RMK AO2 SLP116 T01780161 10194 20178 53010 VISNO RWY24 $
