2023/01/19 09:53
KLAX 190953Z 00000KT 10SM FEW014 09/07 A3017 RMK AO2 SLP216 T00890067
