2025/06/14 21:53
KLAX 142153Z 26013KT 6SM HZ SCT014 BKN250 21/16 A2991 RMK AO2 SLP127 T02060156 $
