2025/04/08 03:53
KLAX 080353Z 24004KT 10SM CLR 14/11 A3005 RMK AO2 SLP176 T01440111 $
