2024/09/16 07:53
KLAX 160753Z 28008KT 10SM BKN022 BKN030 OVC036 18/15 A2986 RMK AO2 SLP107 T01830150 402280178 $
