2024/02/01 23:53
KLAX 012353Z 14004KT 10SM FEW019 SCT033 14/11 A2973 RMK AO2 SLP065 T01440106 10144 20106 55003 $
