2024/06/20 11:53
KLAX 201153Z 00000KT 10SM FEW011 17/13 A2980 RMK AO2 SLP088 T01670133 10167 20161 58005 $
