2023/07/12 09:59
KLAX 120959Z 27004KT 7SM FEW003 16/15 A2997 RMK AO2 T01560150 $
