2025/05/21 11:53
KLAX 211153Z 00000KT 10SM FEW015 17/13 A2988 RMK AO2 SLP117 T01670128 10189 20161 55001 $
