2022/09/10 19:53
KLAX 101953Z 17006KT 10SM FEW025 SCT110 OVC140 26/21 A2988 RMK AO2 SLP117 T02610206 $
