2023/09/24 19:53
KLAX 241953Z 26010KT 6SM HZ CLR 22/16 A3001 RMK AO2 SLP159 T02220156 $
