2023/06/12 07:53
KLAX 120753Z 29007KT 10SM FEW012 FEW016 OVC025 17/13 A3000 RMK AO2 SLP157 T01670128 402060156
