2023/06/21 11:53
KLAX 211153Z 00000KT 10SM FEW011 16/14 A2996 RMK AO2 SLP142 T01610139 10172 20161 56006
