2023/07/09 13:53
KLAX 091353Z 11004KT 8SM FEW010 OVC014 17/14 A2991 RMK AO2 SLP127 T01720144
