2022/09/01 07:53
KLAX 010753Z 00000KT 10SM BKN150 24/16 A2975 RMK AO2 SLP072 T02390156 402890200
