2023/03/09 17:53
KLAX 091753Z 00000KT 10SM FEW090 FEW160 SCT200 16/06 A3011 RMK AO2 SLP196 T01610061 10161 20089 58001 $
