2025/10/12 21:53
KLAX 122153Z 24011KT 10SM FEW250 22/14 A2970 RMK AO2 SLP056 T02170144 $
