2024/03/12 11:53
KLAX 121153Z 10003KT 10SM FEW010 BKN016 BKN220 12/09 A3010 RMK AO2 SLP191 T01170094 10139 20117 55012 $
