2025/04/22 12:02
KLAX 221202Z 17004KT 9SM FEW009 OVC015 13/09 A2996 RMK AO2 T01330094 $
