2022/12/18 15:53
KLAX 181553Z 00000KT 10SM FEW220 FEW280 10/M03 A2999 RMK AO2 SLP155 T01001028 VISNO RWY24 $
