2025/04/27 05:53
KLAX 270553Z 30011KT 10SM FEW024 BKN055 13/08 A3001 RMK AO2 SLP162 60000 T01330078 10156 20128 51015 $
