2025/02/11 07:53
KLAX 110753Z 10008KT 10SM FEW020 BKN030 BKN250 12/07 A3001 RMK AO2 SLP160 T01170067 401670078 $
