2024/12/14 23:53
KLAX 142353Z 26006KT 10SM SCT027 BKN070 BKN150 16/09 A3016 RMK AO2 SLP212 T01560089 10178 20150 55006
