2025/06/24 04:07
KLAX 240407Z 26007KT 10SM BKN014 17/14 A2993 RMK AO2 T01720144
