2024/08/21 09:53
KLAX 210953Z 13004KT 10SM CLR 20/18 A2994 RMK AO2 SLP133 T02000183
