2025/08/02 02:53
KLAX 020253Z 25011KT 10SM BKN007 17/15 A3006 RMK AO2 SLP178 T01720150 55000 $
