2025/06/23 05:53
KLAX 230553Z 21005KT 10SM FEW010 18/14 A2990 RMK AO2 SLP122 T01780144 10228 20178 50006
