2022/08/26 17:53
KLAX 261753Z 27007KT 7SM FEW007 SCT012 23/18 A2997 RMK AO2 SLP146 T02280178 10233 20189 50001 $
