2025/10/05 07:53
KLAX 050753Z 13003KT 9SM CLR 18/16 A2981 RMK AO2 SLP092 T01780156 402330156 $
