2025/05/04 05:53
KLAX 040553Z 26009KT 10SM OVC026 14/12 A2985 RMK AO2 SLP107 T01440117 10161 20144 58006
