2023/12/01 21:53
KLAX 012153Z 26013KT 10SM FEW025 FEW070 SCT150 SCT200 17/07 A3000 RMK AO2 SLP159 T01720072
