2023/05/08 15:53
KLAX 081553Z 00000KT 10SM BKN019 17/12 A3006 RMK AO2 SLP176 T01720117
