2025/11/05 19:53
KLAX 051953Z 26010G18KT 9SM FEW026 OVC037 19/10 A3022 RMK AO2 SLP230 T01940100 $
