2025/07/28 11:53
KLAX 281153Z 01003KT 10SM OVC011 17/15 A3001 RMK AO2 SLP159 T01720150 10178 20172 55003
