2024/12/14 03:53
KLAX 140353Z 26006KT 10SM FEW025 FEW200 13/08 A3017 RMK AO2 SLP217 T01280083
