2025/02/02 05:53
KLAX 020553Z 26003KT 10SM BKN008 BKN012 14/14 A3010 RMK AO2 SLP193 T01440139 10161 20139 51006
