2024/03/22 23:53
KLAX 222353Z 27011KT 10SM FEW015 BKN120 17/12 A3000 RMK AO2 SLP159 T01670117 10183 20161 56021 $
