2024/08/27 21:53
KLAX 272153Z 26009KT 10SM FEW007 23/17 A2996 RMK AO2 SLP143 T02280167
