2024/04/15 01:53
KLAX 150153Z 23008KT 10SM -RA FEW012 FEW019 SCT042 13/11 A3009 RMK AO2 RAB42 SLP188 P0000 T01280106 $
