2022/09/09 23:53
KLAX 092353Z 12016KT 10SM -RA FEW090 SCT110 OVC130 33/17 A2953 RMK AO2 PK WND 11032/2256 RAB14 SLP998 VIRGA NW-N P0000 60000 T03280172 10389 20322 53003 $
