2024/03/07 21:53
KLAX 072153Z 25011G16KT 10SM FEW009 FEW050 SCT120 16/11 A2988 RMK AO2 SLP118 T01610106
