2025/08/28 17:53
KLAX 281753Z 13005KT 10SM FEW027 SCT160 BKN250 27/14 A3003 RMK AO2 SLP166 T02720144 10272 20200 52001 $
