2024/04/29 11:53
KLAX 291153Z 00000KT 10SM FEW004 FEW250 14/12 A2993 RMK AO2 SLP133 T01390117 10156 20133 56007
