2024/08/03 23:53
KLAX 032353Z 25016G21KT 10SM FEW005 FEW070 21/16 A2988 RMK AO2 RAB51E52 SLP118 P0000 60000 T02110161 10239 20211 58016 $
