2026/05/03 15:53
KLAX 031553Z 24005KT 10SM SCT021 OVC027 16/11 A2995 RMK AO2 SLP142 T01560111
