2022/10/02 09:53
KLAX 020953Z 07004KT 10SM OVC022 20/14 A2990 RMK AO2 SLP123 T02000144
