2025/09/14 21:53
KLAX 142153Z 25012KT 10SM FEW020 23/17 A2984 RMK AO2 SLP103 T02330172 $
