2023/01/13 09:53
KLAX 130953Z 00000KT 10SM FEW220 SCT280 13/04 A3014 RMK AO2 SLP205 T01330044 $
