2026/05/05 09:53
KLAX 050953Z 30006KT 10SM SCT031 BKN038 OVC044 15/09 A2994 RMK AO2 SLP135 T01500094
