2026/01/04 13:53
KLAX 041353Z 09006KT 10SM FEW009 FEW030 OVC043 14/13 A3001 RMK AO2 RAB24E52 SLP161 P0002 T01390133
