2024/03/12 07:53
KLAX 120753Z 26007KT 10SM FEW012 FEW016 SCT050 BKN220 13/10 A3013 RMK AO2 SLP200 T01280100 401670094 $
