2023/10/11 03:53
KLAX 110353Z 23005KT 10SM FEW013 18/16 A2973 RMK AO2 SLP067 T01780156 $
