2026/04/04 19:53
KLAX 041953Z 25007KT 10SM FEW260 SCT300 29/00 A3000 RMK AO2 SLP158 T02940000 $
