2024/06/16 21:53
KLAX 162153Z 26010KT 10SM CLR 22/15 A2974 RMK AO2 SLP071 T02170150
