2022/11/27 21:53
KLAX 272153Z 26009KT 10SM FEW007 FEW250 SCT300 18/12 A3002 RMK AO2 SLP167 T01780117 $
