2025/05/02 19:53
KLAX 021953Z 26008G15KT 8SM FEW012 BKN023 18/12 A2999 RMK AO2 SLP153 T01780117 $
