2022/11/04 07:53
KLAX 040753Z 03006KT 10SM CLR 14/M01 A3019 RMK AO2 SLP222 T01391006 401780117 VISNO RWY24 $
