2024/02/27 07:53
KLAX 270753Z 14004KT 10SM FEW011 FEW016 OVC032 13/11 A2997 RMK AO2 SLP148 T01330111 401720117 $
