2025/02/27 19:53
KLAX 271953Z 10009KT 10SM FEW240 BKN290 28/03 A3005 RMK AO2 SLP175 T02830028
