2025/01/22 03:53
KLAX 220353Z 00000KT 10SM SCT250 15/M03 A3030 RMK AO2 SLP258 T01501028
