2022/12/03 13:53
KLAX 031353Z VRB03KT 10SM BKN120 13/12 A3007 RMK AO2 SLP182 T01330117
