2023/05/23 17:53
KLAX 231753Z 25007KT 7SM OVC008 16/14 A2995 RMK AO2 SLP141 T01560144 10156 20150 53008 $
