2024/01/16 17:53
KLAX 161753Z 00000KT 5SM R25L/1200VP6000FT HZ FEW009 FEW180 SCT250 14/11 A3012 RMK AO2 SLP198 T01440106 10144 20089 53014
