2022/08/22 13:53
KLAX 221353Z 26006KT 6SM HZ OVC009 20/17 A3001 RMK AO2 SLP159 T02000172 $
