2026/04/23 13:53
KLAX 231353Z 08004KT 10SM FEW016 SCT190 SCT230 BKN270 14/09 A3001 RMK AO2 SLP162 T01390094
