2025/01/16 23:53
KLAX 162353Z 26013KT 10SM FEW150 FEW200 15/09 A3010 RMK AO2 SLP191 T01500089 10194 20150 56005 $
