2024/05/31 09:53
KLAX 310953Z VRB04KT 5SM BR FEW002 SCT004 OVC006 14/13 A2991 RMK AO2 SLP125 T01440128
