2023/03/16 13:53
KLAX 161353Z 00000KT 10SM FEW015 BKN021 BKN035 12/10 A3003 RMK AO2 SLP168 T01170100 $
