2025/09/18 03:53
KLAX 180353Z 00000KT 10SM OVC200 21/17 A2989 RMK AO2 SLP120 T02110172
