2023/01/24 15:53
KLAX 241553Z 07003KT 10SM CLR 08/00 A3031 RMK AO2 SLP261 T00830000 $
