2024/12/20 09:53
KLAX 200953Z 00000KT 1/2SM R25L/1200V1600FT FG FEW000 BKN002 09/09 A3013 RMK AO2 SLP201 VIS 1/2V1 1/4 VIS E-SE 1/4 FG FEW000 T00940094
