2026/03/10 11:53
KLAX 101153Z 26007KT 9SM SCT007 OVC009 14/12 A3000 RMK AO2 SLP157 T01440122 10150 20139 53007 $
