2026/01/05 13:53
KLAX 051353Z VRB03KT 7SM FEW002 FEW004 SCT021 12/12 A3003 RMK AO2 SLP168 VIS SE-S 2 1/2 T01220117 $
