2024/08/08 07:59
KLAX 080759Z 00000KT 8SM BKN010 19/18 A2996 RMK AO2 T01940178 $
