2024/05/03 21:53
KLAX 032153Z 26010G19KT 10SM SCT017 SCT034 BKN040 19/13 A2989 RMK AO2 SLP119 T01890133
