2022/09/15 02:53
KLAX 150253Z 25009KT 10SM FEW017 22/16 A2988 RMK AO2 SLP117 T02170161 53005 $
