2025/05/15 11:53
KLAX 151153Z 09003KT 10SM FEW012 SCT200 13/11 A2997 RMK AO2 SLP146 T01330111 10150 20133 56003 $
