2026/05/28 21:53
KLAX 282153Z 23014G23KT 10SM FEW055 SCT095 SCT140 BKN180 20/07 A2995 RMK AO2 SLP142 T02000072 $
