2022/12/27 01:53
KLAX 270153Z 25004KT 10SM BKN150 BKN200 18/08 A3005 RMK AO2 SLP173 T01780078 $
