2026/02/16 17:53
KLAX 161753Z 13013KT 3SM R25L/5500VP6000FT -RA BR SCT008 BKN013 OVC019 13/12 A2978 RMK AO2 SLP084 VIS 2V4 P0016 60031 T01280117 10139 20122 58004 $
