2024/05/29 05:53
KLAX 290553Z 00000KT 9SM OVC007 14/12 A3005 RMK AO2 SLP174 T01390122 10167 20133 51006 $
