2023/12/20 01:53
KLAX 200153Z VRB04KT 10SM OVC031 16/14 A2987 RMK AO2 SLP115 T01610139
