2022/11/09 13:53
KLAX 091353Z 06003KT 10SM FEW012 FEW028 SCT048 SCT150 11/10 A3001 RMK AO2 RAB1258E25 SLP161 P0010 T01110100
