2025/05/25 21:53
KLAX 252153Z 24011G18KT 10SM SCT021 20/13 A3002 RMK AO2 SLP164 T02000128
