2024/12/11 03:53
KLAX 110353Z 04003KT 10SM FEW017 SCT060 SCT280 15/M13 A3026 RMK AO2 SLP245 FU FEW017 FU SCT060 T01501128
