2025/03/22 09:53
KLAX 220953Z 07003KT 10SM FEW250 13/10 A2999 RMK AO2 SLP154 T01280100 $
