2025/03/21 15:53
KLAX 211553Z VRB03KT 8SM FEW010 SCT160 BKN250 14/11 A3008 RMK AO2 SLP184 T01390106 $
