2026/03/30 08:01
KLAX 300801Z 00000KT 3/4SM R25L/P6000FT BR FEW001 BKN003 14/13 A2994 RMK AO2 VIS N 1/4 VIS SE 2 T01390133 $
