2023/06/27 05:53
KLAX 270553Z 28008KT 10SM CLR 17/13 A2990 RMK AO2 SLP122 T01670128 10194 20161 53007
