2023/01/26 07:53
KLAX 260753Z 31004KT 10SM CLR 14/02 A3027 RMK AO2 SLP248 T01390022 402060061 $
