2025/02/15 19:53
KLAX 151953Z 00000KT 10SM FEW020 SCT250 18/08 A3024 RMK AO2 SLP240 T01780078 $
