2025/10/22 15:53
KLAX 221553Z 02004KT 7SM FEW009 FEW018 SCT050 18/14 A3006 RMK AO2 SLP179 T01830139
