2024/07/04 01:53
KLAX 040153Z 25010KT 10SM FEW008 18/15 A2986 RMK AO2 SLP112 T01830150
