2025/06/01 15:53
KLAX 011553Z VRB04KT 8SM SCT170 BKN240 22/16 A2997 RMK AO2 SLP146 T02170156 $
