2025/08/05 02:53
KLAX 050253Z 26007KT 8SM FEW200 FEW250 20/17 A2989 RMK AO2 SLP121 T02000172 53000
