2024/02/07 03:53
KLAX 070353Z 12005KT 10SM -RA BKN055 BKN070 09/08 A2973 RMK AO2 SLP066 P0006 T00940083
