2025/02/06 21:53
KLAX 062153Z 26008KT 10SM FEW006 SCT020 OVC025 16/13 A3004 RMK AO2 SLP172 T01560128
