2024/09/08 17:53
KLAX 081753Z 26006KT 10SM FEW017 FEW085 SCT140 SCT190 32/16 A2978 RMK AO2 SLP083 TCU DSNT E T03220156 10322 20217 52003
