2025/11/03 13:53
KLAX 031353Z 21003KT 3SM BR FEW003 SCT005 OVC010 16/14 A3005 RMK AO2 SLP176 VIS SW-N 2 1/2 T01610144 $
