2024/05/09 01:53
KLAX 090153Z 25007KT 10SM FEW010 16/12 A2982 RMK AO2 SLP098 T01610122 $
