2025/06/04 07:53
KLAX 040753Z 25006KT 10SM OVC010 17/14 A2992 RMK AO2 SLP131 T01670139 401890156 $
