2025/05/30 17:53
KLAX 301753Z 25007KT 8SM SCT019 SCT160 23/15 A2998 RMK AO2 SLP150 T02280150 10228 20167 58003
