2024/06/05 17:53
KLAX 051753Z 23006KT 6SM BR OVC007 17/15 A2992 RMK AO2 SLP129 T01720150 10178 20167 51010
