2022/12/19 01:53
KLAX 190153Z 25008KT 10SM CLR 13/07 A3004 RMK AO2 SLP170 T01280067 $
