2024/07/23 03:53
KLAX 230353Z 27005KT 10SM FEW010 20/17 A2984 RMK AO2 SLP101 T02000167 $
