2025/10/19 11:53
KLAX 191153Z 06004KT 10SM SCT280 16/12 A2999 RMK AO2 SLP153 T01610122 10189 20156 55004 $
