2023/04/24 05:53
KLAX 240553Z 02004KT 10SM BKN011 16/13 A2986 RMK AO2 SLP108 T01560128 10167 20139 51012
