2024/12/21 09:53
KLAX 210953Z 31003KT 1/4SM R25L/P6000FT FG VV001 12/11 A3019 RMK AO2 SLP221 T01170111 $
