2024/01/22 17:55
KLAX 221755Z 08007G19KT 2SM R25L/4500VP6000FT RA BR SCT007 OVC014 14/14 A2978 RMK AO2 P0001 T01390139
