2024/06/27 15:53
KLAX 271553Z 00000KT 8SM FEW009 SCT013 22/16 A2989 RMK AO2 SLP120 T02170161
