2025/10/25 23:53
KLAX 252353Z 25011KT 9SM OVC011 17/14 A3000 RMK AO2 SLP156 T01720139 10200 20167 55007 $
