2024/05/02 11:53
KLAX 021153Z 09004KT 8SM FEW009 OVC012 15/12 A2989 RMK AO2 SLP119 T01500122 10156 20133 53005 $
