2025/10/05 01:53
KLAX 050153Z 27012KT 10SM FEW030 19/16 A2981 RMK AO2 SLP095 T01890161 $
