2022/10/01 15:53
KLAX 011553Z 10006KT 10SM OVC024 19/14 A2989 RMK AO2 SLP120 T01940139
