2024/08/19 11:53
KLAX 191153Z 00000KT 10SM CLR 19/17 A2992 RMK AO2 SLP130 T01890167 10200 20183 58001
