2022/10/16 23:53
KLAX 162353Z 24009KT 10SM FEW025 21/15 A3001 RMK AO2 SLP161 T02060150 10222 20206 58003 $
