2023/12/13 13:53
KLAX 131353Z 09004KT 10SM SCT015 13/10 A3000 RMK AO2 SLP158 T01330100
