2024/03/23 11:53
KLAX 231153Z 23003KT 10SM SCT013 BKN037 14/12 A2993 RMK AO2 SLP133 T01390117 10144 20139 56020 $
