2023/09/19 03:53
KLAX 190353Z 24009KT 10SM FEW012 19/16 A2995 RMK AO2 SLP140 T01890161 $
