2022/11/11 07:53
KLAX 110753Z 05004KT 10SM CLR 12/06 A3010 RMK AO2 SLP189 T01170061 402000078
