2026/03/16 16:07
KLAX 161607Z 25005KT 1/4SM R25L/4500VP6000FT FG BKN000 OVC250 16/16 A3001 RMK AO2 VIS 1/8V3/4 FG BKN000 T01560156 $
