2023/06/05 19:53
KLAX 051953Z 29004KT 10SM FEW009 SCT022 OVC027 17/11 A2991 RMK AO2 DZE16 SLP128 P0000 T01670111
