2025/03/28 17:53
KLAX 281753Z 00000KT 9SM FEW019 SCT025 SCT160 17/09 A3002 RMK AO2 SLP164 T01670089 10178 20128 50009 $
