2023/03/30 05:53
KLAX 300553Z 23011KT 8SM -RA FEW030 BKN040 BKN045 09/07 A2993 RMK AO2 SLP133 P0007 60012 T00940072 10139 20094 53009
