2026/06/04 00:53
KLAX 040053Z 26012KT 10SM FEW015 FEW250 18/14 A2990 RMK AO2 SLP123 T01830139 $
