2025/04/29 15:53
KLAX 291553Z 00000KT 8SM SCT015 SCT140 16/12 A3007 RMK AO2 SLP182 T01610117 $
