2025/10/31 01:53
KLAX 310153Z 23004KT 10SM CLR 19/15 A2990 RMK AO2 SLP122 T01940150 $
