2025/07/25 01:53
KLAX 250153Z 27016KT 10SM FEW015 FEW250 19/14 A3002 RMK AO2 SLP164 T01940144 $
