2025/09/03 12:53
KLAX 031253Z 07004KT 10SM FEW250 21/18 A2993 RMK SLP134 T02060178 
