2024/01/01 07:53
KLAX 010753Z 04004KT 7SM SCT150 13/11 A3006 RMK AO2 SLP177 T01280106 401560106
