2022/10/06 01:53
KLAX 060153Z 26008KT 10SM OVC007 19/17 A2994 RMK AO2 SLP137 T01940172
