2026/04/22 02:53
KLAX 220253Z 25012KT 10SM FEW017 FEW050 17/12 A3005 RMK AO2 SLP176 T01670117 51003 $
