2025/08/24 03:53
KLAX 240353Z 22004KT 10SM FEW180 SCT240 22/18 A2987 RMK AO2 SLP111 T02220183
