2024/11/27 13:53
KLAX 271353Z 25005KT 1SM R25L/P6000FT BR BKN002 OVC005 15/14 A3005 RMK AO2 SLP175 VIS 1/2V1 1/2 T01500144 $
