2025/05/12 03:53
KLAX 120353Z 24007KT 10SM CLR 18/15 A2986 RMK AO2 SLP109 T01830150
