2025/09/18 01:53
KLAX 180153Z 20009KT 10SM SCT013 SCT150 OVC200 21/17 A2992 RMK AO2 SLP129 T02060172
