2024/12/02 13:53
KLAX 021353Z 03004KT 10SM FEW009 FEW014 SCT250 12/03 A3012 RMK AO2 SLP197 T01170033 $
