2025/02/21 07:53
KLAX 210753Z 04006KT 10SM CLR 14/11 A3002 RMK AO2 SLP164 T01440111 401890100
