2023/07/21 09:53
KLAX 210953Z VRB04KT 10SM FEW007 FEW012 18/17 A2989 RMK AO2 SLP120 T01830172 $
