2022/12/04 11:53
KLAX 041153Z 04004KT 6SM BR FEW003 FEW009 BKN100 13/13 A3009 RMK AO2 SLP187 T01330128 10161 20122 58005 $
