2022/11/28 13:53
KLAX 281353Z 09005KT 8SM FEW009 BKN014 BKN028 13/12 A2995 RMK AO2 SLP140 T01330117 $
