2026/02/14 23:53
KLAX 142353Z 24015KT 10SM SCT026 SCT180 BKN230 BKN280 17/12 A3005 RMK AO2 SLP176 T01670122 10200 20167 56013 $
