2025/08/13 05:53
KLAX 130553Z 24005KT 10SM BKN009 19/17 A2993 RMK AO2 SLP132 T01890167 10222 20189 51012
