2024/07/05 23:53
KLAX 052353Z 27009KT 10SM FEW010 SCT050 22/16 A2977 RMK AO2 SLP080 T02220161 10228 20217 56019
