2024/07/25 19:53
KLAX 251953Z 26009KT 10SM FEW110 24/17 A3002 RMK AO2 SLP165 T02390167
