2025/12/05 13:53
KLAX 051353Z 05004KT 10SM CLR 11/M02 A3009 RMK AO2 SLP188 T01061022 $
