2025/12/23 07:53
KLAX 230753Z 00000KT 7SM BKN009 OVC250 16/14 A2993 RMK AO2 SLP133 T01610139 401780100 $
