2026/04/08 17:53
KLAX 081753Z 23005KT 7SM FEW016 SCT160 20/14 A2994 RMK AO2 SLP138 T02000144 10206 20144 50001 $
