2025/07/01 23:53
KLAX 012353Z 23014KT 10SM FEW011 FEW090 19/14 A2984 RMK AO2 SLP103 T01940144 10211 20194 58014
