2024/02/02 21:53
KLAX 022153Z 27019KT 10SM FEW010 SCT035 15/09 A2992 RMK AO2 SLP131 T01500094 $
