2025/08/22 09:53
KLAX 220953Z 00000KT 10SM CLR 22/17 A2983 RMK AO2 SLP098 T02220172
