2022/10/01 13:53
KLAX 011353Z 15006KT 10SM OVC026 19/14 A2986 RMK AO2 SLP111 T01940139
