2022/11/03 11:53
KLAX 031153Z 32006KT 10SM FEW022 FEW030 SCT120 12/05 A2999 RMK AO2 SLP154 70002 T01220050 10156 20122 56002 VISNO RWY24 $
