2022/09/06 19:53
KLAX 061953Z 27011KT 10SM FEW160 29/21 A2983 RMK AO2 SLP099 FU FEW160 T02890206 $
