2022/11/10 17:53
KLAX 101753Z 11004KT 10SM CLR 16/04 A3014 RMK AO2 SLP206 T01610044 10161 20078 51009
