2025/07/26 17:53
KLAX 261753Z 26007KT 10SM BKN028 BKN034 20/13 A3002 RMK AO2 SLP165 T02000128 10200 20178 51011 $
