2024/06/18 01:53
KLAX 180153Z 24009KT 10SM FEW017 FEW180 19/14 A2971 RMK AO2 SLP060 T01890144
