2026/05/09 04:53
KLAX 090453Z 26003KT 10SM OVC007 15/13 A2996 RMK AO2 SLP145 T01500133
