2024/08/01 01:53
KLAX 010153Z 24009KT 10SM FEW009 18/15 A2988 RMK AO2 SLP118 T01830150 $
