2024/07/15 09:53
KLAX 150953Z 25007KT 10SM BKN009 18/16 A3003 RMK AO2 SLP165 T01830161
