2025/11/15 17:53
KLAX 151753Z 30005KT 10SM -RA FEW007 SCT026 OVC075 15/13 A2987 RMK AO2 WSHFT 1702 SLP113 P0012 60055 T01500133 10178 20144 51018 $
