2024/02/04 17:53
KLAX 041753Z 11012KT 10SM FEW022 BKN055 BKN110 OVC140 13/08 A3001 RMK AO2 SLP160 T01330078 10133 20106 51010 $
