2024/11/14 17:53
KLAX 141753Z VRB04KT 10SM FEW250 19/05 A3000 RMK AO2 SLP157 T01890050 10189 20106 50004
