2026/07/02 09:53
KLAX 020953Z 26005KT 10SM FEW011 OVC015 18/14 A2991 RMK AO2 SLP127 T01780144 $
