2023/02/16 21:53
KLAX 162153Z 23008KT 10SM SCT150 BKN180 BKN250 17/M07 A3020 RMK AO2 SLP227 T01671072 $
