2024/07/16 11:53
KLAX 161153Z 25005KT 10SM FEW012 18/16 A2997 RMK AO2 SLP146 T01780156 10194 20178 55001
