2023/11/07 05:53
KLAX 070553Z 24005KT 10SM SCT009 17/16 A2997 RMK AO2 SLP145 T01670156 10194 20161 51007
