2022/08/27 05:53
KLAX 270553Z 23003KT 10SM BKN010 20/18 A2991 RMK AO2 SLP125 T02000178 10222 20194 51005 $
