2025/01/25 05:53
KLAX 250553Z 14003KT 10SM FEW250 13/07 A2991 RMK AO2 SLP124 T01330067 10189 20128 55003
