2022/12/19 21:53
KLAX 192153Z 26007KT 10SM FEW100 SCT160 SCT250 18/03 A3019 RMK AO2 SLP224 T01780028 $
