2023/05/29 11:53
KLAX 291153Z 18003KT 10SM FEW008 BKN016 OVC025 16/13 A2995 RMK AO2 SLP141 T01610133 10167 20161 53001
