2025/10/23 19:53
KLAX 231953Z 25008KT 10SM FEW018 SCT027 21/13 A3005 RMK AO2 SLP174 T02060133
