2025/08/09 05:53
KLAX 090553Z 25007KT 10SM CLR 19/16 A2991 RMK AO2 SLP126 T01890161 10228 20189 51012 $
