2025/05/23 19:53
KLAX 231953Z 24012KT 10SM FEW029 21/13 A2996 RMK AO2 SLP143 T02110128 $
