2024/10/13 13:53
KLAX 131353Z 00000KT 5SM BR OVC009 16/14 A3001 RMK AO2 SLP160 VIS SW-W 2 1/2 T01610144 $
