2024/06/15 15:53
KLAX 151553Z 25003KT 9SM FEW007 19/16 A2985 RMK AO2 SLP107 T01890156
