2023/01/10 02:23
KLAX 100223Z 14015G23KT 3SM -RA BR SCT006 OVC016 15/14 A3004 RMK AO2 CIG 005 RWY24 P0003 T01500144 $
