2025/06/13 05:53
KLAX 130553Z 24003KT 10SM OVC012 18/15 A2987 RMK AO2 SLP114 T01780150 10200 20178 51007
