2025/01/29 03:53
KLAX 290353Z 00000KT 10SM FEW015 FEW250 13/07 A3005 RMK AO2 SLP174 T01280072
