2025/11/12 13:53
KLAX 121353Z 00000KT 4SM BR FEW006 FEW009 SCT150 BKN220 16/14 A3006 RMK AO2 SLP176 T01560144 $
