2023/05/26 05:53
KLAX 260553Z 24006KT 10SM FEW022 BKN040 16/12 A2993 RMK AO2 SLP134 T01560117 10167 20156 51010 $
