2022/09/28 23:53
KLAX 282353Z 26012KT 10SM FEW050 FEW110 25/19 A2990 RMK AO2 SLP122 T02500189 10283 20250 56008
