2024/10/21 01:53
KLAX 210153Z 26008KT 10SM SCT080 19/10 A3005 RMK AO2 SLP174 FU SCT080 T01940100 $
