2022/12/06 17:53
KLAX 061753Z 09007KT 10SM FEW010 SCT050 BKN140 BKN180 15/10 A3008 RMK AO2 SLP184 T01500100 10150 20100 51012 $
