2022/10/10 07:53
KLAX 100753Z 24006KT 10SM FEW008 BKN010 18/16 A3000 RMK AO2 SLP158 T01780161 402220178 $
