2023/07/11 21:53
KLAX 112153Z 26011KT 10SM FEW009 21/16 A2996 RMK AO2 SLP144 T02060156 $
