2023/02/02 05:53
KLAX 020553Z 04004KT 10SM CLR 12/06 A3021 RMK AO2 SLP229 T01220056 10161 20111 53012 $
