2026/03/24 05:53
KLAX 240553Z 00000KT 8SM BKN009 16/14 A2998 RMK AO2 SLP149 T01610139 10189 20156 51014
