2023/09/22 03:53
KLAX 220353Z 26009KT 10SM FEW046 18/14 A2996 RMK AO2 SLP142 T01830139
