2024/11/02 03:53
KLAX 020353Z 25007KT 10SM FEW020 FEW190 16/12 A2992 RMK AO2 SLP130 T01560122 $
