2023/08/24 05:53
KLAX 240553Z VRB03KT 1 1/2SM BR VV003 18/18 A2990 RMK AO2 SLP121 T01780178 10222 20178 51015 $
