2024/07/13 13:53
KLAX 131353Z 20003KT 5SM BR FEW005 OVC008 18/17 A2993 RMK AO2 SLP134 T01830167 $
