2025/03/28 09:53
KLAX 280953Z 25007KT 10SM FEW016 BKN040 13/11 A3000 RMK AO2 SLP158 T01330111 $
