2026/05/18 12:53
KLAX 181253Z 03004KT 8SM BKN019 BKN040 16/12 A2984 RMK AO2 SLP104 T01610122
