2022/10/10 23:53
KLAX 102353Z 27013KT 10SM FEW080 FEW150 21/16 A2990 RMK AO2 SLP125 T02110161 10239 20211 56013 $
