2025/04/30 05:53
KLAX 300553Z 23004KT 10SM OVC009 14/12 A3004 RMK AO2 SLP172 T01390117 10178 20139 51012 $
