2026/03/05 11:53
KLAX 051153Z 26006KT 8SM FEW011 13/11 A2990 RMK AO2 SLP124 T01280111 10144 20122 56011
