2023/01/01 15:53
KLAX 011553Z 27009KT 10SM FEW017 SCT029 SCT060 13/08 A2975 RMK AO2 SLP074 T01330083
