2025/03/16 15:53
KLAX 161553Z 12004KT 10SM FEW200 FEW240 BKN300 12/07 A3017 RMK AO2 SLP216 T01170067
