2024/10/22 15:53
KLAX 221553Z 00000KT 10SM CLR 20/08 A3005 RMK AO2 SLP176 T02000083 $
