2023/01/02 23:53
KLAX 022353Z 18004KT 10SM BKN070 BKN090 OVC150 14/04 A3000 RMK AO2 SLP156 T01390044 10144 20122 55005
