2026/05/03 02:53
KLAX 030253Z 27008KT 10SM BKN010 BKN200 16/13 A2986 RMK AO2 SLP111 T01560128 53002
