2023/07/10 09:53
KLAX 100953Z 02003KT 10SM FEW010 16/13 A2991 RMK AO2 SLP126 T01610133
