2023/04/30 17:53
KLAX 301753Z 24005KT 2 1/2SM BR OVC005 14/13 A2995 RMK AO2 SLP140 VIS SW-W 1 1/2 T01440128 10144 20133 53006
