2025/04/29 07:53
KLAX 290753Z VRB05KT 10SM FEW011 FEW017 14/11 A3006 RMK AO2 SLP178 T01440111 401780106 $
