2025/04/12 01:53
KLAX 120153Z 25010KT 10SM FEW200 SCT240 SCT280 18/12 A2994 RMK AO2 SLP139 T01780117
