2024/11/22 15:53
KLAX 221553Z 08005KT 10SM FEW003 FEW250 11/07 A3010 RMK AO2 SLP190 T01060072 $
