2023/09/24 13:53
KLAX 241353Z 07003KT 5SM BR FEW014 OVC021 17/16 A3002 RMK AO2 SLP162 T01720161 $
