2025/08/04 07:53
KLAX 040753Z 18003KT 10SM FEW008 FEW250 18/16 A2992 RMK AO2 SLP130 T01830156 402330172 $
