2026/05/09 19:53
KLAX 091953Z 26010KT 9SM FEW010 21/14 A2993 RMK AO2 SLP132 T02060144
