2025/09/23 19:53
KLAX 231953Z 26011KT 10SM FEW018 FEW035 SCT140 BKN160 24/18 A2985 RMK AO2 SLP105 T02440178 $
