2026/02/19 11:53
KLAX 191153Z 05004KT 10SM FEW020 BKN110 BKN150 09/04 A3001 RMK AO2 SLP159 T00890039 10122 20089 58004
