2023/01/09 07:53
KLAX 090753Z 00000KT 10SM BKN030 OVC037 14/09 A3015 RMK AO2 SLP208 T01440094 401720089 $
