2023/06/19 11:53
KLAX 191153Z 00000KT 10SM FEW011 FEW018 OVC021 17/13 A2990 RMK AO2 SLP124 T01720128 10172 20167 58004
