2024/03/23 01:53
KLAX 230153Z 26011KT 10SM FEW015 SCT120 SCT220 15/12 A2999 RMK AO2 SLP156 T01500117 $
