2023/02/12 19:53
KLAX 121953Z 25009KT 10SM FEW030 FEW100 BKN120 BKN300 14/05 A2989 RMK AO2 SLP121 T01390050 $
