2025/05/15 17:53
KLAX 151753Z 25008KT 210V270 8SM FEW025 FEW180 19/12 A3001 RMK AO2 SLP160 T01890117 10194 20128 51003 $
