2026/01/13 07:53
KLAX 130753Z 00000KT 10SM CLR 13/03 A3018 RMK AO2 SLP217 T01330028 402220089 $
