2025/03/18 01:53
KLAX 180153Z 26024G31KT 10SM FEW075 13/09 A3008 RMK AO2 PK WND 26033/0140 SLP184 T01280094 $
