2023/05/20 19:53
KLAX 201953Z 26011KT 10SM OVC012 18/14 A3008 RMK AO2 SLP184 T01830144
