2025/02/27 11:53
KLAX 271153Z 00000KT 10SM FEW002 SCT250 12/11 A3001 RMK AO2 SLP162 T01220106 10144 20111 52002
