2024/02/14 03:53
KLAX 140353Z 27007KT 10SM FEW020 FEW250 13/11 A3004 RMK AO2 SLP173 T01330106 $
