2024/11/17 07:53
KLAX 170753Z 00000KT 10SM CLR 13/M03 A2997 RMK AO2 SLP148 T01281028 402000089 $
