2023/07/18 05:53
KLAX 180553Z 23006KT 10SM FEW008 FEW250 19/18 A2994 RMK AO2 SLP135 T01940178 10222 20194 51010 $
