2023/03/12 17:53
KLAX 121753Z 26006KT 2 1/2SM BR OVC006 14/13 A3015 RMK AO2 SLP208 VIS S 1 SW-W 1 1/2 T01440133 10144 20128 51010 $
