2026/02/18 03:53
KLAX 180353Z 20016G25KT 10SM -RA SCT032 SCT042 OVC060 14/08 A2998 RMK AO2 PK WND 20033/0313 RAB48 SLP153 P0000 T01440083
