2026/04/28 04:53
KLAX 280453Z 32004KT 10SM FEW050 16/10 A3005 RMK AO2 SLP175 T01560100 $
