2023/12/26 09:53
KLAX 260953Z 05004KT 10SM FEW007 FEW012 BKN180 BKN250 13/11 A3015 RMK AO2 SLP208 T01280111
