2026/03/02 03:53
KLAX 020353Z 24010KT 10SM FEW150 SCT250 18/13 A2996 RMK AO2 SLP143 T01830128
