2026/03/12 21:53
KLAX 122153Z 27009KT 10SM FEW250 27/09 A3007 RMK AO2 SLP181 T02670094 $
