2022/12/14 01:53
KLAX 140153Z 28008KT 10SM FEW250 13/04 A3008 RMK AO2 SLP187 T01280039 $
