2023/11/21 21:53
KLAX 212153Z VRB03KT 10SM FEW180 SCT250 27/M02 A3020 RMK AO2 SLP226 T02721022
