2024/12/16 07:53
KLAX 160753Z 10006KT 10SM FEW250 10/08 A3014 RMK AO2 SLP203 T01000078 401830089 $
