2025/11/19 17:53
KLAX 191753Z 08004KT 10SM FEW022 FEW040 SCT180 15/08 A3008 RMK AO2 SLP187 T01500078 10150 20083 51012 $
