2026/05/04 11:53
KLAX 041153Z 26013KT 10SM FEW015 FEW022 BKN055 15/09 A2996 RMK AO2 SLP143 T01500094 10156 20144 55005
