2026/03/25 16:21
KLAX 251621Z 00000KT 5SM HZ SCT012 18/14 A3001 RMK AO2 SCT V BKN T01780139
