2022/10/28 17:53
KLAX 281753Z 11004KT 10SM FEW011 SCT160 22/11 A3016 RMK AO2 SLP212 T02170111 10217 20139 50009 VISNO RWY24 $
