2022/12/30 01:53
KLAX 300153Z 27006KT 10SM OVC019 14/11 A3000 RMK AO2 SLP159 T01440111 $
