2025/02/01 03:53
KLAX 010353Z 25006KT 10SM FEW024 FEW100 SCT200 13/11 A3021 RMK AO2 SLP230 T01280106
