2026/01/14 13:53
KLAX 141353Z 06004KT 10SM CLR 11/07 A3014 RMK AO2 SLP204 T01060067 $
