2025/11/16 11:53
KLAX 161153Z 10003KT 10SM FEW014 BKN022 14/13 A2994 RMK AO2 RAB1057E35 SLP136 P0014 60014 70116 T01390128 10161 20139 53003 $
