2025/02/14 13:53
KLAX 141353Z 26016KT 5SM BR SCT008 BKN015 BKN035 13/12 A3007 RMK AO2 RAB37E50 SLP180 P0001 T01330122 $
