2024/11/13 09:53
KLAX 130953Z 07004KT 10SM CLR 13/01 A3005 RMK AO2 SLP174 T01330011
