2025/06/15 23:53
KLAX 152353Z 26012KT 10SM FEW170 22/13 A2986 RMK AO2 SLP112 T02220133 10239 20217 56008 $
