2024/01/20 07:53
KLAX 200753Z 15005KT 10SM BKN038 BKN120 OVC230 14/11 A2994 RMK AO2 SLP139 T01440111 401940106 $
