2024/11/04 19:53
KLAX 041953Z 25006KT 10SM CLR 22/M01 A3006 RMK AO2 SLP177 T02221006 $
