2022/09/03 21:53
KLAX 032153Z 26013KT 10SM FEW100 FEW170 31/16 A2982 RMK AO2 LTG DSNT NE SLP096 CB DSNT NE AND SE T03060161
