2023/11/15 01:53
KLAX 150153Z 26006KT 10SM FEW250 17/12 A2993 RMK AO2 SLP136 T01670122
