2025/12/23 01:53
KLAX 230153Z 00000KT 5SM BR BKN220 16/14 A2992 RMK AO2 SLP132 T01610139 $
