2023/06/20 07:53
KLAX 200753Z 20004KT 10SM FEW018 FEW250 16/13 A2999 RMK AO2 SLP151 T01610128 402170161
