2024/02/19 09:53
KLAX 190953Z 08004KT 7SM -RA FEW012 BKN025 OVC040 14/13 A3003 RMK AO2 RAB47 SLP166 P0000 T01390128 $
