2025/07/13 03:53
KLAX 130353Z 26009KT 10SM OVC008 18/16 A2998 RMK AO2 SLP148 T01830161
