2022/09/27 13:53
KLAX 271353Z 01003KT 10SM FEW009 FEW140 SCT180 21/18 A2987 RMK AO2 SLP112 T02060183
