2024/05/19 03:53
KLAX 190353Z 28009KT 10SM SCT011 BKN018 BKN030 14/12 A3003 RMK AO2 SLP166 T01440117 $
