2025/12/01 13:53
KLAX 011353Z 03005KT 5SM BR FEW015 12/10 A3003 RMK AO2 SLP166 T01220100 $
