2025/09/14 09:53
KLAX 140953Z 25005KT 10SM OVC014 20/17 A2987 RMK AO2 SLP111 T02000167 $
