2023/08/29 17:53
KLAX 291753Z 26008KT 10SM CLR 26/18 A2986 RMK AO2 SLP109 T02610183 10272 20189 58000
