2022/12/28 03:53
KLAX 280353Z 07006KT 4SM RA BR OVC013 13/12 A2994 RMK AO2 SLP138 P0008 T01330122
