2024/06/04 23:53
KLAX 042353Z 23012KT 10SM FEW200 20/14 A2983 RMK AO2 SLP101 T02000144 10211 20178 56010
