2025/04/27 03:53
KLAX 270353Z 24008KT 10SM SCT026 BKN048 13/07 A2998 RMK AO2 RAB05E33 SLP152 P0000 T01280072 $
