2025/04/06 01:53
KLAX 060153Z 26020G28KT 10SM FEW250 18/04 A3014 RMK AO2 PK WND 26028/0144 SLP208 T01780044
