2022/08/22 15:53
KLAX 221553Z 30008KT 1 3/4SM -DZ BR OVC005 19/18 A3003 RMK AO2 SLP167 VIS S-W 1 1/4 P0000 T01940178 $
