2025/03/28 19:53
KLAX 281953Z 25013G20KT 9SM SCT040 SCT160 18/11 A3001 RMK AO2 SLP161 T01780106 $
