2024/09/02 17:53
KLAX 021753Z 23007KT 5SM HZ FEW009 FEW070 24/19 A2993 RMK AO2 SLP134 T02390189 10244 20189 53005 $
