2025/07/23 00:23
KLAX 230023Z 27014KT 10SM FEW013 21/16 A2995 RMK AO2 T02110161 $
