2024/07/28 14:53
KLAX 281453Z 24003KT 9SM FEW009 19/16 A2992 RMK AO2 SLP131 T01890156 53009
