2024/09/03 11:53
KLAX 031153Z 25004KT 9SM FEW004 19/18 A2989 RMK AO2 SLP117 T01940178 10206 20189 57002 $
