2023/10/23 11:53
KLAX 231153Z 03003KT 10SM SCT012 BKN018 OVC028 17/15 A2974 RMK AO2 SLP069 T01720150 10183 20172 56003 $
