2023/04/22 21:53
KLAX 222153Z 26010KT 10SM SCT200 BKN250 22/13 A2984 RMK AO2 SLP102 T02220128
