2023/07/26 09:53
KLAX 260953Z 00000KT 10SM FEW002 21/18 A2992 RMK AO2 SLP129 T02060183 $
