2023/07/05 11:53
KLAX 051153Z 22005KT 8SM FEW007 OVC010 15/13 A2995 RMK AO2 SLP141 T01500128 10156 20150 53002 $
