2025/01/13 05:53
KLAX 130553Z 09004KT 10SM CLR 12/02 A3012 RMK AO2 SLP198 T01170017 10172 20117 51020 $
