2024/01/04 09:53
KLAX 040953Z 34009G19KT 10SM FEW060 13/01 A3008 RMK AO2 SLP185 T01330011
