2022/12/20 11:53
KLAX 201153Z 03003KT 10SM FEW250 09/00 A3026 RMK AO2 SLP244 T00890000 10128 20089 58002 $
