2024/09/10 21:53
KLAX 102153Z 25012KT 10SM FEW045 FEW160 23/14 A2983 RMK AO2 SLP098 FU FEW045 FU FEW160 T02330144
