2024/07/18 05:53
KLAX 180553Z 24006KT 10SM FEW012 FEW150 19/17 A2995 RMK AO2 SLP138 T01890167 10233 20189 51013
