2023/02/23 05:53
KLAX 230553Z 25021G27KT 10SM FEW035 BKN110 09/03 A2994 RMK AO2 PK WND 27029/0500 SLP138 T00890028 10122 20089 53017
