2026/02/28 11:53
KLAX 281153Z 06004KT 10SM BKN220 17/12 A2987 RMK AO2 SLP111 T01670122 10222 20161 56010
