2023/08/02 21:53
KLAX 022153Z 26014KT 10SM FEW045 FEW150 24/15 A2999 RMK AO2 SLP154 T02440150 $
