2026/05/19 08:53
KLAX 190853Z VRB03KT 9SM FEW012 FEW250 17/14 A2994 RMK AO2 SLP137 T01670139 58004
