2023/03/06 01:53
KLAX 060153Z 23009KT 10SM FEW021 FEW055 SCT070 SCT250 12/08 A3009 RMK AO2 SLP188 T01220083 $
