2025/10/29 05:53
KLAX 290553Z 09006KT 10SM CLR 19/16 A3003 RMK AO2 SLP165 T01890156 10222 20189 52014 $
