2024/05/29 23:53
KLAX 292353Z 26012KT 10SM FEW016 18/12 A2999 RMK AO2 SLP155 T01780122 10194 20167 58012 $
