2023/02/06 11:53
KLAX 061153Z 30013KT 10SM FEW050 12/01 A3017 RMK AO2 SLP214 70001 T01170011 10139 20117 55000 $
