2026/01/21 05:53
KLAX 210553Z 07005KT 9SM FEW250 14/12 A3006 RMK AO2 SLP176 T01390122 10144 20128 53004 $
