2025/09/26 15:53
KLAX 261553Z 13006KT 7SM FEW009 SCT016 OVC035 20/17 A2990 RMK AO2 SLP125 T02000172 $
