2022/12/29 07:53
KLAX 290753Z 00000KT 10SM FEW011 BKN019 BKN050 OVC150 14/11 A2998 RMK AO2 SLP150 T01390111 401720117 $
