2024/12/29 03:53
KLAX 290353Z 00000KT 10SM FEW010 SCT015 BKN200 12/11 A3010 RMK AO2 SLP192 T01220106
