2024/11/15 15:53
KLAX 151553Z 26009KT 9SM FEW018 BKN030 14/10 A2991 RMK AO2 SLP127 T01440100
