2022/08/21 14:53
KLAX 211453Z 10004KT 10SM SCT014 BKN016 21/17 A3003 RMK AO2 SLP167 T02110172 51022
