2025/04/07 03:53
KLAX 070353Z 26010KT 10SM CLR 16/07 A3013 RMK AO2 SLP201 T01560072 $
