2024/09/13 07:53
KLAX 130753Z 00000KT 10SM FEW010 BKN016 19/16 A2976 RMK AO2 SLP076 T01890161 402390172 $
