2023/08/09 16:00
KLAX 091600Z 31004KT 7SM FEW008 OVC014 22/18 A2997 RMK AO2 T02170183 $
