2025/01/17 15:53
KLAX 171553Z 06005KT 10SM FEW019 SCT029 BKN060 10/04 A3022 RMK AO2 SLP233 T01000044
