2023/07/31 01:53
KLAX 310153Z 24008KT 9SM FEW012 FEW150 SCT250 23/19 A2985 RMK AO2 SLP108 T02280194 $
