2026/03/10 07:53
KLAX 100753Z 25006KT 9SM FEW005 BKN007 15/13 A2997 RMK AO2 SLP147 T01500133 402110133 $
