2024/10/25 15:53
KLAX 251553Z 19004KT 3/4SM R25L/P6000FT BCFG BR OVC003 14/13 A3000 RMK AO2 SLP158 VIS 1/4V1 VIS SW-N 1/2 T01390133 $
