2024/10/28 01:53
KLAX 280153Z 25005KT 10SM SCT150 SCT200 18/15 A2996 RMK AO2 SLP144 T01830150 $
