2025/11/01 01:53
KLAX 010153Z 26008KT 10SM FEW010 18/15 A2996 RMK AO2 SLP144 T01780150 $
