2025/05/24 03:53
KLAX 240353Z 23009KT 10SM FEW014 SCT045 17/13 A2994 RMK AO2 SLP136 T01670133
