2025/10/13 19:53
KLAX 131953Z 14013KT 10SM FEW028 SCT034 SCT050 BKN130 22/12 A2975 RMK AO2 SLP074 T02220117 $
