2025/10/28 09:53
KLAX 280953Z 00000KT 9SM CLR 16/14 A2995 RMK AO2 SLP138 T01560144 $
