2025/01/16 09:53
KLAX 160953Z 04003KT 10SM CLR 11/M06 A3017 RMK AO2 SLP214 T01111061 $
