2026/07/15 11:53
KLAX 151153Z 00000KT 10SM FEW250 20/18 A2988 RMK AO2 SLP117 T02000178 10211 20200 55005 $
