2022/09/15 11:53
KLAX 151153Z 09004KT 10SM FEW012 SCT018 19/17 A2992 RMK AO2 SLP129 T01940167 10211 20194 53004 $
