2026/01/10 05:53
KLAX 100553Z 05004KT 10SM CLR 11/04 A3039 RMK AO2 SLP288 T01110044 10156 20100 53012 $
