2023/10/14 05:53
KLAX 140553Z 24004KT 10SM FEW010 18/17 A2997 RMK AO2 SLP147 T01780167 10211 20178 53015
