2024/05/20 05:53
KLAX 200553Z 25009KT 10SM SCT010 14/12 A3000 RMK AO2 SLP156 T01390117 10172 20139 51005 $
