2024/10/30 13:53
KLAX 301353Z 05005KT 10SM FEW011 FEW022 SCT180 13/07 A3009 RMK AO2 SLP188 T01330067 $
