2024/11/30 11:53
KLAX 301153Z 05006KT 10SM BKN200 14/M06 A3003 RMK AO2 SLP166 T01391061 10178 20122 58004 $
