2025/02/28 21:53
KLAX 282153Z 26009KT 10SM FEW010 SCT170 SCT250 18/11 A2995 RMK AO2 SLP139 T01780111
