2024/01/21 21:53
KLAX 212153Z 25008KT 10SM FEW031 SCT055 SCT170 BKN220 17/13 A2988 RMK AO2 SLP117 T01720133 $
