2022/09/03 17:53
KLAX 031753Z 27009KT 10SM FEW200 33/19 A2985 RMK AO2 SLP107 T03280194 10333 20222 52009
