2024/03/14 23:53
KLAX 142353Z 03016G28KT 10SM FEW080 21/M06 A2976 RMK AO2 PK WND 01032/2300 SLP077 T02061061 10211 20183 56013 $
