2023/11/15 17:53
KLAX 151753Z 15003KT 8SM BKN075 BKN100 OVC220 19/04 A2994 RMK AO2 SLP136 T01890039 10194 20150 53001
