2022/08/27 13:53
KLAX 271353Z VRB03KT 7SM OVC012 20/17 A2989 RMK AO2 SLP119 T02000172 $
