2023/01/17 21:53
KLAX 172153Z 24009KT 10SM FEW005 FEW030 SCT080 14/06 A2990 RMK AO2 SLP124 T01390056 $
