2026/02/26 15:53
KLAX 261553Z 10003KT 8SM FEW010 SCT180 BKN250 16/13 A3008 RMK AO2 SLP187 T01560133
