2022/10/07 15:53
KLAX 071553Z VRB03KT 5SM HZ FEW009 BKN016 22/17 A3005 RMK AO2 SLP174 T02170172
