2023/05/02 01:53
KLAX 020153Z 25010KT 10SM FEW040 15/10 A2983 RMK AO2 SLP100 T01500100
