2025/07/19 08:53
KLAX 190853Z 20005KT 10SM SCT013 19/16 A3000 RMK AO2 SLP155 T01890161 53002 $
