2022/09/17 11:53
KLAX 171153Z 07003KT 10SM BKN015 19/16 A2982 RMK AO2 SLP094 T01890161 10211 20183 58002 $
