2022/10/08 07:53
KLAX 080753Z 32003KT 6SM BR FEW011 19/17 A3005 RMK AO2 SLP173 T01940172 402390194 $
