2025/06/11 23:53
KLAX 112353Z 23010KT 10SM OVC008 19/15 A2989 RMK AO2 SLP120 T01890150 10211 20183 58010 $
