2025/11/26 17:53
KLAX 261753Z 10006KT 10SM FEW080 23/05 A3011 RMK AO2 SLP193 T02280050 10228 20139 51011
