2026/04/14 02:53
KLAX 140253Z 25022KT 10SM FEW080 16/09 A3002 RMK AO2 SLP166 T01610094 53004 $
