2024/02/01 03:53
KLAX 010353Z 15006KT 10SM FEW014 SCT021 14/11 A2993 RMK AO2 SLP134 T01440111 $
