2023/04/16 21:53
KLAX 162153Z 26008KT 10SM SCT012 BKN250 16/11 A3008 RMK AO2 SLP185 T01610106
