2022/11/13 21:53
KLAX 132153Z 26012KT 10SM FEW055 FEW085 19/04 A2997 RMK AO2 SLP148 T01940044 $
