2025/09/05 05:53
KLAX 050553Z 00000KT 10SM FEW011 FEW015 21/17 A2985 RMK AO2 SLP105 T02060172 10233 20200 51015
