2023/01/17 01:53
KLAX 170153Z 27019G27KT 10SM FEW022 13/07 A2980 RMK AO2 PK WND 26033/0117 SLP091 T01280072 $
