2025/10/14 03:53
KLAX 140353Z 14009KT 10SM BKN037 BKN055 18/12 A2980 RMK AO2 SLP089 T01780122 $
