2024/10/17 18:53
KLAX 171853Z 26009KT 10SM FEW025 BKN045 20/15 A2990 RMK AO2 SLP122 T02000150
