2023/11/20 03:53
KLAX 200353Z 36007KT 10SM FEW250 18/01 A3001 RMK AO2 SLP161 T01780006
