2025/10/05 23:53
KLAX 052353Z 27013KT 10SM FEW015 21/16 A2976 RMK AO2 SLP075 T02060156 10239 20206 55007 $
