2024/08/29 15:53
KLAX 291553Z 22005KT 5SM HZ OVC014 19/16 A3002 RMK AO2 SLP165 T01940161
