2024/06/15 11:53
KLAX 151153Z 26004KT 7SM CLR 16/14 A2984 RMK AO2 SLP102 T01610144 10172 20161 55004
