2025/01/30 09:53
KLAX 300953Z 10003KT 10SM FEW007 FEW015 BKN020 11/08 A3020 RMK AO2 T01060083 $
