2022/11/27 09:53
KLAX 270953Z 08005KT 1/2SM R25L/1200V1600FT FG VV001 12/12 A3005 RMK AO2 SLP175 T01220117 $
