2024/01/20 11:53
KLAX 201153Z 05006KT 5SM BR SCT006 OVC021 14/13 A2992 RMK AO2 RAB12E28 SLP131 P0000 60000 T01390133 10150 20139 58009 $
