2024/03/22 15:53
KLAX 221553Z 00000KT 2 1/2SM BR OVC008 13/12 A3012 RMK AO2 SLP198 VIS 2V3 T01330117 $
