2025/04/09 11:53
KLAX 091153Z 00000KT 10SM FEW010 13/11 A3003 RMK AO2 SLP167 T01330111 10150 20128 56003 $
