2023/11/28 09:53
KLAX 280953Z 04004KT 10SM FEW160 BKN220 BKN280 15/M02 A3013 RMK AO2 SLP200 T01501022 $
