2023/04/15 03:53
KLAX 150353Z 25009KT 10SM SCT041 13/11 A3000 RMK AO2 SLP157 T01330106
