2025/10/20 21:53
KLAX 202153Z 25009KT 10SM CLR 23/14 A3000 RMK AO2 SLP157 T02280139
