2022/09/21 23:53
KLAX 212353Z 26021KT 10SM FEW015 23/16 A2988 RMK AO2 SLP117 T02330161 10250 20233 56015
