2024/10/22 11:53
KLAX 221153Z 00000KT 10SM CLR 16/12 A3002 RMK AO2 SLP162 T01560117 10183 20150 56003 $
