2023/01/18 11:53
KLAX 181153Z 04004KT 10SM FEW015 08/02 A3008 RMK AO2 SLP185 T00780017 10117 20072 51008 $
