2025/07/23 06:53
KLAX 230653Z 23008KT 10SM BKN011 17/15 A3002 RMK AO2 SLP163 T01720150 $
