2023/07/14 01:53
KLAX 140153Z 24007KT 10SM FEW010 FEW250 20/17 A2989 RMK AO2 SLP121 T02000167 $
