2026/04/02 23:53
KLAX 022353Z 24010KT 10SM FEW015 FEW060 SCT250 19/12 A2992 RMK AO2 SLP130 T01890122 10200 20183 56017 $
