2024/10/08 19:53
KLAX 081953Z 27009KT 5SM HZ SCT008 19/15 A2987 RMK AO2 SLP114 T01940150 $
