2024/10/05 21:53
KLAX 052153Z 27010KT 5SM HZ BKN005 BKN120 21/17 A2993 RMK AO2 SLP133 VIS SW-NW 2 T02060167
