2023/11/11 21:53
KLAX 112153Z 26009KT 10SM FEW200 22/07 A3001 RMK AO2 SLP163 T02170072
