2025/05/24 23:53
KLAX 242353Z 26012KT 10SM FEW019 FEW200 SCT260 19/13 A2997 RMK AO2 SLP148 T01940128 10206 20178 58012
