2026/02/19 15:53
KLAX 191553Z 11007KT 5SM -RA BR SCT027 BKN035 OVC045 09/06 A3000 RMK AO2 RAE02B48 SLP157 P0000 T00940061
