2024/02/07 01:53
KLAX 070153Z 05006KT 9SM -RA FEW007 BKN050 OVC055 11/09 A2969 RMK AO2 LTG DSNT W SLP054 P0006 T01060094
