2024/02/09 17:53
KLAX 091753Z 07007KT 10SM FEW010 SCT028 SCT035 13/08 A3009 RMK AO2 SLP188 60000 T01280078 10128 20083 50009 $
