2025/05/31 01:53
KLAX 310153Z 24014KT 10SM FEW018 FEW200 20/16 A2990 RMK AO2 SLP123 T02000156 $
