2026/01/22 21:53
KLAX 222153Z 26006KT 10SM FEW020 BKN095 BKN130 OVC210 17/11 A2995 RMK AO2 SLP142 VIRGA SW T01670111 $
