2023/09/15 11:53
KLAX 151153Z 00000KT 10SM FEW011 OVC015 19/16 A2994 RMK AO2 SLP135 T01940161 10194 20189 56004 $
