2022/11/23 21:53
KLAX 232153Z 27008KT 10SM FEW090 FEW160 SCT280 18/09 A3003 RMK AO2 SLP169 T01830094
