2025/01/19 00:53
KLAX 190053Z 27010KT 10SM FEW025 13/08 A3021 RMK AO2 SLP229 T01330083
