2022/11/29 11:53
KLAX 291153Z 11007KT 10SM FEW020 SCT034 12/09 A2990 RMK AO2 SLP124 60000 T01220089 10150 20111 50002
