2025/07/11 11:53
KLAX 111153Z 11006KT 9SM FEW008 OVC011 18/16 A2992 RMK AO2 SLP129 T01780156 10183 20172 51002 $
