2023/05/17 07:53
KLAX 170753Z 23003KT 5SM BR OVC004 14/13 A2998 RMK AO2 SLP150 T01390133 401890133
