2024/07/03 15:53
KLAX 031553Z 27007KT 1/4SM R25L/P6000FT FG VV003 18/16 A2990 RMK AO2 SLP123 VIS SW-NW 1/8 T01780161
