2025/04/11 03:53
KLAX 110353Z 27005KT 10SM CLR 15/12 A3007 RMK AO2 SLP180 T01500122
