2022/12/22 21:53
KLAX 222153Z 00000KT 10SM FEW120 SCT160 BKN250 20/05 A3004 RMK AO2 SLP171 T02000050
