2025/01/24 19:53
KLAX 241953Z 15004KT 10SM SCT140 BKN180 BKN250 21/02 A3004 RMK AO2 SLP171 T02110017
