2022/10/19 09:53
KLAX 190953Z 00000KT 10SM CLR 19/14 A2997 RMK AO2 SLP146 T01940139 $
