2025/06/07 03:53
KLAX 070353Z 25008KT 10SM OVC014 16/13 A2994 RMK AO2 SLP138 T01610128
