2023/08/18 21:53
KLAX 182153Z 26016KT 10SM FEW060 FEW160 22/16 A2984 RMK AO2 SLP102 T02220156 $
