2025/01/20 09:53
KLAX 200953Z 09005KT 10SM OVC020 12/07 A3012 RMK AO2 SLP198 T01220072 $
