2025/06/25 23:53
KLAX 252353Z 25013KT 10SM SCT014 21/15 A2993 RMK AO2 SLP133 T02060150 10222 20200 56014
