2023/01/28 21:53
KLAX 282153Z VRB04KT 10SM SCT038 16/09 A2994 RMK AO2 SLP137 T01610089 $
