2023/12/23 19:53
KLAX 231953Z VRB04KT 10SM SCT016 SCT023 BKN029 17/12 A3002 RMK AO2 SLP166 T01720122 $
