2026/05/10 19:53
KLAX 101953Z 24010KT 7SM FEW010 20/13 A2994 RMK AO2 SLP138 T02000133
