2025/04/09 01:53
KLAX 090153Z 25006KT 10SM FEW005 FEW250 16/12 A2999 RMK AO2 SLP153 T01610122 $
