2022/08/24 11:53
KLAX 241153Z 00000KT 10SM FEW005 FEW010 20/18 A2982 RMK AO2 SLP097 T02000178 10206 20200 58000 $
