2024/01/24 05:53
KLAX 240553Z 06005KT 10SM CLR 13/12 A3002 RMK AO2 SLP163 T01330117 10178 20133 53017
