2022/10/15 19:53
KLAX 151953Z 31006KT 10SM FEW005 SCT011 OVC029 19/16 A2992 RMK AO2 SLP132 T01940161 $
