2023/10/02 15:53
KLAX 021553Z 10005KT 10SM FEW016 SCT160 17/12 A3001 RMK AO2 SLP159 T01670117 $
