2024/12/18 12:53
KLAX 181253Z 31003KT 10SM CLR 15/03 A3010 RMK SLP192 T01500028 
