2025/04/11 17:53
KLAX 111753Z 00000KT 8SM FEW010 FEW090 SCT180 22/13 A3003 RMK AO2 SLP169 T02170133 10217 20139 50001
