2024/02/26 19:53
KLAX 261953Z VRB03KT 8SM FEW100 SCT120 BKN180 16/12 A3004 RMK AO2 SLP170 T01610117 $
