2026/06/16 12:53
KLAX 161253Z VRB03KT 9SM OVC009 17/15 A2997 RMK AO2 SLP147 T01720150 $
