2024/08/28 11:53
KLAX 281153Z 00000KT 7SM OVC010 18/16 A2997 RMK AO2 SLP145 T01830156 10183 20178 56002
