2025/03/29 03:53
KLAX 290353Z 24009KT 10SM FEW015 SCT050 BKN150 14/10 A2995 RMK AO2 SLP139 T01390100 $
