2023/07/13 09:53
KLAX 130953Z 00000KT 10SM FEW220 18/16 A2995 RMK AO2 SLP138 T01780161 $
