2026/05/08 02:53
KLAX 080253Z 27009KT 10SM SCT009 16/13 A2996 RMK AO2 SLP144 T01610133 53004
