2024/03/05 17:53
KLAX 051753Z 17004KT 10SM SCT010 SCT250 16/10 A3009 RMK AO2 SLP188 T01560100 10156 20083 51005
