2025/02/27 05:53
KLAX 270553Z 25003KT 1/2SM R25L/1800VP6000FT FG SCT001 12/12 A3001 RMK AO2 SLP159 VIS S-W 1/4 T01170117 10167 20111 53015
