2025/12/24 11:53
KLAX 241153Z 12014G22KT 9SM -RA SCT012 BKN020 OVC060 18/16 A2984 RMK AO2 RAB41 SLP104 P0000 60007 70008 T01780156 10178 20150 58026 $
