2024/08/01 03:53
KLAX 010353Z 26007KT 10SM FEW009 17/14 A2993 RMK AO2 SLP133 T01720144 $
