2024/03/19 13:53
KLAX 191353Z 10005KT 10SM FEW010 FEW095 SCT140 SCT170 13/08 A3004 RMK AO2 SLP170 T01280083
