2023/09/10 03:53
KLAX 100353Z 23008KT 10SM FEW035 SCT100 BKN150 BKN230 24/15 A2993 RMK AO2 SLP133 T02390150
