2024/05/31 15:53
KLAX 311553Z 12004KT 6SM HZ OVC014 16/13 A2992 RMK AO2 SLP131 T01610128
