2024/03/09 19:53
KLAX 091953Z 24008KT 10SM SCT250 18/12 A3013 RMK AO2 SLP204 T01780117 $
