2023/04/12 13:53
KLAX 121353Z 12007KT 6SM BR FEW005 OVC011 13/11 A2990 RMK AO2 SLP122 T01330106 $
