2025/07/11 13:53
KLAX 111353Z 10007KT 8SM OVC008 18/16 A2993 RMK AO2 SLP132 T01830161 $
