2024/10/24 17:53
KLAX 241753Z 24003KT 6SM HZ FEW000 SCT190 SCT280 22/14 A2996 RMK AO2 SLP144 VIS SW-NW 2 FG FEW000 FG BANK SW-NW T02220144 10222 20144 50003 $
