2024/10/15 21:53
KLAX 152153Z 27010KT 10SM FEW023 21/14 A2998 RMK AO2 SLP151 T02110144 $
