2025/07/05 09:53
KLAX 050953Z 34003KT 9SM FEW010 17/15 A3004 RMK AO2 SLP170 T01720150 $
