2026/01/13 21:53
KLAX 132153Z 23009KT 10SM FEW095 SCT170 25/M02 A3013 RMK AO2 SLP203 T02501022 $
