2024/10/02 15:53
KLAX 021553Z 00000KT 3/4SM R25L/4000VP6000FT BCFG BR OVC002 17/17 A2986 RMK AO2 SLP111 VIS S-NW 1/4 T01670167
