2024/09/09 17:53
KLAX 091753Z 25006KT 10SM FEW060 FEW120 SCT160 31/17 A2984 RMK AO2 SLP100 FU FEW060 FU PLUME DSNT NE-E T03060172 10306 20228 51007
