2023/03/09 05:53
KLAX 090553Z 21003KT 10SM OVC200 12/08 A3013 RMK AO2 SLP202 T01220078 10133 20117 53007 $
