2025/12/29 13:53
KLAX 291353Z 00000KT 10SM CLR 09/02 A3014 RMK AO2 SLP204 T00890022 $
