2025/05/15 03:53
KLAX 150353Z 24009KT 10SM CLR 16/11 A2999 RMK AO2 SLP152 T01560111 $
