2024/02/10 19:53
KLAX 101953Z 16009G17KT 10SM FEW080 17/01 A3005 RMK AO2 SLP174 T01670006 $
