2026/06/14 17:53
KLAX 141753Z 26011KT 10SM FEW006 SCT009 21/16 A3000 RMK AO2 SLP158 T02060156 10211 20167 52016 $
