2023/02/12 01:53
KLAX 120153Z 23012KT 10SM FEW035 SCT050 12/07 A2991 RMK AO2 SLP127 T01220072 $
