2024/04/07 03:53
KLAX 070353Z 27009KT 10SM CLR 12/06 A3019 RMK AO2 SLP221 T01220056 $
