2026/05/15 17:53
KLAX 151753Z 12005KT 10SM FEW010 OVC025 18/12 A3000 RMK AO2 SLP157 T01830122 10183 20161 51005
