2023/07/21 13:53
KLAX 211353Z VRB03KT 8SM FEW005 FEW011 SCT150 SCT250 19/17 A2991 RMK AO2 SLP126 T01890172 $
