2026/07/23 20:53
KLAX 232053Z 25013KT 10SM FEW110 FEW280 27/17 A2986 RMK AO2 SLP108 T02670167 58010 $
