2025/05/09 01:53
KLAX 090153Z 26015KT 10SM FEW010 17/14 A2999 RMK AO2 SLP155 T01720139 $
