2024/08/30 11:53
KLAX 301153Z 27005KT 10SM OVC008 17/15 A2997 RMK AO2 SLP147 T01720150 10183 20167 56000
