2023/01/28 23:53
KLAX 282353Z 17005KT 10SM SCT035 16/08 A2994 RMK AO2 SLP137 T01560083 10172 20144 55007 $
