2023/03/20 07:53
KLAX 200753Z 06007KT 3SM -DZ BR FEW004 SCT006 OVC009 12/12 A2994 RMK AO2 SLP137 P0000 T01220117 401610117
