2025/12/21 19:53
KLAX 211953Z 27009KT 4SM HZ FEW007 SCT220 BKN280 17/13 A3007 RMK AO2 SLP180 T01720128 $
