2022/09/11 19:53
KLAX 111953Z 26011KT 10SM FEW030 SCT110 SCT140 29/21 A3000 RMK AO2 SLP155 T02890206 $
