2025/01/21 07:53
KLAX 210753Z 00000KT 10SM CLR 13/M06 A3040 RMK AO2 SLP293 T01331061 402220100 $
