2025/05/01 05:53
KLAX 010553Z VRB04KT 10SM OVC016 14/11 A2998 RMK AO2 SLP152 T01440111 10161 20139 51009
