2025/12/29 05:53
KLAX 290553Z 00000KT 10SM FEW250 16/M02 A3013 RMK AO2 SLP203 T01561022 10172 20133 53008 $
