2026/01/27 09:53
KLAX 270953Z 02003KT 10SM FEW250 13/M06 A3024 RMK AO2 SLP236 T01281056 $
