2025/02/25 16:00
KLAX 251600Z 15004KT 1/4SM R25L/1000V1600FT FG SCT000 BKN001 12/12 A3002 RMK AO2 FG SCT000 T01220122 $
