2022/10/30 21:53
KLAX 302153Z 27011KT 10SM CLR 22/14 A2993 RMK AO2 SLP133 T02170139 CHINO RWY24 VISNO RWY24 $
