2025/11/22 19:53
KLAX 221953Z VRB06KT 10SM FEW075 SCT100 BKN130 19/07 A2994 RMK AO2 SLP136 T01940072 $
