2025/02/03 19:53
KLAX 031953Z 27009KT 1 1/2SM BR OVC004 13/11 A2998 RMK AO2 SLP151 VIS SW-NW 1 T01330111 $
