2025/11/29 13:53
KLAX 291353Z 14004KT 1/2SM R25L/5500VP6000FT FG BKN001 11/11 A3001 RMK AO2 SLP161 VIS W 1/4 T01110111 $
