2025/05/18 01:53
KLAX 180153Z 27011KT 10SM FEW015 BKN035 BKN065 16/11 A2993 RMK AO2 SLP134 T01560111
