2025/09/29 01:53
KLAX 290153Z 26008KT 10SM FEW150 21/16 A2997 RMK AO2 SLP145 T02060156 $
