2024/08/05 15:53
KLAX 051553Z VRB03KT 10SM FEW025 FEW160 SCT180 SCT250 23/17 A2989 RMK AO2 SLP120 T02280172 $
