2023/01/25 11:53
KLAX 251153Z 08003KT 10SM FEW002 07/04 A3027 RMK AO2 SLP249 T00720039 10117 20072 58006 $
