2023/04/22 09:53
KLAX 220953Z 10005KT 10SM CLR 16/08 A2991 RMK AO2 SLP125 T01610083
