2024/09/25 03:53
KLAX 250353Z 27008KT 9SM OVC005 17/16 A2985 RMK AO2 SLP107 T01670156 $
