2025/08/13 11:53
KLAX 131153Z 13003KT 8SM FEW008 OVC011 20/17 A2991 RMK AO2 SLP125 T02000167 10206 20189 58004
