2023/05/10 03:53
KLAX 100353Z 26021KT 10SM BKN050 14/09 A2997 RMK AO2 PK WND 26031/0319 SLP146 T01390094
