2024/06/15 03:53
KLAX 150353Z 26006KT 9SM FEW013 17/14 A2987 RMK AO2 SLP114 T01670144
