2024/01/23 09:53
KLAX 230953Z 07003KT 1/4SM R25L/2000V4500FT FG VV002 12/12 A2983 RMK AO2 SLP101 T01220122
