2025/07/24 08:53
KLAX 240853Z 21003KT 10SM FEW011 18/16 A3005 RMK AO2 SLP173 T01780156 51003 $
