2023/10/09 05:53
KLAX 090553Z 20004KT 3SM BR SCT002 OVC003 17/17 A2986 RMK AO2 SLP109 VIS 1 1/2V4 T01720167 10189 20167 52009
