2025/12/07 15:53
KLAX 071553Z 06004KT 10SM FEW230 FEW280 12/06 A3013 RMK AO2 SLP202 T01220061 $
