2025/07/20 09:53
KLAX 200953Z 00000KT 10SM OVC013 19/16 A2998 RMK AO2 SLP148 T01890156 $
