2024/04/29 21:53
KLAX 292153Z 26010KT 10SM FEW005 FEW095 19/12 A2988 RMK AO2 SLP117 T01890122
