2024/06/19 19:53
KLAX 191953Z 27010KT 10SM SCT023 22/15 A2987 RMK AO2 SLP113 T02220150 $
