2024/04/05 05:53
KLAX 050553Z 26013KT 10SM FEW024 SCT034 11/04 A2994 RMK AO2 SLP136 60000 T01110039 10139 20111 50010 $
