2023/05/15 19:53
KLAX 151953Z 23009KT 7SM SCT005 BKN011 BKN100 19/14 A3008 RMK AO2 SLP186 T01890144
