2024/06/08 21:53
KLAX 082153Z 25010KT 10SM SCT013 SCT028 21/14 A2994 RMK AO2 SLP138 T02060144 $
