2026/04/06 07:53
KLAX 060753Z 25004KT 10SM BKN200 OVC240 18/13 A2998 RMK AO2 SLP150 T01830133 402560139 $
