2022/09/16 21:53
KLAX 162153Z 26012KT 10SM FEW020 FEW045 24/17 A2989 RMK AO2 SLP120 T02440172 $
