2025/08/24 09:53
KLAX 240953Z 26006KT 10SM SCT200 21/19 A2988 RMK AO2 SLP115 T02060189
