2023/11/01 09:53
KLAX 010953Z VRB03KT 10SM BKN280 17/M07 A3001 RMK AO2 SLP160 T01721067 $
