2023/06/05 17:53
KLAX 051753Z 23006KT 6SM DZ BR SCT009 BKN017 OVC020 15/13 A2991 RMK AO2 DZB27 SLP128 P0000 60000 T01500128 10167 20144 51014
