2023/10/28 09:53
KLAX 280953Z 07004KT 9SM CLR 14/13 A2998 RMK AO2 SLP149 T01440128
