2023/07/29 15:53
KLAX 291553Z 10004KT 8SM SCT009 SCT200 23/19 A2998 RMK AO2 SLP151 T02330189
