2026/07/20 13:53
KLAX 201353Z 14003KT 6SM BR OVC009 21/18 A2994 RMK AO2 SLP137 T02060183 $
