2024/02/10 23:53
KLAX 102353Z 22013KT 10SM FEW065 16/03 A3002 RMK AO2 SLP167 T01560028 10178 20156 56004 $
