2024/12/19 21:53
KLAX 192153Z 26006KT 10SM FEW002 FEW120 SCT160 BKN250 17/12 A3005 RMK AO2 SLP177 T01720122
