2025/02/17 13:53
KLAX 171353Z 07004KT 10SM FEW003 FEW009 SCT250 09/08 A2997 RMK AO2 SLP148 T00940083 $
