2024/05/01 21:53
KLAX 012153Z 25013KT 10SM FEW010 19/13 A2984 RMK AO2 SLP105 T01890128 $
