2025/05/19 16:53
KLAX 191653Z 17003KT 10SM CLR 21/12 A2999 RMK AO2 SLP155 T02060117
