2025/05/26 13:53
KLAX 261353Z 00000KT 8SM OVC016 17/13 A3000 RMK AO2 SLP156 T01670128 $
