2023/08/11 21:53
KLAX 112153Z 26013KT 10SM SCT012 SCT035 23/17 A2998 RMK AO2 SLP149 T02330172
