2024/04/15 19:53
KLAX 151953Z 25011G17KT 10SM SCT031 SCT220 17/11 A3014 RMK AO2 SLP205 T01670106 $
