2023/02/16 03:53
KLAX 160353Z 02006KT 10SM CLR 12/02 A3020 RMK AO2 SLP228 T01170017 $
