2025/04/07 09:53
KLAX 070953Z 07003KT 10SM FEW250 12/09 A3009 RMK AO2 SLP185 T01170094 $
