2024/03/20 01:53
KLAX 200153Z 26008KT 10SM FEW011 FEW090 15/13 A2998 RMK AO2 SLP153 T01500128 $
