2024/11/06 07:53
KLAX 060753Z 09004KT 10SM FEW007 SCT150 BKN250 14/13 A2983 RMK AO2 SLP098 T01440128 402060111 $
