2024/09/26 15:53
KLAX 261553Z 00000KT 3SM BR OVC009 17/14 A2990 RMK AO2 SLP123 T01670144
