2022/11/04 09:53
KLAX 040953Z 04004KT 10SM CLR 11/00 A3021 RMK AO2 SLP228 T01110000 VISNO RWY24 $
