2024/06/11 15:53
KLAX 111553Z 12004KT 5SM BR OVC009 16/14 A2992 RMK AO2 SLP131 T01610139
