2025/05/27 17:53
KLAX 271753Z 09005KT 9SM FEW019 BKN028 21/12 A2998 RMK AO2 SLP151 BKN V SCT T02110122 10211 20172 58001 $
