2023/02/24 07:53
KLAX 240753Z 10010KT 10SM -RA FEW008 SCT018 BKN035 OVC140 08/06 A3004 RMK AO2 RAB47 SLP171 SHRA S P0000 T00830056 401170050
