2026/03/14 21:53
KLAX 142153Z 27011KT 10SM VCFG FEW002 FEW280 19/14 A2991 RMK AO2 SLP128 VIS SW 2 1/2 FG FEW002 T01940144 $
