2025/12/09 21:53
KLAX 092153Z 26008KT 10SM FEW220 23/09 A2999 RMK AO2 SLP153 T02280089 $
