2026/07/20 02:04
KLAX 200204Z 25010KT 10SM SCT007 22/19 A2986 RMK AO2 T02170189 $
