2025/05/07 11:53
KLAX 071153Z 25004KT 10SM FEW016 SCT026 OVC037 15/12 A3000 RMK AO2 SLP159 T01500117 10156 20150 56004 $
