2025/04/24 16:53
KLAX 241653Z 25007KT 10SM FEW015 FEW021 BKN039 16/11 A3000 RMK AO2 SLP157 T01610111
