2022/09/14 15:53
KLAX 141553Z 09006KT 9SM SCT016 SCT021 BKN026 23/18 A2991 RMK AO2 SLP125 T02330178 $
