2023/01/13 07:53
KLAX 130753Z 04005KT 10SM FEW220 BKN280 16/05 A3016 RMK AO2 SLP209 T01560050 402220106 $
