2025/10/17 11:53
KLAX 171153Z 08003KT 10SM CLR 14/12 A2991 RMK AO2 SLP125 T01390117 10178 20139 53003 $
