2023/01/24 17:53
KLAX 241753Z 00000KT 10SM CLR 14/00 A3033 RMK AO2 SLP271 T01440000 10144 20050 51018 $
