2023/05/15 11:53
KLAX 151153Z 00000KT 6SM BR FEW007 OVC010 16/14 A3001 RMK AO2 SLP162 T01610139 10161 20156 55004
