2026/04/18 03:53
KLAX 180353Z 27005KT 10SM CLR 18/13 A2993 RMK AO2 SLP134 T01830128
