2025/03/24 13:53
KLAX 241353Z 10006KT 7SM CLR 13/11 A3003 RMK AO2 SLP168 T01330111 $
