2025/01/28 05:53
KLAX 280553Z VRB03KT 10SM CLR 12/07 A3011 RMK AO2 SLP194 T01170072 10139 20111 53004
