2023/06/30 13:53
KLAX 301353Z 27004KT 1/4SM R25L/P6000FT FG VV002 16/15 A2992 RMK AO2 SLP131 T01560150 $
