2024/11/18 01:53
KLAX 180153Z 25008KT 10SM FEW150 14/07 A2995 RMK AO2 SLP141 T01440067 $
