2024/12/31 15:53
KLAX 311553Z VRB03KT 2 1/2SM BR SCT007 OVC010 11/11 A3006 RMK AO2 SLP177 VIS 2V4 T01110106
