2025/08/19 20:53
KLAX 192053Z 25011KT 8SM FEW010 24/18 A3001 RMK AO2 SLP159 T02440178 58006 $
