2024/12/16 05:53
KLAX 160553Z 09004KT 10SM CLR 11/08 A3016 RMK AO2 SLP212 T01060083 10144 20100 52007 $
