2026/07/14 02:06
KLAX 140206Z 25013KT 10SM BKN009 BKN110 BKN200 21/17 A2993 RMK AO2 T02060172 $
