2025/02/03 15:53
KLAX 031553Z 23004KT 1/16SM R25L/1400V2200FT FG VV002 11/11 A2999 RMK AO2 SLP154 T01060106 $
