2025/06/21 23:53
KLAX 212353Z 25012KT 10SM SCT016 SCT029 20/14 A2984 RMK AO2 SLP102 T02000139 10217 20194 56012
