2022/12/30 07:53
KLAX 300753Z 12006KT 10SM FEW015 OVC022 14/11 A3007 RMK AO2 SLP181 T01440106 401560128 $
