2025/11/30 21:53
KLAX 302153Z 26010KT 10SM FEW016 FEW024 SCT200 BKN260 17/11 A2995 RMK AO2 SLP143 T01720111 $
