2025/08/21 18:53
KLAX 211853Z 26007KT 10SM SCT140 BKN180 BKN250 28/18 A2987 RMK AO2 SLP112 T02780178
