2024/06/16 15:53
KLAX 161553Z VRB03KT 6SM HZ FEW009 SCT013 BKN100 20/15 A2977 RMK AO2 SLP080 T02000150
