2022/12/17 11:53
KLAX 171153Z 03005KT 10SM FEW250 09/M04 A3006 RMK AO2 SLP178 T00941039 10139 20083 56006 $
