2025/04/10 03:53
KLAX 100353Z 26007KT 10SM FEW250 16/12 A3009 RMK AO2 SLP189 T01560117 $
