2025/07/14 19:53
KLAX 141953Z 25010KT 7SM FEW012 SCT017 21/15 A2996 RMK AO2 SLP145 T02060150
