2025/02/11 05:53
KLAX 110553Z 09004KT 10SM OVC022 13/09 A3004 RMK AO2 SLP170 T01330094 10150 20128 51006 $
