2022/10/18 19:53
KLAX 181953Z 26011KT 10SM FEW050 FEW090 SCT140 26/16 A2997 RMK AO2 SLP147 T02610156
