2024/05/08 11:53
KLAX 081153Z 09004KT 10SM FEW010 SCT015 13/11 A2984 RMK AO2 SLP105 T01330111 10156 20128 56005 $
