2023/07/03 09:53
KLAX 030953Z 26004KT 1/8SM R25L/P6000FT FG VV002 14/14 A2988 RMK AO2 SLP116 T01440144 $
