2025/03/20 01:53
KLAX 200153Z 26012KT 10SM FEW100 SCT250 17/03 A3020 RMK AO2 SLP227 T01670033 $
