2025/07/05 05:53
KLAX 050553Z 23005KT 7SM SCT006 17/16 A3004 RMK AO2 SLP170 T01720156 10217 20167 51013 $
