2025/04/05 19:53
KLAX 051953Z 22009KT 10SM FEW250 22/06 A3020 RMK AO2 SLP227 T02170056
