2025/01/27 09:53
KLAX 270953Z 05007KT 7SM -RA FEW016 FEW025 OVC040 09/08 A3006 RMK AO2 SLP179 P0008 T00890078 $
