2025/09/30 19:53
KLAX 301953Z 26011KT 10SM FEW018 FEW030 SCT060 23/13 A3002 RMK AO2 SLP164 T02280128 $
