2022/10/02 02:53
KLAX 020253Z 25007KT 10SM BKN019 19/15 A2988 RMK AO2 SLP116 T01940150 53014
