2025/10/03 11:53
KLAX 031153Z 09005KT 6SM BR FEW002 BKN008 BKN012 19/18 A2996 RMK AO2 DZE27 SLP143 VIS NE 2 1/2 P0000 60001 70001 T01940178 10200 20189 58009 $
