2024/12/12 17:53
KLAX 121753Z 18003KT 10SM FEW012 SCT140 BKN220 14/07 A2999 RMK AO2 SLP154 T01390067 10139 20072 51018 $
