2025/01/12 15:53
KLAX 121553Z 34004KT 10SM FEW012 FEW030 13/M06 A3009 RMK AO2 SLP186 FU FEW012 FU FEW030 T01331056 $
