2025/11/15 09:53
KLAX 150953Z 08004KT 8SM SCT007 OVC013 17/16 A2988 RMK AO2 RAB20E32 SLP116 P0000 T01720161 $
