2024/08/02 11:53
KLAX 021153Z 27006KT 10SM FEW005 FEW011 SCT200 18/17 A3003 RMK AO2 SLP167 T01830167 10194 20183 53001 $
