2022/10/18 21:53
KLAX 182153Z 26011KT 10SM FEW090 FEW250 25/17 A2993 RMK AO2 SLP135 T02500167
