2024/08/02 07:53
KLAX 020753Z 32004KT 10SM FEW008 FEW220 18/16 A3003 RMK AO2 SLP167 T01830161 402170161 $
