2023/08/08 19:53
KLAX 081953Z 26010KT 10SM FEW050 FEW140 SCT180 24/17 A3001 RMK AO2 SLP161 T02440172 $
