2025/08/06 19:53
KLAX 061953Z 26010KT 8SM FEW025 SCT180 SCT250 25/17 A3002 RMK AO2 SLP164 T02500167
