2026/06/17 06:53
KLAX 170653Z 26007KT 9SM OVC006 17/15 A2993 RMK AO2 SLP134 T01670150 $
