2023/02/08 19:53
KLAX 081953Z 25005KT 10SM CLR 22/00 A3024 RMK AO2 SLP241 T02170000
