2024/03/20 03:53
KLAX 200353Z 27007KT 10SM FEW008 14/13 A3002 RMK AO2 SLP163 T01440128 $
