2023/08/25 03:53
KLAX 250353Z 24009KT 10SM FEW012 19/17 A2994 RMK AO2 SLP138 T01890167
