2025/09/07 13:53
KLAX 071353Z 00000KT 10SM FEW030 FEW100 SCT140 19/17 A3002 RMK AO2 SLP164 FU FEW030 T01940172 $
