2022/12/21 15:53
KLAX 211553Z 08004KT 10SM FEW250 10/04 A3014 RMK AO2 SLP205 T01000039
