2024/09/28 12:53
KLAX 281253Z 00000KT 4SM BR OVC007 15/13 A2986 RMK AO2 SLP111 VIS SW-NW 2 T01500133
