2024/09/25 07:53
KLAX 250753Z VRB04KT 1 1/2SM BR VV003 16/16 A2986 RMK AO2 SLP107 VIS 3/4V2 T01610156 402060161 $
