2022/10/18 15:53
KLAX 181553Z 19004KT 10SM CLR 22/16 A3002 RMK AO2 SLP162 T02170161
