2025/01/30 07:53
KLAX 300753Z 12003KT 10SM FEW016 BKN022 11/08 A3019 RMK AO2 BKN V SCT T01110083 401610089 PNO $
