2026/03/24 19:53
KLAX 241953Z 26009KT 7SM FEW019 SCT140 21/14 A3001 RMK AO2 SLP162 T02060144
