2024/11/24 15:53
KLAX 241553Z 25004KT 1/4SM R25L/2000V5000FT FG VV002 12/12 A3008 RMK AO2 SLP183 VIS E 3/4 T01220117
