2026/07/02 19:09
KLAX 021909Z 24008KT 10SM SCT018 BKN030 21/14 A2999 RMK AO2 T02060144 $
