2023/05/15 14:53
KLAX 151453Z 19004KT 4SM BR OVC008 16/14 A3006 RMK AO2 SLP178 T01560144 53015
