2023/04/30 09:53
KLAX 300953Z 28003KT 3/4SM R25L/P6000FT BR OVC004 13/12 A2995 RMK AO2 SLP140 VIS SW-W 1/2 T01330122
