2026/01/02 21:53
KLAX 022153Z 05008KT 2SM BR BKN007 OVC012 17/16 A3003 RMK AO2 RAB2056E43 SLP168 VIS SE-SW 1 1/4 P0003 T01720161 $
