2023/09/22 19:53
KLAX 221953Z 23008KT 10SM SCT027 SCT140 BKN180 OVC250 21/14 A3000 RMK AO2 SLP158 T02060144 $
