2026/06/12 12:53
KLAX 121253Z 00000KT 6SM BR OVC007 18/17 A2988 RMK AO2 SLP116 CIG 006V008 T01830167
