2024/03/19 21:53
KLAX 192153Z 26011KT 10SM FEW011 FEW095 18/13 A3001 RMK AO2 SLP162 T01780128 $
