2026/03/20 03:53
KLAX 200353Z 25005KT 10SM CLR 20/16 A2995 RMK AO2 SLP140 T02000156
