2022/11/19 11:53
KLAX 191153Z 00000KT 10SM CLR 10/08 A2999 RMK AO2 SLP155 T01000083 10150 20094 55001 $
