2024/02/06 21:53
KLAX 062153Z 10006KT 4SM RA BR FEW009 SCT030 OVC050 10/10 A2966 RMK AO2 LTG DSNT W SLP041 P0015 T01000100
