2024/10/26 17:53
KLAX 261753Z 25006KT 3SM HZ SCT003 BKN250 17/14 A3007 RMK AO2 SLP182 VIS S-W 2 T01670139 10167 20133 50009 $
