2025/01/17 03:53
KLAX 170353Z 20004KT 10SM CLR 13/09 A3016 RMK AO2 SLP210 T01280089 $
