2024/04/30 01:53
KLAX 300153Z 24008KT 10SM CLR 17/12 A2983 RMK AO2 SLP101 T01670122
