2023/05/29 13:53
KLAX 291353Z 19005KT 10SM FEW009 BKN019 OVC035 16/13 A2996 RMK AO2 SLP144 T01610133
