2024/07/27 13:53
KLAX 271353Z 00000KT 6SM BR BKN006 17/17 A2989 RMK AO2 SLP118 T01720167
