2023/07/08 13:53
KLAX 081353Z VRB04KT 10SM OVC015 17/14 A2986 RMK AO2 SLP108 T01720139
