2025/05/12 19:53
KLAX 121953Z 24012KT 9SM FEW019 BKN030 BKN160 20/12 A2995 RMK AO2 SLP139 T02000122 $
