2025/07/19 04:07
KLAX 190407Z 23007KT 10SM SCT011 SCT080 BKN240 19/16 A2996 RMK AO2 T01890161 $
