2023/06/11 21:53
KLAX 112153Z 26009KT 10SM SCT028 BKN034 OVC050 18/14 A2993 RMK AO2 SLP133 T01830139
