2025/04/23 17:53
KLAX 231753Z 26006KT 8SM SCT018 OVC031 15/11 A2999 RMK AO2 SLP154 T01500106 10150 20139 51012
