2022/09/19 13:53
KLAX 191353Z 11004KT 10SM FEW015 SCT020 18/14 A2987 RMK AO2 SLP111 T01780144 $
