2026/02/06 02:53
KLAX 060253Z 00000KT 10SM SCT150 BKN250 20/07 A3005 RMK AO2 SLP173 T02000072 53013
