2026/05/29 16:53
KLAX 291653Z 25009KT 10SM FEW027 FEW070 SCT140 19/09 A3001 RMK AO2 SLP161 T01890094 $
