2025/10/16 11:53
KLAX 161153Z 04003KT 10SM CLR 13/08 A2994 RMK AO2 SLP138 T01330078 10156 20128 56012 $
