2024/01/23 01:53
KLAX 230153Z VRB03KT 10SM FEW009 FEW016 SCT200 14/12 A2977 RMK AO2 RAE17 SLP080 P0002 T01390122
