2023/02/06 09:53
KLAX 060953Z 33009G19KT 290V360 10SM FEW050 13/01 A3016 RMK AO2 PK WND 32026/0931 SLP211 T01280006 $
