2024/07/04 07:53
KLAX 040753Z 25003KT 10SM BKN006 OVC009 17/16 A2995 RMK AO2 SLP140 T01720156 402110156
