2026/05/02 07:53
KLAX 020753Z 25004KT 9SM SCT009 BKN010 14/13 A2995 RMK AO2 SLP139 T01440128 402110144
