2024/12/14 19:53
KLAX 141953Z 26008KT 10SM FEW025 BKN150 17/08 A3021 RMK AO2 SLP231 T01670083
