2024/10/14 12:53
KLAX 141253Z VRB03KT 5SM HZ FEW008 OVC012 17/14 A3004 RMK AO2 SLP170 T01720139 $
