2025/06/11 19:53
KLAX 111953Z 26009KT 8SM FEW006 BKN015 21/15 A2993 RMK AO2 SLP132 BKN V SCT T02060150 $
