2023/08/21 03:53
KLAX 210353Z 28014KT 4SM -RA BR FEW006 BKN020 OVC027 21/19 A2961 RMK AO2 PRESRR SLP026 P0011 T02060194 $
