2022/11/26 13:53
KLAX 261353Z 06003KT 10SM CLR 10/M01 A3014 RMK AO2 SLP203 T01001011 $
