2023/03/07 05:53
KLAX 070553Z 27006KT 10SM FEW020 FEW100 BKN250 11/06 A3016 RMK AO2 SLP212 T01110056 10139 20111 50006 $
