2025/11/16 09:53
KLAX 160953Z 24007KT 10SM BKN023 BKN100 16/12 A2994 RMK AO2 SLP136 T01560122 $
