2025/12/31 19:53
KLAX 311953Z 34006KT 9SM -RA OVC100 18/08 A3002 RMK AO2 RAB01 SLP163 P0000 T01780083 $
