2023/07/01 13:53
KLAX 011353Z 04004KT 3SM BR OVC008 17/15 A2990 RMK AO2 SLP122 VIS SW-NW 2 T01670150 $
