2024/07/14 13:53
KLAX 141353Z 25003KT 6SM BR OVC009 19/17 A3005 RMK AO2 SLP173 T01890172 $
