2025/07/09 01:53
KLAX 090153Z 25015G22KT 10SM FEW150 19/14 A3001 RMK AO2 SLP160 T01940144 $
