2025/06/14 11:53
KLAX 141153Z 00000KT 6SM HZ OVC013 18/15 A2988 RMK AO2 SLP116 T01780150 10178 20172 53003 $
