2023/05/30 07:53
KLAX 300753Z 27010KT 10SM FEW022 OVC038 16/13 A2997 RMK AO2 SLP148 T01610128 402000161 $
