2022/09/23 17:53
KLAX 231753Z 26006KT 10SM FEW005 FEW100 SCT300 24/18 A2994 RMK AO2 SLP136 T02440183 10256 20172 51005
