2025/07/09 13:53
KLAX 091353Z 19003KT 10SM FEW160 FEW250 18/15 A3003 RMK AO2 SLP166 CCSL NE AND S T01780150 $
