2025/11/22 13:53
KLAX 221353Z 00000KT 10SM SCT110 11/08 A2994 RMK AO2 SLP136 T01060083 $
