2026/05/20 02:53
KLAX 200253Z 25013KT 10SM FEW050 22/09 A2990 RMK AO2 SLP123 FU FEW050 T02170094 55002
