2024/04/19 23:53
KLAX 192353Z 26012G19KT 10SM SCT014 BKN040 BKN150 17/11 A2994 RMK AO2 SLP139 T01670106 10183 20161 56011 $
