2022/09/24 17:53
KLAX 241753Z 26008KT 10SM FEW220 26/17 A3003 RMK AO2 SLP165 T02610172 10267 20206 51010
