2022/11/29 05:53
KLAX 290553Z 26003KT 10SM BKN021 OVC033 15/11 A2990 RMK AO2 SLP124 T01500106 10156 20150 53005
