2023/09/24 09:53
KLAX 240953Z 18003KT 7SM FEW010 17/16 A2999 RMK AO2 SLP154 T01720156 $
