2025/09/17 07:53
KLAX 170753Z 24004KT 10SM SCT110 21/18 A2991 RMK AO2 SLP127 T02110178 402670183
