2024/07/18 17:53
KLAX 181753Z 25009KT 9SM FEW009 SCT090 BKN160 22/18 A2999 RMK AO2 SLP152 T02220178 10228 20183 53008
