2025/01/23 01:53
KLAX 230153Z 32003KT 10SM FEW045 FEW200 SCT250 19/M01 A3017 RMK AO2 SLP215 FU FEW045 T01891006
