2023/04/07 09:53
KLAX 070953Z 00000KT 10SM BKN250 13/09 A3002 RMK AO2 SLP163 T01280089 $
