2023/12/06 21:53
KLAX 062153Z 24011KT 10SM FEW010 FEW025 SCT190 19/14 A3004 RMK AO2 SLP173 T01940139
