2024/02/20 09:53
KLAX 200953Z 09009KT 3SM BR FEW002 SCT004 OVC006 13/13 A3010 RMK AO2 RAB15E23 SLP192 VIS W 2 1/2 P0000 T01280128 $
