2023/10/12 01:53
KLAX 120153Z 28013KT 10SM CLR 18/14 A2964 RMK AO2 SLP037 T01830144
