2024/06/29 05:53
KLAX 290553Z 26006KT 10SM SCT010 17/14 A2985 RMK AO2 SLP106 T01670139 10217 20167 53015
