2023/05/06 01:53
KLAX 060153Z 25014KT 10SM FEW012 SCT042 SCT065 16/09 A3006 RMK AO2 SLP178 T01610089
