2024/10/15 16:53
KLAX 151653Z 00000KT 4SM HZ OVC018 18/14 A3006 RMK AO2 SLP177 T01830144 $
