2025/06/01 19:53
KLAX 011953Z 25008KT 9SM SCT170 BKN210 BKN260 22/15 A2992 RMK AO2 SLP130 T02220150 $
