2023/11/14 09:53
KLAX 140953Z 05003KT 10SM FEW002 13/06 A3000 RMK AO2 SLP157 T01280061
