2023/01/22 07:53
KLAX 220753Z 00000KT 10SM CLR 10/04 A3020 RMK AO2 SLP223 T01000039 401670050 $
