2026/01/27 01:53
KLAX 270153Z 30007KT 10SM CLR 17/M02 A3021 RMK AO2 SLP229 T01721017 $
