2024/12/14 07:53
KLAX 140753Z 33003KT 10SM FEW100 13/10 A3018 RMK AO2 SLP218 T01330100 401830094
