2024/03/11 01:53
KLAX 110153Z 24012KT 10SM FEW020 SCT150 BKN200 BKN250 14/11 A3002 RMK AO2 SLP166 T01440111 $
