2025/01/13 09:53
KLAX 130953Z 11004KT 10SM CLR 09/M04 A3013 RMK AO2 SLP201 T00891039 VISNO RWY24 $
