2024/04/18 07:53
KLAX 180753Z 23006KT 10SM FEW004 FEW008 SCT200 BKN250 13/12 A3000 RMK AO2 SLP157 T01280117 401830111 $
