2023/12/22 19:53
KLAX 221953Z 08003KT 10SM SCT027 SCT035 19/13 A2991 RMK AO2 SLP127 T01890133
