2025/12/26 17:53
KLAX 261753Z 14005KT 9SM FEW009 SCT013 OVC019 16/13 A3008 RMK AO2 RAE20 SLP185 P0000 60019 T01560133 10161 20144 51010 $
