2026/04/01 13:53
KLAX 011353Z 24006KT 10SM FEW007 FEW025 SCT060 BKN140 16/13 A2995 RMK AO2 SLP141 T01560133 $
