2023/01/26 13:53
KLAX 261353Z 00000KT 10SM CLR 09/01 A3032 RMK AO2 SLP266 T00940011 $
