2023/09/12 19:53
KLAX 121953Z 22011KT 10SM FEW140 FEW180 23/18 A2993 RMK AO2 SLP135 T02330178 $
