2026/05/10 11:53
KLAX 101153Z 11005KT 6SM BR OVC010 16/14 A2991 RMK AO2 SLP126 T01610139 10167 20144 55002
