2024/04/25 11:53
KLAX 251153Z 27009KT 10SM FEW015 BKN028 13/10 A3003 RMK AO2 SLP167 T01280100 10139 20128 56008
