2022/10/23 11:53
KLAX 231153Z 21003KT 10SM CLR 16/12 A2978 RMK AO2 SLP083 60000 70001 T01610117 10178 20156 51002
