2025/07/01 13:53
KLAX 011353Z 26005KT 8SM OVC009 17/14 A2990 RMK AO2 SLP124 T01670139
