2024/04/14 13:53
KLAX 141353Z 09005KT 6SM BR FEW016 BKN024 OVC034 09/08 A3013 RMK AO2 SLP202 T00940078 $
