2025/05/14 01:53
KLAX 140153Z 25016KT 10SM FEW012 FEW060 17/09 A2996 RMK AO2 PK WND 26032/0107 SLP146 T01670094 $
