2025/01/11 19:53
KLAX 111953Z 00000KT 10SM FEW040 18/04 A3002 RMK AO2 SLP167 FU FEW040 T01780044 $
