2026/01/03 11:53
KLAX 031153Z 09003KT 4SM BR VCFG FEW001 BKN065 BKN180 13/13 A3004 RMK AO2 SLP171 FG BANK S 70011 T01330133 10161 20133 58007
