2024/11/20 01:53
KLAX 200153Z 27007KT 10SM FEW250 14/08 A3006 RMK AO2 SLP178 T01440083 $
