2023/06/02 15:53
KLAX 021553Z 26009KT 10SM FEW012 SCT030 BKN042 18/11 A2999 RMK AO2 SLP154 T01780111
