2025/04/22 21:53
KLAX 222153Z 24013KT 10SM FEW015 FEW250 17/09 A2995 RMK AO2 SLP142 T01720094
