2024/08/08 03:53
KLAX 080353Z VRB03KT 10SM FEW006 SCT008 BKN150 20/18 A2995 RMK AO2 SLP139 T02000178 $
