2023/07/08 17:53
KLAX 081753Z 23008KT 10SM FEW022 21/14 A2987 RMK AO2 SLP113 T02060139 10211 20167 51001
