2024/12/09 07:53
KLAX 090753Z 10003KT 9SM BKN010 13/10 A3008 RMK AO2 SLP185 T01330100 401830094
