2026/04/25 11:53
KLAX 251153Z 18004KT 10SM SCT014 BKN021 BKN030 16/12 A2988 RMK AO2 SLP118 T01560122 10156 20150 53004 $
