2025/03/18 13:53
KLAX 181353Z 30006KT 10SM FEW010 09/06 A3024 RMK AO2 SLP239 T00940056 VISNO RWY24 $
