2024/03/15 23:53
KLAX 152353Z 22007KT 10SM BKN085 BKN100 BKN180 17/08 A2983 RMK AO2 SLP100 CB DSNT E AND SE T01670078 10206 20167 51002 $
