2025/06/13 11:53
KLAX 131153Z 16005KT 8SM OVC012 17/14 A2985 RMK AO2 SLP104 T01720144 10183 20172 55003
