2025/07/10 17:53
KLAX 101753Z 26004KT 10SM FEW009 22/16 A2994 RMK AO2 SLP137 T02220161 10228 20172 51005 $
