2022/11/14 19:53
KLAX 141953Z 25008KT 10SM FEW180 FEW250 19/05 A3012 RMK AO2 SLP198 T01940050 $
