2023/12/25 17:53
KLAX 251753Z 12005KT 10SM FEW040 SCT160 BKN250 15/09 A3019 RMK AO2 SLP223 T01500089 10150 20094 51009
