2024/01/20 13:53
KLAX 201353Z 10004KT 10SM FEW004 FEW035 OVC100 13/12 A2992 RMK AO2 SLP130 T01330117 $
