2025/11/06 01:53
KLAX 060153Z 27011KT 10SM SCT250 17/11 A3017 RMK AO2 SLP216 T01720111 $
