2024/01/05 19:53
KLAX 051953Z 06005KT 10SM FEW120 SCT160 17/06 A3016 RMK AO2 SLP211 T01670061
