2023/03/13 07:53
KLAX 130753Z 23005KT 10SM VV004 13/12 A3015 RMK AO2 SLP209 T01280122 401670128 $
