2025/10/31 21:53
KLAX 312153Z 24008KT 10SM FEW160 SCT280 21/15 A2996 RMK AO2 SLP143 T02110150 $
