2024/06/16 09:53
KLAX 160953Z 11004KT 9SM CLR 17/13 A2975 RMK AO2 SLP072 T01720128
