2025/01/18 14:53
KLAX 181453Z 00000KT 9SM SCT025 09/07 A3023 RMK AO2 SLP237 T00890067 53009
