2025/01/14 23:53
KLAX 142353Z 26009KT 10SM CLR 17/M03 A3020 RMK AO2 SLP226 T01671028 10189 20133 56015
