2024/06/14 19:53
KLAX 141953Z 26009G17KT 10SM SCT120 21/14 A2995 RMK AO2 SLP139 T02060139
