2025/04/13 19:53
KLAX 131953Z 26008KT 10SM OVC021 18/12 A2997 RMK AO2 SLP149 T01780122 $
