2025/10/13 01:53
KLAX 130153Z 25004KT 10SM CLR 20/12 A2968 RMK AO2 SLP048 T02000117 $
