2022/12/07 15:53
KLAX 071553Z 00000KT 10SM FEW012 FEW023 SCT070 SCT160 11/08 A3019 RMK AO2 SLP221 T01110078 $
