2024/11/13 11:53
KLAX 131153Z 02008G19KT 10SM FEW250 14/M04 A3004 RMK AO2 SLP171 T01441039 10172 20122 58004
