2023/12/18 13:53
KLAX 181353Z 13006KT 10SM FEW030 FEW080 BKN110 BKN180 16/06 A2995 RMK AO2 SLP142 T01560056 $
