2024/03/13 09:53
KLAX 130953Z 08003KT 10SM FEW011 BKN019 14/11 A3004 RMK AO2 SLP171 T01390106
