2025/09/26 11:53
KLAX 261153Z 08005KT 6SM -DZ BR FEW006 BKN009 OVC016 19/18 A2989 RMK AO2 SLP120 P0000 60000 T01890178 10194 20189 56005 $
