2026/04/02 17:53
KLAX 021753Z 26005KT 10SM FEW024 FEW031 SCT160 BKN250 18/11 A3001 RMK AO2 SLP161 T01830111 10183 20150 51013 $
