2024/09/13 03:53
KLAX 130353Z 25006KT 10SM FEW012 19/16 A2974 RMK AO2 SLP069 T01890161 $
