2025/04/24 00:53
KLAX 240053Z 25010KT 10SM SCT016 15/10 A2995 RMK AO2 SLP142 T01500100
