2023/12/20 17:53
KLAX 201753Z 12009KT 7SM SCT009 BKN016 OVC025 16/15 A2990 RMK AO2 RAE1657 SLP126 P0000 60007 T01610150 10161 20150 53012
