2025/11/18 03:53
KLAX 180353Z 27004KT 8SM -RA FEW018 BKN026 OVC060 13/11 A2988 RMK AO2 SLP116 P0002 T01330106 $
