2023/11/16 19:53
KLAX 161953Z 09007KT 10SM FEW009 BKN028 BKN035 21/14 A3000 RMK AO2 SLP159 T02110139
