2023/01/18 05:53
KLAX 180553Z 33006KT 10SM CLR 12/01 A3003 RMK AO2 SLP167 T01170006 10139 20117 51020 $
