2024/03/07 15:53
KLAX 071553Z 27006KT 10SM FEW010 FEW035 SCT110 SCT250 13/09 A2990 RMK AO2 SLP124 T01280094
