2022/10/04 11:53
KLAX 041153Z 05003KT 10SM FEW012 19/16 A2991 RMK AO2 SLP126 T01890161 10206 20183 58009
