2023/09/21 13:53
KLAX 211353Z 23004KT 9SM SCT010 BKN024 OVC044 18/16 A2991 RMK AO2 SLP127 T01780161
