2023/06/08 11:53
KLAX 081153Z 07004KT 10SM FEW009 FEW015 SCT200 13/12 A2999 RMK AO2 SLP153 T01330122 10161 20133 55002
