2026/01/05 00:20
KLAX 050020Z 18008KT 10SM BKN018 OVC070 16/13 A2998 RMK AO2 SHRA SE-S T01610133
