2025/05/11 05:53
KLAX 110553Z 25007KT 10SM CLR 18/14 A2988 RMK AO2 SLP114 T01830139 10256 20183 51013
