2023/09/14 15:53
KLAX 141553Z 21003KT 9SM BKN019 OVC024 20/16 A2996 RMK AO2 SLP144 T02000161 $
