2024/08/04 19:53
KLAX 041953Z 24009KT 10SM FEW009 SCT140 SCT250 22/17 A2989 RMK AO2 SLP120 T02170167 $
