2024/04/26 01:53
KLAX 260153Z 24009KT 10SM FEW020 BKN050 14/11 A3002 RMK AO2 SLP166 T01440106
