2025/11/30 12:08
KLAX 301208Z 09005KT 1/2SM R25L/1000V4500FT FG VV001 13/13 A3000 RMK AO2 T01280128 $
