2025/05/22 15:53
KLAX 221553Z 15004KT 6SM HZ FEW014 BKN140 20/14 A2993 RMK AO2 SLP133 T02000144 $
