2024/12/06 19:53
KLAX 061953Z 26006KT 4SM BCFG BR SCT000 SCT004 14/11 A3007 RMK AO2 SLP181 VIS S-NW 1/2 FG SCT000 T01390106
