2023/12/19 01:53
KLAX 190153Z 27010KT 10SM BKN055 OVC070 17/13 A2995 RMK AO2 SLP139 T01720128 $
