2026/05/07 02:53
KLAX 070253Z 27015KT 10SM FEW010 16/13 A3002 RMK AO2 SLP164 T01610128 53004
