2025/03/31 09:53
KLAX 310953Z 09007KT 8SM FEW006 OVC008 13/12 A3010 RMK AO2 SLP191 DZB28E45 P0000 T01330122 $
