2023/10/31 17:53
KLAX 311753Z 00000KT 10SM FEW120 FEW160 SCT220 25/M09 A3008 RMK AO2 SLP184 T02501094 10250 20144 50005 $
