2024/05/12 01:53
KLAX 120153Z 26009KT 10SM OVC008 14/12 A2990 RMK AO2 SLP126 T01440117 $
