2025/02/07 05:53
KLAX 070553Z 12010KT 5SM -RA BR OVC005 15/15 A3005 RMK AO2 SLP176 P0005 60017 T01500150 10161 20150 53008 $
