2025/09/26 19:53
KLAX 261953Z 24008KT 10SM FEW009 SCT016 OVC022 21/17 A2988 RMK AO2 SLP118 T02110172 $
