2023/10/05 07:53
KLAX 050753Z 08005KT 10SM CLR 19/14 A2991 RMK AO2 SLP127 T01890139 402720156 $
