2023/11/13 15:53
KLAX 131553Z 08005KT 10SM FEW009 SCT180 BKN250 15/02 A3004 RMK AO2 SLP169 T01500022
