2022/08/28 13:53
KLAX 281353Z 22006KT 10SM SCT016 OVC021 21/17 A2986 RMK AO2 SLP111 T02060167 $
