2026/06/02 16:53
KLAX 021653Z 25008KT 7SM OVC015 17/13 A3004 RMK AO2 SLP170 T01720133 $
