2023/03/24 17:53
KLAX 241753Z 26014G20KT 10SM FEW100 FEW140 SCT180 17/03 A3026 RMK AO2 SLP247 T01670033 10172 20122 51014
