2024/06/20 13:53
KLAX 201353Z 00000KT 7SM FEW009 OVC012 17/14 A2982 RMK AO2 SLP096 T01720144 $
