2025/12/17 06:03
KLAX 170603Z 00000KT 1SM R25L/P6000FT BR BKN002 14/14 A3009 RMK AO2 VIS 3/4V1 1/2 T01440139 $
