2023/10/17 16:01
KLAX 171601Z VRB04KT 3SM BR FEW002 BKN007 18/16 A2995 RMK AO2 T01830161
