2024/02/22 09:53
KLAX 220953Z 09006KT 10SM BKN008 BKN011 12/12 A3018 RMK AO2 SLP218 T01220117 $
