2023/01/16 11:53
KLAX 161153Z 08009G19KT 7SM SCT006 BKN016 OVC022 11/10 A2967 RMK AO2 RAE49 SLP045 P0001 60049 70074 T01060100 10111 20100 56012 $
