2024/08/11 15:53
KLAX 111553Z 26005KT 9SM FEW010 FEW080 22/18 A2995 RMK AO2 SLP140 T02220183 $
