2022/12/05 03:53
KLAX 050353Z 33004KT 3SM -RA BR BKN004 OVC010 15/14 A3008 RMK AO2 RAB0255 SLP184 P0006 T01500144 $
