2022/11/17 15:53
KLAX 171553Z 10003KT 10SM FEW180 BKN250 14/M04 A3022 RMK AO2 SLP231 T01441044
