2022/10/04 07:53
KLAX 040753Z 00000KT 10SM FEW018 20/17 A2994 RMK AO2 SLP135 T02000172 402330172
