2025/05/29 03:53
KLAX 290353Z 27006KT 10SM BKN016 OVC022 17/13 A2997 RMK AO2 SLP147 T01670128 $
