2022/08/30 21:53
KLAX 302153Z 25016KT 10SM FEW100 24/14 A2991 RMK AO2 SLP127 T02440139
