2024/07/13 01:53
KLAX 130153Z 24008KT 8SM SCT008 BKN180 19/16 A2985 RMK AO2 SLP107 T01890161 $
