2025/01/03 11:53
KLAX 031153Z 25003KT 3SM BR FEW001 BKN160 09/09 A3005 RMK AO2 SLP175 VIS 1 1/2V4 T00940094 10122 20094 58006
