2025/11/29 05:53
KLAX 290553Z 00000KT 7SM FEW004 SCT009 SCT270 14/13 A3002 RMK AO2 SLP165 T01440128 10172 20139 51007 $
