2022/10/17 07:53
KLAX 170753Z 27005KT 10SM FEW015 18/16 A3004 RMK AO2 SLP169 T01830156 402220172 $
