2023/09/09 07:53
KLAX 090753Z 21003KT 10SM SCT200 21/18 A3001 RMK AO2 SLP158 T02060183 402780183
