2024/09/06 23:53
KLAX 062353Z 27014G20KT 10SM FEW100 SCT180 27/18 A2978 RMK AO2 SLP083 T02670178 10389 20261 58007
