2025/10/24 11:53
KLAX 241153Z 00000KT 9SM FEW008 16/14 A2999 RMK AO2 SLP155 T01560144 10178 20156 55003
