2025/02/14 23:53
KLAX 142353Z 26019G26KT 10SM FEW022 FEW042 SCT270 16/10 A3008 RMK AO2 PK WND 26029/2305 SLP185 T01560100 10161 20144 56012
