2026/04/30 02:53
KLAX 300253Z 24008KT 10SM FEW150 17/13 A2997 RMK AO2 SLP147 T01670128 53003
