2022/10/24 23:53
KLAX 242353Z 26013KT 10SM CLR 22/06 A3012 RMK AO2 SLP200 T02170056 10239 20211 55002
