2026/07/08 22:53
KLAX 082253Z 27016KT 10SM CLR 23/14 A2990 RMK AO2 SLP124 T02280144
