2024/09/10 03:53
KLAX 100353Z 26011KT 10SM CLR 26/15 A2978 RMK AO2 SLP083 T02610150
