2022/10/09 13:53
KLAX 091353Z 32003KT 4SM BR OVC008 19/17 A3002 RMK AO2 SLP164 VIS SW-W 2 1/2 T01890167 $
