2023/04/07 13:53
KLAX 071353Z 12004KT 10SM FEW100 SCT160 BKN180 12/09 A3003 RMK AO2 SLP169 T01220089 $
