2024/01/09 17:53
KLAX 091753Z VRB03KT 10SM FEW100 FEW140 SCT250 13/M03 A3026 RMK AO2 SLP245 T01281033 10128 20056 58002
