2022/12/12 21:53
KLAX 122153Z VRB06KT 9SM SCT010 BKN034 BKN047 13/04 A2987 RMK AO2 SLP116 T01280044
