2025/03/07 13:53
KLAX 071353Z 32013KT 10SM FEW008 FEW070 SCT250 11/01 A2994 RMK AO2 SLP137 T01060006 $
