2023/09/14 09:53
KLAX 140953Z 34003KT 10SM FEW008 BKN012 OVC018 19/17 A2994 RMK AO2 SLP135 T01940167 $
