2024/09/12 19:53
KLAX 121953Z 25010KT 10SM FEW025 FEW045 23/16 A2975 RMK AO2 SLP071 T02330156
