2025/09/20 03:53
KLAX 200353Z 24007KT 9SM FEW010 21/18 A2991 RMK AO2 SLP127 T02060183
