2024/08/20 19:53
KLAX 201953Z 24008KT 10SM FEW008 27/18 A2994 RMK AO2 SLP138 T02720183
