2023/05/19 15:53
KLAX 191553Z 00000KT 7SM SCT008 OVC011 16/13 A3004 RMK AO2 SLP172 T01610133
