2025/04/16 23:53
KLAX 162353Z 23014G20KT 10SM FEW030 FEW060 17/09 A2995 RMK AO2 SLP142 T01670089 10200 20161 56009 $
