2023/09/11 03:53
KLAX 110353Z 23005KT 10SM FEW150 22/18 A2990 RMK AO2 SLP122 T02170183
