2024/09/13 13:53
KLAX 131353Z 11006KT 9SM OVC019 20/16 A2979 RMK AO2 SLP087 T02000156 $
