2023/07/24 03:53
KLAX 240353Z 26006KT 10SM SCT150 SCT250 20/18 A2993 RMK AO2 SLP134 T02000178
