2024/01/26 15:53
KLAX 261553Z 00000KT 10SM FEW010 SCT180 BKN250 12/09 A3021 RMK AO2 SLP229 T01170089 $
