2024/10/10 01:53
KLAX 100153Z 26006KT 7SM OVC006 17/16 A2992 RMK AO2 SLP131 T01720156 $
