2026/04/01 19:53
KLAX 011953Z 27010G19KT 10SM FEW010 FEW027 SCT160 19/12 A3001 RMK AO2 SLP161 T01940122 $
