2024/04/10 09:53
KLAX 100953Z 10004KT 10SM CLR 14/07 A3004 RMK AO2 SLP169 T01440067 $
