2024/07/30 19:53
KLAX 301953Z 27011KT 10SM FEW006 21/15 A2997 RMK AO2 SLP148 T02110150 $
