2023/12/16 03:53
KLAX 160353Z 02004KT 10SM BKN300 19/02 A3007 RMK AO2 SLP180 T01940022 $
