2023/11/13 01:53
KLAX 130153Z 26008KT 10SM FEW200 SCT250 18/11 A2995 RMK AO2 SLP142 T01830111
