2025/01/28 13:53
KLAX 281353Z 07004KT 10SM FEW012 FEW120 SCT220 07/04 A3007 RMK AO2 SLP180 T00720044
