2026/03/03 19:53
KLAX 031953Z 25006KT 10SM FEW027 SCT160 BKN180 18/12 A3005 RMK AO2 SLP174 T01830117
