2023/02/02 21:53
KLAX 022153Z 24005KT 10SM FEW100 SCT140 BKN180 BKN250 18/06 A3027 RMK AO2 SLP251 T01830061 $
