2025/06/26 15:53
KLAX 261553Z 00000KT 7SM FEW009 OVC016 19/14 A2996 RMK AO2 SLP143 T01890144
