2025/03/12 17:53
KLAX 121753Z 12011G18KT 6SM BR BKN009 BKN015 BKN021 15/13 A3000 RMK AO2 RAB1654E19B34E45 SLP159 BKN009 V SCT P0000 60002 T01500128 10150 20117 51019 $
