2023/07/12 05:53
KLAX 120553Z 27006KT 1/2SM R25L/P6000FT FG VV002 16/15 A2999 RMK AO2 SLP152 VIS 1/4V1 1/2 T01560150 10217 20156 51012 $
