2025/05/11 17:53
KLAX 111753Z 26009KT 10SM SCT230 SCT280 22/14 A2990 RMK AO2 SLP121 T02220144 10233 20161 51012
