2026/02/04 03:53
KLAX 040353Z 15003KT 10SM CLR 16/14 A3016 RMK AO2 SLP212 T01560139 $
