2025/05/21 01:53
KLAX 210153Z 25009KT 10SM CLR 20/14 A2987 RMK AO2 SLP112 T02000139
