2023/07/16 17:53
KLAX 161753Z 27008KT 9SM FEW004 FEW300 22/17 A2992 RMK AO2 SLP129 T02170172 10228 20178 53004
