2024/11/20 05:53
KLAX 200553Z 10006KT 10SM FEW150 FEW200 13/08 A3011 RMK AO2 SLP193 T01280078 10156 20122 53011 $
