2023/03/01 13:53
KLAX 011353Z 27023G29KT 10SM FEW009 SCT018 SCT040 11/07 A2973 RMK AO2 PK WND 27034/1321 RAB1254E09B25E36 SLP065 P0000 T01060067
