2023/07/14 09:53
KLAX 140953Z 25003KT 10SM FEW005 FEW009 18/17 A2989 RMK AO2 SLP119 T01780167 $
