2026/03/18 07:53
KLAX 180753Z 09004KT 10SM CLR 21/11 A2997 RMK AO2 SLP146 T02060111 403330150 $
