2026/05/30 17:53
KLAX 301753Z 25010KT 10SM CLR 21/12 A3002 RMK AO2 SLP163 T02060122 10211 20161 58003 $
