2026/03/23 18:02
KLAX 231802Z VRB03KT 2 1/2SM HZ FEW012 SCT014 19/14 A2995 RMK AO2 VIS 2V3 T01890144
