2023/06/07 13:53
KLAX 071353Z 36003KT 10SM FEW023 BKN036 OVC049 16/11 A2996 RMK AO2 SLP142 T01610111
