2024/04/22 07:53
KLAX 220753Z 00000KT 4SM BR FEW003 OVC006 14/13 A2992 RMK AO2 SLP132 VIS W 2 1/2 T01440128 401720128 $
