2023/04/24 21:53
KLAX 242153Z 27012KT 10SM FEW018 FEW027 19/13 A2989 RMK AO2 SLP120 T01890128 $
