2023/01/04 05:53
KLAX 040553Z 08010KT 2 1/2SM -RA BR OVC004 14/13 A3009 RMK AO2 RAE0459B34 SLP187 P0001 60001 T01390133 10144 20139 53006
