2025/02/06 19:53
KLAX 061953Z 27004KT 10SM FEW005 BKN011 BKN065 15/13 A3007 RMK AO2 SLP181 T01500128 $
