2025/02/24 01:53
KLAX 240153Z 26007KT 10SM CLR 16/12 A3017 RMK AO2 SLP217 T01560122 $
