2025/11/03 02:33
KLAX 030233Z 26011KT 8SM BKN006 16/14 A3002 RMK AO2 T01610144 $
