2025/10/30 19:53
KLAX 301953Z 26010KT 10SM CLR 26/14 A2993 RMK AO2 SLP133 T02610144 $
