2022/09/30 03:53
KLAX 300353Z 19005KT 10SM FEW010 21/19 A2991 RMK AO2 SLP127 T02060189
