2025/02/24 17:53
KLAX 241753Z 24006KT 9SM FEW011 18/11 A3015 RMK AO2 SLP210 T01780106 10183 20117 51005 $
