2022/12/15 11:53
KLAX 151153Z 06005KT 10SM FEW220 BKN280 09/04 A3013 RMK AO2 SLP201 T00890039 10117 20089 58010
