2023/03/11 23:57
KLAX 112357Z 25007KT 10SM BKN007 OVC014 16/14 A3008 RMK AO2 CIG 004V009 T01560144
