2022/11/25 19:53
KLAX 251953Z 25008KT 10SM FEW120 SCT160 BKN250 24/M09 A3022 RMK AO2 SLP234 T02391094 $
