2024/12/25 21:53
KLAX 252153Z 00000KT 10SM FEW025 FEW100 SCT160 BKN180 17/07 A3005 RMK AO2 SLP174 T01670072
