2022/10/22 04:06
KLAX 220406Z 25005KT 10SM OVC011 19/16 A2988 RMK AO2 T01890161
