2025/05/10 19:53
KLAX 101953Z 26013KT 10SM FEW250 24/15 A2990 RMK AO2 SLP122 T02440150
