2024/01/06 07:53
KLAX 060753Z 09003KT 10SM CLR 11/07 A3015 RMK AO2 SLP208 T01110067 401830078
