2024/12/29 19:53
KLAX 291953Z VRB06KT 2 1/2SM BR OVC004 13/12 A3015 RMK AO2 SLP208 VIS SW 1 1/2 T01280117
