2025/11/22 21:53
KLAX 222153Z 28008KT 10SM BKN100 BKN140 21/07 A2990 RMK AO2 SLP125 T02060072
