2023/08/31 00:53
KLAX 310053Z 27009KT 10SM CLR 24/18 A2980 RMK AO2 SLP089 T02440183
