2023/10/13 03:53
KLAX 130353Z 14007KT 10SM FEW200 SCT250 19/13 A2978 RMK AO2 SLP084 T01890128
