2025/07/18 08:53
KLAX 180853Z 27005KT 10SM BKN011 BKN024 18/15 A2995 RMK AO2 SLP139 T01780150 58000 $
