2023/02/05 09:53
KLAX 050953Z 00000KT 9SM FEW010 FEW250 12/11 A3018 RMK AO2 SLP220 T01220106 $
