2024/07/11 13:53
KLAX 111353Z 24006KT 5SM BR FEW002 SCT006 BKN120 17/16 A2988 RMK AO2 SLP116 T01720161
