2024/12/13 13:53
KLAX 131353Z 01003KT 10SM FEW012 FEW016 SCT160 SCT250 11/08 A3010 RMK AO2 SLP192 T01110078
