2023/02/20 19:53
KLAX 201953Z 26008KT 10SM FEW080 SCT150 19/05 A3007 RMK AO2 SLP183 T01940050 $
