2025/03/09 17:53
KLAX 091753Z 00000KT 10SM CLR 18/03 A3023 RMK AO2 SLP235 T01830033 10183 20083 50007
