2023/06/20 03:53
KLAX 200353Z 25007KT 10SM FEW150 17/14 A2996 RMK AO2 SLP143 T01670139
