2023/12/25 21:53
KLAX 252153Z 26008KT 10SM FEW060 SCT140 SCT180 17/11 A3012 RMK AO2 SLP200 T01720111
