2022/11/05 09:53
KLAX 050953Z 00000KT 10SM FEW250 12/06 A3013 RMK AO2 SLP201 T01220061
