2024/02/21 15:53
KLAX 211553Z 34005KT 10SM FEW009 FEW080 SCT095 SCT160 13/11 A3009 RMK AO2 SLP188 T01330106 $
