2024/01/16 03:53
KLAX 160353Z 26005KT 10SM FEW010 SCT200 BKN250 12/11 A3008 RMK AO2 SLP184 T01220111 $
