2025/07/15 07:53
KLAX 150753Z 21003KT 10SM BKN010 17/15 A2994 RMK AO2 SLP137 T01720150 402110156
