2024/05/28 11:53
KLAX 281153Z 00000KT 8SM OVC007 14/12 A3001 RMK AO2 SLP162 T01390117 10139 20133 58002
