2026/04/16 11:53
KLAX 161153Z 24004KT 10SM FEW009 FEW012 BKN200 BKN250 15/13 A2991 RMK AO2 SLP126 T01500128 10161 20133 56009
