2025/02/02 13:53
KLAX 021353Z 13007KT 4SM BR OVC005 13/12 A3011 RMK AO2 SLP194 VIS W 1 T01330122 $
