2024/11/11 01:53
KLAX 110153Z 24005KT 5SM BR FEW180 FEW250 16/14 A3000 RMK AO2 SLP157 T01610139
