2024/02/09 09:53
KLAX 090953Z 06006KT 10SM FEW015 FEW024 SCT045 10/08 A3007 RMK AO2 SLP180 T01000078 $
