2024/06/24 01:53
KLAX 240153Z 24009KT 10SM FEW050 SCT150 21/16 A2985 RMK AO2 SLP107 T02110156
