2024/09/24 07:53
KLAX 240753Z 26006KT 3SM BR VV003 17/16 A2984 RMK AO2 SLP101 VIS SW-W 3/4 T01720161 402000156 $
