2023/07/17 03:53
KLAX 170353Z 26008KT 10SM BKN006 18/17 A2990 RMK AO2 SLP123 T01830172
