2025/02/14 09:53
KLAX 140953Z 23009KT 3SM -RA BR BKN009 OVC016 14/13 A3003 RMK AO2 RAB51 SLP168 VIS 2 1/2V4 P0000 T01390128 $
