2023/04/14 03:53
KLAX 140353Z VRB04KT 5SM -RA BR OVC011 12/11 A2987 RMK AO2 RAB20 SLP112 P0005 T01220106 $
