2023/11/20 15:53
KLAX 201553Z 00000KT 10SM CLR 15/06 A3012 RMK AO2 SLP197 T01500056
