2025/09/05 17:53
KLAX 051753Z 25007KT 9SM FEW009 FEW017 SCT070 24/17 A2988 RMK AO2 SLP115 T02390172 10244 20194 50006
