2023/01/31 09:53
KLAX 310953Z 09004KT 10SM CLR 08/03 A2999 RMK AO2 SLP154 T00830033
