2024/12/05 05:53
KLAX 050553Z 27004KT 6SM BR CLR 12/11 A3015 RMK AO2 SLP209 T01220106 10139 20122 52004
