2024/04/02 13:53
KLAX 021353Z 08005KT 10SM FEW010 11/09 A3020 RMK AO2 SLP226 T01110089
