2024/02/04 07:53
KLAX 040753Z 06009KT 10SM -RA OVC075 11/07 A3000 RMK AO2 SLP158 P0001 T01060072 401440089 $
