2024/05/05 09:53
KLAX 050953Z 25015G19KT 3SM -RA BR BKN007 OVC028 14/13 A2987 RMK AO2 SLP113 P0005 T01390128
