2025/08/30 08:53
KLAX 300853Z 24004KT 10SM CLR 21/18 A2994 RMK AO2 SLP135 T02110178 56009 $
