2023/03/21 13:53
KLAX 211353Z 07013KT 4SM -RA BR SCT008 BKN023 OVC029 09/08 A2970 RMK AO2 SLP057 P0006 T00940083
