2022/11/23 11:53
KLAX 231153Z 12005KT 10SM CLR 10/03 A3004 RMK AO2 SLP171 T01000033 10144 20089 58007 $
