2023/07/04 15:53
KLAX 041553Z 16004KT 5SM HZ FEW005 BKN011 16/13 A2995 RMK AO2 SLP141 T01610133
