2025/02/15 15:53
KLAX 151553Z 04005KT 10SM FEW012 SCT200 12/09 A3025 RMK AO2 SLP241 T01170089 $
