2023/08/01 23:53
KLAX 012353Z 25013KT 9SM FEW004 FEW100 SCT160 SCT250 24/19 A2995 RMK AO2 SLP140 CB DSNT NE ACC AND VIRGA OHD T02390189 10261 20233 56013
