2023/09/21 03:53
KLAX 210353Z 24007KT 10SM BKN014 19/16 A2988 RMK AO2 SLP118 T01890161
