2026/06/05 12:53
KLAX 051253Z 10004KT 4SM BR FEW008 OVC011 18/16 A2984 RMK AO2 SLP103 VIS N 2 1/2 T01780156 $
