2025/02/09 07:53
KLAX 090753Z 08005KT 10SM BKN250 11/09 A3007 RMK AO2 SLP179 T01110094 401670089 $
