2022/09/24 11:53
KLAX 241153Z 27004KT 10SM CLR 21/18 A2996 RMK AO2 SLP142 T02060178 10222 20206 56002
