2026/07/04 14:53
KLAX 041453Z 27005KT 10SM FEW011 SCT170 BKN220 BKN280 19/16 A3003 RMK AO2 SLP168 T01890156 51016 $
