2024/07/28 09:53
KLAX 280953Z 00000KT 10SM FEW009 17/14 A2989 RMK AO2 SLP120 T01720144
