2022/10/01 02:53
KLAX 010253Z 25007KT 10SM SCT013 19/16 A2981 RMK AO2 SLP093 T01940161 55000
