2023/10/25 17:53
KLAX 251753Z 14007KT 9SM SCT030 OVC040 19/14 A3002 RMK AO2 SLP164 60000 T01940144 10194 20178 51015 $
