2025/01/04 01:53
KLAX 040153Z 27010KT 10SM FEW008 FEW200 13/11 A3006 RMK AO2 SLP177 T01280106
