2024/02/01 09:53
KLAX 010953Z 11011KT 10SM -RA FEW014 SCT022 BKN060 OVC150 13/11 A2983 RMK AO2 RAE00B53 SLP101 P0000 T01330111 $
