2025/10/25 19:53
KLAX 251953Z 25010KT 5SM HZ OVC014 18/15 A3004 RMK AO2 SLP172 T01780150 $
