2024/10/09 17:53
KLAX 091753Z 28007KT 210V290 2 1/2SM BR SCT006 BKN010 19/16 A2997 RMK AO2 SLP148 VIS 2V3 BKN V SCT T01940156 10200 20167 50008 $
