2024/04/05 13:53
KLAX 051353Z 10006KT 10SM -RA FEW004 SCT025 BKN048 08/06 A2992 RMK AO2 RAE19B38 SLP132 FU FEW004 P0005 T00780056 $
