2024/07/16 13:53
KLAX 161353Z 26004KT 8SM FEW014 FEW025 SCT110 19/16 A2999 RMK AO2 SLP155 T01890161
