2025/10/22 09:53
KLAX 220953Z 34003KT 10SM FEW011 SCT026 SCT150 17/15 A3000 RMK AO2 SLP157 T01670150
