2024/05/03 19:53
KLAX 031953Z 25009KT 220V280 10SM FEW025 BKN032 19/13 A2990 RMK AO2 SLP125 T01890128
