2025/01/07 15:53
KLAX 071553Z 15003KT 7SM FEW009 SCT120 BKN180 BKN220 11/10 A2996 RMK AO2 SLP143 T01110100
