2025/11/04 15:53
KLAX 041553Z 04005KT 2 1/2SM BR OVC007 16/14 A3012 RMK AO2 SLP198 VIS 2V3 T01560139 $
