2024/11/22 05:53
KLAX 220553Z 00000KT 10SM CLR 14/11 A3010 RMK AO2 SLP189 T01390106 10161 20128 53004 $
