2026/01/17 21:53
KLAX 172153Z 26008KT 10SM FEW260 SCT300 23/06 A3003 RMK AO2 SLP169 T02280056 $
