2025/04/01 03:53
KLAX 010353Z 26012KT 10SM FEW008 FEW020 14/11 A3003 RMK AO2 SLP167 T01390106
