2024/04/13 07:53
KLAX 130753Z 12009KT 10SM FEW015 OVC038 14/09 A3002 RMK AO2 SLP165 T01440089 401610122 $
