2025/06/19 21:53
KLAX 192153Z 24013G19KT 10SM FEW016 22/15 A2984 RMK AO2 SLP103 T02170150 $
