2026/06/21 11:53
KLAX 211153Z 00000KT 10SM CLR 16/14 A2990 RMK AO2 SLP123 T01560139 10167 20156 55001
