2023/10/25 13:53
KLAX 251353Z 12008KT 10SM SCT016 BKN030 18/14 A2996 RMK AO2 DZE33 SLP142 SCT V BKN P0000 T01780144 $
