2024/05/10 11:53
KLAX 101153Z 28005KT 10SM FEW012 OVC018 16/12 A2994 RMK AO2 SLP138 T01560122 10156 20144 58004 $
