2025/04/08 11:53
KLAX 081153Z 00000KT 10SM FEW009 FEW250 13/11 A3002 RMK AO2 SLP162 T01280111 10144 20122 56013 $
