2023/04/04 13:53
KLAX 041353Z 01011KT 10SM FEW047 FEW080 10/M03 A3010 RMK AO2 SLP193 T01001028
