2023/09/14 01:53
KLAX 140153Z 27011KT 10SM BKN013 20/17 A2989 RMK AO2 SLP118 T02000172 $
