2026/03/22 13:53
KLAX 221353Z 25006KT 3SM BR OVC008 16/14 A2990 RMK AO2 SLP123 VIS S-W 2 T01610144
