2025/01/15 01:53
KLAX 150153Z 27006KT 10SM CLR 14/03 A3020 RMK AO2 SLP227 T01390033
