2024/03/03 17:53
KLAX 031753Z 29007KT 10SM SCT018 SCT060 BKN230 14/11 A3008 RMK AO2 SLP185 60002 T01390106 10139 20100 51011 $
