2026/02/27 03:53
KLAX 270353Z 12004KT 10SM FEW250 18/14 A2997 RMK AO2 SLP147 T01780144
