2024/02/25 11:53
KLAX 251153Z 01003KT 6SM BR SCT005 BKN200 13/12 A3001 RMK AO2 SLP163 T01330122 10156 20133 58013 $
