2025/01/17 09:53
KLAX 170953Z 07004KT 10SM FEW010 BKN016 09/07 A3020 RMK AO2 SLP224 T00940067 $
