2025/09/11 23:53
KLAX 112353Z 26013KT 10SM FEW014 FEW036 SCT055 23/16 A2990 RMK AO2 SLP124 T02280161 10239 20217 58015 $
