2022/11/10 15:53
KLAX 101553Z 00000KT 10SM CLR 12/04 A3013 RMK AO2 SLP203 T01220044 $
