2023/02/06 23:53
KLAX 062353Z 30012G19KT 10SM CLR 21/M05 A3012 RMK AO2 SLP200 T02111050 10217 20161 56018 $
