2026/07/19 08:53
KLAX 190853Z 24006KT 10SM BKN012 20/18 A2999 RMK AO2 SLP151 T02000178 50003 $
