2025/02/28 13:53
KLAX 281353Z 28004KT 10SM FEW003 SCT100 BKN130 BKN250 14/12 A2995 RMK AO2 SLP137 T01390122
