2023/07/23 13:53
KLAX 231353Z VRB03KT 5SM BR OVC008 19/17 A2991 RMK AO2 SLP126 T01890172
