2024/12/19 01:53
KLAX 190153Z 29004KT 10SM CLR 19/M02 A3004 RMK AO2 SLP171 T01941017
