2024/06/11 13:53
KLAX 111353Z 25005KT 3SM BR OVC007 16/14 A2991 RMK AO2 SLP127 T01560139
