2024/01/11 01:53
KLAX 110153Z 27011KT 10SM FEW060 14/08 A2992 RMK AO2 SLP132 T01390083 $
