2025/07/27 17:53
KLAX 271753Z 26007KT 10SM FEW013 FEW018 21/15 A3000 RMK AO2 SLP157 T02110150 10217 20167 58001
