2025/02/17 21:53
KLAX 172153Z 25009KT 10SM FEW032 SCT180 BKN250 17/12 A2994 RMK AO2 SLP138 T01670122
