2025/06/29 17:53
KLAX 291753Z 25008KT 10SM FEW007 20/15 A2999 RMK AO2 SLP153 T02000150 10200 20161 55000
