2025/06/11 07:53
KLAX 110753Z 32005KT 8SM OVC006 17/14 A2994 RMK AO2 SLP135 T01670144 402220161 $
