2025/02/23 03:53
KLAX 230353Z 26008KT 9SM FEW004 FEW200 13/12 A3022 RMK AO2 SLP232 T01330117 $
