2023/08/02 15:53
KLAX 021553Z 00000KT 9SM FEW010 FEW140 SCT180 SCT250 23/17 A3002 RMK AO2 SLP163 T02330172 $
