2022/09/10 09:53
KLAX 100953Z VRB03KT 9SM FEW010 SCT016 OVC022 22/20 A2976 RMK AO2 RAE09 SLP074 P0000 T02220200 $
