2024/05/08 13:53
KLAX 081353Z 09004KT 10SM FEW012 OVC015 14/12 A2986 RMK AO2 SLP112 T01440117 $
