2023/07/27 23:53
KLAX 272353Z 26013KT 10SM FEW045 FEW100 24/17 A2987 RMK AO2 SLP112 T02440167 10267 20244 58013 $
