2025/11/12 05:53
KLAX 120553Z 11004KT 10SM FEW007 FEW200 SCT250 17/15 A3005 RMK AO2 SLP175 T01670150 10172 20161 50002 $
