2024/11/26 09:53
KLAX 260953Z 25005KT 10SM FEW070 SCT250 14/09 A3012 RMK AO2 SLP197 T01440094
