2025/04/16 03:53
KLAX 160353Z 26008KT 10SM BKN200 BKN250 14/08 A2999 RMK AO2 SLP154 T01390078
