2024/06/21 13:53
KLAX 211353Z 20003KT 9SM FEW013 17/13 A2977 RMK AO2 SLP080 T01670133
