2026/02/13 09:53
KLAX 130953Z 00000KT 10SM FEW200 BKN250 12/08 A2999 RMK AO2 SLP152 T01170078
