2025/12/03 13:53
KLAX 031353Z 06004KT 8SM FEW018 SCT026 SCT037 13/09 A2997 RMK AO2 SLP149 T01330094 $
