2024/07/29 17:53
KLAX 291753Z 25007KT 10SM CLR 21/15 A3000 RMK AO2 SLP158 T02060150 10211 20156 53007
