2023/03/28 01:53
KLAX 280153Z 25010KT 10SM FEW200 FEW250 17/02 A3010 RMK AO2 SLP194 T01670017 $
