2026/06/27 19:53
KLAX 271953Z 25010KT 220V280 10SM FEW026 SCT034 22/14 A2996 RMK AO2 SLP145 T02220144
