2023/02/07 17:53
KLAX 071753Z 24005KT 10SM FEW220 18/M01 A3029 RMK AO2 SLP257 T01781011 10183 20083 53012 $
