2023/10/15 03:53
KLAX 150353Z 25007KT 10SM CLR 19/15 A3001 RMK AO2 SLP162 T01890150
