2025/01/26 21:53
KLAX 262153Z VRB06KT 10SM FEW027 SCT034 OVC055 14/06 A3002 RMK AO2 SLP163 T01390056 $
