2025/04/23 21:53
KLAX 232153Z 26008KT 10SM FEW019 BKN026 16/11 A2998 RMK AO2 SLP150 T01610106
