2024/08/10 13:53
KLAX 101353Z 26003KT 10SM SCT008 18/17 A2989 RMK AO2 SLP120 T01830167 $
