2025/04/14 13:53
KLAX 141353Z 21005KT 4SM BR SCT009 OVC017 14/12 A2997 RMK AO2 SLP148 T01390117 $
