2025/08/20 05:53
KLAX 200553Z 18004KT 10SM CLR 21/17 A2997 RMK SLP148 T02110172 10239 20206 50003 
