2023/08/25 11:53
KLAX 251153Z 13005KT 9SM FEW005 BKN007 18/17 A2994 RMK AO2 SLP135 T01780167 10183 20178 56004
