2024/04/01 07:53
KLAX 010753Z VRB03KT 10SM FEW012 SCT050 SCT090 13/09 A2983 RMK AO2 SLP100 T01280089 401670094
