2023/11/17 23:53
KLAX 172353Z 24007KT 10SM FEW011 SCT045 SCT200 18/15 A2994 RMK AO2 SLP137 T01830150 10222 20183 55010 $
