2022/12/21 11:53
KLAX 211153Z 00000KT 10SM CLR 09/05 A3012 RMK AO2 SLP198 T00940050 10133 20078 58007
