2025/11/30 13:53
KLAX 301353Z 09004KT 1/2SM R25L/P6000FT FG OVC002 13/13 A3000 RMK AO2 SLP158 VIS W 1/4 T01280128 $
