2024/02/26 21:53
KLAX 262153Z 26003KT 10SM SCT025 SCT065 OVC080 17/11 A2996 RMK AO2 SLP145 T01670106 $
