2025/07/19 13:53
KLAX 191353Z 16004KT 10SM OVC015 19/16 A3000 RMK AO2 SLP157 T01940156 $
