2024/04/08 17:53
KLAX 081753Z 23008KT 10SM FEW010 16/08 A2999 RMK AO2 SLP154 T01560083 10161 20083 51005 $
