2023/12/01 03:53
KLAX 010353Z 32004KT 10SM FEW060 16/13 A2992 RMK AO2 SLP130 T01560128
