2025/11/02 07:53
KLAX 020753Z 30003KT 4SM BR OVC008 16/14 A3006 RMK AO2 SLP179 VIS W 2 T01610144 401940156 $
