2025/10/21 11:53
KLAX 211153Z 27003KT 6SM BR FEW002 SCT004 17/16 A3003 RMK AO2 SLP167 T01670156 10183 20156 56008
