2024/01/03 19:53
KLAX 031953Z 26013KT 10SM FEW008 FEW032 SCT090 SCT250 15/08 A3005 RMK AO2 SLP174 T01500083
