2025/10/30 11:53
KLAX 301153Z 08004KT 10SM CLR 16/11 A2993 RMK AO2 SLP130 T01560106 10217 20156 55001 $
