2024/08/05 17:53
KLAX 051753Z 26010KT 10SM FEW070 FEW160 SCT200 23/17 A2990 RMK AO2 SLP123 T02330167 10244 20178 53003 $
