2023/02/02 17:53
KLAX 021753Z 10005KT 10SM FEW140 SCT180 BKN250 14/00 A3035 RMK AO2 SLP278 T01440000 10144 20067 53024 $
