2025/06/23 07:53
KLAX 230753Z 00000KT 10SM FEW010 17/14 A2990 RMK AO2 SLP123 T01720144 402330150
