2023/02/22 17:53
KLAX 221753Z 27018KT 10SM FEW035 FEW080 12/M01 A2986 RMK AO2 SLP110 T01221006 10122 20089 51028
