2025/11/05 21:53
KLAX 052153Z 25010KT 10SM FEW032 FEW045 SCT140 BKN160 20/10 A3017 RMK AO2 SLP213 T02000100 $
