2025/05/29 09:53
KLAX 290953Z 29003KT 10SM OVC020 17/13 A2995 RMK AO2 SLP140 T01670133 $
