2026/03/13 13:53
KLAX 131353Z 09005KT 10SM FEW250 17/05 A2997 RMK AO2 SLP146 T01720050 $
