2023/06/20 17:53
KLAX 201753Z 27010KT 10SM FEW025 FEW036 21/13 A3000 RMK AO2 SLP159 T02060133 10206 20161 50001
