2025/02/02 07:53
KLAX 020753Z 09003KT 7SM OVC005 14/14 A3011 RMK AO2 SLP194 T01440139 401890089 $
