2024/09/03 17:53
KLAX 031753Z 27007KT 5SM HZ SCT012 24/19 A2993 RMK AO2 SLP134 T02390189 10244 20194 50002 $
