2023/07/17 17:53
KLAX 171753Z 27005KT 7SM FEW009 SCT120 BKN150 23/17 A2997 RMK AO2 SLP146 T02330172 10233 20178 51018 $
