2023/06/09 05:53
KLAX 090553Z 24011KT 10SM FEW009 FEW012 16/14 A3004 RMK AO2 SLP170 T01610139 10194 20161 53008
