2023/07/23 09:53
KLAX 230953Z 24004KT 9SM SCT010 18/17 A2986 RMK AO2 SLP109 T01830172
