2022/12/01 19:53
KLAX 011953Z VRB04KT 9SM FEW019 BKN035 BKN044 15/08 A3005 RMK AO2 SLP175 T01500083 $
