2023/11/23 23:53
KLAX 232353Z 14006KT 10SM FEW008 19/12 A2977 RMK AO2 SLP082 T01940117 10211 20194 55005
