2022/12/16 19:53
KLAX 161953Z 19004KT 10SM SCT160 BKN180 BKN250 18/M01 A3011 RMK AO2 SLP196 T01831011 $
