2025/04/21 13:53
KLAX 211353Z 26005KT 7SM FEW008 BKN013 BKN250 13/12 A2999 RMK AO2 SLP156 T01330117 $
