2025/03/21 01:53
KLAX 210153Z 26010KT 10SM FEW200 SCT250 14/08 A3004 RMK AO2 SLP172 T01440083 $
