2024/04/01 23:53
KLAX 012353Z 26015KT 10SM FEW020 FEW090 16/11 A3002 RMK AO2 PK WND 27027/2327 SLP164 T01610106 10172 20161 56002
