2024/12/21 23:53
KLAX 212353Z 25009KT 10SM FEW008 SCT220 SCT270 16/12 A3013 RMK AO2 SLP202 T01560117 10167 20117 56010
