2026/06/23 15:53
KLAX 231553Z 24004KT 7SM FEW009 OVC017 19/15 A3005 RMK AO2 SLP173 T01890150 $
