2023/02/01 17:53
KLAX 011753Z VRB03KT 10SM CLR 16/M04 A3018 RMK AO2 SLP218 T01561039 10156 20050 53015 $
