2024/04/13 05:53
KLAX 130553Z 17006KT 10SM OVC039 14/09 A3001 RMK AO2 SLP161 T01440094 10156 20144 51011 $
