2022/11/16 03:53
KLAX 160353Z VRB03KT 10SM CLR 15/08 A3014 RMK AO2 SLP206 T01500083
