2025/08/11 17:53
KLAX 111753Z 24007KT 10SM FEW007 23/17 A2996 RMK AO2 SLP144 T02280167 10228 20178 50001 $
