2023/06/21 23:53
KLAX 212353Z 24012KT 10SM FEW020 FEW250 21/14 A2994 RMK AO2 SLP137 T02060139 10222 20200 58009
