2024/11/15 21:53
KLAX 152153Z 28024G32KT 10SM FEW010 FEW025 SCT050 17/08 A2984 RMK AO2 PK WND 28033/2131 SLP105 T01670078
