2026/03/02 11:53
KLAX 021153Z 06003KT 10SM FEW008 FEW180 BKN250 14/13 A2995 RMK AO2 SLP139 T01390128 10183 20139 58009
