2026/02/27 02:53
KLAX 270253Z 00000KT 10SM FEW250 19/14 A2996 RMK AO2 SLP143 T01890139 55000
