2024/01/22 11:53
KLAX 221153Z 08011KT 3SM -RA BR FEW005 BKN007 OVC012 13/13 A2981 RMK AO2 RAB24 SLP092 VIS W-NW 2 1/2 P0002 60003 70007 T01280128 10150 20128 56022 $
