2023/09/29 09:53
KLAX 290953Z 06004KT 10SM FEW010 OVC018 19/14 A2984 RMK AO2 SLP101 T01890144 $
