2023/03/14 15:53
KLAX 141553Z 25005KT 3SM BR OVC009 13/12 A3006 RMK AO2 CIG 007V013 SLP179 T01330122 $
