2023/04/23 17:53
KLAX 231753Z 24008KT 10SM FEW220 19/13 A2984 RMK AO2 SLP103 T01940133 10206 20144 51007
