2024/07/07 09:53
KLAX 070953Z 13003KT 8SM FEW005 BKN009 19/17 A2989 RMK AO2 SLP118 T01890167 $
