2023/03/11 19:53
KLAX 111953Z VRB03KT 3SM BR BKN006 OVC009 16/15 A3008 RMK AO2 SLP185 T01610150
