2025/11/17 12:53
KLAX 171253Z 06006KT 8SM -RA SCT007 BKN021 OVC045 14/13 A2995 RMK AO2 RAB29 SLP140 P0002 T01390128 $
