2022/12/03 17:53
KLAX 031753Z 00000KT 10SM FEW010 FEW060 SCT180 SCT300 18/13 A3012 RMK AO2 SLP197 T01780128 10178 20117 51010
