2023/04/22 13:53
KLAX 221353Z 09004KT 10SM FEW220 SCT280 15/12 A2990 RMK AO2 SLP123 T01500122
