2024/12/14 15:53
KLAX 141553Z 12004KT 10SM BKN150 11/07 A3020 RMK AO2 SLP224 T01110072
