2026/01/03 17:53
KLAX 031753Z 09010KT 10SM FEW008 SCT042 OVC055 17/15 A3006 RMK AO2 SLP178 T01670150 10167 20133 53006 $
