2023/06/13 07:53
KLAX 130753Z 25009KT 10SM FEW014 16/14 A3004 RMK AO2 SLP170 T01560139 402110156
