2024/07/04 21:53
KLAX 042153Z 25010KT 10SM FEW014 21/16 A2994 RMK AO2 SLP138 T02110156
