2026/04/12 02:53
KLAX 120253Z 24007KT 10SM FEW018 SCT030 SCT050 17/12 A2996 RMK AO2 SLP144 T01670122 $
