2023/02/15 19:53
KLAX 151953Z 03004KT 10SM CLR 17/M08 A3016 RMK AO2 SLP213 T01671083 $
