2024/09/25 15:53
KLAX 251553Z 27003KT 4SM BR OVC008 17/15 A2988 RMK AO2 SLP117 T01720150 $
