2025/12/20 17:53
KLAX 201753Z 00000KT 3SM HZ OVC012 16/12 A3010 RMK AO2 SLP192 VIS SW-W 2 T01560117 10156 20139 51011
