2025/02/12 23:53
KLAX 122353Z 07009KT 3SM -RA BR SCT006 OVC012 12/11 A2990 RMK AO2 RAB16 SLP126 P0001 60007 T01170111 10122 20106 55003 $
