2023/02/28 23:53
KLAX 282353Z 24014KT 10SM FEW045 SCT100 12/07 A3000 RMK AO2 SLP157 T01220067 10139 20117 56021
