2024/09/08 13:53
KLAX 081353Z 26005KT 10SM FEW045 SCT120 SCT180 22/20 A2977 RMK AO2 SLP077 FU FEW045 T02220200
