2025/04/25 01:53
KLAX 250153Z 26009KT 10SM FEW018 FEW250 14/10 A2993 RMK AO2 SLP135 T01440100
