2022/09/16 05:53
KLAX 160553Z 17004KT 10SM CLR 22/17 A2992 RMK AO2 SLP128 T02170167 10233 20217 51003 $
