2023/05/03 15:53
KLAX 031553Z 00000KT 10SM FEW019 FEW050 SCT070 14/07 A2992 RMK AO2 SLP129 T01440067
