2025/04/23 05:53
KLAX 230553Z 24006KT 10SM BKN016 13/10 A2996 RMK AO2 SLP143 T01330100 10161 20133 51011
