2024/04/22 01:53
KLAX 220153Z 23006KT 4SM BR OVC004 14/13 A2992 RMK AO2 SLP131 VIS W 2 T01390128 $
