2026/04/23 17:53
KLAX 231753Z 32003KT 10SM FEW019 SCT240 SCT280 19/10 A3001 RMK AO2 SLP160 T01940100 10206 20122 58003 $
