2022/10/03 03:53
KLAX 030353Z 26010KT 10SM FEW015 19/15 A2995 RMK AO2 SLP138 T01940150
