2025/04/12 03:53
KLAX 120353Z 26006KT 10SM FEW200 FEW240 SCT280 16/14 A2995 RMK AO2 SLP140 T01610139
