2025/07/28 14:11
KLAX 281411Z 13005KT 8SM OVC015 18/14 A3005 RMK AO2 T01830144
