2025/05/13 03:53
KLAX 130353Z 25012KT 10SM FEW020 FEW250 16/12 A2992 RMK AO2 SLP131 T01560122 $
