2024/01/04 19:53
KLAX 041953Z VRB06G16KT 10SM FEW070 SCT160 BKN180 16/03 A3015 RMK AO2 SLP210 T01560028
