2023/07/28 07:53
KLAX 280753Z 11004KT 10SM FEW012 21/18 A2991 RMK AO2 SLP124 T02060183 402670194 $
