2025/04/30 15:53
KLAX 301553Z 10005KT 6SM HZ FEW009 OVC014 15/12 A3004 RMK AO2 SLP171 T01500117
