2024/09/04 21:53
KLAX 042153Z 25014KT 10SM FEW100 25/16 A2989 RMK AO2 SLP120 T02500161
