2023/12/11 03:53
KLAX 110353Z 26003KT 10SM FEW250 16/12 A3005 RMK AO2 SLP176 T01560117 $
