2023/02/03 03:53
KLAX 030353Z 24005KT 10SM SCT200 BKN250 13/07 A3027 RMK AO2 SLP250 T01330072 $
