2022/11/30 15:53
KLAX 301553Z 07006KT 8SM FEW019 SCT026 BKN034 13/09 A3004 RMK AO2 SLP170 SCT V BKN T01330089
