2025/07/02 03:53
KLAX 020353Z 25008KT 10SM OVC008 17/14 A2983 RMK AO2 SLP100 T01670144
