2024/04/23 07:53
KLAX 230753Z 00000KT 10SM FEW006 BKN011 OVC014 15/12 A2995 RMK AO2 SLP142 T01500122 401610139
