2025/02/27 07:53
KLAX 270753Z 00000KT 9SM FEW001 FEW008 12/11 A3001 RMK AO2 SLP159 VIS NW 2 1/2 T01220106 401830111
