2026/05/04 09:53
KLAX 040953Z 25007KT 10SM FEW015 BKN055 BKN150 14/11 A2996 RMK AO2 SLP144 T01440111
