2024/03/26 09:53
KLAX 260953Z 08005KT 10SM FEW015 FEW020 SCT200 11/09 A2999 RMK AO2 SLP153 T01060089
