2023/03/28 07:53
KLAX 280753Z 36007KT 290V020 10SM BKN250 15/00 A3010 RMK AO2 SLP190 T01500000 402220083 $
