2026/05/22 19:53
KLAX 221953Z 26011G16KT 8SM SCT021 19/13 A2988 RMK AO2 SLP117 T01890128
