2025/01/26 12:53
KLAX 261253Z 13004KT 10SM SCT035 BKN080 10/07 A2999 RMK AO2 SLP154 T01000072
