2022/11/13 07:53
KLAX 130753Z 31005KT 10SM FEW015 14/11 A3001 RMK AO2 SLP159 T01390106 402000094 $
