2024/10/08 03:53
KLAX 080353Z 27009KT 1/2SM R25L/P6000FT FG OVC002 16/16 A2986 RMK AO2 SLP109 T01610156
