2024/06/09 17:53
KLAX 091753Z 27007KT 10SM FEW009 SCT016 OVC023 18/14 A2998 RMK AO2 SLP150 T01830139 10183 20161 51008 $
