2025/06/09 19:53
KLAX 091953Z 26008KT 8SM OVC019 19/14 A2995 RMK AO2 SLP140 T01940144 $
