2025/11/21 11:53
KLAX 211153Z 04009KT 9SM -RA FEW007 BKN012 OVC028 12/11 A2981 RMK AO2 RAB53 SLP093 P0000 60082 70167 T01220111 10128 20117 57003 $
