2024/12/06 21:53
KLAX 062153Z 27005KT 6SM BR FEW000 SCT006 16/11 A3004 RMK AO2 SLP171 FG FEW000 T01560106
