2022/09/11 02:53
KLAX 110253Z 15005KT 10SM SCT029 BKN038 BKN120 25/21 A2988 RMK AO2 SLP115 60000 T02500206 53006 $
