2022/12/08 11:53
KLAX 081153Z 00000KT 10SM FEW008 FEW200 09/06 A3028 RMK AO2 SLP251 T00890056 10122 20083 58005
