2025/10/23 01:53
KLAX 230153Z 26017KT 10SM FEW040 18/13 A3000 RMK AO2 SLP158 T01830133
