2023/11/15 09:53
KLAX 150953Z 06005KT 10SM FEW120 BKN150 BKN220 14/06 A2992 RMK AO2 PRESFR SLP129 T01440061
