2022/11/16 17:53
KLAX 161753Z 21006KT 10SM CLR 21/M09 A3027 RMK AO2 SLP249 T02061089 10206 20089 51016
