2025/03/31 11:53
KLAX 311153Z 07008KT 3SM BR FEW002 OVC005 13/12 A3007 RMK AO2 DZE01B20E50 SLP183 VIS SW-N 2 P0000 60003 70005 T01280122 10133 20128 58010 $
