2022/10/27 01:53
KLAX 270153Z 23004KT 10SM CLR 17/12 A2991 RMK AO2 SLP127 T01720122
