2023/12/08 05:53
KLAX 080553Z 32007KT 10SM CLR 17/M07 A3004 RMK AO2 SLP172 T01671067 10172 20156 51007
