2024/10/11 21:53
KLAX 112153Z 27010KT 4SM HZ FEW005 SCT250 BKN300 19/15 A3001 RMK AO2 SLP162 VIS SW-W 2 1/2SM T01940150 $
