2026/07/03 09:53
KLAX 030953Z 22003KT 10SM FEW011 17/15 A2994 RMK AO2 SLP135 T01720150 $
