2025/03/06 17:53
KLAX 061753Z 25020G29KT 10SM FEW025 FEW050 SCT140 13/06 A2992 RMK AO2 PK WND 24029/1751 SLP131 T01280056 10128 20100 51013
