2024/07/23 07:53
KLAX 230753Z 34003KT 10SM FEW001 FEW008 SCT220 19/16 A2987 RMK AO2 SLP110 T01940156 402440183 $
