2023/11/14 01:53
KLAX 140153Z 24004KT 10SM CLR 17/13 A2997 RMK AO2 SLP148 T01670133
