2024/04/02 17:53
KLAX 021753Z 14004KT 10SM CLR 19/11 A3026 RMK AO2 SLP246 T01940106 10194 20106 51013
