2023/01/16 03:53
KLAX 160353Z 07005KT 10SM -RA BKN021 BKN045 OVC060 12/10 A2983 RMK AO2 SLP099 P0003 T01170100 $
