2023/06/13 11:53
KLAX 131153Z 28009KT 10SM FEW008 BKN021 BKN032 16/13 A3003 RMK AO2 SLP167 T01560133 10161 20156 55003
