2024/02/24 03:53
KLAX 240353Z 26008KT 10SM BKN220 16/12 A3002 RMK AO2 SLP164 T01610117
