2023/11/22 09:53
KLAX 220953Z 01006KT 10SM FEW200 SCT250 17/M02 A3016 RMK AO2 SLP211 T01671017
