2025/03/04 09:53
KLAX 040953Z 09006KT 10SM FEW012 FEW180 SCT240 10/09 A3017 RMK AO2 SLP215 T01000089 $
