2024/02/25 15:53
KLAX 251553Z 32003KT 10SM FEW005 FEW170 BKN230 14/11 A3005 RMK AO2 SLP175 T01390106 $
