2022/10/16 03:53
KLAX 160353Z 26009KT 10SM SCT034 OVC046 19/16 A2991 RMK AO2 LTG DSNT SE SLP127 T01940156 $
