2023/12/31 13:53
KLAX 311353Z 11004KT 10SM BKN027 BKN036 12/10 A3010 RMK AO2 SLP193 T01170100
