2022/10/21 19:53
KLAX 211953Z 27010KT 10SM FEW012 FEW090 SCT220 24/18 A2990 RMK AO2 SLP125 T02440178 $
