2022/08/25 17:53
KLAX 251753Z 26008KT 9SM FEW045 25/19 A2999 RMK AO2 SLP152 T02500189 10256 20206 51009 $
