2025/11/22 01:53
KLAX 220153Z 26007KT 10SM FEW015 SCT038 BKN120 BKN190 17/11 A2996 RMK AO2 SLP143 T01670111 $
