2026/03/06 02:53
KLAX 060253Z 34008KT 10SM FEW250 19/M03 A2993 RMK AO2 SLP134 T01941033 53014
