2024/09/20 17:53
KLAX 201753Z 25008KT 10SM FEW025 SCT050 BKN120 21/14 A2991 RMK AO2 SLP128 T02110144 10211 20172 50001
