2024/09/05 09:53
KLAX 050953Z 00000KT 10SM CLR 23/17 A2989 RMK AO2 SLP117 T02280172
