2022/11/24 09:53
KLAX 240953Z 00000KT 10SM CLR 11/09 A3009 RMK AO2 SLP187 T01110089
