2025/12/08 17:53
KLAX 081753Z 00000KT 10SM FEW010 20/08 A3016 RMK AO2 SLP213 T02000083 10200 20117 51008 $
