2023/12/14 11:53
KLAX 141153Z 10003KT 10SM FEW006 FEW009 SCT011 SCT280 10/07 A3011 RMK AO2 SLP196 FU FEW009 T01000072 10144 20100 53005
