2024/01/03 21:53
KLAX 032153Z 28018G27KT 10SM FEW009 FEW040 SCT180 16/09 A3000 RMK AO2 PK WND 27027/2109 SLP158 T01610089
