2022/09/27 15:53
KLAX 271553Z VRB04KT 10SM FEW010 FEW140 SCT160 24/18 A2989 RMK AO2 SLP117 T02390178
