2023/05/10 01:53
KLAX 100153Z 25015KT 10SM FEW025 FEW039 SCT150 BKN250 15/11 A2996 RMK AO2 SLP143 T01500106
