2023/04/22 05:53
KLAX 220553Z 23004KT 10SM CLR 19/08 A2995 RMK AO2 SLP139 T01890083 10228 20183 58006
