2025/08/31 09:53
KLAX 310953Z 24004KT 8SM FEW008 21/19 A2990 RMK AO2 SLP121 T02060189 $
