2023/05/19 03:53
KLAX 190353Z 26007KT 10SM BKN014 16/13 A2995 RMK AO2 SLP139 T01560128
