2025/03/30 05:53
KLAX 300553Z 25003KT 10SM FEW040 13/10 A3003 RMK AO2 SLP167 T01280100 10161 20128 51012 $
