2025/10/20 13:53
KLAX 201353Z 06004KT 9SM FEW005 FEW011 15/12 A3004 RMK AO2 SLP171 T01500122
