2026/01/09 11:53
KLAX 091153Z 19004KT 10SM CLR 11/M03 A3024 RMK AO2 SLP238 T01061028 10128 20083 51011 $
