2024/08/10 01:53
KLAX 100153Z 24011KT 10SM BKN007 19/16 A2984 RMK AO2 SLP102 T01890161 $
