2022/10/13 13:53
KLAX 131353Z 25005KT 7SM FEW009 OVC011 19/17 A3001 RMK AO2 SLP160 T01890167
