2025/03/03 11:53
KLAX 031153Z 34004KT 10SM FEW050 FEW200 10/03 A3002 RMK AO2 SLP162 T01000033 10128 20100 55000 $
