2025/03/04 13:53
KLAX 041353Z 08005KT 10SM FEW020 SCT028 SCT250 11/08 A3021 RMK AO2 SLP230 T01110078 $
