2025/07/29 16:53
KLAX 291653Z VRB05KT 7SM FEW009 SCT015 21/16 A3008 RMK AO2 SLP185 T02110156
