2023/11/02 19:53
KLAX 021953Z 26009KT 10SM FEW250 24/06 A3006 RMK AO2 SLP178 T02390061 $
