2025/07/29 09:53
KLAX 290953Z 00000KT 10SM FEW009 BKN014 17/16 A3003 RMK AO2 SLP167 T01720156
