2024/06/02 21:53
KLAX 022153Z 28009G19KT 10SM FEW022 OVC031 19/13 A2993 RMK AO2 SLP133 T01890128
