2024/10/05 11:53
KLAX 051153Z 00000KT 2SM BR OVC003 18/17 A2994 RMK AO2 SLP135 T01780167 10183 20178 56005
