2025/12/18 13:53
KLAX 181353Z 11005KT 1/8SM R25L/1000V1400FT FG VV001 12/12 A2996 RMK AO2 SLP143 T01220122 $
