2025/03/21 07:53
KLAX 210753Z 10004KT 10SM FEW250 12/09 A3004 RMK AO2 SLP172 T01170094 401940106 $
