2023/12/30 05:53
KLAX 300553Z 17004KT 9SM BKN014 BKN020 OVC027 14/12 A3011 RMK AO2 SLP195 T01390117 10150 20139 53009 $
