2023/12/18 11:53
KLAX 181153Z 07005KT 10SM FEW016 BKN150 BKN200 15/13 A2995 RMK AO2 SLP139 T01500128 10189 20144 58010 $
