2022/12/16 23:53
KLAX 162353Z 30003KT 10SM SCT180 BKN250 20/M02 A3005 RMK AO2 SLP176 T02001017 10206 20161 56012 $
