2024/06/28 09:53
KLAX 280953Z 34003KT 10SM FEW015 18/15 A2979 RMK AO2 SLP084 T01780150
