2022/12/08 07:53
KLAX 080753Z VRB03KT 10SM FEW008 FEW014 SCT180 11/07 A3029 RMK AO2 SLP255 T01110067 401560072
