2024/06/25 15:53
KLAX 251553Z VRB03KT 8SM FEW140 FEW190 22/17 A2995 RMK AO2 SLP138 T02220167
