2024/11/25 05:53
KLAX 250553Z 27007KT 10SM FEW010 FEW150 SCT250 13/11 A3012 RMK AO2 SLP198 T01330111 10144 20128 51007
