2023/11/08 21:53
KLAX 082153Z 23011KT 10SM CLR 22/06 A3002 RMK AO2 SLP164 T02170056
