2024/11/12 17:53
KLAX 121753Z 04008G20KT 10SM FEW025 FEW080 20/01 A3009 RMK AO2 PK WND 36027/1726 SLP190 T02000006 10200 20139 51017
