2022/11/09 01:53
KLAX 090153Z 25011KT 10SM OVC060 13/09 A2985 RMK AO2 RAE0057 SLP105 P0000 T01280094
