2023/11/29 19:53
KLAX 291953Z 27007KT 10SM FEW030 SCT050 BKN070 18/09 A2999 RMK AO2 SLP154 T01780094
