2022/10/10 05:59
KLAX 100559Z 24007KT 10SM FEW011 18/16 A3001 RMK AO2 T01830161 $
