2022/12/26 07:53
KLAX 260753Z 00000KT 10SM CLR 17/07 A3013 RMK AO2 SLP200 T01670072 402830122 $
