2025/11/16 05:53
KLAX 160553Z 21007G16KT 6SM -RA BR FEW009 SCT014 OVC029 16/13 A2989 RMK AO2 RAE02B13 SLP120 P0006 60011 T01560133 10161 20144 51017 $
