2023/05/07 21:53
KLAX 072153Z 25012KT 210V280 10SM FEW038 19/11 A3008 RMK AO2 SLP183 T01890106
