2024/02/02 13:53
KLAX 021353Z 35004KT 10SM FEW011 FEW025 SCT070 11/09 A2986 RMK AO2 SLP110 T01110089 $
