2026/05/26 02:53
KLAX 260253Z 24010KT 10SM FEW020 FEW250 17/12 A2989 RMK AO2 SLP121 T01670117 55004 $
