2022/08/23 21:53
KLAX 232153Z 26011KT 8SM FEW010 SCT110 23/18 A2977 RMK AO2 SLP080 T02280178 $
