2023/06/13 19:53
KLAX 131953Z 26010G17KT 10SM FEW010 SCT022 BKN036 20/13 A3004 RMK AO2 SLP172 T02000128
