2025/03/24 17:53
KLAX 241753Z 25008KT 8SM FEW007 19/13 A3006 RMK AO2 SLP177 T01940128 10194 20122 58002 $
