2026/06/25 10:53
KLAX 251053Z 28003KT 10SM FEW009 OVC011 17/14 A2993 RMK AO2 SLP133 T01720144 $
