2026/04/24 17:53
KLAX 241753Z 16006KT 10SM FEW016 SCT140 22/11 A2993 RMK AO2 SLP133 T02170111 10217 20139 58001 $
