2025/11/20 09:53
KLAX 200953Z 00000KT 10SM FEW016 SCT035 SCT250 12/09 A3005 RMK AO2 SLP173 T01220089 $
