2025/11/03 05:53
KLAX 030553Z 34003KT 7SM BKN010 16/14 A3005 RMK AO2 SLP175 T01610139 10172 20161 50009 $
