2025/09/20 09:53
KLAX 200953Z 24005KT 9SM BKN008 20/18 A2994 RMK AO2 SLP136 T02000183
