2025/12/30 03:53
KLAX 300353Z 33004KT 10SM FEW250 17/M04 A3012 RMK AO2 SLP201 T01671044 $
