2024/04/01 11:53
KLAX 011153Z 33004KT 10SM FEW012 FEW050 SCT090 SCT140 12/08 A2985 RMK AO2 SLP108 70001 T01220083 10133 20117 53006
