2023/02/23 09:53
KLAX 230953Z 26009KT 10SM FEW020 BKN045 OVC070 08/03 A2996 RMK AO2 LTG DSNT E RAE47 SLP144 P0000 T00830033
