2024/07/08 11:53
KLAX 081153Z 25003KT 1/4SM R25L/P6000FT FG VV002 17/16 A2985 RMK AO2 SLP106 T01670161 10178 20161 55002 $
