2023/02/14 09:53
KLAX 140953Z 27011KT 10SM FEW011 SCT015 BKN028 13/09 A2998 RMK AO2 SLP151 T01330094 $
