2023/08/17 09:53
KLAX 170953Z 21004KT 8SM FEW003 SCT007 18/17 A2985 RMK AO2 SLP106 T01830172
