2022/08/29 07:53
KLAX 290753Z 26006KT 10SM FEW010 SCT110 19/16 A2986 RMK AO2 SLP110 T01890161 402440189 $
