2025/03/01 09:53
KLAX 010953Z 23006KT 10SM SCT016 OVC150 13/12 A2994 RMK AO2 SLP138 T01330117 $
