2025/01/03 05:53
KLAX 030553Z 09004KT 8SM FEW250 12/09 A3008 RMK AO2 SLP186 T01170094 10139 20111 51012
