2024/11/16 05:53
KLAX 160553Z 29009KT 10SM FEW070 14/01 A2990 RMK AO2 SLP123 T01390006 10150 20133 53011
