2023/05/23 09:53
KLAX 230953Z 00000KT 3SM -DZ BR FEW002 OVC005 14/14 A2995 RMK AO2 SLP139 P0000 T01440144
