2026/06/09 02:53
KLAX 090253Z 27011KT 10SM FEW012 FEW250 17/14 A2991 RMK AO2 SLP124 T01720139 53003 $
