2025/01/23 15:53
KLAX 231553Z 00000KT 10SM FEW280 12/M07 A3028 RMK AO2 SLP253 T01171067
