2023/12/10 11:53
KLAX 101153Z 05005KT 10SM CLR 11/M10 A3019 RMK AO2 SLP220 T01111100 10161 20111 56009 $
