2022/08/21 17:53
KLAX 211753Z 09006KT 10SM OVC019 23/17 A3007 RMK AO2 SLP180 T02280172 10228 20206 51013
