2025/10/09 05:53
KLAX 090553Z 23006KT 10SM CLR 18/14 A2991 RMK AO2 SLP125 T01780139 10200 20178 51006 $
