2023/10/02 11:53
KLAX 021153Z 06003KT 10SM FEW012 FEW200 13/11 A2996 RMK AO2 SLP143 T01280106 10172 20128 53002 $
