2023/08/21 05:53
KLAX 210553Z 23009KT 9SM FEW003 SCT018 BKN024 OVC150 20/19 A2976 RMK AO2 SLP074 PRESRR 60047 T02000189 10233 20194 51047 $
