2025/09/29 15:53
KLAX 291553Z 26007KT 8SM FEW009 SCT017 SCT029 21/17 A3001 RMK AO2 SLP160 T02060167 $
