2025/08/17 23:53
KLAX 172353Z 26016G25KT 10SM FEW014 23/17 A2992 RMK AO2 SLP130 T02280172 10244 20222 56018 $
