2024/01/28 17:53
KLAX 281753Z 00000KT 10SM FEW260 SCT300 23/06 A3013 RMK AO2 SLP202 T02280061 10228 20106 51012 $
