2025/01/08 23:53
KLAX 082353Z 01009G20KT 9SM FEW004 BKN030 BKN200 22/03 A3006 RMK AO2 SLP176 FU FEW004 FU BKN030 FU PLUMES NW-NE T02220033 10228 20178 55005
