2023/10/04 23:53
KLAX 042353Z 26013KT 10SM CLR 23/14 A2985 RMK AO2 SLP108 T02330139 10272 20233 56010
