2023/09/30 07:53
KLAX 300753Z 25005KT 10SM BKN017 BKN023 OVC038 18/16 A2985 RMK AO2 SLP106 T01830156 402110183 $
