2026/01/05 19:53
KLAX 051953Z 09005KT 8SM SCT017 BKN025 BKN060 16/12 A3008 RMK AO2 SLP186 BKN025 V SCT T01610117 $
