2024/06/01 11:53
KLAX 011153Z 29004KT 9SM OVC009 14/13 A2991 RMK AO2 SLP127 T01440128 10156 20144 53002
