2025/07/24 05:53
KLAX 240553Z 23005KT 10SM FEW011 18/16 A3004 RMK AO2 SLP170 T01830156 10211 20178 50004 $
