2024/11/07 02:17
KLAX 070217Z 04007KT 10SM 21/M14 A2996 RMK AO2 T02061144 CHINO RWY24 $
