2025/02/21 01:53
KLAX 210153Z 25005KT 10SM CLR 15/11 A2994 RMK AO2 SLP136 T01500111
