2026/07/22 10:08
KLAX 221008Z 26008KT 5SM BR FEW003 OVC005 21/19 A2997 RMK AO2 T02110194
