2024/11/22 09:53
KLAX 220953Z 00000KT 10SM FEW250 10/08 A3007 RMK AO2 SLP181 T01000083 $
