2024/10/30 11:53
KLAX 301153Z 05005KT 10SM FEW011 FEW020 SCT200 13/09 A3006 RMK AO2 SLP176 T01330089 10167 20122 53004 $
