2023/09/01 23:53
KLAX 012353Z 23010KT 10SM FEW015 SCT055 BKN085 BKN200 23/18 A2987 RMK AO2 SLP112 T02280178 10272 20228 55003
