2025/12/15 18:02
KLAX 151802Z 00000KT 2 1/2SM BR FEW004 SCT007 15/12 A3016 RMK AO2 SCT V BKN T01500122
