2025/03/17 13:53
KLAX 171353Z 06003KT 6SM BR BKN007 OVC150 12/11 A3008 RMK AO2 SLP185 T01170106 $
