2023/08/31 21:53
KLAX 312153Z 26011KT 10SM FEW009 FEW110 24/18 A2981 RMK AO2 SLP094 T02390178 $
