2022/12/18 01:53
KLAX 180153Z 30006KT 10SM BKN250 15/03 A2997 RMK AO2 SLP147 T01500033 $
