2025/12/29 03:53
KLAX 290353Z 00000KT 10SM FEW250 15/09 A3011 RMK AO2 SLP197 T01500089 $
