2024/07/28 12:53
KLAX 281253Z 33003KT 10SM FEW009 17/14 A2991 RMK AO2 SLP125 T01670139
