2022/09/18 23:53
KLAX 182353Z 24013KT 10SM FEW020 FEW030 22/15 A2980 RMK AO2 SLP089 T02170150 10233 20211 56008
