2025/11/30 17:53
KLAX 301753Z 06003KT 2SM HZ FEW008 FEW014 OVC019 16/12 A3001 RMK AO2 SLP161 VIS SW-W 1 1/4 T01560122 10156 20128 51001 $
