2024/11/12 21:53
KLAX 122153Z 21009KT 10SM SCT270 20/06 A3002 RMK AO2 SLP166 T02000061
