2025/06/17 21:53
KLAX 172153Z 26010G17KT 10SM CLR 23/12 A2982 RMK AO2 SLP095 T02330117
