2025/12/13 23:53
KLAX 132353Z 27007KT 9SM BKN010 BKN250 15/13 A2999 RMK AO2 SLP156 VIS S 3 T01500128 10161 20144 56004 $
