2025/03/01 11:53
KLAX 011153Z 26005KT 10SM BKN018 OVC130 14/11 A2994 RMK AO2 SLP136 T01390111 10139 20133 56002 $
