2025/03/03 03:53
KLAX 030353Z 27015G26KT 10SM FEW024 FEW049 SCT160 13/08 A3003 RMK AO2 PK WND 27030/0256 SLP167 T01330078 $
