2025/06/20 21:53
KLAX 202153Z 26012KT 10SM FEW014 22/14 A2985 RMK AO2 SLP174 T02170139 $
