2023/07/17 07:53
KLAX 170753Z 25006KT 10SM FEW005 SCT150 BKN220 19/17 A2990 RMK AO2 SLP121 T01890172 402390178
