2024/07/06 17:53
KLAX 061753Z 12009G14KT 7SM OVC009 21/18 A2988 RMK AO2 CIG 007V011 SLP116 T02110183 10211 20189 53012
