2022/10/02 13:53
KLAX 021353Z 00000KT 10SM OVC023 20/14 A2993 RMK AO2 SLP133 T02000144
