2022/12/10 23:59
KLAX 102359Z 23007KT 10SM FEW023 BKN030 OVC050 16/11 A3007 RMK AO2 T01560106 $
