2025/08/15 19:53
KLAX 151953Z 25012KT 9SM SCT029 24/15 A2997 RMK AO2 WSHFT 1853 SLP148 T02390150 $
