2022/12/14 13:53
KLAX 141353Z 03005KT 10SM CLR 08/02 A3015 RMK AO2 SLP209 T00830022 VISNO RWY24 $
