2024/02/16 17:53
KLAX 161753Z 00000KT 6SM HZ FEW010 SCT021 BKN160 16/12 A3015 RMK AO2 SLP209 T01560117 10161 20128 51006
