2024/03/18 09:53
KLAX 180953Z 00000KT 10SM FEW010 FEW150 12/11 A3005 RMK AO2 SLP173 T01220106 $
