2023/11/22 11:53
KLAX 221153Z 02005KT 10SM FEW200 FEW250 16/M02 A3015 RMK AO2 SLP205 T01611022 10200 20133 57012
