2024/02/13 15:53
KLAX 131553Z 09005KT 10SM FEW018 FEW180 SCT250 10/04 A3004 RMK AO2 SLP170 T01000044 $
