2023/11/26 15:53
KLAX 261553Z 00000KT 10SM FEW100 BKN160 BKN220 13/M02 A3008 RMK AO2 SLP184 T01281017 $
