2025/10/16 17:53
KLAX 161753Z 24005KT 10SM CLR 20/06 A2995 RMK AO2 SLP141 T02000061 10200 20122 50003 $
