2026/01/29 21:53
KLAX 292153Z 25007KT 10SM FEW250 27/M01 A3012 RMK AO2 SLP200 T02671011 $
