2023/04/05 01:53
KLAX 050153Z 28019G28KT 10SM FEW060 FEW200 BKN250 13/04 A3009 RMK AO2 PK WND 28028/0149 SLP189 T01280044 $
