2024/03/19 15:53
KLAX 191553Z 11005KT 10SM FEW100 FEW140 SCT170 16/10 A3005 RMK AO2 SLP172 ACSL DSNT E T01560100 $
