2023/03/17 17:53
KLAX 171753Z 22004KT 10SM FEW024 SCT050 BKN140 15/10 A3006 RMK AO2 SLP179 T01500100 10156 20094 51003
