2024/12/18 17:53
KLAX 181753Z 04003KT 10SM FEW180 25/01 A3015 RMK AO2 SLP207 T02500011 10250 20106 50010
