2024/11/09 11:53
KLAX 091153Z 00000KT 10SM CLR 11/01 A2999 RMK AO2 SLP155 T01110011 10156 20106 58007
