2023/11/12 13:53
KLAX 121353Z 35004KT 10SM CLR 16/M07 A3001 RMK AO2 SLP159 T01561072
