2024/10/12 07:53
KLAX 120753Z 22004KT 5SM BR OVC005 17/16 A3004 RMK AO2 SLP171 T01720161 402060150 $
