2025/03/22 15:53
KLAX 221553Z 12004KT 8SM FEW005 SCT300 14/11 A3002 RMK AO2 SLP163 T01440111 $
