2026/07/17 16:53
KLAX 171653Z VRB06KT 10SM SCT021 BKN180 24/18 A2993 RMK AO2 SLP133 T02440178 $
