2025/08/24 07:53
KLAX 240753Z 24005KT 10SM FEW180 FEW240 22/18 A2990 RMK AO2 SLP121 T02170178 403170211
