2024/10/20 21:53
KLAX 202153Z 25011KT 10SM FEW080 22/06 A3006 RMK AO2 SLP177 FU FEW080 T02220061 $
