2022/09/15 07:53
KLAX 150753Z 11007KT 10SM FEW012 21/17 A2991 RMK AO2 SLP125 T02060172 402670200 $
