2024/05/22 19:53
KLAX 221953Z 25006KT 7SM FEW023 BKN026 18/12 A2999 RMK A02 SLP153 T01830122 
