2026/01/10 21:53
KLAX 102153Z 24007KT 10SM SCT280 19/01 A3029 RMK AO2 SLP256 T01890006 $
