2023/04/29 23:53
KLAX 292353Z 26013KT 7SM OVC006 14/12 A2997 RMK AO2 SLP146 VIS W 3 T01440117 10172 20144 56012
