2025/06/04 01:53
KLAX 040153Z 26014G19KT 10SM OVC010 17/14 A2988 RMK AO2 SLP117 T01670139 $
