2023/10/13 13:53
KLAX 131353Z 24003KT 9SM FEW009 SCT015 BKN250 17/14 A2986 RMK AO2 SLP109 T01670144
