2024/06/01 07:53
KLAX 010753Z 30005KT 9SM FEW008 OVC011 16/13 A2991 RMK AO2 SLP125 T01560128 401940144
