2024/01/18 01:53
KLAX 180153Z 27006KT 10SM FEW016 SCT037 13/12 A3004 RMK AO2 SLP172 T01330117
