2023/08/21 17:53
KLAX 211753Z 11004KT 10SM BKN038 BKN060 OVC085 22/16 A3004 RMK AO2 SLP169 60004 T02220161 10222 20183 51006
