2024/02/18 13:53
KLAX 181353Z 12003KT 10SM FEW012 BKN038 OVC100 13/12 A3006 RMK AO2 SLP179 T01330117
