2024/05/06 17:53
KLAX 061753Z 26011KT 10SM FEW180 18/09 A3002 RMK AO2 SLP164 T01830094 10189 20111 55003 $
