2022/11/26 15:53
KLAX 261553Z 09004KT 10SM FEW200 13/M02 A3015 RMK AO2 SLP207 T01281017 $
