2022/12/20 13:53
KLAX 201353Z 00000KT 10SM BKN250 11/M01 A3025 RMK AO2 SLP242 CCSL OHD-N T01061011 $
