2026/05/24 07:53
KLAX 240753Z 26007KT 10SM FEW012 OVC017 16/12 A3002 RMK AO2 SLP163 T01610122 402060156
