2022/11/29 21:53
KLAX 292153Z 28011KT 9SM SCT023 BKN037 BKN050 18/11 A2995 RMK AO2 SLP141 T01780111
