2025/06/17 09:53
KLAX 170953Z 25003KT 10SM CLR 17/14 A2985 RMK AO2 SLP105 T01720139 $
