2024/11/20 19:53
KLAX 201953Z 34003KT 10SM FEW250 22/M03 A3017 RMK AO2 SLP216 T02221028 $
