2022/11/04 15:53
KLAX 041553Z 05005KT 10SM FEW250 BKN330 14/01 A3028 RMK AO2 SLP253 T01440006 VISNO RWY24 $
