2024/09/07 17:53
KLAX 071753Z 26006KT 10SM SCT180 29/18 A2981 RMK AO2 SLP091 T02890183 10289 20228 58002
