2025/12/16 11:53
KLAX 161153Z 08005KT 1/8SM R25L/1200V1800FT FG VV001 12/11 A3006 RMK AO2 SLP178 T01170111 10150 20117 58003
