2023/01/07 17:53
KLAX 071753Z 06006KT 10SM BKN150 15/04 A3018 RMK AO2 SLP218 T01500044 10150 20094 51009 $
