2024/03/13 11:53
KLAX 131153Z 32005KT 10SM FEW007 FEW010 SCT018 13/12 A3002 RMK AO2 SLP163 T01330117 10150 20128 58010
