2026/05/11 21:53
KLAX 112153Z 27013KT 9SM FEW009 19/14 A2998 RMK AO2 SLP150 T01890139
