2023/03/22 11:53
KLAX 221153Z 25008KT 10SM FEW008 BKN029 BKN040 11/07 A2991 RMK AO2 SLP127 60007 70085 T01110072 10117 20094 53014
