2022/08/29 11:53
KLAX 291153Z 27005KT 10SM FEW011 FEW024 SCT100 19/16 A2987 RMK AO2 SLP111 T01890161 10194 20189 55001 $
