2025/10/07 01:53
KLAX 070153Z 24011KT 10SM FEW015 19/16 A2982 RMK AO2 SLP097 T01890156 $
