2022/09/11 05:53
KLAX 110553Z 12004KT 10SM BKN110 24/21 A2993 RMK AO2 RAE0454B31E42 SLP131 P0000 60000 T02440206 10267 20244 51017 $
