2023/02/13 19:53
KLAX 131953Z 26005KT 10SM FEW012 BKN032 16/09 A2995 RMK AO2 SLP141 T01560089 $
