2025/02/13 07:53
KLAX 130753Z 09007KT 3SM -RA BR FEW003 BKN005 OVC009 12/12 A2996 RMK AO2 RAB24 SLP145 VIS 2V4 P0001 T01220122 401330100 $
