2022/12/23 07:53
KLAX 230753Z 00000KT 10SM FEW010 FEW015 SCT150 13/11 A3011 RMK AO2 SLP193 T01330111 402060089
