2026/04/02 13:53
KLAX 021353Z 26007KT 10SM R25L/3500VP6000FT FEW011 FEW020 SCT045 BKN250 16/12 A2996 RMK AO2 SLP142 T01560117 $
