2023/01/07 01:53
KLAX 070153Z 29006KT 10SM SCT180 13/09 A3018 RMK AO2 SLP219 T01330094 $
