2023/10/02 07:53
KLAX 020753Z 00000KT 10SM FEW180 16/11 A2995 RMK AO2 SLP140 T01560111 402060144 $
