2022/11/27 15:53
KLAX 271553Z 09006KT 6SM FU FEW010 FEW300 12/07 A3008 RMK AO2 SLP185 FU FEW010 T01170067 $
