2026/01/20 19:53
KLAX 201953Z 25008KT 10SM BCFG FEW000 FEW140 SCT160 BKN250 18/14 A3009 RMK AO2 SLP189 VIS SW-W 1 FG FEW000 T01780139 $
