2026/02/12 02:53
KLAX 120253Z 26009KT 10SM FEW040 15/09 A3013 RMK AO2 SLP201 T01500089 53005
