2025/01/03 15:53
KLAX 031553Z 27004KT 1/8SM R25L/1200V3000FT FG VV002 10/10 A3008 RMK AO2 SLP185 T01000100
