2024/11/13 21:53
KLAX 132153Z 27011KT 10SM CLR 21/03 A3004 RMK AO2 SLP172 T02060028
