2024/12/20 19:53
KLAX 201953Z 27011KT 3/4SM R25L/P6000FT BCFG BR SCT000 BKN003 13/10 A3017 RMK AO2 SLP217 VIS 1/4V2 VIS S-NW 1/2 FG SCT000 T01280100
