2026/02/13 02:53
KLAX 130253Z 26009KT 10SM BKN250 16/09 A3004 RMK AO2 SLP173 T01560094 55004
