2024/09/27 05:53
KLAX 270553Z 23007KT 10SM FEW005 OVC007 16/15 A2989 RMK AO2 SLP120 T01610150 10189 20161 50010
