2024/12/01 03:53
KLAX 010353Z 20003KT 10SM FEW150 SCT220 18/06 A3006 RMK AO2 SLP176 T01780056 $
