2023/04/06 09:53
KLAX 060953Z 00000KT 10SM SCT250 11/04 A3006 RMK AO2 SLP179 T01060039 $
