2024/05/26 09:53
KLAX 260953Z 00000KT 10SM BKN014 OVC019 14/12 A2999 RMK AO2 SLP155 T01440117
