2024/09/29 19:53
KLAX 291953Z 27008KT 8SM FEW004 18/14 A2991 RMK AO2 SLP126 T01830139 $
