2025/04/13 02:53
KLAX 130253Z 26006KT 9SM SCT004 BKN008 14/12 A2992 RMK AO2 SLP132 T01390117 53002 $
