2023/05/17 19:53
KLAX 171953Z 26010KT 9SM SCT009 BKN013 18/13 A2993 RMK AO2 SLP132 T01780128
