2023/01/15 01:58
KLAX 150158Z 10009KT 4SM RA BR OVC004 12/12 A2983 RMK AO2 P0002 T01220117
