2023/12/02 09:53
KLAX 020953Z 04005KT 10SM CLR 12/01 A3012 RMK AO2 SLP197 T01170006
