2026/06/21 08:53
KLAX 210853Z 00000KT 9SM CLR 16/14 A2990 RMK AO2 SLP122 T01610144 57012
