2024/06/19 01:53
KLAX 190153Z 26009KT 10SM FEW015 FEW150 19/15 A2976 RMK AO2 SLP077 T01890150 $
