2025/09/17 11:53
KLAX 171153Z 26003KT 10SM FEW100 FEW150 SCT200 21/18 A2989 RMK AO2 SLP119 T02110183 10217 20206 55004
