2025/04/29 21:53
KLAX 292153Z 26012KT 10SM FEW010 FEW080 18/12 A3002 RMK AO2 SLP165 T01780117 $
