2024/08/23 05:53
KLAX 230553Z 23006KT 10SM FEW011 19/16 A2992 RMK AO2 SLP128 T01890161 10228 20189 51008 $
