2023/05/06 13:53
KLAX 061353Z 08003KT 10SM FEW015 SCT050 12/09 A3007 RMK AO2 SLP181 T01220089
