2023/09/07 21:53
KLAX 072153Z 26012KT 10SM FEW015 23/17 A2995 RMK AO2 SLP139 T02330172
