2025/08/04 09:53
KLAX 040953Z 00000KT 10SM FEW008 FEW250 17/15 A2993 RMK AO2 SLP132 T01720150 $
