2025/06/20 23:53
KLAX 202353Z 26013KT 10SM SCT014 21/15 A2983 RMK AO2 SLP100 T02060150 10222 20194
