2025/02/05 13:53
KLAX 051353Z 09011KT 4SM BR FEW003 BKN006 OVC012 12/12 A3006 RMK AO2 RAB04E39 SLP178 P0000 T01220117 $
