2025/02/03 23:53
KLAX 032353Z 26014KT 10SM OVC005 13/11 A2992 RMK AO2 SLP131 T01330111 10150 20117 55008 $
