2025/02/12 07:53
KLAX 120753Z 05006KT 10SM FEW100 SCT200 BKN250 12/09 A2990 RMK AO2 SLP125 T01170089 401560100 $
