2023/12/24 19:53
KLAX 241953Z 24009KT 10SM FEW038 SCT200 SCT270 17/12 A3014 RMK AO2 SLP207 T01720117
