2022/10/25 02:53
KLAX 250253Z 26016KT 10SM CLR 19/08 A3015 RMK AO2 SLP208 T01940078 53007
