2023/04/19 11:53
KLAX 191153Z 08004KT 10SM FEW012 10/07 A3001 RMK AO2 SLP160 T01000072 10128 20094 53003
