2025/08/06 02:53
KLAX 060253Z 25006KT 10SM FEW250 20/16 A2996 RMK AO2 SLP144 T02000161 55000
