2024/07/15 19:53
KLAX 151953Z 25011KT 9SM FEW016 SCT060 SCT080 22/17 A3002 RMK AO2 SLP164 T02220167
