2025/12/13 21:53
KLAX 132153Z 28010KT 2 1/2SM HZ SCT006 BKN280 16/13 A3000 RMK AO2 SLP157 VIS SW-W 1 3/4 T01560128 $
