2022/09/10 02:53
KLAX 100253Z 12006KT 10SM -RA FEW008 BKN120 OVC140 26/22 A2962 RMK AO2 RAB39 SLP025 P0000 60000 T02560222 51027 $
