2023/04/23 11:53
KLAX 231153Z 10006KT 5SM BR BKN005 15/14 A2979 RMK AO2 SLP087 T01500139 10167 20139 53002
