2025/04/08 05:53
KLAX 080553Z 26006KT 10SM FEW250 14/12 A3006 RMK AO2 SLP178 T01440117 10183 20144 50009 $
