2024/11/25 19:53
KLAX 251953Z VRB04KT 10SM FEW120 19/09 A3016 RMK AO2 SLP212 T01940094
