2022/11/16 19:53
KLAX 161953Z 23009KT 10SM CLR 22/M08 A3025 RMK AO2 SLP241 T02171083
