2025/01/22 09:53
KLAX 220953Z 00000KT 10SM BKN250 13/M06 A3026 RMK AO2 SLP245 T01331061
