2023/08/19 11:53
KLAX 191153Z 00000KT 10SM FEW003 17/16 A2982 RMK AO2 SLP096 T01720161 10194 20172 58008 $
