2026/02/25 15:53
KLAX 251553Z 00000KT 10SM FEW250 SCT280 16/11 A3006 RMK AO2 SLP176 T01560106
