2024/07/01 00:08
KLAX 010008Z 27010KT 2SM HZ OVC005 18/15 A2989 RMK AO2 VIS SW-NW 1/2 T01780150
