2025/03/17 03:53
KLAX 170353Z 26007KT 10SM FEW150 FEW200 13/09 A3014 RMK AO2 SLP205 T01280094 $
