2026/01/12 23:53
KLAX 122353Z 25006KT 10SM FEW060 FEW250 20/M02 A3013 RMK AO2 SLP203 T02001017 10222 20178 56009 $
