2023/12/10 13:53
KLAX 101353Z 02007KT 10SM CLR 12/M11 A3019 RMK AO2 SLP220 T01171106 $
