2023/05/01 19:53
KLAX 011953Z 28013G19KT 9SM FEW009 SCT018 BKN140 17/11 A2988 RMK AO2 SLP115 T01720106
