2023/08/08 03:53
KLAX 080353Z 25006KT 10SM FEW010 19/17 A3001 RMK AO2 SLP160 T01940172 
