2024/10/20 23:53
KLAX 202353Z 26012KT 10SM SCT080 22/07 A3005 RMK AO2 SLP173 FU SCT080 T02220067 10267 20217 56006 $
