2025/07/01 02:29
KLAX 010229Z 26014KT 10SM BKN008 18/14 A2984 RMK AO2 T01780144
