2023/11/13 05:53
KLAX 130553Z 10005KT 10SM FEW250 17/07 A3000 RMK AO2 SLP156 T01670072 10211 20167 51012
