2025/12/10 03:53
KLAX 100353Z 32003KT 10SM CLR 20/07 A3000 RMK AO2 SLP156 T02000072 $
