2024/12/06 05:53
KLAX 060553Z VRB03KT 2 1/2SM BR CLR 11/10 A3009 RMK AO2 SLP187 T01110100 10133 20111 50000 $
