2024/12/28 19:53
KLAX 281953Z 28008KT 9SM OVC012 15/11 A3013 RMK AO2 SLP200 T01500111
