2023/05/09 17:53
KLAX 091753Z 25005KT 7SM -RA SCT009 OVC018 15/12 A3003 RMK AO2 RAB48 SLP168 P0000 60000 T01500122 10161 20128 51007
