2023/09/30 13:53
KLAX 301353Z 25007KT 10SM FEW015 BKN022 OVC029 17/15 A2984 RMK AO2 SLP103 T01720150 $
