2024/09/23 02:20
KLAX 230220Z 26010KT 5SM BR OVC004 17/16 A2985 RMK AO2 T01720156 $
