2022/12/30 15:53
KLAX 301553Z 08004KT 1 3/4SM -RA BR OVC006 13/12 A3011 RMK AO2 RAB48 SLP194 VIS 1 1/2V2 1/2 P0000 T01330122
