2024/03/10 03:53
KLAX 100353Z 24006KT 10SM FEW015 FEW200 14/11 A3009 RMK AO2 SLP187 T01390111 $
