2022/08/27 21:53
KLAX 272153Z 26011KT 10SM FEW012 24/18 A2984 RMK AO2 SLP104 T02390178 $
