2024/05/16 09:53
KLAX 160953Z 27006KT 10SM FEW011 OVC024 15/12 A2996 RMK AO2 SLP142 T01500122
