2025/09/09 21:53
KLAX 092153Z 26012KT 10SM FEW012 FEW025 SCT055 24/17 A2988 RMK AO2 SLP117 T02390167 $
