2023/02/07 21:53
KLAX 072153Z 23010KT 10SM FEW140 19/M01 A3022 RMK AO2 SLP232 T01891011
