2024/12/25 19:53
KLAX 251953Z 25007KT 10SM FEW020 SCT120 BKN160 BKN180 16/09 A3008 RMK AO2 SLP186 T01560089
