2024/12/27 12:00
KLAX 271200Z 09004KT 1/16SM R25L/1400V1600FT FG VV001 10/10 A3004 RMK AO2 T01000100 $
