2024/06/18 15:53
KLAX 181553Z VRB03KT 8SM FEW013 OVC020 19/14 A2979 RMK AO2 SLP084 T01890139
