2025/08/21 16:53
KLAX 211653Z 27008KT 10SM FEW140 SCT180 BKN250 26/19 A2988 RMK AO2 SLP115 T02610194
