2026/07/14 16:53
KLAX 141653Z 27005KT 10SM FEW009 SCT012 SCT180 22/18 A2999 RMK AO2 SLP154 T02170178 $
