2025/07/30 21:53
KLAX 302153Z 26012KT 10SM FEW011 23/17 A2997 RMK AO2 SLP148 T02280167 $
