2026/06/30 06:53
KLAX 300653Z 24006KT 10SM FEW016 BKN022 18/14 A2993 RMK AO2 SLP134 T01830139 $
