2023/07/13 23:53
KLAX 132353Z 25010KT 10SM FEW250 22/16 A2991 RMK AO2 SLP128 T02170161 10244 20217 58011 $
