2024/12/18 07:53
KLAX 180753Z 11003KT 10SM CLR 14/05 A3010 RMK AO2 SLP190 T01440050 402220100 $
