2026/04/15 19:53
KLAX 151953Z 24010KT 10SM FEW010 FEW180 BKN250 20/12 A3004 RMK AO2 SLP172 T02000122
