2023/04/24 15:53
KLAX 241553Z 15005KT 10SM FEW009 OVC014 16/12 A2991 RMK AO2 SLP127 T01610122 $
