2024/10/07 07:57
KLAX 070757Z 25004KT 1/4SM R25L/P6000FT FG VV002 17/16 A2992 RMK AO2 VIS N 1/2 T01670161
