2025/03/07 03:53
KLAX 070353Z 30007KT 10SM FEW024 SCT044 BKN080 09/06 A2991 RMK AO2 RAE16 SLP127 P0000 T00940061
