2024/09/25 13:53
KLAX 251353Z 00000KT 5SM BR FEW002 OVC007 17/15 A2986 RMK AO2 SLP108 T01670150 $
