2022/09/23 19:53
KLAX 231953Z 26008KT 10SM FEW100 FEW300 26/17 A2992 RMK AO2 SLP128 T02610167
