2024/08/09 09:53
KLAX 090953Z 00000KT 5SM BR OVC004 17/16 A2991 RMK AO2 SLP126 VIS SW-W 2 1/2 T01720161 $
