2025/03/10 15:53
KLAX 101553Z 09006KT 10SM FEW010 FEW047 SCT160 13/04 A2996 RMK AO2 SLP145 T01280039 $
