2025/04/13 05:53
KLAX 130553Z 21005KT 10SM FEW009 FEW250 14/11 A2996 RMK AO2 SLP142 T01390106 10161 20133 51011 $
