2026/01/19 03:53
KLAX 190353Z 00000KT 10SM CLR 17/09 A3002 RMK AO2 SLP165 T01720089
