2024/02/09 07:53
KLAX 090753Z 25004KT 10SM FEW022 FEW040 SCT150 11/07 A3007 RMK AO2 SLP181 T01110067 401440078 $
