2025/08/19 16:53
KLAX 191653Z 00000KT 3SM HZ FEW006 SCT011 SCT250 22/18 A3003 RMK AO2 SLP167 T02220178 $
