2023/05/26 21:53
KLAX 262153Z 25014KT 10SM FEW011 SCT026 BKN048 18/11 A2996 RMK AO2 SLP143 T01830111
