2025/08/08 03:53
KLAX 080353Z 27010KT 10SM FEW010 21/17 A2989 RMK AO2 SLP121 T02060167 $
