2026/04/06 23:53
KLAX 062353Z 26010KT 10SM CLR 21/12 A2997 RMK AO2 SLP148 T02060117 10256 20200 56014 $
