2024/12/12 01:53
KLAX 120153Z 25005KT 10SM FEW200 BKN250 14/07 A2999 RMK AO2 SLP155 T01440072 $
