2024/06/06 03:53
KLAX 060353Z 24006KT 7SM OVC007 17/15 A2989 RMK AO2 SLP119 T01670150
