2023/11/13 09:53
KLAX 130953Z 00000KT 10SM FEW004 FEW012 SCT250 14/09 A3001 RMK AO2 SLP161 T01440094
