2025/07/23 19:53
KLAX 231953Z 26007KT 9SM FEW011 SCT025 22/14 A3006 RMK AO2 SLP177 T02220144 $
