2025/09/01 21:53
KLAX 012153Z 25013KT 10SM FEW008 FEW120 23/18 A2991 RMK AO2 SLP125 T02330178 $
