2023/07/26 13:53
KLAX 261353Z 00000KT 5SM BR FEW000 SCT002 BKN250 21/18 A2994 RMK AO2 SLP135 FG FEW000 T02060183 $
