2025/06/03 03:53
KLAX 030353Z 26008KT 10SM BKN010 17/14 A2997 RMK AO2 SLP148 T01670139 $
