2025/05/24 17:53
KLAX 241753Z 24009KT 10SM FEW018 BKN029 OVC037 18/13 A3001 RMK AO2 SLP161 T01780133 10183 20167 53010
