2024/07/08 17:53
KLAX 081753Z 26006KT 5SM BR OVC007 19/16 A2986 RMK AO2 SLP110 VIS SW-NW 1 1/2 T01940161 10194 20161 53003 $
