2023/05/07 07:53
KLAX 070753Z 26007KT 10SM SCT200 14/10 A3008 RMK AO2 SLP185 T01390100 401890106
