2024/12/20 13:53
KLAX 201353Z 00000KT 1/8SM R25L/1200V1600FT FG VV001 11/11 A3016 RMK AO2 SLP212 T01060106
