2026/05/12 05:03
KLAX 120503Z 25009KT 1/8SM R25L/2400V6000FT FG VV001 14/14 A2995 RMK AO2 T01440139 $
