2023/01/24 23:53
KLAX 242353Z 26008KT 10SM FEW250 16/07 A3024 RMK AO2 SLP241 T01560072 10183 20144 56011 $
