2023/11/16 15:53
KLAX 161553Z 08004KT 8SM SCT018 SCT033 BKN085 17/14 A3003 RMK AO2 SLP168 T01670144
