2022/08/31 13:53
KLAX 311353Z 25006KT 9SM FEW150 20/18 A2988 RMK AO2 SLP115 T02000183
