2025/01/07 23:53
KLAX 072353Z 02018G31KT 10SM FEW050 FEW070 21/02 A2992 RMK AO2 PK WND 03039/2320 SLP131 FU FEW050 T02110017 10228 20183 58002
