2026/02/23 11:53
KLAX 231153Z 10003KT 10SM FEW250 12/03 A3014 RMK AO2 SLP206 T01220033 10161 20111 56014 $
