2025/06/02 05:53
KLAX 020553Z 24005KT 10SM BKN010 16/14 A2994 RMK AO2 SLP137 T01610139 10206 20161 51019 $
