2022/10/02 07:53
KLAX 020753Z 18004KT 10SM OVC022 20/14 A2991 RMK AO2 SLP125 T02000144 402390189
