2025/04/18 07:53
KLAX 180753Z 00000KT 10SM FEW011 FEW025 BKN055 BKN160 14/11 A2998 RMK AO2 SLP152 T01390106 401670133 $
