2025/02/17 19:53
KLAX 171953Z 25010KT 10SM FEW027 SCT180 BKN250 17/13 A2999 RMK AO2 SLP155 T01720128
