2026/04/25 05:53
KLAX 250553Z 23008KT 10SM FEW012 FEW220 SCT280 16/12 A2990 RMK AO2 SLP121 T01560122 10194 20156 50012 $
