2026/03/30 17:53
KLAX 301753Z 10006KT 7SM FEW018 BKN140 BKN180 20/13 A3005 RMK AO2 SLP174 T02000133 10200 20139 51025
