2025/07/11 23:53
KLAX 112353Z 26009KT 10SM FEW009 22/16 A2993 RMK AO2 SLP134 T02170156 10239 20211 56006
