2023/10/01 01:53
KLAX 010153Z 23012KT 10SM FEW015 SCT022 SCT030 18/14 A2982 RMK AO2 SLP097 T01780144 $
