2024/03/06 01:53
KLAX 060153Z 27008KT 10SM FEW250 13/09 A2999 RMK AO2 SLP155 T01330089
