2025/09/18 09:53
KLAX 180953Z 33005KT 10SM FEW040 FEW060 SCT100 BKN140 OVC180 21/19 A2986 RMK AO2 RAB04E09B47E50 SLP108 CB DSNT NW P0000 T02110194
