2025/11/24 03:53
KLAX 240353Z 00000KT 10SM CLR 17/15 A3012 RMK AO2 SLP198 T01670150
