2025/07/28 06:53
KLAX 280653Z 24006KT 10SM FEW012 18/16 A3001 RMK AO2 SLP161 T01780156
