2022/11/02 15:53
KLAX 021553Z 28015KT 6SM HZ SCT042 BKN075 16/12 A3002 RMK AO2 RAB1458E26 SLP163 P0001 T01610117 VISNO RWY24 $
