2025/08/07 07:53
KLAX 070753Z 19003KT 10SM FEW250 19/17 A2997 RMK AO2 SLP146 T01940167 402560183
