2025/02/06 09:53
KLAX 060953Z 13007KT 2SM BR OVC003 14/14 A3001 RMK AO2 SLP161 VIS W 1/2 T01440139 $
