2026/03/09 07:53
KLAX 090753Z 13013G20KT 10SM FEW011 16/13 A2985 RMK AO2 SLP104 T01610133 403110150 $
