2022/08/30 02:53
KLAX 300253Z 24010KT 10SM CLR 20/16 A2988 RMK AO2 SLP117 T02000156 53003 $
