2025/11/23 11:53
KLAX 231153Z 00000KT 10SM FEW120 12/09 A2998 RMK AO2 SLP150 T01220089 10200 20111 53004
