2025/12/27 19:53
KLAX 271953Z 32004KT 10SM FEW021 SCT036 16/07 A3005 RMK AO2 SLP176 T01560067 $
