2025/07/14 12:53
KLAX 141253Z 07004KT 4SM BR FEW004 OVC006 16/15 A2998 RMK AO2 SLP151 T01610150
