2024/03/04 09:53
KLAX 040953Z 00000KT 10SM FEW012 FEW060 SCT140 10/07 A3007 RMK AO2 SLP179 T01000072 $
