2024/02/22 23:53
KLAX 222353Z 26013KT 10SM FEW070 FEW250 16/12 A3014 RMK AO2 SLP205 T01560117 10172 20144 56017
