2026/01/05 09:53
KLAX 050953Z 10004KT 10SM FEW015 FEW028 BKN035 13/12 A3001 RMK AO2 SLP161 T01280122
