2024/02/10 15:53
KLAX 101553Z 00000KT 10SM FEW085 12/02 A3002 RMK AO2 SLP165 T01170017 $
