2023/02/13 09:53
KLAX 130953Z 09005KT 10SM FEW014 SCT022 SCT035 09/07 A2989 RMK AO2 SLP119 T00940067 $
