2026/07/17 18:53
KLAX 171853Z 14009G17KT 10SM FEW110 SCT170 27/17 A2994 RMK AO2 SLP137 ACSL DSNT NE T02720172 $
