2023/12/12 15:53
KLAX 121553Z 06004KT 6SM BR FEW007 BKN012 BKN032 11/07 A2991 RMK AO2 SLP128 T01110067
