2023/01/28 01:53
KLAX 280153Z 24007KT 10SM CLR 13/09 A3000 RMK AO2 SLP158 T01330094 $
