2023/04/08 17:53
KLAX 081753Z 00000KT 10SM FEW015 FEW250 18/12 A3008 RMK AO2 SLP187 T01780117 10178 20106 51005
