2023/03/21 19:53
KLAX 211953Z 24017G24KT 9SM FEW010 BKN030 BKN043 16/10 A2974 RMK AO2 PK WND 23027/1928 SLP071 T01560100
