2024/03/29 19:53
KLAX 291953Z 23011G20KT 10SM FEW035 SCT040 BKN140 16/07 A2996 RMK AO2 SLP143 T01560067
