2026/04/29 15:53
KLAX 291553Z VRB03KT 10SM FEW010 17/10 A3004 RMK AO2 SLP171 T01720100
