2023/09/28 11:53
KLAX 281153Z 07004KT 9SM BKN008 OVC011 18/17 A2987 RMK AO2 SLP111 T01830172 10189 20172 55001 $
