2026/04/06 21:53
KLAX 062153Z 27014KT 10SM FEW015 FEW070 SCT250 21/14 A3000 RMK AO2 SLP157 T02060139 $
