2024/09/29 21:53
KLAX 292153Z 27011G18KT 10SM FEW005 20/15 A2987 RMK AO2 SLP115 T02000150 $
