2026/06/14 15:53
KLAX 141553Z 18005KT 10SM FEW009 21/15 A2997 RMK AO2 SLP147 T02060150 $
