2023/04/30 01:53
KLAX 300153Z 23009KT 2SM BR OVC005 13/12 A2997 RMK AO2 SLP146 VIS E 3 T01330117
