2023/02/14 23:53
KLAX 142353Z 26026G31KT 10SM FEW015 SCT065 14/07 A2978 RMK AO2 PK WND 26031/2349 SLP083 T01390072 10150 20122 56020 $
