2025/03/15 13:53
KLAX 151353Z 05008KT 10SM FEW050 FEW250 08/06 A3004 RMK AO2 SLP173 T00780061 $
