2023/10/30 01:53
KLAX 300153Z 02006KT 10SM CLR 23/M12 A3001 RMK AO2 SLP162 T02281117
