2024/11/30 23:53
KLAX 302353Z 25006KT 10SM SCT120 BKN200 BKN250 19/04 A3001 RMK AO2 SLP162 T01940039 10261 20183 56008 $
