2024/01/23 21:53
KLAX 232153Z 26013KT 10SM FEW015 FEW040 SCT070 17/12 A2990 RMK AO2 SLP125 T01670122
