2023/11/10 05:53
KLAX 100553Z VRB04KT 10SM FEW200 SCT250 17/M01 A3003 RMK AO2 SLP167 T01721011 10222 20167 53005
