2023/03/26 13:53
KLAX 261353Z 32011KT 10SM FEW280 11/M04 A3011 RMK AO2 SLP194 T01111039 $
