2024/11/10 09:53
KLAX 100953Z 00000KT 5SM BR CLR 12/09 A2997 RMK AO2 SLP145 T01170094
