2023/12/10 19:53
KLAX 101953Z 01007KT 340V050 10SM SCT280 24/M14 A3013 RMK AO2 SLP203 T02391139 $
