2024/11/21 07:53
KLAX 210753Z 00000KT 10SM CLR 13/07 A3015 RMK AO2 SLP208 T01330072 402330106
