2023/02/18 17:53
KLAX 181753Z 06006KT 10SM SCT160 BKN250 16/M06 A3004 RMK AO2 SLP173 T01611056 10172 20083 51007 $
