2024/03/05 11:53
KLAX 051153Z 07003KT 10SM FEW011 SCT250 10/07 A3005 RMK AO2 SLP175 T01000072 10133 20094 55007
