2024/10/13 00:53
KLAX 130053Z 27009KT 10SM SCT008 18/16 A3001 RMK AO2 SLP161 T01830156
