2024/10/08 17:53
KLAX 081753Z 27007KT 2SM BR OVC005 19/16 A2990 RMK AO2 SLP123 VIS 1/2V2 1/2 VIS NW-N 3/4 T01890156 10189 20150 51012
