2025/03/06 09:53
KLAX 060953Z 26023G30KT 10SM FEW010 FEW025 SCT150 11/06 A2987 RMK AO2 PK WND 26035/0914 SLP112 T01060061
