2023/02/07 01:53
KLAX 070153Z 33010G18KT 10SM CLR 19/M04 A3013 RMK AO2 SLP203 T01941044 $
