2025/10/07 11:53
KLAX 071153Z 25007KT 10SM OVC011 18/15 A2984 RMK AO2 SLP102 T01780150 10183 20172 58007 $
