2026/02/20 19:53
KLAX 201953Z 31006KT 10SM FEW100 FEW120 SCT160 BKN250 13/M03 A3004 RMK AO2 SLP171 T01331028 $
