2024/05/29 01:53
KLAX 290153Z 25010KT 10SM BKN011 14/11 A3003 RMK AO2 SLP167 T01440111
