2023/03/10 13:53
KLAX 101353Z 08005KT 3SM -RA BR FEW010 OVC024 11/09 A3009 RMK AO2 SLP188 VIS N AND S 2 1/2 P0002 T01060089 $
