2024/02/21 17:53
KLAX 211753Z 24008KT 10SM FEW009 FEW100 SCT160 BKN190 16/11 A3015 RMK AO2 PRESRR SLP208 60005 T01560111 10161 20117 53021 $
