2025/10/07 05:53
KLAX 070553Z 25005KT 10SM BKN012 18/16 A2987 RMK AO2 SLP112 T01830156 10206 20183 51008
