2024/07/31 15:53
KLAX 311553Z 28007KT 2SM BR VCFG SCT003 OVC005 17/15 A2996 RMK AO2 SLP145 VIS SW-NW 1 T01670150 $
