2024/06/08 07:53
KLAX 080753Z 30008KT 9SM OVC009 17/14 A2991 RMK AO2 SLP126 T01670144 402060144 $
