2024/02/24 01:53
KLAX 240153Z 26009KT 10SM SCT140 BKN200 18/08 A2999 RMK AO2 SLP154 T01780083
