2024/05/02 01:53
KLAX 020153Z 24008KT 10SM FEW013 16/12 A2982 RMK AO2 SLP099 T01610122 $
