2024/12/04 19:53
KLAX 041953Z 27008KT 5SM HZ FEW009 SCT016 17/10 A3016 RMK AO2 SLP212 T01670100
