2025/12/01 19:53
KLAX 011953Z 25005KT 8SM FEW190 FEW280 19/11 A3004 RMK AO2 SLP172 T01940106 $
