2023/05/16 03:53
KLAX 160353Z 26006KT 10SM OVC010 16/13 A3007 RMK AO2 SLP180 T01560133
