2025/09/08 13:53
KLAX 081353Z 00000KT 10SM FEW010 FEW250 20/16 A3004 RMK AO2 SLP170 T02000161 $
