2023/12/16 21:53
KLAX 162153Z 27012KT 10SM FEW010 FEW220 SCT270 22/07 A3001 RMK AO2 SLP162 FU FEW010 T02170067 $
