2024/11/27 21:53
KLAX 272153Z 26010KT 7SM BCFG FEW002 FEW035 SCT160 BKN180 17/14 A2999 RMK AO2 SLP155 VIS W 3/4 T01670139 $
