2024/08/07 21:53
KLAX 072153Z 24010KT 10SM FEW150 FEW250 25/18 A2997 RMK AO2 SLP147 T02500183 $
