2026/01/11 23:53
KLAX 112353Z 26009KT 10SM FEW250 19/02 A3016 RMK AO2 SLP211 T01890022 10239 20183 56008
