2025/12/19 21:53
KLAX 192153Z 25006KT 1 1/2SM BCFG BR FEW000 SCT003 SCT240 BKN290 17/14 A2999 RMK AO2 SLP153 VIS SW-NW 3/4 FG FEW000 T01670144 $
