2024/07/28 21:53
KLAX 282153Z 27013G18KT 10SM CLR 22/14 A2993 RMK AO2 SLP135 T02170144
