2025/06/30 23:53
KLAX 302353Z 26014KT 10SM FEW012 FEW040 20/14 A2986 RMK AO2 SLP110 T02000144 10222 20200 58011
