2023/03/07 12:53
KLAX 071253Z 00000KT 10SM FEW008 FEW020 SCT100 SCT200 BKN250 09/06 A3013 RMK AO2 SLP203 T00890056 $
