2022/08/22 09:53
KLAX 220953Z 24006KT 10SM FEW007 BKN010 19/17 A3000 RMK AO2 SLP155 T01940172 $
