2023/10/15 19:53
KLAX 151953Z 27010KT 10SM CLR 25/14 A3002 RMK AO2 SLP163 T02500139
