2024/10/25 03:53
KLAX 250353Z 25003KT 7SM BCFG FEW004 16/14 A2991 RMK AO2 VIS 3/4 RWY24 SLP127 T01560144 $
