2025/05/30 23:53
KLAX 302353Z 25013KT 10SM FEW080 22/16 A2988 RMK AO2 SLP117 T02220156 10244 20217 56014
