2023/03/02 09:53
KLAX 020953Z 32007G19KT 10SM FEW220 09/M02 A2997 RMK AO2 SLP150 T00941022 $
