2024/09/23 03:53
KLAX 230353Z 24007KT 1SM R25L/P6000FT BR OVC002 16/16 A2987 RMK AO2 SLP112 VIS SW-NW 1/2 T01610156 $
