2022/10/10 19:53
KLAX 101953Z VRB06KT 6SM HZ FEW011 SCT022 24/17 A2997 RMK AO2 SLP146 SCT V BKN T02390167 $
