2022/10/25 19:53
KLAX 251953Z 23006KT 10SM FEW160 23/07 A3004 RMK AO2 SLP172 T02330072
