2025/04/25 13:53
KLAX 251353Z 23003KT 8SM FEW018 SCT039 OVC050 14/09 A2996 RMK AO2 SLP145 T01390094
