2024/08/06 19:53
KLAX 061953Z 26008KT 10SM FEW010 FEW180 SCT250 26/18 A2994 RMK AO2 SLP137 T02560183
