2023/05/16 19:53
KLAX 161953Z 24010KT 9SM FEW006 SCT012 BKN032 19/13 A3004 RMK AO2 SLP170 T01890133
