2025/05/06 15:53
KLAX 061553Z 24005KT 10SM BKN020 OVC025 16/12 A2996 RMK AO2 SLP146 T01560117 $
