2023/11/25 05:53
KLAX 250553Z VRB03KT 10SM FEW016 16/13 A2998 RMK AO2 SLP150 T01560128 10172 20150 51012 $
