2023/03/18 01:53
KLAX 180153Z 26010KT 10SM SCT050 SCT120 BKN230 14/10 A2998 RMK AO2 SLP152 T01390100
