2025/08/02 07:53
KLAX 020753Z 33004KT 10SM FEW006 BKN010 17/14 A3010 RMK AO2 SLP190 T01720144 402330167 $
