2024/12/24 02:19
KLAX 240219Z VRB04KT 4SM BR SCT006 13/12 A3010 RMK AO2 T01330117
