2025/03/06 03:53
KLAX 060353Z 24004KT 4SM BR SCT006 BKN013 OVC018 12/11 A2987 RMK AO2 RAE15 SLP116 P0002 T01170106
