2022/10/17 05:53
KLAX 170553Z 25004KT 10SM FEW014 18/15 A3004 RMK AO2 SLP170 T01830150 10211 20183 58003 $
