2023/01/15 03:53
KLAX 150353Z 22011G20KT 3SM -RA BR OVC004 15/14 A2981 RMK AO2 SLP093 P0005 T01500144
