2026/04/04 05:53
KLAX 040553Z 09003KT 10SM FEW190 SCT240 SCT290 19/11 A3003 RMK AO2 SLP167 T01940106 10206 20183 51017 $
