2025/09/03 17:53
KLAX 031753Z 26008KT 10SM FEW025 26/19 A2995 RMK A02 SLP141 T02610189 10261 20206 50004 
