2025/10/14 21:53
KLAX 142153Z 18007KT 10SM FEW026 SCT060 17/11 A2989 RMK AO2 SLP121 T01670106 $
