2023/10/26 03:53
KLAX 260353Z 26007KT 10SM FEW028 BKN050 18/15 A3002 RMK AO2 SLP162 T01780150 $
