2022/11/07 17:53
KLAX 071753Z 13007KT 6SM BR SCT009 BKN015 BKN027 18/15 A2999 RMK AO2 SLP154 60000 T01780150 10178 20150 51009
