2026/07/23 16:53
KLAX 231653Z 24007KT 10SM CLR 24/18 A2989 RMK AO2 SLP120 T02440183 $
