2023/11/10 13:53
KLAX 101353Z 04004KT 10SM FEW200 FEW250 12/M05 A3003 RMK AO2 SLP166 T01171050
