2023/10/17 01:53
KLAX 170153Z 25006KT 10SM FEW250 20/16 A2991 RMK AO2 SLP128 T02000156
