2025/03/07 15:53
KLAX 071553Z 09006KT 10SM FEW080 FEW200 09/06 A2999 RMK AO2 SLP156 T00940056 $
