2023/08/12 17:53
KLAX 121753Z 26007KT 10SM SCT018 22/18 A3003 RMK AO2 SLP168 T02220178 10228 20194 51007 $
