2025/06/06 03:53
KLAX 060353Z 27010KT 10SM OVC013 17/13 A2990 RMK AO2 SLP123 T01670133
