2023/06/24 13:53
KLAX 241353Z VRB04KT 10SM BKN012 BKN250 16/13 A3003 RMK AO2 SLP166 T01560133
