2025/04/12 09:53
KLAX 120953Z 10004KT 2 1/2SM BR BKN004 14/14 A2996 RMK AO2 SLP143 T01440139 $
