2024/05/05 03:53
KLAX 050353Z 24011KT 10SM SCT015 SCT028 BKN034 14/11 A2991 RMK AO2 SLP128 T01440111
