2026/02/27 07:53
KLAX 270753Z 00000KT 10SM FEW250 19/14 A2999 RMK AO2 SLP151 T01940139 402280128
