2025/04/21 05:53
KLAX 210553Z 23005KT 10SM FEW250 SCT300 14/11 A3000 RMK AO2 SLP159 T01390111 10172 20139 50000 $
