2023/07/11 19:53
KLAX 111953Z 26009KT 8SM SCT009 21/16 A2999 RMK AO2 SLP153 T02060156 $
