2023/09/12 17:53
KLAX 121753Z 24009KT 10SM FEW140 FEW180 23/18 A2993 RMK AO2 SLP134 T02280178 10239 20189 53008 $
