2023/04/01 07:53
KLAX 010753Z 31004KT 10SM FEW200 13/09 A3014 RMK AO2 SLP205 T01330089 401610072 $
