2025/03/04 15:53
KLAX 041553Z 09009KT 8SM SCT020 BKN032 12/08 A3025 RMK AO2 SLP242 T01220078 $
