2024/12/12 07:53
KLAX 120753Z 04005KT 10SM FEW200 FEW250 13/M11 A2996 RMK AO2 SLP145 T01331111 402220117 $
