2023/01/04 01:53
KLAX 040153Z 08013KT 7SM BKN008 OVC012 14/13 A3004 RMK AO2 SLP172 T01390128
