2024/04/09 21:53
KLAX 092153Z 25012KT 10SM CLR 23/04 A3004 RMK AO2 SLP174 T02330039 $
