2025/01/30 01:53
KLAX 300153Z 26010KT 10SM FEW019 13/09 A3012 RMK AO2 SLP270 T01280089 $
