2025/05/01 03:53
KLAX 010353Z 24008KT 10SM OVC015 14/11 A2997 RMK AO2 SLP147 T01440111
