2024/07/23 09:53
KLAX 230953Z 00000KT 10SM FEW003 FEW012 SCT220 19/14 A2986 RMK AO2 SLP109 T01940144 $
