2024/05/11 17:53
KLAX 111753Z 24008KT 10SM BKN014 BKN018 17/12 A2996 RMK AO2 SLP143 T01670122 10172 20133 51004 $
