2022/11/05 11:53
KLAX 051153Z 06003KT 10SM FEW250 12/05 A3010 RMK AO2 SLP191 7//// T01170050 10150 20117 56017
