2024/10/15 00:53
KLAX 150053Z 27009KT 10SM FEW020 18/14 A3001 RMK AO2 SLP163 T01830139 $
