2024/01/28 11:53
KLAX 281153Z 11003KT 10SM BKN200 13/07 A3008 RMK AO2 SLP184 T01330067 10183 20128 58015 $
