2025/03/12 23:53
KLAX 122353Z 19008G16KT 10SM SCT050 BKN150 16/09 A2999 RMK AO2 SLP156 60000 T01560094 10161 20139 58006 $
