2023/01/04 03:53
KLAX 040353Z 08008KT 4SM BR BKN006 OVC012 14/13 A3007 RMK AO2 SLP182 T01390133
