2024/02/11 15:53
KLAX 111553Z 04004KT 10SM CLR 10/00 A3021 RMK AO2 SLP229 T01000000 $
