2025/05/14 07:53
KLAX 140753Z 26005KT 10SM FEW015 14/11 A3001 RMK AO2 SLP160 T01390111 402000133 $
