2025/03/09 23:53
KLAX 092353Z 26011KT 10SM CLR 16/06 A3010 RMK AO2 SLP191 T01610056 10217 20161 56022
