2023/12/11 17:53
KLAX 111753Z 12005KT 10SM FEW120 SCT160 BKN180 BKN250 18/M03 A2999 RMK AO2 SLP154 T01781028 10183 20100 51008 $
