2023/10/09 20:01
KLAX 092001Z 26012KT 6SM HZ BKN007 BKN140 19/16 A2986 RMK AO2 BKN007 V SCT T01890156
