2025/12/26 11:53
KLAX 261153Z 18006KT 7SM -RA FEW011 BKN025 OVC050 16/14 A3004 RMK AO2 SLP172 P0004 60005 70006 T01610144 10167 20161 58006 $
