2022/09/30 19:53
KLAX 301953Z 23010KT 8SM FEW011 SCT027 23/17 A2988 RMK AO2 SLP115 T02280167
