2023/08/20 01:53
KLAX 200153Z 25006KT 10SM SCT040 BKN080 OVC200 22/17 A2978 RMK AO2 SLP083 T02170172 $
