2025/10/23 11:53
KLAX 231153Z VRB05KT 10SM FEW009 FEW012 15/13 A3002 RMK AO2 SLP165 T01500133 10172 20139 55002
