2023/10/10 07:53
KLAX 100753Z 11003KT 10SM BKN011 17/16 A2979 RMK AO2 SLP085 T01720156 402060161
