2023/03/31 07:53
KLAX 310753Z 05006KT 10SM FEW018 FEW200 SCT250 11/07 A3012 RMK AO2 SLP199 T01060067 401500078 $
