2023/10/06 07:53
KLAX 060753Z 02003KT 10SM CLR 21/14 A2992 RMK AO2 SLP129 T02110139 403280167 $
