2026/04/27 04:53
KLAX 270453Z 24006KT 10SM FEW025 FEW060 15/09 A3000 RMK AO2 SLP157 T01500094 $
