2024/02/25 17:53
KLAX 251753Z 26008KT 10SM FEW005 FEW120 SCT180 BKN220 16/12 A3008 RMK AO2 SLP184 ACSL DSNT NE T01560122 10156 20128 53015 $
