2022/10/12 02:53
KLAX 120253Z 18005KT 10SM OVC013 20/17 A3003 RMK AO2 SLP166 T02000167 53021
