2024/05/23 08:53
KLAX 230853Z VRB03KT 10SM FEW012 OVC018 15/12 A2995 RMK SLP139 T01500122 58007 
