2024/04/25 07:53
KLAX 250753Z 27013KT 10SM FEW024 FEW035 SCT050 SCT140 14/10 A3006 RMK AO2 SLP178 T01390100 401780133
