2024/03/31 05:53
KLAX 310553Z 09010KT 10SM FEW018 SCT036 OVC060 10/08 A2976 RMK AO2 RAE30 SLP076 P0002 60010 T01000083 10133 20100 51009
