2023/08/07 11:53
KLAX 071153Z 00000KT 3SM BR FEW003 OVC007 19/17 A2997 RMK SLP147 VIS SW-NW 2 1/2 T01890172 10194 20183 55008 
