2024/11/23 01:53
KLAX 230153Z 25008KT 10SM FEW270 14/12 A3001 RMK AO2 SLP163 T01440117
