2025/06/29 23:53
KLAX 292353Z 26012KT 10SM CLR 21/14 A2991 RMK AO2 SLP126 T02060144 10217 20200 57019
