2023/08/20 09:53
KLAX 200953Z 00000KT 10SM FEW080 BKN120 22/16 A2971 RMK AO2 SLP058 T02170161 $
