2024/09/05 01:53
KLAX 050153Z 25014KT 10SM CLR 24/16 A2984 RMK AO2 SLP103 T02440156
