2026/04/18 11:53
KLAX 181153Z VRB04KT 10SM CLR 15/12 A2994 RMK AO2 SLP136 T01500117 10172 20144 56009
