2025/03/12 11:53
KLAX 121153Z 06005KT 10SM FEW020 FEW030 BKN040 12/09 A2990 RMK AO2 SLP124 60000 70007 T01170094 10139 20117 55001 $
