2024/11/07 09:53
KLAX 070953Z 00000KT 10SM FEW150 13/M06 A3004 RMK AO2 SLP168 T01281061 $
