2023/05/11 17:53
KLAX 111753Z 26009KT 8SM SCT018 BKN030 18/11 A3003 RMK AO2 SLP168 T01830111 10183 20122 51003
