2024/07/25 15:53
KLAX 251553Z VRB04KT 10SM FEW002 21/18 A3004 RMK AO2 SLP171 VIS W 1 3/4 T02060178
