2022/12/10 07:53
KLAX 100753Z 04004KT 10SM SCT015 BKN030 12/08 A3013 RMK AO2 SLP203 T01220083 401670067 $
