2026/02/02 13:53
KLAX 021353Z 00000KT 10SM FEW220 13/08 A3006 RMK AO2 SLP176 T01330083 $
