2023/03/19 07:53
KLAX 190753Z 25006KT 10SM BKN150 15/11 A3001 RMK AO2 SLP160 T01500111 402390100
