2023/02/15 01:53
KLAX 150153Z 36011G21KT 10SM SCT065 SCT250 14/M06 A2981 RMK AO2 WSHFT 0040 SLP093 T01391061 $
