2024/01/29 15:53
KLAX 291553Z 06005KT 10SM FEW180 FEW250 15/06 A3014 RMK AO2 SLP205 T01500056 $
