2026/03/23 16:04
KLAX 231604Z VRB04KT 2SM BR OVC009 17/14 A2995 RMK AO2 T01670144
