2025/07/10 13:53
KLAX 101353Z 00000KT 9SM FEW009 FEW250 18/16 A2993 RMK AO2 SLP132 T01830156 $
