2024/08/21 13:53
KLAX 211353Z 09004KT 10SM FEW170 19/17 A2995 RMK AO2 SLP140 T01940172
