2026/05/26 19:53
KLAX 261953Z 25007G16KT 10SM FEW025 BKN048 BKN140 19/10 A2985 RMK AO2 SLP108 T01940100 $
