2025/10/16 15:53
KLAX 161553Z VRB03KT 10SM CLR 17/07 A2996 RMK AO2 SLP143 T01670072 $
