2023/10/01 21:53
KLAX 012153Z 25008KT 10SM FEW046 FEW070 20/12 A2990 RMK AO2 SLP123 T02000117 $
