2023/10/15 15:53
KLAX 151553Z VRB03KT 10SM CLR 22/10 A3004 RMK AO2 SLP170 T02220100
