2023/09/14 13:53
KLAX 141353Z 33003KT 9SM SCT019 BKN026 19/16 A2995 RMK AO2 SLP139 T01940156 $
