2024/12/31 17:53
KLAX 311753Z VRB04KT 3SM BR SCT009 OVC013 11/11 A3011 RMK AO2 SLP196 VIS 2V4 T01110111 10111 20106 53025
