2022/10/28 13:53
KLAX 281353Z 04004KT 9SM FEW006 FEW012 15/13 A3012 RMK AO2 SLP197 T01500128 VISNO RWY24 $
