2024/04/27 07:53
KLAX 270753Z 08005KT 10SM FEW030 14/10 A2990 RMK AO2 SLP124 T01390100 401890128
