2026/06/26 17:53
KLAX 261753Z 26008KT 10SM FEW009 SCT029 21/13 A2996 RMK AO2 SLP145 T02060133 10211 20167 51009
