2024/12/26 23:53
KLAX 262353Z 26009KT 10SM FEW210 SCT240 SCT280 16/12 A3003 RMK AO2 PRESRR SLP169 T01560117 10183 20144 55009 CHINO RWY24 $
