2023/09/05 03:53
KLAX 050353Z 25006KT 10SM CLR 19/17 A2985 RMK AO2 SLP108 T01940167 $
