2026/03/24 11:53
KLAX 241153Z 00000KT 5SM BR OVC008 16/14 A2996 RMK AO2 SLP143 T01610144 10167 20156 56006
