2023/07/22 01:53
KLAX 220153Z 25007KT 9SM SCT007 19/17 A2986 RMK AO2 SLP110 T01940167
