2023/12/08 23:53
KLAX 082353Z 26012KT 10SM FEW250 17/07 A3001 RMK AO2 SLP161 T01670067 10206 20161 55001
