2023/10/25 15:53
KLAX 251553Z 13006KT 9SM SCT027 OVC037 18/16 A3000 RMK AO2 SLP158 T01830156 $
