2024/03/09 07:53
KLAX 090753Z 09004KT 10SM CLR 13/11 A3013 RMK AO2 SLP203 T01280111 402060094 $
