2025/03/19 07:53
KLAX 190753Z 08005KT 10SM CLR 11/04 A3029 RMK AO2 SLP254 T01060039 401720089 $
