2022/10/09 02:53
KLAX 090253Z 25007KT 7SM BKN006 20/18 A3000 RMK AO2 SLP158 T02000178 53008 $
