2023/11/28 15:53
KLAX 281553Z 00000KT 10SM FEW180 SCT250 15/M02 A3015 RMK AO2 SLP210 T01501017 $
