2025/11/14 21:53
KLAX 142153Z 09011KT 9SM FEW010 BKN030 18/16 A2993 RMK AO2 RAB21RAEMM SLP135 VCSH SW-NW P0000 T01780156 $
