2023/04/12 21:53
KLAX 122153Z 27008KT 10SM OVC018 14/12 A2985 RMK AO2 SLP107 T01440117 $
