2022/12/07 10:53
KLAX 071053Z 07003KT 10SM FEW018 FEW060 09/07 A3010 RMK AO2 SLP192 T00940072 $
