2022/09/15 03:53
KLAX 150353Z 24004KT 10SM CLR 21/17 A2989 RMK AO2 SLP120 T02110167 $
