2024/02/17 09:53
KLAX 170953Z 25003KT 10SM BKN013 13/11 A3008 RMK AO2 SLP186 T01280111
