2022/10/19 03:53
KLAX 190353Z VRB04KT 10SM CLR 21/16 A2997 RMK AO2 SLP145 T02110156 $
