2023/07/03 21:53
KLAX 032153Z 26009KT 10SM FEW010 FEW250 19/15 A2990 RMK AO2 SLP124 T01890150
