2022/11/12 15:53
KLAX 121553Z VRB06KT 10SM FEW200 13/M01 A3007 RMK AO2 SLP180 T01331006
