2025/06/25 13:53
KLAX 251353Z 08005KT 8SM FEW013 OVC019 18/13 A3000 RMK AO2 SLP156 T01780133
