2025/02/21 13:53
KLAX 211353Z 10004KT 1SM R25L/P6000FT BR BKN002 12/12 A3005 RMK AO2 SLP173 VIS 1/2V1 1/2 T01220117
