2022/11/29 07:53
KLAX 290753Z 35004KT 10SM -DZ BKN016 OVC034 14/11 A2990 RMK AO2 RAB41E50DZB50 SLP122 P0000 T01440111 401720122
