2023/07/16 01:53
KLAX 160153Z 25007KT 10SM FEW008 SCT200 19/16 A2983 RMK AO2 SLP100 T01890161
