2024/09/17 11:53
KLAX 171153Z 09006KT 10SM FEW016 BKN025 16/12 A2994 RMK AO2 SLP134 T01610122 10172 20144 52004 $
