2024/04/21 23:53
KLAX 212353Z 25012KT 7SM OVC007 15/13 A2992 RMK AO2 SLP130 T01500128 10167 20150 56016
