2023/09/01 19:53
KLAX 011953Z 15008KT 120V190 10SM FEW017 FEW090 SCT180 26/17 A2988 RMK AO2 SLP115 T02610172
