2024/11/29 03:53
KLAX 290353Z 36007KT 10SM FEW230 SCT280 18/M04 A3003 RMK AO2 SLP166 T01781039 $
