2025/08/17 17:53
KLAX 171753Z 26007KT 10SM BKN023 23/16 A3001 RMK AO2 SLP159 T02280161 10228 20194 55001 $
