2024/03/16 03:53
KLAX 160353Z 20005KT 10SM BKN120 BKN180 16/08 A2992 RMK AO2 SLP129 T01560083 $
