2023/06/19 07:53
KLAX 190753Z 19004KT 10SM BKN022 17/13 A2991 RMK AO2 SLP126 T01670133 402000161
