2024/10/30 07:53
KLAX 300753Z 06009G14KT 10SM CLR 14/10 A3003 RMK AO2 SLP166 T01440100 402060139 $
