2026/01/22 15:53
KLAX 221553Z 04010KT 5SM BR FEW012 SCT018 BKN110 OVC200 14/13 A2998 RMK AO2 SLP151 T01440128 $
