2024/05/21 16:53
KLAX 211653Z 25007KT 220V280 10SM SCT025 BKN033 17/11 A2997 RMK AO2 SLP150 T01670111
