2024/01/02 17:53
KLAX 021753Z 10008KT 10SM FEW160 SCT250 15/09 A3027 RMK AO2 SLP249 T01500089 10150 20083 53018 $
