2025/05/12 07:53
KLAX 120753Z 00000KT 10SM FEW250 17/14 A2991 RMK AO2 SLP124 T01720144 402560161 $
