2024/01/29 17:53
KLAX 291753Z 08005KT 10SM FEW180 FEW250 21/06 A3013 RMK AO2 SLP203 T02110056 10211 20122 50004 $
