2023/04/23 05:53
KLAX 230553Z 16004KT 9SM CLR 16/12 A2980 RMK AO2 SLP087 T01610122 10217 20161 50002
