2023/07/14 21:53
KLAX 142153Z 26009KT 10SM FEW009 FEW150 24/16 A2985 RMK AO2 SLP108 T02390156
