2025/05/01 21:53
KLAX 012153Z 25012KT 10SM FEW021 FEW200 18/11 A2995 RMK AO2 SLP142 T01830106 $
