2023/06/11 19:53
KLAX 111953Z 24005KT 10SM FEW025 OVC038 18/14 A2993 RMK AO2 SLP135 T01780139
