2024/12/23 11:53
KLAX 231153Z 11008KT 3SM BR FEW003 OVC005 13/12 A3011 RMK AO2 SLP196 VIS SW-N 2 1/2 T01330117 10144 20128 58002
