2025/07/27 12:02
KLAX 271202Z 08003KT 10SM BKN017 17/14 A2998 RMK AO2 T01670144
