2023/07/30 11:53
KLAX 301153Z 12003KT 7SM FEW005 20/18 A2986 RMK AO2 SLP110 T02000183 10217 20200 56009 $
