2025/02/27 09:53
KLAX 270953Z 00000KT 10SM FEW002 FEW008 13/10 A3001 RMK AO2 SLP160 T01280100
