2026/05/28 02:53
KLAX 280253Z 25011KT 10SM FEW023 16/10 A2989 RMK AO2 SLP120 T01560100 53014 $
