2024/01/30 03:53
KLAX 300353Z 25004KT 10SM CLR 16/11 A3006 RMK AO2 SLP179 T01560111 $
