2025/02/02 21:53
KLAX 022153Z 27008KT 4SM HZ FEW008 SCT200 17/13 A3004 RMK AO2 SLP172 T01670128
