2024/07/24 07:53
KLAX 240753Z 27008KT 10SM CLR 19/17 A2997 RMK AO2 SLP147 T01940167 402390183 $
