2023/01/22 15:53
KLAX 221553Z 09004KT 10SM SCT230 BKN280 07/01 A3008 RMK AO2 SLP184 T00670011 $
