2024/02/03 05:53
KLAX 030553Z 27015KT 10SM FEW026 SCT170 SCT230 13/07 A3000 RMK AO2 SLP159 T01280072 10150 20122 53007 $
