2026/06/27 08:53
KLAX 270853Z 34004KT 10SM BKN021 18/14 A2994 RMK AO2 SLP135 T01780139 56008
