2023/02/13 13:53
KLAX 131353Z 07003KT 10SM FEW010 BKN012 BKN035 10/07 A2991 RMK AO2 SLP126 BKN012 V SCT T01000067 $
