2026/07/01 15:53
KLAX 011553Z 25005KT 10SM BKN019 BKN024 OVC034 19/14 A2994 RMK AO2 SLP135 T01890144 $
