2024/05/12 23:53
KLAX 122353Z 26012G20KT 8SM SCT013 18/13 A2990 RMK AO2 SLP122 T01780128 10194 20172 56013 $
