2026/05/27 10:53
KLAX 271053Z 35004KT 10SM BKN022 BKN034 14/10 A2979 RMK AO2 SLP087 T01440100 $
