2022/10/18 07:53
KLAX 180753Z 23003KT 10SM CLR 19/16 A2998 RMK AO2 SLP151 T01890161 402330150 $
