2024/11/24 01:53
KLAX 240153Z 31004KT 9SM SCT011 OVC022 15/12 A2997 RMK AO2 SLP146 T01500122
