2023/10/16 13:53
KLAX 161353Z 10004KT 10SM FEW005 SCT009 16/15 A3000 RMK AO2 SLP155 T01610150
