2022/12/11 11:53
KLAX 111153Z 16012G18KT 5SM -RA BR OVC016 14/13 A2992 RMK AO2 SLP131 P0008 60015 70015 T01390128 10150 20139 58025 $
