2023/09/10 15:53
KLAX 101553Z 10004KT 10SM SCT140 BKN160 BKN200 26/17 A2994 RMK AO2 SLP135 T02560167
