2023/01/08 07:53
KLAX 080753Z VRB03KT 9SM FEW015 FEW150 BKN200 13/09 A3018 RMK AO2 SLP218 T01280089 402000089 $
