2024/04/05 17:53
KLAX 051753Z 00000KT 10SM FEW015 SCT039 BKN045 12/07 A2997 RMK AO2 SLP150 60007 T01220067 10128 20072 53013 $
