2025/04/13 00:31
KLAX 130031Z 25010KT 5SM BR BKN008 15/13 A2992 RMK AO2 T01500128 $
