2023/05/26 13:53
KLAX 261353Z 26007KT 10SM FEW013 FEW029 BKN045 16/11 A2994 RMK AO2 SLP136 T01560111 $
