2022/11/29 19:53
KLAX 291953Z 12006KT 9SM FEW032 BKN050 18/08 A2997 RMK AO2 SLP147 T01780083
