2026/02/13 11:53
KLAX 131153Z 00000KT 10SM FEW200 FEW250 10/07 A2996 RMK AO2 SLP143 T01000072 10156 20100 56013
