2025/09/09 15:53
KLAX 091553Z 16004KT 5SM HZ FEW009 SCT016 OVC019 21/17 A2996 RMK AO2 SLP142 T02060167 $
