2024/03/14 11:53
KLAX 141153Z 30004KT 10SM FEW011 FEW200 13/08 A2985 RMK AO2 SLP106 T01280083 10161 20111 58013 $
