2024/01/14 15:53
KLAX 141553Z 10004KT 10SM BKN021 09/05 A3006 RMK AO2 SLP178 T00940050 $
