2022/10/05 11:53
KLAX 051153Z 09003KT 7SM BKN008 BKN012 19/18 A2995 RMK AO2 SLP139 T01940178 10206 20189 56004
