2022/10/11 13:53
KLAX 111353Z VRB04KT 10SM FEW010 OVC018 20/17 A2997 RMK AO2 SLP149 T02000167 $
