2026/01/02 01:53
KLAX 020153Z 27008KT 10SM FEW015 FEW055 16/14 A3007 RMK AO2 SLP183 T01560139 $
