2024/02/22 05:53
KLAX 220553Z 24006KT 9SM FEW250 13/12 A3017 RMK AO2 SLP216 T01330122 10156 20133 53010 $
