2025/02/16 11:53
KLAX 161153Z 00000KT 10SM FEW250 11/07 A3011 RMK AO2 SLP193 T01110072 10144 20106 58012 $
