2023/05/31 23:53
KLAX 312353Z 25010KT 10SM OVC025 17/12 A2991 RMK AO2 SLP126 T01670117 10200 20167 58006
