2023/09/08 03:53
KLAX 080353Z 26009KT 10SM CLR 19/18 A2995 RMK AO2 SLP139 T01940178
