2025/07/26 02:53
KLAX 260253Z 25011KT 10SM FEW014 18/14 A2996 RMK AO2 SLP144 T01780144 55005 $
