2025/04/29 12:11
KLAX 291211Z 00000KT 10SM FEW010 SCT012 13/10 A3004 RMK AO2 T01330100 $
