2025/06/02 19:53
KLAX 021953Z 25010KT 10SM FEW012 SCT027 19/14 A2999 RMK AO2 SLP156 T01940144 $
