2026/01/28 17:53
KLAX 281753Z 00000KT 10SM FEW140 SCT180 BKN250 17/01 A3026 RMK AO2 SLP245 T01670006 10167 20111 51009
