2026/03/24 17:53
KLAX 241753Z 25004KT 6SM HZ SCT016 BKN140 20/15 A3002 RMK AO2 SLP164 T02000150 10200 20161 53010
