2025/03/05 21:53
KLAX 052153Z 25005KT 2 1/2SM RA BR SCT009 BKN012 OVC035 12/11 A2993 RMK AO2 SLP134 VIS 1V4 BKN V SCT P0011 T01220111
