2024/12/01 01:53
KLAX 010153Z 22004KT 10SM SCT120 BKN250 18/03 A3003 RMK AO2 SLP167 T01830033 $
