2023/05/27 13:53
KLAX 271353Z 27011KT 10SM FEW010 OVC036 16/12 A2996 RMK AO2 SLP145 T01560122
