2025/12/01 05:53
KLAX 010553Z 05005KT 10SM OVC019 15/12 A3000 RMK AO2 SLP159 T01500117 10156 20144 53007 $
