2023/12/31 15:53
KLAX 311553Z 11006KT 10SM SCT014 SCT038 BKN160 BKN230 OVC280 12/09 A3014 RMK AO2 SLP204 T01170094
