2024/05/10 05:53
KLAX 100553Z 28004KT 10SM FEW012 OVC016 15/12 A2999 RMK AO2 SLP153 T01500117 10183 20150 51009 $
