2026/02/01 15:53
KLAX 011553Z 05007KT 10SM CLR 18/02 A3006 RMK AO2 SLP179 T01780017 $
