2024/01/08 19:53
KLAX 081953Z 00000KT 10SM CLR 14/M07 A3025 RMK AO2 SLP243 T01441067
