2024/08/29 13:53
KLAX 291353Z 15004KT 7SM OVC013 19/16 A2999 RMK AO2 SLP155 T01890156
