2023/08/18 00:06
KLAX 180006Z 26017KT 8SM OVC008 20/17 A2983 RMK AO2 T02000167 $
