2022/08/24 17:53
KLAX 241753Z 23009KT 8SM FEW011 FEW200 26/19 A2987 RMK AO2 SLP115 T02560189 10261 20200 51008
