2024/06/01 21:53
KLAX 012153Z 25010KT 10SM SCT025 19/13 A2991 RMK AO2 SLP128 T01940128
