2022/10/14 02:53
KLAX 140253Z 24006KT 10SM OVC010 18/17 A2993 RMK AO2 SLP133 T01830167 53003
