2022/11/24 07:53
KLAX 240753Z 00000KT 10SM CLR 13/11 A3008 RMK AO2 SLP184 T01280106 402110083
