2022/11/10 07:53
KLAX 100753Z VRB05KT 10SM CLR 12/04 A3015 RMK AO2 SLP207 T01170044 401610111
