2024/03/23 21:53
KLAX 232153Z 26023G32KT 10SM FEW020 SCT034 BKN220 17/09 A2985 RMK AO2 PK WND 26032/2153 SLP107 T01670094 $
