2024/03/10 05:53
KLAX 100553Z 00000KT 10SM SCT280 14/11 A3012 RMK AO2 SLP197 T01390111 10167 20133 53011 $
