2025/10/15 21:53
KLAX 152153Z 26015KT 10SM FEW010 FEW060 19/08 A2998 RMK AO2 SLP152 T01890083 $
