2022/11/30 13:53
KLAX 301353Z 10004KT 10SM FEW008 FEW015 BKN024 12/09 A3001 RMK AO2 SLP160 T01170089
