2025/07/14 07:53
KLAX 140753Z 26006KT 5SM BR FEW002 OVC004 16/14 A2996 RMK AO2 SLP144 VIS SW-W 2 1/2 T01560144 402170156
