2026/05/01 06:53
KLAX 010653Z 00000KT 10SM FEW012 FEW016 16/13 A2993 RMK AO2 SLP133 T01610128
