2025/05/07 09:53
KLAX 070953Z 27006KT 10SM FEW016 SCT024 BKN030 15/12 A3000 RMK AO2 SLP158 T01500122 $
