2025/10/24 15:53
KLAX 241553Z 11003KT 7SM FEW009 18/14 A3003 RMK AO2 SLP168 T01830139
