2023/07/12 07:53
KLAX 120753Z 28004KT 1 1/4SM BR BKN002 16/15 A2998 RMK AO2 SLP148 VIS SW-W 3/4 T01560150 402170156 $
