2024/08/23 13:53
KLAX 231353Z 00000KT 10SM FEW012 BKN018 19/16 A2994 RMK AO2 SLP136 T01890161 $
