2025/04/04 07:53
KLAX 040753Z 23003KT 10SM FEW015 11/09 A3002 RMK AO2 SLP164 T01110094 401720089
