2025/07/16 19:53
KLAX 161953Z 23007G16KT 10SM FEW019 FEW028 22/14 A2996 RMK AO2 SLP143 T02220139 $
