2023/01/07 07:53
KLAX 070753Z 06004KT 10SM SCT180 12/06 A3015 RMK AO2 SLP208 T01220061 401670078 $
