2023/09/05 12:53
KLAX 051253Z 28004KT 10SM FEW009 BKN015 18/17 A2987 RMK AO2 SLP112 BKN V SCT T01830167 $
