2025/12/21 15:53
KLAX 211553Z 00000KT 2SM BR OVC005 13/13 A3011 RMK AO2 SLP193 VIS SW-NW 1 1/2SM T01330128 $
