2023/09/30 01:53
KLAX 300153Z 25007KT 10SM BKN036 19/15 A2984 RMK AO2 SLP102 T01890150
