2026/02/20 15:53
KLAX 201553Z 02003KT 10SM FEW090 SCT120 BKN160 BKN200 07/02 A3003 RMK AO2 SLP170 T00720017
