2023/10/13 07:53
KLAX 130753Z 03004KT 10SM BKN012 18/14 A2984 RMK AO2 SLP101 T01830144 402390150
