2022/09/13 11:53
KLAX 131153Z 25003KT 10SM FEW011 FEW070 SCT150 21/19 A2987 RMK AO2 SLP111 T02110194 10222 20211 55006 $
