2024/09/28 09:53
KLAX 280953Z 29003KT 7SM OVC006 14/13 A2984 RMK AO2 SLP104 T01440128
