2024/04/15 21:53
KLAX 152153Z 26014KT 10SM FEW019 FEW032 SCT150 SCT250 16/11 A3009 RMK AO2 SLP190 T01610106 $
