2024/03/10 17:53
KLAX 101753Z 20004KT 10SM FEW006 BKN250 BKN300 16/09 A3012 RMK AO2 SLP198 T01610094 10161 20094 51011 $
