2026/06/27 21:53
KLAX 272153Z 24013G27KT 10SM FEW016 FEW024 22/15 A2995 RMK AO2 PK WND 22027/2151 SLP142 T02220150
