2026/01/02 17:53
KLAX 021753Z 06005KT 10SM SCT043 BKN050 OVC060 17/12 A3010 RMK AO2 SLP190 T01670122 10167 20128 53014 $
