2023/03/08 13:53
KLAX 081353Z 08003KT 10SM FEW014 SCT017 SCT200 08/05 A3013 RMK AO2 SLP202 T00780050 $
