2025/02/16 07:53
KLAX 160753Z 00000KT 10SM FEW250 14/08 A3017 RMK AO2 SLP213 T01390078 401890083 $
