2024/04/17 09:53
KLAX 170953Z 00000KT 10SM FEW005 FEW009 SCT200 14/12 A3001 RMK AO2 SLP161 T01390122
