2023/01/12 15:53
KLAX 121553Z 04006KT 10SM FEW140 SCT180 BKN220 13/06 A3021 RMK AO2 SLP228 T01280056 $
