2022/12/30 17:53
KLAX 301753Z 09005KT 7SM BKN008 OVC013 14/13 A3013 RMK AO2 SLP202 60001 T01390128 10139 20133 53009
