2025/07/04 17:53
KLAX 041753Z 27008KT 9SM SCT022 21/15 A3004 RMK AO2 SLP170 T02110150 10211 20183 51008 $
