2026/05/19 21:53
KLAX 192153Z 26016KT 8SM FEW050 FEW250 22/14 A2994 RMK AO2 SLP136 FU FEW050 T02170144
