2025/11/21 07:53
KLAX 210753Z 06012KT 10SM SCT007 BKN029 OVC040 12/11 A2984 RMK AO2 RAE0657 SLP102 P0000 T01220111 401670106 $
