2026/05/31 09:53
KLAX 310953Z 34003KT 8SM FEW010 16/14 A2991 RMK AO2 SLP126 T01610144 $
