2023/03/29 01:53
KLAX 290153Z 26011KT 10SM FEW020 FEW150 SCT250 13/09 A3003 RMK AO2 SLP168 ACSL N-NE T01280094 $
