2025/12/01 07:53
KLAX 010753Z 06004KT 10SM SCT018 14/11 A3001 RMK AO2 SLP161 T01440111 401780117 $
