2024/05/26 05:53
KLAX 260553Z 27004KT 10SM FEW015 14/11 A3001 RMK AO2 SLP161 T01440111 10178 20139 50008
