2023/02/06 03:53
KLAX 060353Z 25009KT 10SM FEW050 13/08 A3013 RMK AO2 SLP201 T01330083 $
