2024/03/09 11:53
KLAX 091153Z 07003KT 9SM BKN300 10/09 A3010 RMK AO2 SLP192 T01000089 10144 20100 58010 $
