2023/04/06 07:53
KLAX 060753Z 09004KT 10SM BKN250 11/06 A3009 RMK AO2 SLP188 T01060056 401830083 $
