2023/03/26 15:53
KLAX 261553Z VRB06G16KT 10SM FEW055 FEW280 13/M03 A3012 RMK AO2 SLP199 T01331028 $
