2025/07/02 05:53
KLAX 020553Z 26010KT 10SM OVC008 17/14 A2986 RMK AO2 SLP109 T01670144 10200 20167 53009
