2025/12/30 01:53
KLAX 300153Z 00000KT 10SM FEW250 19/M05 A3010 RMK AO2 SLP191 T01941050 $
