2024/10/08 15:53
KLAX 081553Z 00000KT 1/8SM R25L/1800V5000FT FG VV002 15/15 A2988 RMK AO2 SLP117 T01500150
