2024/08/29 19:53
KLAX 291953Z 25010KT 9SM FEW017 22/16 A3001 RMK AO2 SLP160 T02220156
