2025/06/15 05:53
KLAX 150553Z 00000KT 9SM FEW250 17/14 A2989 RMK AO2 SLP119 T01720144 10194 20167 50002 $
