2023/11/16 21:53
KLAX 162153Z 25010KT 10SM FEW011 SCT025 BKN039 21/16 A2996 RMK AO2 SLP145 T02060156
