2024/10/27 23:53
KLAX 272353Z 26008KT 10SM FEW010 FEW150 BKN200 20/16 A2995 RMK AO2 SLP141 T02000156 10250 20194 58074 $
