2024/08/23 03:53
KLAX 230353Z 25007KT 10SM CLR 19/16 A2990 RMK AO2 SLP123 T01940156 $
