2024/01/29 01:53
KLAX 290153Z 31006KT 10SM FEW200 SCT250 22/00 A3010 RMK AO2 SLP193 T02170000 $
