2023/05/06 17:53
KLAX 061753Z 23010KT 10SM SCT025 SCT200 18/09 A3012 RMK AO2 SLP197 T01780089 10178 20106 53011
