2023/11/10 17:53
KLAX 101753Z VRB03KT 10SM SCT120 BKN180 BKN280 20/M04 A3006 RMK AO2 SLP178 T02001039 10200 20100 50007
