2024/11/08 15:53
KLAX 081553Z 06004KT 10SM CLR 16/M06 A3016 RMK AO2 SLP211 T01561056 $
