2024/05/01 15:53
KLAX 011553Z 22005KT 10SM SCT017 BKN022 17/12 A2988 RMK AO2 SLP118 T01670122 $
