2024/01/30 23:53
KLAX 302353Z 25008KT 10SM SCT180 SCT230 BKN280 17/09 A3000 RMK AO2 SLP159 T01720094 10222 20167 55009 $
