2025/12/12 09:53
KLAX 120953Z 08003KT 10SM FEW002 14/13 A3001 RMK AO2 SLP159 T01390128 $
