2025/08/03 13:53
KLAX 031353Z 00000KT 5SM BR OVC008 18/16 A3002 RMK AO2 SLP165 T01780156 $
