2025/11/29 01:53
KLAX 290153Z 27008KT 10SM SCT006 16/14 A2999 RMK AO2 SLP155 T01560144 $
