2025/07/03 05:53
KLAX 030553Z 23003KT 10SM BKN012 18/15 A2989 RMK AO2 SLP120 T01780150 10194 20172 51014 $
