2025/04/10 09:53
KLAX 100953Z 26004KT 10SM FEW250 15/12 A3010 RMK AO2 SLP191 T01500117 $
