2026/04/03 03:53
KLAX 030353Z 26013KT 10SM FEW055 16/13 A2993 RMK AO2 SLP134 T01610128 $
