2024/12/31 23:53
KLAX 312353Z 26009KT 4SM HZ FEW011 SCT023 BKN140 13/07 A3003 RMK AO2 SLP170 T01330072 10161 20111 56004 $
