2022/09/07 17:53
KLAX 071753Z 25005KT 9SM FEW025 FEW160 29/20 A2995 RMK AO2 SLP141 T02940200 10294 20228 50005 $
