2023/04/09 01:53
KLAX 090153Z 24007KT 10SM BKN010 14/12 A3005 RMK AO2 SLP175 T01390117
