2023/08/06 03:53
KLAX 060353Z 24004KT 10SM BKN010 20/18 A2988 RMK A02 SLP115T02000178 
