2023/10/09 07:53
KLAX 090753Z 14005KT 3SM BR FEW002 OVC004 17/17 A2986 RMK AO2 SLP108 VIS SW-N 2 T01720167 402170161
