2024/09/06 11:53
KLAX 061153Z 10003KT 10SM SCT150 BKN200 23/17 A2982 RMK AO2 SLP095 T02330172 10244 20228 56005 $
