2023/04/21 05:53
KLAX 210553Z 15003KT 10SM CLR 19/07 A3011 RMK AO2 SLP195 T01940072 10200 20172 51011 $
