2025/06/28 19:53
KLAX 281953Z 25009KT 5SM HZ FEW200 23/16 A2999 RMK AO2 SLP156 T02280156 $
