2026/05/22 03:10
KLAX 220310Z 24007KT 10SM SCT009 16/14 A2984 RMK AO2 T01610139 $
