2023/08/07 13:53
KLAX 071353Z VRB03KT 4SM BR BKN011 19/17 A3000 RMK AO2 SLP155 T01890172 
