2024/11/29 19:53
KLAX 291953Z 36008G15KT 320V020 10SM FEW080 FEW160 SCT180 BKN250 23/M05 A3002 RMK AO2 SLP166 T02331050 $
