2026/01/22 03:53
KLAX 220353Z 06005KT 7SM BKN160 OVC250 15/13 A3002 RMK AO2 SLP165 T01500128 $
