2025/04/20 01:53
KLAX 200153Z 23013KT 10SM FEW020 15/11 A3008 RMK AO2 SLP183 T01500111 $
