2025/02/05 11:53
KLAX 051153Z 09008KT 2 1/2SM -RA BR SCT004 BKN006 OVC012 12/11 A3005 RMK AO2 SLP175 VIS N 2 P0003 60019 70019 T01170111 10139 20117 58005 $
