2023/05/04 11:53
KLAX 041153Z VRB05KT 9SM -RA BKN009 BKN018 OVC040 12/11 A2984 RMK AO2 SLP102 CB DSNT N P0006 60010 70010 T01220111 10139 20122 55002
