2025/01/27 11:53
KLAX 271153Z 06005KT 10SM FEW010 FEW020 BKN045 09/07 A3005 RMK AO2 SLP176 60058 70092 T00890067 10106 20089 56005 $
