2023/10/06 13:53
KLAX 061353Z 00000KT 1SM R25L/P6000FT BCFG BR FEW000 SCT001 18/17 A2990 RMK AO2 SLP123 VIS 1/4V1 1/2 FG FEW000 T01780172 $
