2022/12/18 19:53
KLAX 181953Z 00000KT 10SM CLR 18/M03 A2999 RMK AO2 SLP155 T01781028 $
