2024/11/16 17:53
KLAX 161753Z 01008KT 10SM FEW110 17/00 A2996 RMK AO2 SLP145 T01720000 10172 20089 51008 $
