2022/12/10 03:53
KLAX 100353Z 00000KT 10SM FEW017 13/08 A3012 RMK AO2 SLP200 T01330083 $
