2023/07/17 19:53
KLAX 171953Z 26008KT 9SM FEW010 FEW120 SCT160 24/17 A2994 RMK AO2 SLP137 T02390172 $
