2023/04/07 17:53
KLAX 071753Z 17004KT 10SM FEW180 19/06 A3006 RMK AO2 SLP178 T01940056 10194 20111 51002
