2024/04/29 17:53
KLAX 291753Z 25009KT 10SM MIFG FEW000 FEW009 17/13 A2995 RMK AO2 SLP140 VIS W 1/2 FG FEW000 T01720133 10189 20133 53001
