2022/09/03 03:53
KLAX 030353Z 00000KT 10SM FEW070 24/18 A2978 RMK AO2 SLP082 T02390178
