2025/07/01 07:53
KLAX 010753Z 25007KT 10SM OVC008 16/14 A2988 RMK AO2 SLP116 T01610144 402220161
