2025/04/03 11:53
KLAX 031153Z 07007KT 10SM FEW070 FEW250 11/07 A2988 RMK AO2 SLP117 T01060072 10122 20100 55002
