2024/11/22 21:53
KLAX 222153Z 26008KT 10SM FEW100 FEW180 SCT250 17/10 A3000 RMK AO2 SLP157 T01720100
