2024/05/20 23:53
KLAX 202353Z 26017KT 10SM FEW015 17/11 A2996 RMK AO2 SLP143 T01720111 10183 20150 $
