2022/10/24 17:53
KLAX 241753Z 25003KT 10SM CLR 21/01 A3016 RMK AO2 SLP211 T02110006 10211 20122 51021
