2024/09/05 15:53
KLAX 051553Z 24005KT 10SM CLR 26/19 A2990 RMK AO2 SLP123 T02560194 $
