2025/06/13 13:53
KLAX 131353Z 14006KT 8SM FEW012 OVC016 17/14 A2987 RMK AO2 SLP115 T01720139
