2025/07/26 07:53
KLAX 260753Z 24003KT 10SM FEW010 SCT015 17/14 A3000 RMK AO2 SLP157 T01670144 402220167 $
