2025/08/16 19:53
KLAX 161953Z 23009KT 10SM FEW015 OVC023 22/16 A3004 RMK AO2 SLP169 T02170156 $
