2023/07/07 15:53
KLAX 071553Z 07004KT 7SM FEW009 OVC022 18/13 A2990 RMK AO2 SLP123 T01830128
