2023/11/06 17:53
KLAX 061753Z 16004KT 5SM HZ FEW003 21/14 A2997 RMK AO2 SLP148 T02060144 10211 20144 50009
