2025/08/31 13:53
KLAX 311353Z 24004KT 8SM SCT006 SCT150 20/19 A2992 RMK AO2 SLP129 T02000189 $
