2024/03/16 05:53
KLAX 160553Z 10008KT 10SM FEW017 BKN120 14/10 A2997 RMK AO2 SLP145 T01390100 10178 20139 51023 $
