2022/09/11 09:53
KLAX 110953Z 05004KT 10SM BKN030 24/21 A2994 RMK AO2 SLP135 T02440206 $
