2022/09/17 19:53
KLAX 171953Z 25009KT 210V280 10SM FEW034 BKN039 24/16 A2983 RMK AO2 SLP101 T02390161 $
