2025/07/21 11:53
KLAX 211153Z 15004KT 10SM FEW008 OVC015 19/16 A2996 RMK AO2 SLP141 T01890156 10194 20189 55002 $
