2023/01/17 23:53
KLAX 172353Z 25010KT 10SM FEW010 FEW070 14/06 A2992 RMK AO2 SLP130 T01390056 10144 20128 53003 $
