2024/05/23 15:53
KLAX 231553Z 25006KT 10SM BKN018 BKN024 OVC029 16/12 A2995 RMK A02 SLP141 T01610117 
