2025/01/03 09:53
KLAX 030953Z 00000KT 1/2SM R25L/1600V1800FT FG VV001 10/10 A3007 RMK AO2 SLP181 VIS 1/8V1 T01000100
