2024/10/04 15:53
KLAX 041553Z 08004KT 3SM BR BKN009 BKN170 OVC200 19/17 A2993 RMK AO2 SLP134 VIS SE-SW 2 1/2 T01890167
