2025/08/16 23:53
KLAX 162353Z 27014KT 10SM FEW017 23/16 A2999 RMK AO2 SLP153 T02280161 10233 20211 56014 $
