2024/02/02 11:53
KLAX 021153Z 30008KT 10SM BKN040 BKN070 12/08 A2983 RMK AO2 RAE01B26E45 SLP101 P0000 60004 70244 T01170083 10133 20111 52005 $
