2023/07/28 13:53
KLAX 281353Z 14003KT 7SM FEW007 FEW220 20/18 A2990 RMK AO2 SLP124 T02000183 $
