2023/07/17 15:53
KLAX 171553Z 24006KT 6SM HZ SCT006 SCT100 BKN140 20/17 A2994 RMK AO2 SLP138 T02000172 $
