2024/08/12 21:53
KLAX 122153Z 26012KT 10SM FEW009 23/17 A2993 RMK AO2 SLP132 T02330172
