2025/12/20 03:53
KLAX 200353Z 16003KT 5SM R25L/3000VP6000FT BCFG BR FEW000 FEW002 14/14 A3001 RMK AO2 SLP160 FG FEW000 OCNL FG ON RWYS T01390139
