2025/09/07 05:53
KLAX 070553Z 24006KT 10SM FEW012 20/18 A3000 RMK AO2 SLP155 T02000178 10233 20200 51017
