2025/10/15 19:53
KLAX 151953Z 26010KT 10SM FEW010 FEW025 19/08 A3001 RMK AO2 SLP162 T01940083 $
