2024/02/05 13:53
KLAX 051353Z 11011KT 5SM -RA BR SCT003 BKN005 OVC010 13/13 A2986 RMK AO2 SLP110 P0009 T01330133 $
