2023/04/05 15:53
KLAX 051553Z 04006KT 10SM CLR 13/02 A3014 RMK AO2 SLP206 T01330017 $
