2023/12/12 03:53
KLAX 120353Z 00000KT 10SM FEW250 16/12 A2988 RMK AO2 SLP117 T01560122 $
