2024/02/28 13:53
KLAX 281353Z 09003KT 10SM FEW010 10/09 A3003 RMK AO2 SLP167 T01000089 $
