2023/04/25 09:53
KLAX 250953Z 26003KT 8SM FEW008 OVC011 15/12 A2989 RMK AO2 SLP118 T01500122 $
