2025/03/28 03:53
KLAX 280353Z 26010KT 10SM FEW005 BKN039 15/12 A3002 RMK AO2 SLP164 T01500122 $
