2024/10/30 19:53
KLAX 301953Z 29006KT 10SM FEW047 SCT100 BKN140 BKN180 21/09 A3011 RMK AO2 SLP197 T02060089 $
