2025/06/09 11:53
KLAX 091153Z 00000KT 8SM OVC009 16/14 A2993 RMK AO2 DZB39E50 SLP132 P0000 60000 T01610139 10167 20156 53001 $
