2025/08/22 05:53
KLAX 220553Z 00000KT 10SM FEW200 FEW250 23/18 A2983 RMK AO2 SLP100 T02330178 10267 20228 50013
