2024/09/04 11:53
KLAX 041153Z 26004KT 10SM FEW010 19/18 A2990 RMK AO2 SLP121 T01940178 10206 20189 53001 $
