2023/02/24 03:53
KLAX 240353Z 11004KT 10SM -RA FEW029 BKN039 BKN055 09/04 A3004 RMK AO2 RAB50 SLP171 P0000 T00890044
