2026/02/25 13:53
KLAX 251353Z 00000KT 10SM FEW012 FEW250 SCT280 14/11 A3002 RMK AO2 SLP166 T01390106
