2023/06/20 19:53
KLAX 201953Z 26012KT 10SM FEW030 FEW060 21/14 A3001 RMK AO2 SLP162 T02110144
