2025/05/04 21:53
KLAX 042153Z 24006KT 10SM BKN020 OVC027 16/11 A2978 RMK AO2 SLP082 T01560106
