2023/07/19 03:53
KLAX 190353Z 27008KT 10SM FEW010 19/17 A2994 RMK AO2 SLP137 T01890172 $
