2024/01/28 21:53
KLAX 282153Z 20008KT 10SM FEW200 SCT300 24/06 A3010 RMK AO2 SLP191 T02390056
