2026/02/20 17:53
KLAX 201753Z 33003KT 10SM FEW100 FEW120 SCT160 BKN250 11/02 A3005 RMK AO2 SLP176 T01110017 10111 20050 51013 $
