2025/03/26 21:53
KLAX 262153Z 24008KT 10SM FEW013 OVC029 16/11 A3007 RMK AO2 SLP181 T01560106 $
