2025/05/20 13:53
KLAX 201353Z 00000KT 6SM BR FEW013 17/15 A2993 RMK AO2 SLP135 T01670150
