2023/09/30 19:59
KLAX 301959Z 27012KT 10SM OVC018 18/15 A2986 RMK AO2 RAE55 P0000 T01830150 $
