2025/11/09 03:53
KLAX 090353Z 15003KT 3SM BR OVC008 18/16 A2999 RMK AO2 SLP154 T01780156
