2022/11/21 19:53
KLAX 211953Z 01004KT 10SM SCT090 BKN180 BKN250 24/M08 A3011 RMK AO2 SLP194 T02391078 $
