2024/04/09 13:53
KLAX 091353Z 09003KT 10SM CLR 12/04 A3005 RMK AO2 SLP173 T01170044 $
