2023/09/28 03:53
KLAX 280353Z 23005KT 10SM FEW008 19/18 A2986 RMK AO2 SLP108 T01890178 $
