2024/03/09 03:53
KLAX 090353Z 24007KT 10SM FEW220 FEW270 14/12 A3012 RMK AO2 SLP197 T01390117 $
