2022/10/11 19:53
KLAX 111953Z 25005KT 10SM FEW017 SCT024 SCT050 23/16 A2998 RMK AO2 SLP149 CB DSNT NE T02280161
