2025/09/02 11:53
KLAX 021153Z 00000KT 6SM BR FEW005 SCT007 SCT110 BKN200 21/19 A2991 RMK AO2 SLP126 T02110194 10211 20206 55001 $
