2025/06/20 13:53
KLAX 201353Z 17003KT 7SM SCT011 OVC014 18/14 A2985 RMK AO2 SLP106 T01830144 $
