2026/04/05 07:53
KLAX 050753Z 10005KT 10SM CLR 17/09 A3000 RMK AO2 SLP155 T01670094 403060133 $
