2025/09/27 19:53
KLAX 271953Z 27008G20KT 10SM FEW017 BKN024 OVC032 22/16 A2990 RMK AO2 SLP124 T02170156 $
