2024/05/23 06:53
KLAX 230653Z 21003KT 10SM FEW012 OVC020 16/12 A2996 RMK SLP145 T01560122 
