2025/05/01 23:53
KLAX 012353Z 25012KT 10SM FEW014 FEW060 17/12 A2993 RMK AO2 SLP135 T01720117 10189 20167 56011 $
