2024/03/30 03:53
KLAX 300353Z 17013G20KT 10SM FEW031 SCT060 SCT090 BKN140 BKN230 14/07 A2985 RMK AO2 SLP107 T01390072
