2026/06/17 22:19
KLAX 172219Z 25013KT 10SM BKN013 20/14 A2994 RMK AO2 T02000144 $
