2023/04/12 11:53
KLAX 121153Z 00000KT 4SM BR FEW003 OVC007 13/11 A2990 RMK AO2 SLP122 T01280111 10133 20122 56011 $
