2024/12/20 17:53
KLAX 201753Z 00000KT 5SM BCFG BR FEW000 SCT004 12/11 A3021 RMK AO2 SLP229 VIS S-NW 1 FG FEW000 T01220106 10122 20094 52016
