2023/09/02 05:53
KLAX 020553Z 15007KT 10SM OVC018 22/18 A2994 RMK AO2 SLP135 T02170178 10228 20211 51012
