2023/04/30 21:53
KLAX 302153Z 24008KT 10SM FEW012 OVC018 17/13 A2990 RMK AO2 SLP126 T01670128
