2024/05/02 05:53
KLAX 020553Z 00000KT 10SM FEW010 15/12 A2989 RMK AO2 SLP118 T01500122 10178 20144 51017 $
