2023/07/31 09:53
KLAX 310953Z 00000KT 8SM FEW006 FEW009 SCT180 21/19 A2988 RMK AO2 SLP116 T02060194 $
