2024/06/02 15:53
KLAX 021553Z 26005KT 10SM SCT010 OVC018 16/13 A2994 RMK AO2 SLP138 T01560128
