2024/12/31 19:53
KLAX 311953Z 00000KT 4SM BR FEW011 SCT015 BKN140 13/10 A3007 RMK AO2 SLP183 T01330100 $
