2025/03/05 17:53
KLAX 051753Z 00000KT 7SM BKN015 BKN060 OVC070 13/10 A3003 RMK AO2 RAE02B26E50 SLP166 P0000 60000 T01330100 10133 20106 58002
