2026/06/17 19:53
KLAX 171953Z 24012G19KT 10SM FEW011 SCT020 21/15 A2995 RMK AO2 SLP140 T02110150 $
