2024/01/31 15:53
KLAX 311553Z 10005KT 8SM FEW029 BKN140 BKN180 BKN250 13/09 A2999 RMK AO2 SLP153 T01280094 $
