2025/06/21 09:53
KLAX 210953Z 16005KT 10SM FEW021 OVC028 18/13 A2983 RMK AO2 SLP099 T01830133
