2024/06/26 11:53
KLAX 261153Z 27003KT 9SM BKN008 17/16 A2997 RMK AO2 SLP145 T01720156 10178 20172 55003
