2025/01/02 15:53
KLAX 021553Z 13004KT 10SM FEW006 FEW250 10/06 A3011 RMK AO2 SLP196 T01000061 VISNO RWY24
