2025/01/01 03:53
KLAX 010353Z 00000KT 4SM HZ BKN010 BKN015 12/07 A3007 RMK AO2 SLP182 T01220072 $
