2024/12/22 09:53
KLAX 220953Z 00000KT 9SM BKN250 12/11 A3013 RMK AO2 SLP201 T01170106
