2022/11/14 15:53
KLAX 141553Z 07006KT 10SM FEW180 13/03 A3013 RMK AO2 SLP201 T01330028 $
