2023/09/05 17:53
KLAX 051753Z 22008KT 8SM FEW009 OVC026 21/17 A2993 RMK AO2 SLP135 T02060167 10211 20183 53013 $
