2023/11/13 17:53
KLAX 131753Z 10008KT 10SM FEW009 SCT100 BKN160 BKN250 21/00 A3003 RMK AO2 SLP169 T02110000 10217 20117 51003
