2025/12/13 07:53
KLAX 130753Z 00000KT 3SM BR BKN008 14/13 A3004 RMK AO2 VIS 2 RWY24 SLP171 T01390128 402000117 $
