2023/11/15 03:53
KLAX 150353Z 21003KT 10SM FEW200 SCT250 17/10 A2994 RMK AO2 SLP139 T01720100
