2024/09/07 15:53
KLAX 071553Z 26007KT 10SM SCT180 26/19 A2981 RMK AO2 SLP092 T02560194
