2024/08/26 07:53
KLAX 260753Z 00000KT 10SM FEW010 19/17 A3005 RMK AO2 SLP172 T01940167 402560172 $
