2026/05/26 15:02
KLAX 261502Z 18008KT 10SM SCT025 OVC041 17/11 A2989 RMK AO2 SCT V BKN T01670111 $
