2024/02/29 07:53
KLAX 290753Z 24005KT 10SM FEW007 BKN011 14/12 A3009 RMK AO2 SLP187 T01390117 401780100 $
