2025/09/06 15:53
KLAX 061553Z 31003KT 6SM HZ FEW016 22/17 A2996 RMK AO2 SLP143 T02170167
