2025/07/01 19:53
KLAX 011953Z 27011G18KT 9SM FEW019 FEW080 20/14 A2990 RMK AO2 SLP123 T02000139
