2022/10/09 17:53
KLAX 091753Z 29005KT 6SM HZ BKN011 21/17 A3006 RMK AO2 SLP178 T02110167 10211 20189 50008 $
