2025/09/18 05:53
KLAX 180553Z 00000KT 10SM FEW060 FEW110 BKN150 OVC200 22/17 A2986 RMK AO2 SLP109 T02170172 10222 20200 56016
