2022/10/12 07:53
KLAX 120753Z 23006KT 10SM FEW012 FEW070 SCT110 19/17 A3004 RMK AO2 SLP171 T01940167 402390189
