2025/02/23 01:53
KLAX 230153Z 27010KT 8SM SCT004 BKN220 14/12 A3020 RMK AO2 SLP225 T01440122 $
