2025/12/25 15:53
KLAX 251553Z 10011KT 9SM FEW010 BKN070 BKN090 15/14 A3010 RMK AO2 SLP191 T01500139 $
