2025/06/26 13:53
KLAX 261353Z 13007KT 6SM HZ FEW009 OVC013 18/14 A2995 RMK AO2 SLP139 T01780144
