2022/10/03 05:53
KLAX 030553Z 24006KT 10SM FEW017 19/15 A2996 RMK AO2 SLP143 T01890150 10217 20189 51010
