2023/02/05 11:53
KLAX 051153Z VRB03KT 9SM SCT023 BKN029 OVC037 12/09 A3017 RMK AO2 SLP216 T01170094 10144 20100 58004 $
