2024/06/07 07:53
KLAX 070753Z 26006KT 3/4SM R25L/4500VP6000FT BR VV002 15/14 A2989 RMK AO2 SLP118 T01500144 401940144 $
