2024/02/20 19:53
KLAX 201953Z 11010KT 4SM -RA BR SCT004 BKN008 OVC018 14/14 A3012 RMK AO2 RAB02 SLP197 P0020 T01440139 $
