2026/02/11 21:53
KLAX 112153Z 26008KT 10SM FEW010 FEW047 SCT090 BKN140 17/10 A3011 RMK AO2 SLP195 T01720100
