2023/12/29 21:53
KLAX 292153Z 26011KT 8SM FEW090 SCT140 BKN180 BKN250 17/13 A3008 RMK AO2 SLP187 T01670133 $
