2024/06/05 01:53
KLAX 050153Z 27010KT 10SM FEW015 FEW250 18/14 A2984 RMK AO2 SLP103 T01780139
