2023/10/13 17:53
KLAX 131753Z VRB03KT 10SM FEW012 SCT140 BKN160 23/15 A2991 RMK AO2 SLP128 T02280150 10228 20156 51014
