2025/07/08 15:53
KLAX 081553Z 22005KT 10SM FEW011 FEW220 SCT270 19/15 A3008 RMK AO2 SLP185 T01940150 $
