2024/06/09 19:53
KLAX 091953Z 26009KT 10SM FEW008 FEW019 OVC027 19/13 A2998 RMK AO2 SLP153 T01890133 $
