2022/10/07 17:53
KLAX 071753Z 26006KT 5SM HZ FEW010 FEW017 23/17 A3005 RMK AO2 SLP174 T02280172 10233 20200 57000
