2025/08/04 02:53
KLAX 040253Z 26010KT 10SM FEW008 18/16 A2993 RMK AO2 SLP132 T01830161 55007 $
