2024/11/05 03:53
KLAX 050353Z 00000KT 10SM CLR 17/11 A3001 RMK AO2 SLP162 T01670106 $
