2024/09/19 17:53
KLAX 191753Z VRB03KT 9SM SCT023 BKN033 BKN047 21/14 A2991 RMK AO2 SLP126 T02060144 10206 20183 51004 $
