2024/01/26 07:53
KLAX 260753Z 12005KT 10SM FEW009 FEW012 SCT200 12/11 A3017 RMK AO2 SLP215 T01220111 401610117 $
