2025/11/19 21:53
KLAX 192153Z 23012KT 10SM FEW023 FEW055 SCT100 SCT190 17/10 A3002 RMK AO2 SLP164 T01670100 $
