2025/07/26 20:53
KLAX 262053Z 22011KT 10SM FEW024 FEW026 SCT230 SCT270 22/13 A2999 RMK AO2 SLP154 T02220133 58010 $
