2023/05/30 05:53
KLAX 300553Z 27010KT 10SM FEW022 OVC038 16/12 A2999 RMK AO2 SLP154 T01610122 10189 20161 50006 $
