2023/11/19 19:53
KLAX 191953Z 26012KT 10SM FEW005 FEW030 19/12 A3007 RMK AO2 SLP180 T01940122
