2025/09/02 19:53
KLAX 021953Z 26014KT 7SM FEW006 SCT120 SCT170 SCT250 26/20 A2994 RMK AO2 SLP137 ACC OHD T02610200 $
