2023/10/30 15:53
KLAX 301553Z VRB04KT 10SM FEW100 SCT160 SCT250 17/M05 A3011 RMK AO2 SLP195 T01671050
