2023/08/04 07:53
KLAX 040753Z 23003KT 10SM FEW012 19/17 A2995 RMK SLP138 T01940167 
