2023/12/28 21:53
KLAX 282153Z 26007KT 9SM FEW045 SCT120 BKN180 16/11 A3013 RMK AO2 SLP203 T01610111 $
