2025/02/05 23:53
KLAX 052353Z 08006KT 10SM FEW009 BKN016 17/14 A3000 RMK AO2 SLP157 60009 T01720139 10172 20139 56016 $
