2026/02/05 07:53
KLAX 050753Z 00000KT 10SM CLR 20/M01 A3007 RMK AO2 SLP179 T02001006 403060122 $
