2025/09/30 23:53
KLAX 302353Z 25014KT 10SM FEW060 22/14 A2998 RMK AO2 SLP150 T02170144 10233 20211 56008 $
