2022/12/25 07:53
KLAX 250753Z VRB04KT 10SM SCT250 18/02 A3020 RMK AO2 SLP223 T01780022 402440094 $
