2026/03/04 12:06
KLAX 041206Z 00000KT 9SM SCT008 BKN011 13/12 A3000 RMK AO2 T01280117
