2025/05/19 13:53
KLAX 191353Z 09003KT 10SM FEW010 FEW018 15/12 A2998 RMK AO2 SLP150 FU FEW018 T01500122
