2024/06/19 09:53
KLAX 190953Z 16006KT 10SM FEW011 OVC015 18/14 A2979 RMK AO2 SLP086 T01830144 $
