2025/08/01 07:53
KLAX 010753Z 15003KT 10SM FEW008 FEW012 18/17 A3003 RMK AO2 SLP165 T01830167 402280172 $
