2025/07/08 21:53
KLAX 082153Z 26016KT 10SM FEW012 FEW150 22/14 A3006 RMK AO2 SLP179 T02170144 $
