2025/03/04 05:53
KLAX 040553Z 09004KT 10SM FEW190 SCT240 13/09 A3013 RMK AO2 SLP203 T01280089 10156 20128 53022 $
