2026/06/20 08:53
KLAX 200853Z 09005KT 10SM CLR 16/13 A2996 RMK AO2 SLP144 T01560133 56009
