2024/11/03 17:53
KLAX 031753Z 34012G22KT 300V020 10SM FEW095 21/04 A2987 RMK AO2 PK WND 34027/1705 SLP114 T02060044 10206 20139 52006
