2022/12/21 05:53
KLAX 210553Z 00000KT 10SM CLR 12/09 A3018 RMK AO2 SLP219 T01220089 10156 20122 51003
