2025/06/25 21:53
KLAX 252153Z 26014KT 10SM FEW015 21/14 A2995 RMK AO2 SLP141 T02110144
