2023/03/01 07:53
KLAX 010753Z 23016G21KT 9SM -RA FEW008 SCT012 OVC026 12/09 A2989 RMK AO2 RAB20E29B51 SLP120 P0000 T01170094 401390078
