2025/08/08 13:53
KLAX 081353Z VRB03KT 8SM FEW009 FEW050 SCT250 19/17 A2990 RMK AO2 SLP122 T01890167 $
