2023/09/23 03:53
KLAX 230353Z 22007KT 9SM SCT150 BKN200 18/14 A2998 RMK AO2 SLP149 T01830144 $
