2025/07/30 09:53
KLAX 300953Z 00000KT 10SM FEW008 18/16 A2999 RMK AO2 SLP154 T01780156 $
