2023/02/14 03:53
KLAX 140353Z 14005KT 10SM BKN015 BKN050 14/11 A2997 RMK AO2 SLP146 T01390106 $
