2025/02/21 21:53
KLAX 212153Z 27011KT 10SM SCT000 SCT210 BKN240 BKN280 16/13 A3007 RMK AO2 SLP183 VIS W-NW 1 1/2 FG FEW000 T01610133
