2022/10/19 21:53
KLAX 192153Z 23011KT 10SM FEW090 FEW250 33/08 A2993 RMK AO2 SLP134 T03280083 $
