2025/02/09 05:53
KLAX 090553Z 06003KT 10SM SCT250 12/10 A3008 RMK AO2 SLPNO T01220100 10156 20122 50004 $
