2025/08/18 09:53
KLAX 180953Z 00000KT 10SM FEW012 19/17 A2993 RMK AO2 SLP134 T01890167 $
