2025/09/15 17:53
KLAX 151753Z 22006KT 5SM HZ SCT016 24/17 A2990 RMK AO2 SLP124 T02390172 10239 20194 51007 $
