2023/01/12 03:53
KLAX 120353Z 28005KT 10SM FEW150 13/10 A3023 RMK AO2 SLP235 T01330100 $
