2025/11/06 09:53
KLAX 060953Z 08004KT 10SM CLR 13/11 A3016 RMK AO2 SLP212 T01330111 $
