2023/03/15 11:53
KLAX 151153Z 12007KT 2 1/2SM -RA BR FEW002 OVC004 14/14 A2989 RMK AO2 SLP121 VIS W-N 1 1/2 P0029 60188 70300 T01440139 10144 20133 56019 $
