2022/11/11 17:53
KLAX 111753Z VRB05KT 10SM FEW080 FEW130 SCT160 BKN250 19/00 A3010 RMK AO2 SLP193 T01890000 10189 20094 51010
