2024/11/10 03:53
KLAX 100353Z 26005KT 10SM CLR 15/12 A2995 RMK AO2 SLP140 T01500117
