2023/01/15 17:53
KLAX 151753Z 27007KT 10SM FEW021 BKN031 OVC060 14/11 A2991 RMK AO2 SLP126 T01440106 10144 20122 53020 $
