2023/11/04 05:53
KLAX 040553Z 00000KT 5SM BR SCT004 16/16 A3005 RMK AO2 SLP174 SW-W VIS 1 T01610156 10189 20156 51006
