2024/08/10 23:53
KLAX 102353Z 26009KT 10SM FEW010 FEW200 22/18 A2986 RMK AO2 SLP108 CB DSNT E T02220178 10256 20222 56006 $
