2026/05/14 15:53
KLAX 141553Z 14003KT 10SM FEW010 SCT015 OVC020 17/12 A3004 RMK AO2 SLP170 T01720122
