2024/05/17 07:53
KLAX 170753Z 27008KT 10SM FEW014 OVC025 15/12 A2998 RMK AO2 SLP151 T01500122 401940139
