2024/04/28 01:53
KLAX 280153Z 25008KT 10SM FEW075 16/11 A2999 RMK AO2 SLP156 T01560111
