2025/07/07 13:53
KLAX 071353Z 00000KT 5SM HZ FEW009 OVC014 18/14 A2995 RMK AO2 SLP141 T01780144 $
