2025/01/29 07:53
KLAX 290753Z 10007KT 10SM FEW015 FEW150 SCT250 11/08 A3008 RMK AO2 SLP182 T01060083 401610067
