2023/08/21 19:53
KLAX 211953Z 26012KT 10SM FEW035 SCT048 SCT060 24/17 A3001 RMK AO2 SLP160 T02390172
