2025/03/24 01:53
KLAX 240153Z 26008KT 10SM FEW200 FEW250 15/12 A2999 RMK AO2 SLP155 T01500122 $
