2024/01/03 07:53
KLAX 030753Z VRB03KT 10SM FEW012 FEW026 SCT150 SCT250 12/10 A3021 RMK AO2 SLP228 T01170100 401830083
