2025/05/03 23:53
KLAX 032353Z 27015KT 10SM BKN013 OVC020 16/13 A2989 RMK AO2 SLP120 T01560128 10172 20144 56017
