2024/03/28 15:53
KLAX 281553Z 13003KT 8SM FEW009 BKN012 BKN140 13/11 A3010 RMK AO2 SLP192 T01330106 $
