2023/06/05 15:53
KLAX 051553Z 00000KT 10SM FEW009 BKN018 OVC026 16/12 A2988 RMK AO2 SLP117 T01610117
