2024/09/10 05:53
KLAX 100553Z 24007KT 10SM FEW070 23/16 A2981 RMK AO2 SLP090 FU FEW070 T02330161 10294 20233 51013
