2024/10/14 18:53
KLAX 141853Z 00000KT 8SM SCT025 21/13 A3008 RMK AO2 SLP185 T02060133 $
