2023/05/02 11:53
KLAX 021153Z 25008KT 10SM FEW014 FEW020 SCT040 12/08 A2988 RMK AO2 SLP118 T01170078 10133 20117 56001
