2024/12/26 13:53
KLAX 261353Z 11005KT 10SM FEW160 SCT220 BKN280 09/06 A3004 RMK AO2 SLP172 T00940056
