2023/05/07 19:53
KLAX 071953Z 25012KT 10SM FEW033 SCT300 19/09 A3010 RMK AO2 SLP191 T01890089
