2025/06/06 01:53
KLAX 060153Z 25012KT 10SM BKN013 18/13 A2988 RMK AO2 SLP119 T01780133
