2026/03/04 05:53
KLAX 040553Z 24004KT 10SM FEW010 14/13 A3001 RMK AO2 SLP161 T01440128 10178 20144 53005
