2025/09/29 23:53
KLAX 292353Z 25016KT 10SM FEW018 FEW060 SCT150 22/16 A2994 RMK AO2 SLP138 T02170161 10239 20217 55008 $
