2026/01/14 21:53
KLAX 142153Z 26007KT 10SM FEW140 SCT180 SCT250 23/07 A3005 RMK AO2 SLP174 T02330072 $
