2022/11/13 13:53
KLAX 131353Z 02003KT 10SM CLR 11/05 A3000 RMK AO2 SLP158 T01110050 $
