2024/12/31 03:53
KLAX 310353Z 23005KT 9SM CLR 13/11 A3003 RMK AO2 SLP166 T01280111
