2025/12/17 21:53
KLAX 172153Z 27008KT 4SM HZ FEW008 SCT012 BKN140 17/13 A2998 RMK AO2 SLP152 T01720128 $
