2026/01/21 13:53
KLAX 211353Z 01003KT 5SM BR BKN009 OVC250 14/12 A3008 RMK AO2 SLP186 T01390122 $
