2024/06/14 09:53
KLAX 140953Z 26003KT 10SM OVC009 16/13 A2996 RMK AO2 SLP143 T01560133
