2026/03/17 15:53
KLAX 171553Z 08003KT 10SM FEW220 FEW260 SCT300 23/09 A2993 RMK AO2 SLP136 T02330094 $
