2023/01/20 03:53
KLAX 200353Z 35005KT 10SM BKN047 BKN070 12/09 A3007 RMK AO2 SLP185 T01220094
