2024/07/17 03:53
KLAX 170353Z 24008KT 10SM FEW090 19/15 A2993 RMK AO2 SLP133 T01940150
