2024/12/16 01:53
KLAX 160153Z 27010KT 10SM FEW250 13/11 A3015 RMK AO2 SLP209 T01280106 $
