2024/01/12 21:53
KLAX 122153Z 26008KT 10SM FEW180 16/02 A3013 RMK AO2 SLP203 T01560022 $
