2026/06/25 21:53
KLAX 252153Z 26012KT 10SM FEW010 22/14 A2991 RMK AO2 SLP128 T02170139
