2024/05/19 17:53
KLAX 191753Z 24009KT 10SM FEW023 BKN028 BKN032 17/11 A3006 RMK AO2 SLP178 T01720111 10178 20144 51002 $
