2024/07/22 17:53
KLAX 221753Z 26010KT 10SM FEW019 FEW160 SCT180 23/16 A2987 RMK AO2 SLP113 T02330161 10239 20189 53002 $
