2024/05/28 00:03
KLAX 280003Z 26011KT 10SM BKN014 17/12 A3003 RMK AO2 T01720122
