2025/08/24 17:53
KLAX 241753Z 26008KT 10SM FEW025 FEW140 SCT180 SCT250 24/18 A2991 RMK AO2 SLP125 T02440183 10244 20200 50004
