2022/11/11 19:53
KLAX 111953Z 27006KT 10SM FEW090 SCT150 BKN190 20/00 A3007 RMK AO2 SLP181 T02000000
