2025/05/06 19:53
KLAX 061953Z 26007KT 10SM FEW010 OVC020 17/11 A2998 RMK AO2 SLP152 T01720111 $
