2025/07/23 18:53
KLAX 231853Z 26011G16KT 8SM FEW010 SCT022 21/15 A3007 RMK AO2 SLP180 T02110150 $
