2024/12/20 11:53
KLAX 201153Z 00000KT 1/8SM R25L/2400VP6000FT FG VV001 11/10 A3015 RMK AO2 SLP206 T01060100 10122 20094 51012
