2024/06/28 17:53
KLAX 281753Z 26010KT 9SM FEW010 SCT025 23/17 A2984 RMK AO2 SLP102 T02280167 10233 20167 51004
