2022/10/30 11:53
KLAX 301153Z 05005KT 10SM CLR 15/09 A2999 RMK AO2 SLP155 T01500094 10183 20133 56007 CHINO RWY24 VISNO RWY24 $
