2023/10/05 15:53
KLAX 051553Z VRB05KT 10SM CLR 24/13 A2997 RMK AO2 SLP146 T02440128 $
