2022/08/31 11:53
KLAX 311153Z 30004KT 10SM CLR 21/17 A2986 RMK AO2 SLP110 T02110167 10217 20206 56005
