2022/11/18 17:53
KLAX 181753Z 12005KT 10SM FEW090 FEW160 SCT250 17/10 A3000 RMK AO2 SLP157 T01670100 10172 20083 51002
