2024/10/28 13:53
KLAX 281353Z 11003KT 6SM BR BKN009 BKN140 17/16 A2992 RMK AO2 SLP132 T01720156 $
