2026/07/04 12:53
KLAX 041253Z 00000KT 10SM BKN250 17/15 A3001 RMK AO2 SLP159 T01720150 $
