2025/12/13 17:53
KLAX 131753Z 23004KT 1 3/4SM BR OVC006 14/12 A3007 RMK AO2 SLP181 VIS SW-NW 1 1/4 T01440122 10144 20133 51010 $
