2024/04/04 17:53
KLAX 041753Z 20006KT 10SM FEW012 BKN031 OVC045 14/10 A2994 RMK AO2 SLP139 T01440100 10156 20128 51006 $
