2022/12/12 03:53
KLAX 120353Z 27012KT 10SM FEW038 12/06 A2991 RMK AO2 SLP128 T01220056 $
