2025/05/23 11:53
KLAX 231153Z VRB03KT 9SM OVC012 17/14 A2990 RMK AO2 SLP124 T01720139 10183 20167 58002 $
