2026/02/10 15:53
KLAX 101553Z 09006KT 8SM FEW009 FEW025 SCT120 OVC140 16/13 A2995 RMK AO2 SLP139 T01560133 $
