2025/04/24 17:53
KLAX 241753Z 26008KT 10SM FEW017 FEW021 SCT039 SCT220 17/10 A3001 RMK AO2 SLP159 T01720100 10172 20133 51009
