2023/05/17 15:53
KLAX 171553Z 23005KT 6SM BR OVC008 15/13 A2994 RMK AO2 SLP139 T01500128
