2023/09/22 09:53
KLAX 220953Z 26006KT 10SM SCT150 18/14 A2995 RMK AO2 SLP140 T01780144
