2025/12/18 07:53
KLAX 180753Z 12004KT 4SM BR CLR 13/12 A2995 RMK AO2 SLP140 VIS N 2 1/2 T01280122 402330128 $
