2025/03/06 11:53
KLAX 061153Z 27016G27KT 10SM FEW018 FEW040 SCT150 SCT220 11/07 A2986 RMK AO2 PK WND 29028/1118 SLP109 60000 70045 T01060072 10122 20100 55003
