2024/09/09 09:53
KLAX 090953Z 00000KT 10SM CLR 23/18 A2978 RMK AO2 SLP080 T02330183
