2024/05/24 19:53
KLAX 241953Z 25010G18KT 10SM FEW019 SCT027 BKN045 18/12 A2997 RMK AO2 SLP148 T01830117
