2023/05/27 23:59
KLAX 272359Z 26013KT 10SM FEW017 18/12 A2995 RMK AO2 T01780122
