2024/06/30 02:13
KLAX 300213Z 25011KT 1SM R25L/P6000FT BR OVC003 16/14 A2988 RMK AO2 T01610144
