2024/02/05 23:53
KLAX 052353Z 09007KT 10SM -RA FEW010 BKN070 OVC095 13/12 A2980 RMK AO2 SLP090 P0004 60082 T01280122 10139 20128 58021
