2024/02/26 17:53
KLAX 261753Z 00000KT 7SM FEW045 SCT120 OVC180 14/11 A3007 RMK AO2 SLP182 T01440111 10144 20117 53017 $
