2024/11/28 13:53
KLAX 281353Z 00000KT 7SM FEW001 FEW003 SCT160 SCT250 13/12 A3004 RMK AO2 SLP171 VIS SE-S 2 1/2 T01280117 $
