2025/01/25 21:53
KLAX 252153Z 22012G19KT 10SM FEW020 BKN026 BKN044 15/07 A2987 RMK AO2 SLP114 T01500072
