2022/09/16 15:53
KLAX 161553Z VRB06KT 10SM SCT027 22/17 A2994 RMK AO2 SLP137 T02170172 $
