2026/06/04 08:53
KLAX 040853Z 13007KT 9SM FEW005 FEW008 OVC010 17/14 A2989 RMK AO2 SLP119 T01720144 58010 $
