2025/09/14 17:53
KLAX 141753Z 22004KT 8SM FEW013 OVC017 21/17 A2991 RMK AO2 SLP124 T02110167 10211 20194 50004 $
