2026/02/25 19:53
KLAX 251953Z 24006KT 10SM FEW140 SCT200 BKN250 20/13 A3004 RMK AO2 SLP173 T02000128
