2024/08/07 05:53
KLAX 070553Z 36004KT 10SM FEW004 21/18 A2998 RMK AO2 SLP150 T02060178 10228 20200 51026
