2023/05/16 01:53
KLAX 160153Z 25010KT 10SM OVC009 16/14 A3005 RMK AO2 SLP174 T01610139
