2025/07/24 23:53
KLAX 242353Z 25012KT 10SM FEW015 FEW250 21/16 A3004 RMK AO2 SLP172 T02110156 10222 20211 58014 $
