2025/05/14 21:53
KLAX 142153Z 24007KT 10SM FEW090 FEW250 20/10 A3002 RMK AO2 SLP164 T02000100 $
