2025/06/21 15:53
KLAX 211553Z 07003KT 10SM BKN024 OVC039 19/13 A2988 RMK AO2 SLP117 T01890128
