2023/03/05 09:53
KLAX 050953Z 28007KT 10SM BKN050 11/06 A3006 RMK AO2 SLP178 T01110061 $
