2026/07/08 13:53
KLAX 081353Z 00000KT 10SM CLR 19/16 A2996 RMK AO2 SLP145 T01890156 $
