2025/12/28 23:53
KLAX 282353Z 23010KT 10SM FEW250 17/09 A3009 RMK AO2 SLP190 T01720094 10194 20150 56010 $
