2025/10/11 09:53
KLAX 110953Z 24004KT 10SM CLR 17/16 A2979 RMK AO2 SLP084 T01720156 $
