2024/02/10 07:53
KLAX 100753Z 33008KT 10SM FEW050 FEW250 12/01 A2998 RMK AO2 SLP151 T01170006 401560083 $
