2023/01/23 15:53
KLAX 231553Z 00000KT 10SM FEW180 FEW220 11/M08 A3002 RMK AO2 SLP166 T01111078
