2023/12/06 23:53
KLAX 062353Z 24007KT 10SM FEW007 FEW250 17/14 A3003 RMK AO2 SLP168 T01720144 10211 20172 56008
