2025/03/04 01:53
KLAX 040153Z 27017KT 10SM FEW042 FEW085 13/09 A3006 RMK AO2 SLP178 T01330089 $
