2023/07/22 07:53
KLAX 220753Z 26006KT 7SM FEW004 FEW007 18/17 A2986 RMK AO2 SLP109 T01780167 402280172
