2026/06/22 20:53
KLAX 222053Z 25011KT 10SM FEW009 FEW029 22/14 A2995 RMK AO2 SLP139 T02170144 58003 $
