2025/01/14 17:53
KLAX 141753Z 22003KT 10SM CLR 16/M03 A3033 RMK AO2 SLP270 T01611028 10161 20050 51011 VISNO RWY24 $
