2024/09/21 05:53
KLAX 210553Z 24006KT 10SM BKN010 17/15 A2989 RMK AO2 SLP121 T01720150 10206 20172 50005
