2025/10/30 15:53
KLAX 301553Z 13003KT 10SM CLR 21/14 A2996 RMK AO2 SLP142 T02110139 $
