2024/02/14 21:53
KLAX 142153Z 25010KT 10SM FEW025 SCT040 BKN160 16/09 A3013 RMK AO2 SLP203 T01560094 $
