2025/10/09 21:53
KLAX 092153Z 26012KT 10SM FEW050 FEW150 22/14 A2987 RMK AO2 SLP113 T02220139 $
