2025/10/21 15:53
KLAX 211553Z 00000KT 7SM FEW001 SCT009 17/15 A3004 RMK AO2 SLP172 T01670150
