2026/01/19 17:53
KLAX 191753Z 11004KT 10SM FEW160 FEW220 17/08 A3005 RMK AO2 SLP176 T01720078 10178 20100 51014 $
