2025/06/29 11:53
KLAX 291153Z 25003KT 9SM OVC007 16/14 A2997 RMK AO2 SLP145 T01610144 10178 20161 55001 $
