2025/08/18 07:53
KLAX 180753Z 11003KT 10SM FEW014 19/17 A2993 RMK AO2 SLP134 T01940167 402440183 $
