2025/11/13 19:53
KLAX 131953Z 26005KT 7SM FEW050 BKN065 BKN140 21/16 A3004 RMK AO2 SLP169 T02060161
