2025/04/26 17:53
KLAX 261753Z VRB05KT 5SM -RA BR SCT018 BKN034 BKN047 13/11 A2995 RMK AO2 RAE28B52 SLP140 P0000 60013 T01280106 10133 20111 51006 $
