2023/12/10 01:53
KLAX 100153Z 33006KT 10SM FEW160 18/M09 A3022 RMK AO2 SLP233 T01831094 $
