2022/10/05 13:53
KLAX 051353Z VRB03KT 5SM HZ SCT008 OVC012 20/17 A2996 RMK AO2 SLP142 T02000172
