2026/02/18 21:53
KLAX 182153Z 27021G30KT 10SM FEW055 SCT085 SCT260 14/04 A3001 RMK AO2 PK WND 25030/2151 SLP162 T01440039
