2025/10/31 13:53
KLAX 311353Z 09005KT 7SM SCT008 OVC010 17/14 A2997 RMK AO2 SLP147 T01670144 $
