2024/01/10 01:53
KLAX 100153Z 27008KT 10SM FEW150 FEW250 12/06 A3007 RMK AO2 SLP184 T01220056
