2023/02/05 15:53
KLAX 051553Z 00000KT 5SM BR BKN009 BKN012 OVC018 13/12 A3021 RMK AO2 SLP230 T01280117 $
