2026/03/27 07:53
KLAX 270753Z 16003KT 7SM FEW003 FEW005 SCT250 16/14 A2993 RMK AO2 SLP131 T01610144 402280150
