2023/11/22 03:53
KLAX 220353Z VRB03KT 10SM SCT250 21/M02 A3021 RMK AO2 SLP228 T02111022
