2024/04/10 05:53
KLAX 100553Z 23004KT 10SM CLR 16/09 A3006 RMK AO2 SLP176 T01560094 10217 20150 50009 $
