2023/09/19 15:53
KLAX 191553Z 00000KT 8SM FEW009 BKN021 19/16 A2995 RMK AO2 SLP141 T01940156 $
