2024/08/23 07:53
KLAX 230753Z 24008KT 10SM FEW012 19/16 A2993 RMK AO2 SLP131 T01890161 402500189 $
