2023/03/25 15:53
KLAX 251553Z 36006KT 10SM FEW022 FEW130 13/01 A3014 RMK AO2 SLP203 T01280011
