2025/09/19 05:53
KLAX 190553Z 23004KT 10SM FEW070 FEW100 SCT160 BKN250 22/19 A2986 RMK AO2 SLP109 T02170189 10244 20217 51010
