2026/02/17 09:53
KLAX 170953Z 08003KT 10SM FEW018 FEW035 BKN050 BKN200 10/09 A2995 RMK AO2 SLP142 CB DSNT SE T01000089 $
