2024/03/17 09:53
KLAX 170953Z 01003KT 10SM FEW015 FEW120 12/08 A3008 RMK AO2 SLP184 T01220083 $
