2023/02/03 19:53
KLAX 031953Z 25008KT 10SM FEW200 SCT250 BKN300 18/03 A3022 RMK AO2 SLP232 T01780033 $
