2025/04/03 23:53
KLAX 032353Z 27019G28KT 10SM FEW025 FEW050 SCT150 SCT180 14/09 A2993 RMK AO2 PK WND 28028/2314 LTG DSNT NE SLP135 T01440089 10172 20144 50000
