2024/12/30 07:53
KLAX 300753Z VRB05KT 3SM BR OVC009 13/11 A3011 RMK AO2 SLP196 VIS 2 1/2V4 T01330111 401440083
