2023/10/26 13:53
KLAX 261353Z 00000KT 10SM FEW015 FEW025 SCT050 BKN140 17/14 A2999 RMK AO2 SLP155 T01670144 $
