2022/12/18 07:53
KLAX 180753Z 00000KT 10SM BKN250 11/M03 A2997 RMK AO2 SLP148 T01111028 401890083 $
