2024/02/24 23:53
KLAX 242353Z 25015KT 10SM SCT150 SCT180 18/12 A3002 RMK AO2 SLP163 T01780122 10244 20172 55004 $
