2022/09/22 19:53
KLAX 221953Z 26010KT 10SM CLR 26/13 A2994 RMK AO2 SLP136 T02560133
