2024/12/23 13:53
KLAX 231353Z 10005KT 3SM BR FEW003 OVC006 13/12 A3011 RMK AO2 SLP194 VIS SW-N 2 T01280117
