2025/06/27 05:53
KLAX 270553Z 26007KT 9SM FEW004 OVC007 17/16 A2991 RMK AO2 SLP128 T01720156 10194 20172 53007
