2025/04/19 11:53
KLAX 191153Z 00000KT 10SM FEW006 SCT050 12/09 A3008 RMK AO2 SLP184 T01170089 10133 20117 55000 $
