2023/05/03 13:53
KLAX 031353Z VRB04KT 10SM FEW017 FEW045 SCT090 11/07 A2992 RMK AO2 SLP129 T01110067
