2025/05/05 23:53
KLAX 052353Z 25009KT 10SM OVC026 17/12 A2984 RMK AO2 SLP104 T01670117 10178 20167 56004
