2026/03/30 04:53
KLAX 300453Z 26005KT 7SM BKN005 15/14 A2995 RMK AO2 SLP141 T01500139 $
