2025/01/29 19:53
KLAX 291953Z 24005KT 10SM FEW009 FEW033 BKN040 14/08 A3016 RMK AO2 SLP211 T01440078
