2023/06/23 13:59
KLAX 231359Z 07006KT 10SM FEW010 SCT017 BKN038 16/12 A3004 RMK AO2 T01610122
