2022/09/28 21:53
KLAX 282153Z 26012KT 10SM FEW110 26/20 A2991 RMK AO2 SLP125 CB DSNT E AND SE T02610200
