2023/01/01 02:02
KLAX 010202Z 17006G16KT 10SM SCT008 BKN012 OVC024 15/13 A2987 RMK AO2 T01500133
