2025/03/21 03:53
KLAX 210353Z 21004KT 10SM CLR 14/09 A3005 RMK AO2 SLP175 T01390089 $
