2025/05/04 07:53
KLAX 040753Z 26011KT 9SM FEW010 OVC028 14/11 A2982 RMK AO2 SLP097 T01440111 401720139
