2023/05/05 09:53
KLAX 050953Z 02003KT 10SM FEW008 BKN027 BKN040 14/10 A2999 RMK AO2 SLP155 T01390100
