2025/01/08 03:53
KLAX 080353Z 03020G35KT 10SM FEW050 19/M01 A3003 RMK AO2 PK WND 04038/0319 SLP168 FU FEW050 T01891006
