2025/10/22 05:53
KLAX 220553Z 20004KT 10SM FEW010 SCT025 BKN150 17/15 A3000 RMK AO2 SLP156 60000 T01720150 10189 20172 51004
