2026/01/24 13:53
KLAX 241353Z 00000KT 10SM -RA SCT020 OVC029 14/11 A2989 RMK AO2 RAB31 SLP119 P0000 T01440106 $
