2025/12/03 01:53
KLAX 030153Z 23009KT 10SM FEW015 FEW150 15/13 A2997 RMK AO2 SLP146 T01500128 $
