2023/10/17 19:53
KLAX 171953Z 25008KT 6SM HZ SCT009 22/17 A2991 RMK AO2 SLP126 T02170167
