2023/02/09 07:53
KLAX 090753Z VRB03KT 10SM CLR 13/08 A3019 RMK AO2 SLP222 T01330078 402170083 $
