2024/10/03 01:53
KLAX 030153Z 27007KT 1/4SM R25L/4500VP6000FT FG VV002 17/17 A2973 RMK AO2 SLP065 T01720167
