2023/01/19 21:53
KLAX 192153Z 25005KT 10SM FEW010 SCT027 BKN046 14/08 A3008 RMK AO2 SLP187 T01390083
