2024/12/17 17:53
KLAX 171753Z 10004KT 10SM FEW060 SCT180 16/08 A3015 RMK AO2 SLP210 T01560078 10156 20100 51016 $
