2025/03/10 01:53
KLAX 100153Z 27010KT 10SM FEW004 13/09 A3009 RMK AO2 SLP189 T01330094
