2022/09/15 05:53
KLAX 150553Z VRB03KT 10SM FEW015 21/18 A2990 RMK AO2 SLP124 T02110178 10239 20211 51007 $
