2023/04/05 23:53
KLAX 052353Z 26018KT 10SM FEW200 SCT250 16/03 A3006 RMK AO2 SLP180 T01610033 10183 20156 58017 $
