2026/03/26 21:53
KLAX 262153Z 26012KT 10SM FEW015 FEW250 20/14 A2990 RMK AO2 SLP125 T02000144
