2022/10/29 09:53
KLAX 290953Z 00000KT 10SM CLR 14/12 A3011 RMK AO2 SLP195 T01440122 CHINO RWY24 VISNO RWY24 $
