2026/03/07 21:53
KLAX 072153Z 07014G19KT 10SM FEW120 26/M05 A2998 RMK AO2 SLP152 T02561050 $
