2025/01/25 19:53
KLAX 251953Z 13011G20KT 10SM FEW020 BKN029 BKN036 16/09 A2989 RMK AO2 SLP120 T01560089
