2025/03/28 01:53
KLAX 280153Z 24010KT 7SM OVC004 14/13 A3000 RMK AO2 CIG 003V007 SLP159 T01390128 $
