2023/10/12 03:53
KLAX 120353Z 18005KT 10SM CLR 18/14 A2966 RMK AO2 SLP040 T01830144
