2022/12/11 09:53
KLAX 110953Z 17007KT 4SM -RA BR SCT017 BKN022 OVC035 14/13 A2997 RMK AO2 CIG 013 RWY24 SLP149 P0004 T01390128 $
