2025/09/13 19:53
KLAX 131953Z 24010KT 10SM SCT020 SCT031 24/17 A2992 RMK AO2 SLP130 T02390167 $
