2025/01/14 01:53
KLAX 140153Z 27005KT 10SM CLR 14/M06 A3021 RMK AO2 SLP229 T01441056
