2025/07/12 13:53
KLAX 121353Z 12004KT 7SM OVC013 19/16 A2999 RMK AO2 SLP153 T01890156
