2022/10/12 11:53
KLAX 121153Z 29008KT 10SM TS FEW009 BKN012 OVC020CB 19/17 A3003 RMK AO2 TSB38 SLP166 OCNL LTGIC OHD TS OHD MOV NW T01940167 10206 20194 56006
