2023/11/27 01:53
KLAX 270153Z 26004KT 10SM FEW150 SCT200 BKN250 17/00 A3003 RMK AO2 SLP167 T01670000 $
