2025/11/28 15:53
KLAX 281553Z 09004KT 9SM FEW100 FEW250 11/09 A3005 RMK AO2 SLP173 T01110094 $
