2026/02/20 02:53
KLAX 200253Z 26023G32KT 10SM FEW036 12/04 A2986 RMK AO2 PK WND 27036/0222 SLP111 T01220044 53004
