2023/01/23 19:53
KLAX 231953Z 04009G16KT 010V070 10SM FEW160 19/M06 A2999 RMK AO2 SLP155 T01891061 $
