2022/12/09 01:53
KLAX 090153Z 28012KT 10SM FEW120 FEW250 14/08 A3021 RMK AO2 SLP229 T01390078
