2023/05/01 15:53
KLAX 011553Z 26006KT 8SM OVC008 14/12 A2986 RMK AO2 SLP110 T01390117
