2024/05/15 19:53
KLAX 151953Z 26006KT 10SM FEW018 OVC026 17/12 A2993 RMK AO2 SLP134 T01720117
