2024/02/01 13:53
KLAX 011353Z 08018G26KT 2 1/2SM +RA BR SCT008 OVC010 10/09 A2977 RMK AO2 PK WND 09026/1353 SLP078 VIS 2V3 VIS W 1 1/2 P0046 T01000094 $
