2024/05/14 13:53
KLAX 141353Z 07004KT 10SM FEW011 OVC020 16/11 A2993 RMK AO2 SLP134 T01560111 $
