2025/04/16 17:53
KLAX 161753Z 24006KT 10SM FEW027 BKN048 16/05 A3000 RMK AO2 SLP157 T01610050 10167 20133 53007
