2023/02/22 15:53
KLAX 221553Z 28019G23KT 10SM FEW030 FEW075 SCT120 10/01 A2981 RMK AO2 SLP093 T01000006
