2024/05/02 19:53
KLAX 021953Z 24009KT 9SM BKN019 18/13 A2991 RMK AO2 SLP129 T01830133 $
