2025/01/21 23:53
KLAX 212353Z 26009KT 10SM FEW150 SCT250 18/M02 A3029 RMK AO2 SLP257 T01781017 10211 20167 56028
