2023/07/20 05:53
KLAX 200553Z 25004KT 10SM FEW010 FEW250 19/16 A2997 RMK AO2 SLP145 T01940161 10233 20194 50005 $
