2023/02/04 17:53
KLAX 041753Z 08004KT 10SM SCT250 16/04 A3017 RMK AO2 SLP216 T01610044 10161 20078 51005 $
