2023/10/26 21:53
KLAX 262153Z 24012KT 10SM FEW030 21/14 A2997 RMK AO2 SLP147 T02060139
