2025/01/09 17:53
KLAX 091753Z 08003KT 5SM HZ SCT010 BKN100 15/M04 A3014 RMK AO2 SLP205 FU SCT010 FU BKN100 T01501039 10150 20078 53014
