2025/12/18 17:53
KLAX 181753Z 08008KT 5SM HZ FEW005 SCT100 BKN140 BKN250 16/12 A3000 RMK AO2 SLP159 T01560122 10156 20111 50011 $
