2026/01/29 11:53
KLAX 291153Z 00000KT 10SM FEW250 13/M03 A3014 RMK AO2 SLP204 T01281028 10167 20111 58005
