2023/09/11 13:53
KLAX 111353Z 00000KT 10SM FEW160 SCT210 BKN270 22/18 A2990 RMK AO2 SLP123 T02220183
