2025/04/03 09:53
KLAX 030953Z 05008G16KT 10SM FEW065 BKN090 11/08 A2988 RMK AO2 SLP115 T01110078
