2024/06/18 07:53
KLAX 180753Z 12005KT 10SM SCT014 17/14 A2972 RMK AO2 SLP063 T01720144 402220172
