2026/01/18 21:53
KLAX 182153Z 26009KT 10SM SCT190 SCT240 BKN290 24/02 A3003 RMK AO2 SLP170 T02390022 $
