2024/01/07 13:53
KLAX 071353Z 34017G30KT 10SM CLR 11/M02 A2991 RMK AO2 PK WND 34030/1336 SLP126 T01111022
