2024/07/01 13:53
KLAX 011353Z 15006KT 6SM BR FEW006 OVC009 18/17 A2991 RMK AO2 SLP127 T01830167
