2023/12/15 23:53
KLAX 152353Z 26007KT 10SM SCT300 23/00 A3004 RMK AO2 SLP170 T02280000 10267 20206 56013 $
