2026/02/03 07:53
KLAX 030753Z 00000KT 8SM FEW005 FEW008 14/13 A3016 RMK AO2 SLP211 T01440133 402330117 $
