2023/05/22 13:53
KLAX 221353Z 00000KT 4SM BR FEW006 OVC009 16/14 A2993 RMK AO2 SLP134 VIS SW-NW 2 1/2 T01610144
