2025/02/16 19:53
KLAX 161953Z 27006KT 10SM SCT230 BKN280 21/06 A3007 RMK AO2 SLP181 T02060056 $
