2024/09/19 19:53
KLAX 191953Z 26009KT 10SM SCT028 BKN048 21/14 A2990 RMK AO2 SLP124 T02110144 $
