2024/07/13 07:53
KLAX 130753Z 25006KT 10SM SCT009 SCT160 BKN200 18/17 A2988 RMK AO2 SLP117 T01830167 402170172 $
