2024/10/07 09:59
KLAX 070959Z 27003KT 1/8SM R25L/1400V2600FT FG VV001 16/16 A2990 RMK AO2 T01610161
