2023/10/08 07:53
KLAX 080753Z 00000KT 3SM BCFG FEW000 FEW003 SCT020 SCT240 18/17 A2989 RMK AO2 SLP119 VIS W 1 FG FEW000 T01780172 402610167
