2022/10/08 14:06
KLAX 081406Z 11004KT 2 1/2SM BR OVC008 19/17 A3005 RMK AO2 VIS SW-NW 1 1/2 T01940172 $
