2025/09/12 01:53
KLAX 120153Z 25012KT 10SM FEW015 SCT055 21/17 A2990 RMK AO2 SLP125 T02060167 $
