2025/01/01 09:53
KLAX 010953Z 27005KT 2SM BR FEW003 BKN005 11/10 A3008 RMK AO2 SLP183 VIS 1 1/2V2 1/2 T01060100 $
