2025/07/13 01:53
KLAX 130153Z 26011KT 10SM BKN011 19/16 A2996 RMK AO2 SLP144 T01940161
