2025/02/12 21:53
KLAX 122153Z 10012KT 1 3/4SM BR BKN006 OVC014 12/11 A2991 RMK AO2 RAB05E52 SLP129 P0002 T01170111 $
