2024/03/18 21:53
KLAX 182153Z 25010G15KT 10SM FEW045 FEW080 19/09 A2999 RMK AO2 LTG DSNT E SLP155 T01940094
