2024/12/09 17:53
KLAX 091753Z 11004KT 6SM HZ FEW010 FEW019 14/09 A3014 RMK AO2 SLP204 T01440089 10144 20128 51008
