2026/02/03 02:53
KLAX 030253Z 25005KT 10SM BKN006 16/14 A3012 RMK AO2 SLP198 T01560144 53014 $
