2022/12/29 11:53
KLAX 291153Z 09004KT 10SM FEW010 SCT028 OVC100 13/11 A2994 RMK AO2 SLP136 T01280111 10144 20128 55004 $
