2023/05/14 21:53
KLAX 142153Z 25010KT 10SM FEW012 19/14 A2994 RMK AO2 SLP137 T01940139
