2024/10/21 13:53
KLAX 211353Z 00000KT 10SM FEW080 SCT180 BKN250 17/04 A3007 RMK AO2 SLP180 T01670044 $
