2024/07/16 19:53
KLAX 161953Z 25011KT 10SM FEW029 FEW040 SCT070 24/17 A2999 RMK AO2 SLP155 T02390172
