2023/04/18 11:53
KLAX 181153Z 25003KT 10SM FEW012 BKN025 BKN034 13/11 A2996 RMK AO2 SLP144 T01280106 10139 20122 55003
