2023/05/02 19:53
KLAX 021953Z 23009KT 10SM FEW023 SCT060 SCT140 17/08 A2993 RMK AO2 SLP136 T01670078
