2023/04/07 03:53
KLAX 070353Z 26010KT 10SM SCT250 16/03 A3002 RMK AO2 SLP164 T01560033 $
