2022/09/09 03:53
KLAX 090353Z 23009KT 10SM BKN150 28/18 A2958 RMK AO2 SLP013 T02780183
