2026/04/25 19:53
KLAX 251953Z 20013G23KT 10SM FEW022 BKN040 BKN150 BKN200 18/10 A2990 RMK AO2 PK WND 18030/1937 SLP124 T01830100
