2023/07/07 09:53
KLAX 070953Z 24005KT 10SM FEW008 BKN011 16/14 A2988 RMK AO2 SLP114 T01610139 $
