2023/11/21 09:53
KLAX 210953Z 00000KT 10SM CLR 14/01 A3021 RMK AO2 SLP229 T01390006 $
