2025/06/18 01:53
KLAX 180153Z 24007KT 10SM CLR 22/14 A2978 RMK AO2 SLP085 T02170144
