2026/01/06 17:53
KLAX 061753Z 03005KT 10SM FEW010 FEW040 SCT120 BKN160 14/11 A3010 RMK AO2 SLP191 T01440106 10144 20117 53001 $
