2022/11/15 17:53
KLAX 151753Z 04005KT 10SM FEW250 19/01 A3012 RMK AO2 SLP199 T01940006 10194 20089 51008 $
