2023/09/25 05:53
KLAX 250553Z 18007KT 10SM FEW015 18/16 A3001 RMK AO2 SLP159 T01780156 10206 20172 51010 $
