2024/10/18 23:53
KLAX 182353Z 27021G29KT 10SM CLR 22/09 A2988 RMK AO2 PK WND 28029/2332 SLP119 T02170089 10289 20217 56010
