2025/05/02 01:53
KLAX 020153Z 26013KT 10SM FEW011 FEW150 BKN200 16/12 A2994 RMK AO2 SLP138 T01560122 $
