2025/06/29 05:53
KLAX 290553Z 23007KT 8SM OVC006 18/16 A2995 RMK AO2 SLP139 T01780161 10211 20178 53009 $
