2024/05/06 09:53
KLAX 060953Z 07006KT 10SM CLR 12/09 A3001 RMK AO2 SLP161 T01220089 $
