2022/09/14 03:53
KLAX 140353Z 27008KT 10SM CLR 22/17 A2984 RMK AO2 SLP102 T02170167 $
