2025/09/19 21:53
KLAX 192153Z 26013KT 10SM FEW012 FEW047 SCT090 24/18 A2989 RMK AO2 SLP121 T02440178
