2025/04/04 03:53
KLAX 040353Z 24005KT 10SM FEW120 12/08 A2997 RMK AO2 SLP146 T01220078
