2023/09/12 11:53
KLAX 121153Z 00000KT 9SM FEW007 FEW010 SCT180 19/18 A2989 RMK AO2 SLP119 T01940183 10211 20189 55002 $
