2024/03/12 17:53
KLAX 121753Z 23006KT 10SM FEW006 FEW022 SCT140 16/11 A3017 RMK AO2 SLP214 T01560106 10156 20111 51015
