2024/01/30 07:53
KLAX 300753Z 10004KT 10SM CLR 14/11 A3009 RMK AO2 SLP185 T01390106 402560122 $
