2025/06/26 09:53
KLAX 260953Z 00000KT 7SM FEW004 OVC008 17/15 A2993 RMK AO2 SLP133 T01720150
