2025/07/22 21:53
KLAX 222153Z 25013G21KT 10SM FEW014 SCT034 22/16 A2998 RMK AO2 SLP149 T02170161 $
