2024/03/08 05:53
KLAX 080553Z 08007KT 10SM CLR 12/09 A3001 RMK AO2 SLP162 60003 T01220094 10161 20117 51021
