2024/05/28 17:53
KLAX 281753Z 23007KT 5SM HZ SCT007 OVC011 15/12 A3008 RMK AO2 SLP183 SCT V BKN T01500122 10156 20139 53009
