2025/12/19 03:53
KLAX 190353Z 00000KT 9SM CLR 17/14 A2995 RMK AO2 SLP143 T01720139 $
