2022/12/20 09:53
KLAX 200953Z 00000KT 10SM FEW250 10/01 A3027 RMK AO2 SLP248 T01000006 $
