2022/10/15 10:53
KLAX 151053Z 31003KT 6SM -DZ BR FEW004 BKN007 OVC012 18/17 A2985 RMK AO2 DZE12B51RAB39E51 SLP107 P0000 T01780172 $
