2024/11/09 17:53
KLAX 091753Z 00000KT 10SM CLR 20/M03 A3002 RMK AO2 SLP164 T02001033 10200 20094 50005
