2022/09/18 02:53
KLAX 180253Z 27009KT 10SM SCT016 21/17 A2976 RMK AO2 SLP076 T02060167 53001 $
