2023/08/29 05:53
KLAX 290553Z VRB03KT 10SM CLR 22/19 A2984 RMK AO2 SLP101 T02170189 10256 20211 50005
