2025/01/06 09:53
KLAX 060953Z 00000KT 10SM FEW200 FEW250 13/01 A3010 RMK AO2 SLP189 T01280011
