2024/12/10 21:53
KLAX 102153Z 26004KT 10SM FEW010 FEW055 SCT280 23/M17 A3024 RMK AO2 SLP241 FU FEW010 FU FEW055 T02281172 $
