2023/05/04 09:53
KLAX 040953Z 14009KT 9SM -RA FEW014 SCT028 OVC045 13/10 A2983 RMK AO2 RAB19 SLP100 P0001 T01330100
