2024/04/22 09:53
KLAX 220953Z 17003KT 4SM BR FEW006 OVC008 14/13 A2989 RMK AO2 SLP121 T01440128 $
