2023/01/02 15:53
KLAX 021553Z 07003KT 10SM FEW025 BKN140 BKN180 09/04 A2997 RMK AO2 SLP149 T00940044
