2023/12/30 23:53
KLAX 302353Z 27017KT 10SM SCT030 BKN045 16/11 A3006 RMK AO2 SLP178 T01610111 10167 20144 55004
