2024/01/10 13:53
KLAX 101353Z 05006KT 10SM FEW008 FEW020 SCT220 07/01 A3002 RMK AO2 SLP165 T00670011
