2025/03/02 19:53
KLAX 021953Z 26028G34KT 10SM FEW025 FEW050 SCT140 17/08 A3012 RMK AO2 PK WND 26035/1937 SLP198 T01720078 $
