2025/12/20 15:53
KLAX 201553Z 00000KT 3SM BR FEW008 OVC011 14/12 A3008 RMK AO2 SLP185 VIS SW-W 2 T01390117
