2024/12/31 07:53
KLAX 310753Z 12004KT 8SM FEW002 FEW008 11/10 A3002 RMK AO2 SLP164 T01110100 401670111
