2025/08/05 11:53
KLAX 051153Z 09003KT 7SM BKN009 18/17 A2994 RMK AO2 SLP134 T01830167 10194 20178 52002
