2023/05/25 17:53
KLAX 251753Z 24006KT 9SM -RA FEW019 BKN027 16/12 A2991 RMK AO2 RAB31 SLP128 P0000 60000 T01560122 10172 20156 53010 $
