2024/08/17 03:53
KLAX 170353Z 20006KT 10SM SCT010 21/19 A2988 RMK AO2 SLP116 T02110189 $
