2025/04/18 09:53
KLAX 180953Z 32005KT 10SM FEW011 SCT025 SCT050 BKN160 13/11 A2997 RMK AO2 SLP147 T01330106 $
