2024/07/24 03:53
KLAX 240353Z 27007KT 10SM FEW007 FEW150 19/17 A2996 RMK AO2 SLP141 T01940172 $
