2024/09/22 13:53
KLAX 221353Z 24003KT 6SM HZ OVC011 18/16 A2993 RMK AO2 SLP132 T01830156 $
