2025/08/04 16:53
KLAX 041653Z 28003KT 7SM FEW009 FEW017 BKN250 22/16 A2996 RMK AO2 SLP146 T02170161
