2023/01/19 10:53
KLAX 191053Z 00000KT 10SM FEW014 08/06 A3016 RMK AO2 SLP213 T00830061
