2025/07/10 15:53
KLAX 101553Z 25004KT 10SM FEW009 21/16 A2994 RMK AO2 SLP137 T02110161 $
