2024/08/24 17:53
KLAX 241753Z 15006KT 10SM CLR 24/14 A3004 RMK AO2 SLP170 T02390144 10239 20161 51006 $
