2025/07/09 09:53
KLAX 090953Z 11004KT 10SM SCT220 17/15 A3001 RMK AO2 SLP161 T01720150 $
