2022/09/01 01:53
KLAX 010153Z 26010KT 10SM FEW050 FEW150 26/14 A2973 RMK AO2 SLP067 FU FEW050 T02610144
