2025/04/14 03:53
KLAX 140353Z 28008KT 9SM FEW011 14/12 A2996 RMK AO2 SLP146 T01390117 $
