2023/09/06 21:53
KLAX 062153Z 25012KT 10SM FEW020 23/17 A2993 RMK AO2 SLP134 T02330172
