2023/05/10 05:53
KLAX 100553Z 26019KT 10SM FEW024 SCT060 13/10 A2998 RMK AO2 SLP150 T01330100 10178 20133 50008
