2024/08/25 01:53
KLAX 250153Z 25012G20KT 10SM FEW140 20/16 A2998 RMK AO2 SLP150 T02000156 $
