2022/10/20 13:53
KLAX 201353Z 05004KT 10SM FEW100 SCT140 BKN180 22/09 A2994 RMK AO2 SLP136 T02220089 $
