2024/12/10 15:53
KLAX 101553Z 00000KT 10SM FEW040 15/M03 A3030 RMK AO2 SLP259 FU FEW040 T01501028 $
