2025/12/12 06:04
KLAX 120604Z 00000KT 1/4SM R25L/1200VP6000FT FG BKN001 16/16 A3001 RMK AO2 T01560156 $
