2023/04/01 09:53
KLAX 010953Z 00000KT 10SM FEW200 11/08 A3013 RMK AO2 SLP199 T01060083 $
