2025/05/23 09:53
KLAX 230953Z 00000KT 9SM OVC011 17/14 A2991 RMK AO2 SLP126 T01720144 $
