2024/10/11 18:53
KLAX 111853Z 27009KT 3SM BCFG BR FEW000 FEW003 BKN280 18/15 A3005 RMK AO2 SLP176 VIS S 2 SW-W 1 1/2 FG FEW000 FG BANK W T01830150 $
