2024/12/28 11:53
KLAX 281153Z VRB03KT 4SM BR OVC008 14/12 A3008 RMK AO2 SLP186 T01390122 10144 20133 58001
