2023/02/22 03:53
KLAX 220353Z 25023G28KT 10SM BKN021 BKN027 BKN034 13/08 A2967 RMK AO2 PK WND 26028/0352 SLP044 T01280083 $
