2025/03/15 17:53
KLAX 151753Z 00000KT 10SM FEW030 BKN250 14/06 A3010 RMK AO2 SLP192 T01390056 10139 20067 53014 $
