2023/11/09 01:53
KLAX 090153Z 36008KT 10SM FEW250 22/M08 A3002 RMK AO2 SLP166 T02221083
