2022/09/26 15:53
KLAX 261553Z 34005KT 9SM FEW010 FEW025 SCT140 22/18 A2993 RMK AO2 SLP132 T02220183
