2022/10/22 15:53
KLAX 221553Z 20006KT 10SM FEW018 BKN031 BKN042 19/14 A2987 RMK AO2 SLP111 T01940139
