2024/12/04 17:53
KLAX 041753Z VRB03KT 3SM BR SCT009 OVC015 14/10 A3021 RMK AO2 SLP228 T01390100 10139 20122 51003
