2023/07/18 11:53
KLAX 181153Z 25005KT 5SM BR FEW004 SCT007 18/17 A2993 RMK AO2 SLP132 T01830172 10194 20178 55002 $
