2026/01/22 17:53
KLAX 221753Z 18007KT 4SM HZ FEW019 BKN110 BKN160 16/13 A3002 RMK AO2 SLP165 T01560128 10156 20144 53004 $
