2023/03/02 19:53
KLAX 021953Z 31005KT 10SM CLR 14/02 A3010 RMK AO2 SLP194 T01440017 $
