2023/01/21 15:53
KLAX 211553Z 00000KT 10SM CLR 09/02 A3030 RMK AO2 SLP262 T00890017
