2026/05/15 04:53
KLAX 150453Z 26008KT 10SM CLR 16/13 A2999 RMK AO2 SLP154 T01610133
