2023/01/11 05:53
KLAX 110553Z VRB03KT 10SM OVC150 14/08 A3015 RMK AO2 SLP209 T01390078 10150 20122 51018 $
