2024/01/31 09:53
KLAX 310953Z 00000KT 9SM FEW200 BKN280 12/12 A3000 RMK AO2 SLP157 T01220117 $
