2025/09/25 02:21
KLAX 250221Z 25009KT 10SM BKN007 20/18 A2993 RMK AO2 CIG 005V010 T02000183 $
