2024/03/19 11:53
KLAX 191153Z 11004KT 10SM FEW010 FEW170 13/09 A3003 RMK AO2 SLP166 T01330094 10161 20122 58010
