2023/12/09 15:53
KLAX 091553Z 02004KT 10SM FEW180 14/M02 A3019 RMK AO2 SLP221 T01441017 $
