2022/09/17 07:53
KLAX 170753Z 22003KT 10SM CLR 21/16 A2983 RMK AO2 SLP098 T02060161 402560183 $
