2023/04/19 13:53
KLAX 191353Z VRB03KT 9SM FEW015 FEW200 12/08 A3003 RMK AO2 SLP167 T01170078
