2026/05/07 15:53
KLAX 071553Z 23003KT 10SM SCT012 17/13 A3003 RMK AO2 SLP166 T01720133
