2025/05/21 07:53
KLAX 210753Z 00000KT 10SM CLR 18/14 A2989 RMK AO2 SLP119 T01780139 402390150 $
