2026/04/13 02:53
KLAX 130253Z 26012KT 10SM FEW020 FEW080 16/10 A3002 RMK AO2 SLP163 T01610100 53009 $
