2023/11/24 11:53
KLAX 241153Z 07006KT 10SM FEW018 FEW030 SCT050 16/11 A2984 RMK AO2 SLP102 T01560111 10161 20139 55000
