2024/06/05 13:53
KLAX 051353Z 00000KT 4SM BR FEW008 OVC010 17/15 A2987 RMK AO2 SLP113 T01720150 $
