2025/10/07 21:53
KLAX 072153Z 26011KT 10SM FEW015 21/14 A2986 RMK AO2 SLP109 T02110144 $
