2025/05/27 03:53
KLAX 270353Z 24006KT 10SM FEW015 17/13 A2996 RMK AO2 SLP144 T01670133 $
