2023/01/12 13:53
KLAX 121353Z 01007KT 10SM FEW250 13/05 A3018 RMK AO2 SLP219 T01280050 $
