2023/06/09 19:53
KLAX 091953Z 28010KT 10SM FEW018 OVC027 18/13 A3003 RMK AO2 SLP168 T01830133
