2024/11/15 17:53
KLAX 151753Z 27014KT 9SM FEW020 SCT030 16/09 A2991 RMK AO2 SLP129 T01610089 10161 20122 50006
