2024/04/30 09:53
KLAX 300953Z 09004KT 10SM CLR 13/11 A2986 RMK AO2 SLP110 T01330106 $
