2022/12/24 11:53
KLAX 241153Z 00000KT 3SM FU SCT002 SCT010 10/08 A3019 RMK AO2 SLP221 FU SCT002 SCT010 T01000083 10144 20100 51006 $
