2023/05/27 19:53
KLAX 271953Z 24011G17KT 10SM FEW019 BKN038 19/12 A2997 RMK AO2 SLP148 T01890122
