2025/09/11 09:53
KLAX 110953Z 09003KT 10SM FEW014 19/16 A2993 RMK AO2 SLP132 T01890161 $
