2025/04/12 13:53
KLAX 121353Z 12003KT 3SM BR OVC005 14/13 A2996 RMK AO2 SLP144 T01390128 $
