2025/12/25 02:16
KLAX 250216Z 13005KT 10SM FEW024 FEW041 BKN250 16/14 A2995 RMK AO2 T01560144 $
