2025/07/12 01:53
KLAX 120153Z 27007KT 10SM SCT008 19/16 A2992 RMK AO2 SLP130 T01940156
