2025/01/27 02:02
KLAX 270202Z 10010KT 10SM FEW013 SCT018 OVC080 11/08 A3002 RMK AO2 T01060083 $
