2025/10/22 01:53
KLAX 220153Z 25008KT 10SM SCT150 18/15 A2997 RMK AO2 SLP149 T01780150
