2024/06/21 07:53
KLAX 210753Z 25004KT 10SM FEW011 16/13 A2977 RMK AO2 SLP080 T01610128 402170156
