2022/08/31 17:53
KLAX 311753Z 25008KT 10SM FEW160 28/17 A2989 RMK AO2 SLP120 T02780167 10289 20200 53005
