2022/12/14 09:53
KLAX 140953Z 00000KT 10SM CLR 08/04 A3015 RMK AO2 SLP207 T00830039 VISNO RWY24 $
