2026/01/09 15:53
KLAX 091553Z VRB03KT 10SM FEW160 SCT200 BKN250 09/M03 A3032 RMK AO2 SLP265 T00891028 $
