2025/06/15 21:53
KLAX 152153Z 27013G20KT 10SM FEW170 23/16 A2988 RMK AO2 SLP116 T02330161 $
