2026/05/13 11:53
KLAX 131153Z 25006KT 10SM FEW014 BKN020 OVC030 16/12 A3006 RMK AO2 SLP178 T01610122 10167 20161 58001
