2023/04/07 11:53
KLAX 071153Z 19004KT 10SM FEW170 BKN250 12/09 A3003 RMK AO2 SLP166 T01220089 10144 20111 53001 $
