2022/09/02 13:53
KLAX 021353Z 00000KT 8SM FEW190 23/20 A2979 RMK AO2 SLP085 T02280200
