2023/08/04 21:53
KLAX 042153Z 26012KT 10SM FEW009 FEW300 23/17 A2990 RMK SLP124 T02330172 
