2023/04/21 21:53
KLAX 212153Z 26012KT 10SM CLR 26/06 A3004 RMK AO2 SLP170 T02560061
