2023/03/05 05:53
KLAX 050553Z 26010KT 10SM SCT025 OVC040 12/06 A3004 RMK AO2 SLP172 T01170061 10133 20111 53016 $
