2025/04/23 01:53
KLAX 230153Z 23011KT 10SM BKN016 14/10 A2992 RMK AO2 SLP130 T01440100
