2022/10/10 21:53
KLAX 102153Z 27011KT 7SM FEW012 FEW080 22/16 A2992 RMK AO2 SLP130 CB DSNT NE T02220161 $
