2023/04/01 03:53
KLAX 010353Z 19006KT 10SM SCT150 BKN200 13/10 A3014 RMK AO2 SLP206 T01330100 $
