2024/04/24 09:53
KLAX 240953Z 14005KT 10SM FEW015 BKN032 14/11 A3004 RMK AO2 SLP170 T01440106
