2026/04/15 07:53
KLAX 150753Z 21004KT 10SM FEW008 FEW012 16/12 A3004 RMK AO2 SLP170 T01560122 402060111
