2023/10/23 19:53
KLAX 231953Z 15005KT 10SM FEW010 BKN041 22/14 A2974 RMK AO2 SLP071 T02170139 $
