2023/03/30 11:53
KLAX 301153Z 04006KT 10SM FEW018 BKN025 BKN045 08/07 A2989 RMK AO2 RAE03 SLP120 P0001 60060 70133 T00830067 10094 20078 55005
