2024/03/08 09:53
KLAX 080953Z 08004KT 10SM FEW009 FEW015 11/08 A3005 RMK AO2 SLP175 T01060083
