2025/12/03 11:53
KLAX 031153Z 05005KT 9SM FEW017 BKN029 OVC036 13/10 A2995 RMK AO2 SLP141 T01280100 10144 20122 56006 $
