2024/07/01 09:53
KLAX 010953Z 00000KT 3SM BR FEW003 OVC008 17/16 A2989 RMK AO2 SLP119 T01720156
