2023/11/04 13:53
KLAX 041353Z 00000KT 10SM FEW004 13/09 A3005 RMK AO2 SLP175 T01280089
