2023/02/05 05:53
KLAX 050553Z 19005KT 10SM CLR 14/11 A3018 RMK AO2 SLP219 T01440111 10167 20139 53010 $
