2025/12/10 17:53
KLAX 101753Z 00000KT 10SM CLR 23/03 A3004 RMK AO2 SLP171 T02330033 10233 20117 51007 $
