2026/05/09 21:53
KLAX 092153Z 26012G18KT 7SM FEW008 SCT012 20/14 A2991 RMK AO2 SLP125 T02000139
