2023/04/24 07:53
KLAX 240753Z 10007KT 9SM FEW009 OVC011 15/13 A2986 RMK AO2 SLP110 T01500128 402060139
