2025/11/21 02:11
KLAX 210211Z 07011KT 2 1/2SM RA BR FEW007 SCT018 OVC029 12/12 A2992 RMK AO2 CIG 021 RWY24 P0006 T01220117 $
