2023/08/28 11:53
KLAX 281153Z 00000KT 10SM CLR 20/17 A2983 RMK AO2 SLP099 T02000172 10217 20189 58001 $
