2024/11/29 09:53
KLAX 290953Z 02008KT 10SM SCT200 BKN280 17/M05 A3003 RMK AO2 SLP165 T01671050 $
