2023/03/13 15:53
KLAX 131553Z 23004KT 7SM SCT008 OVC010 13/12 A3016 RMK AO2 SLP211 T01330117 $
