2024/04/28 23:53
KLAX 282353Z 25010KT 10SM FEW010 FEW095 18/12 A2995 RMK AO2 SLP141 T01780122 10194 20178 58016
