2023/12/23 03:53
KLAX 230353Z 29009KT 10SM FEW080 BKN120 17/09 A2991 RMK AO2 SLP127 T01670094
