2022/12/13 13:53
KLAX 131353Z 00000KT 10SM FEW018 FEW030 BKN050 08/04 A3000 RMK AO2 SLP156 T00780039
