2026/01/25 15:53
KLAX 251553Z 00000KT 10SM FEW015 FEW270 BKN330 11/04 A3015 RMK AO2 SLP207 T01060044 $
