2025/05/30 21:53
KLAX 302153Z 26012KT 10SM FEW015 FEW100 23/16 A2991 RMK AO2 SLP126 T02280156
