2023/05/18 05:53
KLAX 180553Z 00000KT 7SM OVC005 14/13 A2989 RMK AO2 SLP119 T01440133 10161 20139 51010
