2026/06/16 04:53
KLAX 160453Z 25008KT 10SM FEW011 18/15 A2999 RMK AO2 SLP154 T01780150 $
