2023/08/20 11:53
KLAX 201153Z 02003KT 10SM BKN075 23/16 A2969 RMK AO2 SLP053 T02280161 10228 20200 56013 $
