2025/05/23 23:53
KLAX 232353Z 24009KT 10SM SCT015 19/14 A2991 RMK AO2 SLP125 T01940139 10217 20194 58015
