2026/07/04 18:53
KLAX 041853Z 26006KT 10SM SCT140 BKN190 BKN240 22/15 A3003 RMK AO2 SLP168 T02170150 $
