2023/11/03 05:53
KLAX 030553Z 00000KT 10SM FEW020 FEW250 18/14 A3006 RMK AO2 SLP175 FU FEW020 T01780144 10222 20172 53007 $
