2023/01/22 13:53
KLAX 221353Z 06004KT 10SM FEW200 06/01 A3010 RMK AO2 SLP193 T00560011 $
