2023/03/25 23:53
KLAX 252353Z 23016KT 10SM FEW040 15/07 A3003 RMK AO2 SLP167 T01500067 10167 20150 56018 $
