2026/07/06 12:53
KLAX 061253Z 26005KT 10SM FEW008 FEW012 SCT220 18/16 A2992 RMK AO2 SLP131 T01780156
