2024/05/24 12:53
KLAX 241253Z 24003KT 7SM FEW008 SCT012 OVC029 14/12 A2992 RMK SLP130 T01390122 
