2023/01/29 21:53
KLAX 292153Z 24015KT 10SM FEW023 SCT034 BKN065 13/07 A2989 RMK AO2 SLP120 T01330072 $
