2025/06/18 05:53
KLAX 180553Z 00000KT 10SM CLR 20/16 A2982 RMK AO2 SLP096 T02000156 10233 20194 53011
