2024/06/03 09:53
KLAX 030953Z 27004KT 10SM FEW008 FEW019 14/13 A2990 RMK AO2 SLP122 T01440133
