2023/02/16 01:53
KLAX 160153Z 26017KT 10SM CLR 13/03 A3016 RMK AO2 SLP215 T01280033 $
