2024/01/19 01:53
KLAX 190153Z 29007KT 10SM BKN200 14/13 A3007 RMK AO2 SLP180 T01440128 $
