2024/01/01 09:53
KLAX 010953Z 05005KT 7SM BKN120 12/09 A3004 RMK AO2 SLP171 T01170094
