2024/07/13 21:53
KLAX 132153Z 25015KT 10SM FEW019 SCT120 SCT180 23/17 A2995 RMK AO2 SLP141 T02280172 $
