2025/06/22 17:53
KLAX 221753Z 24011KT 10SM FEW024 22/13 A2993 RMK AO2 SLP134 T02170133 10222 20150 51001
