2026/03/18 21:53
KLAX 182153Z 27012KT 10SM FEW250 27/12 A2999 RMK AO2 SLP154 T02670117 $
