2023/05/26 17:53
KLAX 261753Z 25011KT 10SM FEW018 FEW021 BKN048 18/11 A2996 RMK AO2 SLP145 T01780111 10183 20144 51005
