2026/04/11 07:53
KLAX 110753Z 26007KT 10SM FEW012 BKN025 BKN045 16/14 A2997 RMK AO2 SLP148 T01610139 401940150 $
