2022/12/17 05:53
KLAX 170553Z 03005KT 10SM SCT250 13/M02 A3010 RMK AO2 SLP192 T01281022 10200 20122 53008 $
