2026/02/05 03:53
KLAX 050353Z 00000KT 10SM FEW250 23/03 A3008 RMK AO2 SLP185 T02330028 $
