2024/08/06 13:53
KLAX 061353Z 36004KT 10SM FEW010 SCT150 SCT180 19/17 A2992 RMK AO2 SLP131 T01940167 $
