2025/01/18 05:53
KLAX 180553Z 09003KT 10SM FEW025 11/07 A3021 RMK AO2 SLP229 T01110072 10139 20111 53009
