2026/04/25 21:53
KLAX 252153Z 22012G18KT 10SM FEW023 SCT040 BKN120 BKN200 17/09 A2989 RMK AO2 SLP121 T01670094
