2024/10/24 15:53
KLAX 241553Z 00000KT 6SM HZ FEW000 SCT190 SCT230 BKN280 18/14 A2997 RMK AO2 SLP149 VIS SW 2 W 1 1/2 NW 1 FG FEW000 FG BANK SW-NW T01780139 $
