2024/12/15 05:53
KLAX 150553Z 25005KT 10SM SCT006 BKN015 13/12 A3018 RMK AO2 SLP217 T01330117 10156 20122 55001
