2024/09/27 13:53
KLAX 271353Z 14004KT 2 1/2SM BR OVC008 16/14 A2988 RMK AO2 SLP116 T01610144
