2025/11/09 07:53
KLAX 090753Z 04005KT 4SM BR FEW009 17/15 A3002 RMK AO2 SLP163 T01670150 402280150
