2023/02/27 15:53
KLAX 271553Z 12007KT 10SM FEW019 SCT033 OVC044 09/07 A3016 RMK AO2 SLP212 T00940067 $
