2024/10/10 18:53
KLAX 101853Z 25008KT 220V290 4SM HZ FEW012 FEW160 21/16 A3002 RMK AO2 SLP165 T02110156 $
