2025/04/24 07:53
KLAX 240753Z 27009KT 10SM FEW015 BKN024 OVC033 14/10 A2999 RMK AO2 SLP155 T01390100 401670139
