2025/02/22 13:53
KLAX 221353Z 00000KT 3SM R25L/0800V6000FT BR SCT001 08/08 A3018 RMK AO2 SLP218 VIS SW 1 T00830083
