2023/02/16 13:53
KLAX 161353Z VRB03KT 10SM CLR 07/M06 A3026 RMK AO2 SLP245 T00671056 $
