2023/11/11 01:53
KLAX 110153Z 20005KT 9SM FEW220 17/12 A3001 RMK AO2 SLP160 T01670117
