2023/05/26 07:53
KLAX 260753Z 24007KT 10SM FEW022 BKN045 16/11 A2994 RMK AO2 SLP137 T01560111 401830150 $
