2024/04/06 13:53
KLAX 061353Z VRB04KT 10SM FEW020 07/02 A3022 RMK AO2 SLP231 T00670022 $
