2024/07/03 21:53
KLAX 032153Z 25012KT 10SM FEW004 FEW110 21/16 A2989 RMK AO2 SLP120 T02060156
