2025/03/31 01:53
KLAX 310153Z 24007KT 10SM OVC022 14/08 A3010 RMK AO2 SLP191 T01440083 $
