2024/05/23 13:53
KLAX 231353Z 23004KT 9SM BKN013 OVC026 15/12 A2993 RMK A02 SLP132 T01560117 
