2023/01/11 17:53
KLAX 111753Z 10004KT 10SM FEW012 FEW140 BKN240 OVC300 12/07 A3027 RMK AO2 SLP249 T01220072 10122 20083 51022 $
