2025/02/01 07:53
KLAX 010753Z 00000KT 10SM SCT200 12/09 A3019 RMK AO2 SLP223 T01220094 401560067
