2025/09/23 15:53
KLAX 231553Z 00000KT 7SM FEW009 SCT028 BKN120 BKN140 22/18 A2985 RMK AO2 SLP108 T02220178 $
