2024/02/12 15:53
KLAX 121553Z 00000KT 10SM FEW017 FEW060 10/03 A3015 RMK AO2 SLP208 T01000028
