2024/02/22 06:53
KLAX 220653Z 21004KT 10SM FEW004 FEW011 SCT250 13/12 A3018 RMK AO2 SLP219 T01330122 $
