2023/12/13 23:53
KLAX 132353Z 27011KT 10SM FEW015 16/12 A2999 RMK AO2 SLP156 T01610117 10183 20161 55004
