2025/06/22 11:53
KLAX 221153Z 08004KT 10SM FEW023 16/13 A2989 RMK AO2 SLP118 T01560128 10178 20156 53007
