2025/01/12 11:53
KLAX 121153Z 25003KT 10SM CLR 09/M02 A3004 RMK AO2 SLP169 T00941017 10156 20078 51002 $
