2023/12/19 15:53
KLAX 191553Z 05005KT 8SM -RA SCT024 OVC037 14/12 A2993 RMK AO2 DZB23E32RAB32 SLP131 P0000 T01440122 $
