2025/12/03 19:53
KLAX 031953Z 03004KT 10SM FEW025 SCT250 17/11 A3005 RMK A02 
