2026/03/31 07:53
KLAX 310753Z 16005KT 10SM BKN016 OVC250 18/14 A2995 RMK AO2 SLP141 T01830144 402110133
