2023/04/21 07:53
KLAX 210753Z 11003KT 10SM CLR 16/08 A3011 RMK AO2 SLP194 T01610083 402280111 $
