2024/09/18 05:53
KLAX 180553Z 23005KT 10SM CLR 18/12 A2992 RMK AO2 SLP129 T01780122 10206 20172 50000 $
