2023/12/04 12:53
KLAX 041253Z 00000KT 10SM SCT250 11/08 A3011 RMK AO2 SLP193 T01060083
