2025/12/02 03:53
KLAX 020353Z 22006KT 6SM BR CLR 16/14 A3004 RMK AO2 SLP171 T01610144 $
