2024/11/22 17:53
KLAX 221753Z 00000KT 10SM FEW250 17/08 A3009 RMK AO2 SLP190 T01670083 10172 20083 50001
