2024/03/13 13:53
KLAX 131353Z VRB04KT 10SM FEW009 FEW012 SCT160 13/08 A3000 RMK AO2 SLP158 T01280083
