2023/03/02 21:53
KLAX 022153Z 25010KT 10SM FEW150 15/04 A3006 RMK AO2 SLP179 T01500044 $
