2024/09/27 19:53
KLAX 271953Z 25008KT 5SM HZ FEW007 BKN010 18/14 A2988 RMK AO2 SLP117 T01830144
