2024/08/11 21:53
KLAX 112153Z 25009KT 10SM FEW009 FEW090 SCT200 24/19 A2993 RMK AO2 SLP133 T02440189
