2023/10/11 01:53
KLAX 110153Z 23006KT 10SM FEW012 18/16 A2972 RMK AO2 SLP064 T01830156 $
