2022/11/08 05:53
KLAX 080553Z 11004KT 10SM FEW014 FEW026 SCT070 14/12 A2997 RMK AO2 SLP148 60000 T01440122 10167 20144 53003
