2025/05/14 17:53
KLAX 141753Z 23012KT 8SM FEW012 SCT020 SCT042 19/12 A3006 RMK AO2 PK WND 20028/1740 SLP178 T01890117 10189 20122 51011 $
