2022/12/13 09:53
KLAX 130953Z 06004KT 10SM FEW012 FEW040 BKN050 08/06 A2997 RMK AO2 SLP149 T00830056
