2025/03/22 13:53
KLAX 221353Z 11005KT 7SM FEW005 FEW220 SCT300 12/11 A3000 RMK AO2 SLP156 T01170106 $
