2022/12/14 21:53
KLAX 142153Z 25007KT 10SM FEW300 14/06 A3013 RMK AO2 SLP203 T01440056
