2024/12/13 23:53
KLAX 132353Z 27008KT 10SM SCT033 SCT080 BKN250 14/10 A3017 RMK AO2 SLP217 T01440100 10183 20139 53006
