2022/09/18 17:53
KLAX 181753Z 24008KT 10SM FEW025 SCT034 BKN047 21/16 A2985 RMK AO2 SLP106 T02110156 10217 20200 51012
