2025/01/15 05:53
KLAX 150553Z 36003KT 10SM CLR 12/M01 A3024 RMK AO2 SLP238 T01221006 10167 20117 51009
