2024/01/03 05:53
KLAX 030553Z 28006KT 10SM FEW026 14/11 A3022 RMK AO2 SLP231 T01390106 10156 20139 53005
