2022/09/09 15:53
KLAX 091553Z VRB03KT 10SM FEW090 SCT160 BKN180 32/18 A2956 RMK AO2 SLP007 T03220178 $
