2023/10/15 09:53
KLAX 150953Z 00000KT 10SM CLR 17/14 A3002 RMK AO2 SLP163 T01670139
