2023/12/01 15:53
KLAX 011553Z 32013G19KT 10SM FEW070 SCT140 BKN250 16/03 A3001 RMK AO2 PK WND 35031/1455 SLP162 T01560033
