2024/10/16 19:53
KLAX 161953Z VRB03KT 6SM HZ OVC018 18/14 A2996 RMK AO2 SLP144 T01830144 $
