2024/07/17 17:53
KLAX 171753Z 26006KT 10SM SCT110 BKN160 BKN220 24/17 A2999 RMK AO2 SLP154 T02390172 10244 20183 53002
