2023/05/18 15:53
KLAX 181553Z VRB03KT 3SM HZ OVC011 17/14 A2991 RMK AO2 SLP127 VIS SW-NW 2 1/2 T01670139
