2023/01/01 11:53
KLAX 011153Z 28008KT 9SM FEW019 SCT046 13/10 A2970 RMK AO2 SLP055 60027 70087 T01280100 10150 20128 56008
