2025/03/25 05:53
KLAX 250553Z 00000KT 2 1/2SM BR OVC003 13/12 A3004 RMK AO2 SLP172 VIS 1 1/4V5 CIG 002V004 T01280117 10150 20122 50008 $
