2023/08/24 07:53
KLAX 240753Z 16005KT 1 1/2SM BR VV002 18/18 A2990 RMK AO2 SLP120 VIS W 1/2 T01830178 402330178 $
