2025/03/31 05:53
KLAX 310553Z 11008KT 10SM FEW009 OVC012 13/11 A3012 RMK AO2 SLP199 T01330111 10167 20133 50006 $
