2025/05/15 01:53
KLAX 150153Z 23011G19KT 10SM FEW012 FEW080 SCT250 17/12 A2998 RMK AO2 SLP150 T01670122 $
