2023/03/13 00:06
KLAX 130006Z 24010KT 1SM R25L/P6000FT BR OVC004 14/13 A3010 RMK AO2 CIG 003V007 T01390133 $
