2024/08/29 09:53
KLAX 290953Z 26004KT 8SM OVC011 18/16 A2997 RMK AO2 SLP144 T01830161
