2022/09/16 09:53
KLAX 160953Z 11004KT 10SM FEW018 19/17 A2991 RMK AO2 SLP125 T01940167 $
