2024/06/25 17:53
KLAX 251753Z 25008KT 10SM FEW100 24/17 A2994 RMK AO2 SLP137 T02390167 10244 20183 53002
