2023/01/15 15:53
KLAX 151553Z 26013KT 10SM SCT020 BKN070 OVC230 13/11 A2986 RMK AO2 SLP111 T01330106 $
