2023/02/27 21:53
KLAX 272153Z 19008KT 2SM -RA BR SCT007 BKN016 OVC023 11/10 A3011 RMK AO2 SLP196 VIS 1V2 1/2 P0010 T01110100 $
