2024/04/07 17:53
KLAX 071753Z 00000KT 10SM FEW018 FEW039 SCT210 BKN270 16/04 A3013 RMK AO2 SLP201 T01560044 10161 20072 51001 $
