2024/09/03 05:53
KLAX 030553Z 34003KT 10SM FEW010 20/18 A2990 RMK AO2 SLP122 T02000178 10228 20194 51010 $
