2026/01/02 03:53
KLAX 020353Z 25003KT 10SM FEW010 FEW050 15/13 A3008 RMK AO2 SLP186 T01500133 $
