2023/07/10 03:53
KLAX 100353Z 24010KT 10SM CLR 17/14 A2988 RMK AO2 SLP115 T01670139
