2025/12/29 17:53
KLAX 291753Z 00000KT 10SM FEW180 FEW250 17/02 A3017 RMK AO2 SLP216 T01720022 10172 20078 50009
