2024/01/21 15:53
KLAX 211553Z VRB04KT 9SM FEW007 FEW039 BKN080 14/13 A2990 RMK AO2 SLP123 T01390133 $
