2025/06/14 13:53
KLAX 141353Z 15004KT 5SM HZ OVC013 18/15 A2992 RMK AO2 SLP129 T01830150 $
