2024/02/14 05:53
KLAX 140553Z 26004KT 10SM SCT016 13/10 A3006 RMK AO2 SLP178 T01280100 10150 20122 51013 $
