2024/07/31 19:53
KLAX 311953Z 28012KT 7SM FEW004 SCT007 20/16 A2996 RMK AO2 SLP142 T02000156 $
