2024/03/25 13:53
KLAX 251353Z 10008KT 10SM FEW120 FEW180 10/05 A2990 RMK AO2 SLP123 T01000050 $
