2024/07/05 21:53
KLAX 052153Z 27011KT 10SM FEW010 SCT045 22/16 A2981 RMK AO2 SLP094 T02220161
