2024/04/23 11:53
KLAX 231153Z 28005KT 9SM FEW002 SCT007 OVC015 14/12 A2995 RMK AO2 SLP140 T01390122 10150 20139 56002
