2023/04/14 23:53
KLAX 142353Z 27012KT 10SM FEW011 SCT030 BKN048 16/10 A2997 RMK AO2 SLP148 T01560100 10172 20139 58005
