2024/12/22 01:53
KLAX 220153Z 25007KT 10SM SCT200 SCT250 14/12 A3013 RMK AO2 SLP204 T01390117
