2024/10/14 16:53
KLAX 141653Z 11006KT 6SM HZ OVC019 18/13 A3010 RMK AO2 SLP190 T01830133 $
