2024/07/10 19:53
KLAX 101953Z 25010KT 10SM FEW004 23/17 A2989 RMK AO2 SLP121 T02280172
