2023/09/15 01:53
KLAX 150153Z 25010KT 10SM SCT014 SCT100 19/16 A2992 RMK AO2 SLP129 T01890156 $
