2025/06/02 03:53
KLAX 020353Z 26010KT 10SM BKN008 17/14 A2990 RMK AO2 SLP124 T01670139 $
