2024/04/20 07:53
KLAX 200753Z 26006KT 10SM SCT019 13/11 A3000 RMK AO2 SLP158 T01330106 401830128 $
