2024/01/05 13:53
KLAX 051353Z 10005KT 10SM FEW120 BKN150 BKN220 08/02 A3014 RMK AO2 SLP206 T00830022
