2023/10/16 21:53
KLAX 162153Z 26009KT 10SM FEW250 24/14 A2994 RMK AO2 SLP138 T02440139
