2025/07/21 04:53
KLAX 210453Z VRB05KT 10SM OVC013 19/16 A2997 RMK AO2 SLP148 T01890161 $
