2025/11/29 21:53
KLAX 292153Z 26006KT 10SM FEW230 FEW280 18/13 A2997 RMK AO2 SLP148 T01780133 $
