2025/08/05 21:53
KLAX 052153Z 26012KT 10SM FEW200 24/17 A2997 RMK AO2 SLP147 T02390167
