2025/06/28 23:53
KLAX 282353Z 27013KT 10SM FEW016 21/16 A2994 RMK AO2 SLP136 T02110156 10233 20211 56016 $
