2024/11/15 03:53
KLAX 150353Z 25008KT 10SM FEW010 15/11 A2987 RMK AO2 SLP113 T01500111
