2022/09/15 17:53
KLAX 151753Z 00000KT 10SM FEW035 BKN042 25/15 A2997 RMK AO2 SLP148 T02500150 10250 20189 50004 $
