2026/01/25 05:53
KLAX 250553Z 16003KT 10SM CLR 13/09 A3001 RMK AO2 SLP161 T01330094 10161 20133 53018 $
