2024/10/07 19:53
KLAX 071953Z 27008KT 8SM BCFG SCT004 BKN140 BKN180 21/16 A2989 RMK AO2 SLP120 VIS W 1/2 T02060161
