2024/04/24 03:53
KLAX 240353Z 25009KT 10SM FEW021 FEW040 14/10 A3003 RMK AO2 SLP168 T01390100
