2023/12/29 15:53
KLAX 291553Z 00000KT 5SM BR SCT007 OVC100 12/11 A3014 RMK AO2 SLP203 T01220111 $
