2025/02/03 05:53
KLAX 030553Z 22004KT 1/2SM R25L/2000V4000FT FG OVC002 12/12 A3003 RMK AO2 SLP169 T01220122 10139 20117 51001 $
