2024/02/10 03:53
KLAX 100353Z 33006KT 10SM FEW050 BKN250 12/04 A2999 RMK AO2 SLP156 T01220044 $
