2026/01/01 15:57
KLAX 011557Z 26014KT 1 1/2SM R25L/4500VP6000FT +RA BR SCT004 OVC015 16/15 A3002 RMK AO2 VIS 1V3 CIG 003 RWY24 VIS 1V2 P0003 T01560150 $
