2025/12/01 11:53
KLAX 011153Z 07004KT 8SM SCT018 13/11 A3000 RMK AO2 SLP159 T01280106 10150 20122 58004 $
