2025/08/08 15:53
KLAX 081553Z 00000KT 7SM FEW010 FEW060 SCT250 22/17 A2991 RMK AO2 SLP126 T02170172 $
