2026/02/01 23:53
KLAX 012353Z 26010KT 10SM FEW150 FEW250 22/06 A2999 RMK AO2 SLP153 T02220056 10261 20211 55004
