2025/12/30 07:53
KLAX 300753Z 03007KT 10SM BKN150 BKN250 17/M02 A3012 RMK AO2 SLP198 T01721022 402390078 $
