2023/12/26 03:53
KLAX 260353Z 26005KT 10SM FEW010 SCT230 BKN280 14/12 A3013 RMK AO2 SLP204 T01440122
