2024/09/13 15:53
KLAX 131553Z 16003KT 10SM FEW019 OVC023 21/15 A2981 RMK AO2 SLP091 T02060150
