2023/04/08 03:53
KLAX 080353Z 23010KT 10SM SCT200 13/09 A3004 RMK AO2 SLP171 T01330094
