2025/09/05 09:53
KLAX 050953Z 25003KT 10SM FEW010 BKN012 20/18 A2983 RMK AO2 SLP097 T02000178
