2025/06/01 13:53
KLAX 011353Z 08004KT 5SM BR FEW007 SCT160 BKN190 BKN240 18/16 A2995 RMK AO2 SLP140 T01780156 $
