2026/04/26 13:53
KLAX 261353Z 28013KT 10SM SCT012 SCT025 14/09 A2991 RMK AO2 SLP126 T01390094 $
