2022/10/19 19:53
KLAX 191953Z 18004KT 10SM FEW035 FEW080 SCT120 SCT180 33/08 A2997 RMK AO2 SLP147 T03330083 $
