2025/04/08 01:53
KLAX 080153Z 25008KT 10SM FEW015 FEW250 15/12 A3003 RMK AO2 SLP168 T01500117 $
