2024/06/01 09:53
KLAX 010953Z 27006KT 8SM OVC010 15/13 A2990 RMK AO2 SLP122 T01500128
