2024/12/11 05:53
KLAX 110553Z 01008KT 10SM FEW055 SCT280 16/M13 A3027 RMK AO2 SLP250 FU FEW055 T01561128 10194 20133 51011
