2022/11/02 01:53
KLAX 020153Z 27010KT 10SM SCT016 BKN033 18/14 A2993 RMK AO2 SLP135 T01780139 VISNO RWY24 $
