2025/12/26 13:53
KLAX 261353Z 19010G16KT 3SM -RA BR FEW008 BKN015 OVC035 16/13 A3004 RMK AO2 RAB45 SLP170 VIS 2 1/2V4 VIS SE-S 2 P0003 T01560133 $
