2025/08/06 09:53
KLAX 060953Z VRB03KT 10SM CLR 19/16 A2999 RMK AO2 SLP152 T01940156
