2023/05/26 01:53
KLAX 260153Z 27013KT 10SM FEW026 SCT037 BKN044 16/11 A2989 RMK AO2 SLP119 T01610106 $
