2024/08/25 11:53
KLAX 251153Z 06003KT 10SM CLR 17/14 A3001 RMK AO2 SLP160 T01720144 10194 20172 52001 $
