2023/04/07 07:53
KLAX 070753Z 14003KT 10SM BKN250 12/08 A3003 RMK AO2 SLP168 T01220083 402110094 $
