2024/12/17 23:53
KLAX 172353Z 27006KT 10SM FEW200 16/10 A3007 RMK AO2 SLP183 T01610100 10222 20161 53000 $
