2025/11/17 09:53
KLAX 170953Z 08005KT 10SM FEW011 SCT024 BKN048 BKN150 14/13 A2997 RMK AO2 RAE0857 SLP147 P0000 T01390128 $
