2025/09/16 17:53
KLAX 161753Z 27010KT 8SM FEW009 FEW060 SCT070 24/18 A2996 RMK AO2 SLP142 T02390178 10267 20183 53007
