2023/06/24 09:53
KLAX 240953Z 13003KT 10SM FEW020 14/13 A2999 RMK AO2 SLP154 T01440133
