2022/08/22 17:53
KLAX 221753Z 24005KT 8SM OVC008 20/18 A3003 RMK AO2 DZE26 SLP167 P0000 60000 T02000178 10200 20194 50002 $
