2023/08/30 03:53
KLAX 300353Z 25006KT 10SM CLR 22/17 A2980 RMK AO2 SLP089 T02220167
