2025/11/01 09:53
KLAX 010953Z 26004KT 4SM BR OVC005 16/16 A3001 RMK AO2 VIS 2 1/2 RWY24 SLP161 T01610156 $
