2023/08/08 15:53
KLAX 081553Z 09003KT 8SM FEW010 FEW160 21/17 A3004 RMK AO2 SLP169 T02110167 $
