2026/06/17 08:53
KLAX 170853Z 17006KT 9SM OVC006 17/14 A2993 RMK AO2 SLP131 T01670144 58003 $
