2025/01/22 17:53
KLAX 221753Z 34005KT 10SM FEW100 SCT140 BKN250 21/02 A3024 RMK AO2 SLP240 T02060017 10206 20100 53006
