2023/03/22 03:53
KLAX 220353Z 23015KT 10SM FEW021 SCT100 SCT120 12/07 A2976 RMK AO2 RAE0255 SLP076 P0000 T01170072
