2025/06/16 11:53
KLAX 161153Z 00000KT 9SM FEW007 17/15 A2989 RMK AO2 SLP118 T01720150 10183 20167 51001 $
