2026/03/25 09:53
KLAX 250953Z 18003KT 7SM SCT008 OVC010 17/14 A3000 RMK AO2 SLP157 T01670144
