2025/10/03 07:53
KLAX 030753Z 26006KT 10SM FEW005 BKN008 19/18 A2999 RMK AO2 SLP153 T01940178 402440167 $
