2023/12/17 09:53
KLAX 170953Z 03005KT 10SM FEW250 16/M03 A3003 RMK AO2 SLP168 T01561028 $
