2023/07/09 05:53
KLAX 090553Z 24009KT 10SM CLR 16/13 A2986 RMK AO2 SLP110 T01610128 10206 20161 53011
