2025/08/10 05:53
KLAX 100553Z 23004KT 9SM BKN008 18/16 A2990 RMK AO2 SLP122 T01830161 10200 20178 51006 $
