2024/07/21 07:53
KLAX 210753Z 00000KT 10SM SCT007 19/17 A2990 RMK AO2 SLP121 T01940172 402220167 $
