2025/08/30 13:53
KLAX 301353Z 33003KT 10SM CLR 21/19 A2994 RMK AO2 SLP137 T02060189 $
