2023/06/28 20:00
KLAX 282000Z 27008KT 10SM FEW010 SCT025 20/14 A2991 RMK AO2 T02000139
