2023/10/10 09:53
KLAX 100953Z 09004KT 10SM FEW011 SCT250 16/15 A2977 RMK AO2 SLP081 T01610150
