2026/07/12 14:53
KLAX 121453Z 10006KT 10SM FEW010 SCT120 BKN160 BKN250 21/17 A2997 RMK AO2 SLP146 T02110167 51014 $
