2024/09/10 11:53
KLAX 101153Z 19004KT 10SM FEW040 20/16 A2981 RMK AO2 SLP092 FU FEW040 T02000161 10244 20200 51001
