2025/07/09 15:53
KLAX 091553Z VRB04KT 10SM FEW160 FEW250 22/15 A3006 RMK AO2 SLP176 CCSL NE T02170150 $
