2023/03/25 03:53
KLAX 250353Z 32009KT 10SM FEW050 14/M02 A3017 RMK AO2 SLP214 T01391017
