2023/01/30 13:53
KLAX 301353Z 07008KT 4SM RA BR FEW008 BKN030 OVC038 09/08 A2994 RMK AO2 SLP137 P0010 T00940083 $
