2025/07/11 21:53
KLAX 112153Z 27011KT 10SM CLR 22/16 A2994 RMK AO2 SLP137 T02170156
