2022/10/19 02:53
KLAX 190253Z 19004KT 10SM CLR 22/15 A2995 RMK AO2 SLP140 T02220150 53008 $
