2023/04/01 17:53
KLAX 011753Z VRB05KT 10SM CLR 18/08 A3014 RMK AO2 SLP205 T01830083 10183 20089 51003 $
