2025/11/24 13:53
KLAX 241353Z 05004KT 5SM BR FEW005 OVC008 14/13 A3015 RMK AO2 SLP208 T01390128
