2023/02/07 15:53
KLAX 071553Z 00000KT 10SM FEW180 FEW250 12/01 A3027 RMK AO2 SLP249 T01220011 $
