2024/02/27 03:53
KLAX 270353Z 23004KT 10SM OVC017 13/11 A2997 RMK AO2 RAE01 SLP147 P0000 T01280106 $
