2025/03/05 19:53
KLAX 051953Z 00000KT 6SM -RA BR SCT018 BKN049 OVC060 14/09 A2997 RMK AO2 SLP147 P0000 T01390094
