2023/06/12 19:53
KLAX 121953Z 25014KT 10SM FEW018 FEW030 BKN037 20/13 A3005 RMK AO2 SLP174 T02000128
