2022/09/04 17:53
KLAX 041753Z 26009KT 10SM SCT130 SCT180 BKN230 31/18 A2984 RMK AO2 SLP102 T03110183 10378 20261 55005
