2025/02/25 23:53
KLAX 252353Z 25007KT 10SM SCT004 17/13 A2989 RMK AO2 SLP122 VIS W 2 T01670128 10211 20144 56018 $
