2025/01/02 11:53
KLAX 021153Z 00000KT 10SM FEW002 FEW250 10/08 A3009 RMK AO2 SLP186 T01000078 10133 20094 58003 VISNO RWY24 $
