2023/01/04 15:53
KLAX 041553Z 08008KT 1SM R25L/5000V6000FT -RA BR OVC003 14/14 A3009 RMK AO2 SLP189 VIS 1/2V2 VIS W-NW 3/4 P0004 T01440139 $
