2025/06/19 05:53
KLAX 190553Z 00000KT 10SM CLR 19/16 A2984 RMK AO2 SLP101 T01940161 10233 20189 51011 $
