2023/02/23 03:53
KLAX 230353Z 26025G30KT 10SM FEW032 09/02 A2989 RMK AO2 PK WND 27034/0256 SLP123 T00940022
