2025/09/14 01:53
KLAX 140153Z 24008KT 10SM BKN013 BKN023 20/17 A2987 RMK AO2 SLP114 T02000167 $
