2022/11/01 21:53
KLAX 012153Z 24008KT 10SM FEW025 FEW030 20/14 A2988 RMK AO2 SLP118 T02000139 VISNO RWY24 $
