2024/05/01 03:53
KLAX 010353Z 25004KT 10SM CLR 14/12 A2986 RMK AO2 SLP109 T01440117 $
