2025/03/22 03:53
KLAX 220353Z 15006KT 10SM FEW250 14/11 A2999 RMK AO2 SLP154 T01440111 $
