2024/04/20 17:53
KLAX 201753Z VRB06KT 10SM SCT019 OVC024 16/11 A3006 RMK AO2 SLP177 T01610111 10161 20139 51010 $
