2024/07/12 07:53
KLAX 120753Z 25005KT 1/4SM R25L/4500VP6000FT FG VV002 17/17 A2987 RMK AO2 SLP114 T01720167 402440167 $
