2023/07/29 17:53
KLAX 291753Z 26008KT 7SM FEW010 SCT250 26/19 A2996 RMK AO2 SLP145 VIS W 3 T02560194 10261 20200 58001
