2025/01/09 07:53
KLAX 090753Z 03008KT 10SM FEW010 FEW150 SCT280 15/M05 A3008 RMK AO2 SLP185 FU FEW010 T01501050 402280117
