2024/08/18 03:53
KLAX 180353Z 26010KT 10SM BKN010 20/17 A2991 RMK AO2 SLP126 T02000172 $
