2025/05/10 17:53
KLAX 101753Z 26010KT 10SM FEW250 26/15 A2991 RMK AO2 SLP126 T02560150 10272 20156 53003
