2025/03/25 13:53
KLAX 251353Z 26010KT 1/4SM R25L/5500VP6000FT FG VV002 12/12 A3000 RMK AO2 SLP156 T01220122 $
