2024/07/30 21:53
KLAX 302153Z 27011KT 10SM CLR 21/15 A2994 RMK AO2 SLP137 T02110150 $
