2026/01/18 09:53
KLAX 180953Z 04003KT 10SM SCT250 16/M01 A3011 RMK AO2 SLP193 T01561011 $
