2025/11/09 01:53
KLAX 090153Z 22004KT 5SM BR OVC007 18/16 A2995 RMK AO2 SLP141 VIS W 2 T01780161
