2025/04/17 17:53
KLAX 171753Z 23006KT 8SM FEW016 SCT022 OVC060 16/11 A3000 RMK AO2 SLP160 T01560111 10156 20139 51009 $
