2022/10/21 11:53
KLAX 211153Z VRB04KT 5SM BR FEW006 BKN008 19/18 A2990 RMK AO2 SLP123 T01940178 10211 20183 58004 $
