2025/11/02 19:53
KLAX 021953Z 26007KT 4SM HZ FEW008 BKN011 19/14 A3006 RMK AO2 SLP177 VIS SW-W 2 1/2 T01890144 $
