2024/05/30 13:53
KLAX 301353Z 10004KT 6SM HZ SCT011 OVC015 16/12 A2997 RMK AO2 SLP146 T01610122 $
