2022/10/20 15:53
KLAX 201553Z 07005KT 10SM FEW090 SCT140 BKN190 26/09 A2996 RMK AO2 SLP143 T02560089 $
