2025/06/16 19:53
KLAX 161953Z 26011KT 8SM CLR 23/16 A2992 RMK AO2 SLP129 T02280156 $
