2026/05/07 09:53
KLAX 070953Z 00000KT 10SM FEW014 15/13 A3001 RMK AO2 SLP162 T01500128
