2022/12/29 17:53
KLAX 291753Z 09006KT 8SM FEW022 OVC065 14/11 A3002 RMK AO2 SLP166 T01440111 10144 20128 53009 $
