2024/11/07 23:53
KLAX 072353Z 23012KT 10SM CLR 20/M05 A3008 RMK AO2 SLP187 T02001050 10228 20200 56005 $
