2023/09/27 15:53
KLAX 271553Z 15003KT 9SM FEW004 FEW200 BKN280 19/16 A2994 RMK AO2 SLP135 ACC SW T01940156 $
