2025/04/01 13:53
KLAX 011353Z 30006KT 9SM FEW010 FEW027 SCT065 BKN250 12/07 A2999 RMK AO2 SLP153 T01170072
