2024/11/11 21:53
KLAX 112153Z 26010KT 10SM FEW160 SCT180 BKN250 17/11 A3001 RMK AO2 SLP162 T01720106
