2025/03/19 19:53
KLAX 191953Z 23005KT 10SM FEW160 22/05 A3028 RMK AO2 SLP254 T02220050 $
