2024/10/26 15:53
KLAX 261553Z 21003KT 2SM MIFG BKN002 BKN250 15/14 A3006 RMK AO2 SLP179 VIS E 10 T01500144 $
