2024/01/15 05:53
KLAX 150553Z 09005KT 10SM FEW012 FEW250 12/10 A3006 RMK AO2 SLP178 T01170100 10144 20111 51009 $
