2026/01/29 05:53
KLAX 290553Z 04003KT 10SM SCT250 14/09 A3017 RMK AO2 SLP216 T01390094 10183 20133 52003
