2026/01/01 23:53
KLAX 012353Z 24006KT 10SM FEW015 FEW030 SCT055 SCT150 17/14 A3007 RMK AO2 SLP181 T01670144 10178 20167 53004 $
