2026/05/08 17:53
KLAX 081753Z 25007KT 9SM OVC017 18/14 A3002 RMK AO2 SLP164 T01830144 10183 20161 53001
