2024/09/12 01:53
KLAX 120153Z 26005KT 10SM CLR 19/16 A2972 RMK AO2 SLP064 T01940156
