2024/12/19 03:53
KLAX 190353Z 26003KT 10SM CLR 19/04 A3006 RMK AO2 SLP179 T01890039
