2024/09/17 09:53
KLAX 170953Z 12004KT 10SM FEW018 15/12 A2993 RMK AO2 SLP132 T01500117 $
