2025/06/15 00:13
KLAX 150013Z 27015KT 9SM SCT008 BKN220 19/16 A2988 RMK AO2 T01890156 $
