2025/03/29 05:53
KLAX 290553Z 17008KT 10SM FEW060 SCT150 14/10 A2994 RMK AO2 SLP138 T01390100 10167 20139 55002 $
