2023/11/08 07:53
KLAX 080753Z 33012G19KT 10SM CLR 18/04 A3001 RMK AO2 SLP159 T01830039 402170161
