2024/07/01 19:53
KLAX 011953Z 26009KT 10SM FEW010 22/16 A2989 RMK AO2 SLP121 T02220161
