2024/03/02 09:53
KLAX 020953Z 21011G20KT 9SM SCT009 BKN016 OVC021 14/13 A3003 RMK AO2 SLP169 T01390128 $
