2022/12/22 09:53
KLAX 220953Z 11003KT 10SM SCT250 11/06 A3005 RMK AO2 SLP173 T01060061
