2023/06/29 21:53
KLAX 292153Z 24011KT 10SM CLR 21/13 A2989 RMK AO2 SLP122 T02060133
