2025/07/07 17:53
KLAX 071753Z 27008KT 230V290 7SM SCT022 21/14 A2999 RMK AO2 SLP153 T02060144 10211 20172 50005 $
