2025/10/01 21:53
KLAX 012153Z 25012KT 10SM FEW011 23/16 A2998 RMK AO2 SLP149 T02280156 $
