2025/08/15 05:53
KLAX 150553Z 00000KT 10SM OVC012 19/16 A2990 RMK AO2 SLP124 T01940161 10211 20189 51010 $
