2023/03/07 19:53
KLAX 071953Z 25011KT 10SM FEW016 FEW045 SCT220 14/07 A3014 RMK AO2 SLP204 T01440067 $
