2024/11/05 11:53
KLAX 051153Z 10004KT 10SM CLR 13/03 A3001 RMK AO2 SLP158 T01280033 10167 20111 56012 $
