2024/01/16 15:53
KLAX 161553Z 09003KT 5SM BR FEW005 SCT180 SCT220 11/09 A3009 RMK AO2 SLP188 T01060094 $
