2026/07/10 22:53
KLAX 102253Z 26009KT 10SM FEW011 FEW050 22/16 A2989 RMK AO2 SLP118 T02220161 $
