2025/07/03 21:53
KLAX 032153Z 23011KT 10SM FEW012 FEW090 22/14 A2993 RMK AO2 SLP132 T02170144 $
