2025/12/14 05:53
KLAX 140553Z 25003KT 10SM BKN010 15/13 A3006 RMK AO2 SLP177 T01500133 10156 20144 53011 $
