2024/03/01 21:53
KLAX 012153Z 25010KT 10SM SCT030 BKN047 BKN060 16/10 A3011 RMK AO2 SLP197 T01560100 $
