2025/03/15 15:53
KLAX 151553Z 10006KT 8SM FEW030 FEW250 11/08 A3007 RMK AO2 SLP184 T01060078 $
