2023/11/27 07:53
KLAX 270753Z VRB05KT 10SM BKN200 BKN250 16/M03 A3003 RMK AO2 SLP168 T01561028 402220083 $
