2025/04/30 13:53
KLAX 301353Z 11006KT 6SM HZ FEW009 OVC011 14/11 A3002 RMK AO2 SLP166 T01390111 $
