2026/01/31 05:53
KLAX 310553Z VRB04KT 10SM CLR 21/01 A3016 RMK AO2 SLP212 T02110006 10239 20194 51013 $
