2024/02/16 15:53
KLAX 161553Z 03003KT 6SM BR FEW008 SCT025 BKN140 14/12 A3015 RMK AO2 SLP207 T01390117
