2026/02/17 15:53
KLAX 171553Z 07005KT 9SM FEW032 BKN041 BKN060 11/09 A3006 RMK AO2 SLP178 T01060089 $
