2025/08/05 07:53
KLAX 050753Z 14003KT 9SM CLR 19/17 A2993 RMK AO2 SLP132 T01890172 402390167
