2023/03/30 17:53
KLAX 301753Z 09004KT 9SM SCT034 BKN043 BKN050 12/06 A2997 RMK AO2 SLP148 60014 T01220056 10133 20078 53014
