2022/12/13 21:53
KLAX 132153Z 23009KT 10SM FEW025 FEW050 14/04 A3004 RMK AO2 SLP171 T01390044 $
