2025/08/25 21:53
KLAX 252153Z 25012KT 10SM FEW010 SCT110 SCT170 BKN240 BKN300 24/18 A2986 RMK AO2 SLP110 CB DSNT NE AND E TCU DSNT NW T02440183 $
