2026/04/03 19:53
KLAX 031953Z 32006KT 10SM FEW060 SCT100 BKN160 BKN250 26/09 A3000 RMK AO2 SLP157 T02560089 $
