2024/03/13 23:53
KLAX 132353Z 26012KT 10SM FEW060 SCT200 BKN250 18/08 A2991 RMK AO2 SLP128 T01780083 10189 20167 56022
