2025/06/18 03:53
KLAX 180353Z 23005KT 10SM CLR 19/16 A2980 RMK AO2 SLP087 T01940156
