2024/07/25 05:53
KLAX 250553Z 25004KT 10SM FEW006 19/16 A3006 RMK AO2 SLP176 T01940161 10222 20194 53022 $
