2024/02/03 01:53
KLAX 030153Z 27023G29KT 10SM FEW014 FEW045 SCT170 SCT230 13/09 A2996 RMK AO2 PK WND 27031/0143 SLP144 T01330089 $
