2023/02/25 15:53
KLAX 251553Z 23015G22KT 180V240 5SM -RA BR SCT010 BKN024 OVC040 09/08 A2989 RMK AO2 SLP120 P0014 T00890078 $
