2026/05/18 19:53
KLAX 181953Z 24012G21KT 7SM CLR 21/12 A2990 RMK AO2 SLP122 T02110122
