2023/03/18 07:53
KLAX 180753Z 00000KT 9SM SCT200 13/11 A3002 RMK AO2 SLP164 T01280111 401670089
