2025/03/22 21:53
KLAX 222153Z 25011KT 7SM VCFG FEW000 FEW200 SCT250 17/11 A2995 RMK AO2 SLP143 FG FEWOOO FG BANK SW-NW T01670111 $
