2025/04/11 11:53
KLAX 111153Z 00000KT 10SM FEW250 14/12 A3002 RMK AO2 SLP165 T01440122 10156 20133 56008
