2024/08/07 01:53
KLAX 070153Z 26006KT 10SM FEW006 FEW250 22/18 A2990 RMK AO2 SLP121 T02170178
