2026/04/22 05:53
KLAX 220553Z 27008KT 10SM FEW015 FEW020 SCT050 16/12 A3010 RMK AO2 SLP191 T01610117 10194 20161 51016 $
