2023/05/29 01:53
KLAX 290153Z 24008KT 10SM FEW012 OVC033 17/13 A2992 RMK AO2 SLP131 T01670133
