2025/02/09 19:53
KLAX 091953Z 23004KT 10SM FEW180 FEW250 SCT300 18/08 A3004 RMK AO2 SLP173 ACSL DSNT NE T01780078 $
