2025/11/07 03:53
KLAX 070353Z 25005KT 10SM BKN007 17/15 A3002 RMK AO2 SLP164 T01670150 $
