2025/08/27 04:53
KLAX 270453Z 28005KT 10SM BKN011 20/17 A3001 RMK AO2 SLP160 T02000172 $
