2025/03/10 09:53
KLAX 100953Z 00000KT 10SM CLR 11/07 A3001 RMK AO2 SLP160 T01110067 $
