2023/10/01 19:53
KLAX 011953Z 11009KT 10SM FEW037 SCT043 BKN060 18/11 A2991 RMK AO2 SLP126 T01830106 $
