2023/11/07 13:53
KLAX 071353Z 10005KT 10SM FEW012 BKN021 17/14 A2997 RMK AO2 SLP147 T01670144
