2025/02/18 21:53
KLAX 182153Z 26011KT 10SM SCT160 BKN250 16/11 A3002 RMK AO2 SLP166 T01610106 $
