2024/10/07 16:04
KLAX 071604Z 00000KT 2 1/2SM BR SCT003 BKN120 BKN160 18/17 A2991 RMK AO2 VIS 2V3 VIS N 3/4 T01780167
