2023/04/01 21:53
KLAX 012153Z 26013KT 10SM FEW200 17/10 A3012 RMK AO2 SLP199 T01670100 $
