2024/05/22 09:53
KLAX 220953Z 28004KT 9SM OVC010 14/11 A2994 RMK SLP136 T01390111 
