2023/02/11 21:53
KLAX 112153Z 25017KT 10SM SCT033 15/07 A2989 RMK AO2 SLP119 T01500072 $
