2023/05/06 15:53
KLAX 061553Z VRB04KT 10SM FEW015 FEW040 SCT200 16/10 A3009 RMK AO2 SLP189 T01610100
