2025/03/01 07:53
KLAX 010753Z 25008KT 10SM FEW011 SCT016 OVC020 14/11 A2997 RMK AO2 SLP148 T01390106 402060122
