2023/02/04 21:53
KLAX 042153Z 27005KT 8SM SCT250 18/06 A3012 RMK AO2 SLP200 T01780056 $
