2023/09/08 13:53
KLAX 081353Z 00000KT 8SM FEW007 FEW160 19/18 A2999 RMK AO2 SLP152 T01940178
