2024/12/23 23:53
KLAX 232353Z 28009KT 2 1/2SM HZ BKN009 OVC200 14/11 A3010 RMK AO2 VIS 1 3/4 RWY24 SLP193 T01390111 10183 20139 53003
