2023/04/15 13:53
KLAX 151353Z 07003KT 9SM FEW015 11/09 A3008 RMK AO2 SLP186 T01060089
