2024/11/18 21:53
KLAX 182153Z 24010KT 10SM FEW027 SCT050 BKN190 17/10 A2996 RMK AO2 SLP146 T01670100 $
