2025/11/05 05:53
KLAX 050553Z 24008KT 10SM BKN013 16/13 A3013 RMK AO2 SLP202 T01610133 10178 20150 53017 $
