2025/03/26 12:06
KLAX 261206Z 00000KT 7SM OVC010 13/12 A3003 RMK AO2 T01280117 $
