2023/08/22 21:53
KLAX 222153Z 26015KT 10SM FEW090 24/17 A2993 RMK AO2 SLP132 T02390172 $
