2023/07/15 13:53
KLAX 151353Z 23004KT 5SM BR SCT005 BKN250 17/16 A2987 RMK AO2 SLP111 T01720161
