2026/06/27 09:53
KLAX 270953Z 31004KT 10SM BKN023 18/14 A2993 RMK AO2 SLP133 T01780139
