2026/05/09 11:53
KLAX 091153Z 00000KT 6SM BR OVC010 16/14 A2992 RMK AO2 SLP131 T01610139 10167 20150 56006
