2025/06/20 09:53
KLAX 200953Z 00000KT 10SM FEW010 OVC014 18/15 A2981 RMK AO2 SLP091 T01780150 $
