2025/09/05 01:53
KLAX 050153Z 24012KT 10SM FEW010 FEW090 22/18 A2978 RMK AO2 SLP083 T02170183
