2022/12/29 21:53
KLAX 292153Z 23006KT 8SM SCT023 SCT029 OVC044 15/11 A2997 RMK AO2 SLP147 T01500106 $
