2023/12/21 03:53
KLAX 210353Z 11006KT 10SM BKN009 BKN018 OVC070 16/16 A2989 RMK AO2 RAE0256 CIG 007V012 SLP119 P0000 T01610156
