2024/09/09 03:53
KLAX 090353Z 20005KT 10SM CLR 26/17 A2975 RMK AO2 SLP071 T02610167
