2022/11/29 01:53
KLAX 290153Z 22005KT 10SM FEW023 SCT042 SCT050 15/11 A2989 RMK AO2 SLP120 T01500106
