2026/06/09 12:53
KLAX 091253Z VRB03KT 10SM FEW014 FEW160 17/13 A2989 RMK AO2 SLP120 T01670133 $
