2024/03/28 21:53
KLAX 282153Z 25014G21KT 10SM FEW013 FEW050 SCT200 16/11 A3002 RMK AO2 SLP166 T01610111 $
