2024/09/18 01:53
KLAX 180153Z 27013KT 10SM FEW010 18/14 A2991 RMK AO2 SLP127 T01830139 $
