2025/01/23 08:01
KLAX 230801Z 10003KT 10SM FEW008 FEW014 SCT250 16/M03 A3024 RMK AO2 FU FEW008 FU FEW014 T01561033
