2025/10/08 17:53
KLAX 081753Z VRB03KT 8SM FEW010 OVC020 19/14 A2994 RMK AO2 SLP135 T01940139 10194 20167 50007 $
