2023/03/27 09:53
KLAX 270953Z 00000KT 10SM FEW250 11/M01 A3012 RMK AO2 SLP198 T01061011 $
