2024/05/05 01:53
KLAX 050153Z 22008KT 10SM SCT012 SCT027 SCT037 14/11 A2989 RMK AO2 SLP119 T01440106
