2025/02/21 15:53
KLAX 211553Z 09004KT 1SM R25L/2000VP6000FT BR BKN003 12/12 A3008 RMK AO2 SLP185 T01170117
