2024/07/14 17:53
KLAX 141753Z 23005KT 7SM FEW014 SCT018 BKN060 22/17 A3006 RMK AO2 SLP179 T02170172 10228 20189 58002
