2023/03/31 05:53
KLAX 310553Z 27003KT 10SM FEW018 FEW200 SCT250 11/06 A3010 RMK AO2 SLP193 60002 T01110061 10128 20106 52023 $
