2023/04/12 17:53
KLAX 121753Z 10004KT 8SM FEW009 OVC015 14/11 A2991 RMK AO2 SLP127 T01440111 10144 20128 53000 $
