2025/02/01 09:53
KLAX 010953Z 06003KT 8SM CLR 10/09 A3018 RMK AO2 SLP219 T01000089
