2022/11/17 07:53
KLAX 170753Z VRB04KT 10SM CLR 16/M03 A3023 RMK AO2 SLP234 T01561033 402330089
