2025/09/04 09:53
KLAX 040953Z 25005KT 10SM FEW009 20/18 A2990 RMK LP122 T02000183 
