2023/05/17 17:53
KLAX 171753Z 25008KT 8SM SCT006 OVC010 16/13 A2996 RMK AO2 SLP145 T01610128 10161 20133 53006
