2023/09/26 17:53
KLAX 261753Z 26007KT 6SM CLR 23/16 A3003 RMK AO2 SLP166 T02280156 10233 20150 50003 $
