2025/10/20 07:53
KLAX 200753Z 05005KT 10SM FEW250 17/14 A3002 RMK AO2 SLP161 T01670144 402560150
