2024/08/25 21:53
KLAX 252153Z 25012KT 10SM FEW010 24/17 A3003 RMK AO2 SLP167 T02390172
