2024/10/02 09:53
KLAX 020953Z 00000KT 9SM FEW002 FEW006 17/16 A2987 RMK AO2 SLP112 T01720161
