2023/06/07 21:53
KLAX 072153Z 27009KT 10SM FEW025 FEW037 BKN046 19/11 A3000 RMK AO2 SLP158 T01890111
