2026/07/05 12:53
KLAX 051253Z 25005KT 10SM FEW010 BKN100 BKN250 18/16 A2999 RMK AO2 SLP153 T01830156
