2024/04/06 23:53
KLAX 062353Z 27014KT 10SM FEW095 14/04 A3021 RMK AO2 SLP230 T01440039 10167 20139 56014 $
