2022/09/20 13:53
KLAX 201353Z 04004KT 10SM FEW018 BKN050 BKN160 19/16 A2992 RMK AO2 SLP128 T01940156 $
