2025/03/02 21:53
KLAX 022153Z 25020G30KT 10SM FEW025 FEW060 SCT160 17/08 A3008 RMK AO2 PK WND 26032/2102 SLP186 T01670083 $
