2023/11/10 21:53
KLAX 102153Z 26010KT 10SM FEW120 SCT180 BKN280 21/04 A2999 RMK AO2 SLP153 T02110044
