2026/01/21 11:53
KLAX 211153Z VRB03KT 6SM BR BKN009 14/13 A3008 RMK AO2 SLP185 T01440128 10144 20133 58003 $
