2024/08/12 07:53
KLAX 120753Z 30004KT 10SM SCT280 21/17 A2994 RMK AO2 SLP138 T02060172 402560189
