2023/02/24 11:53
KLAX 241153Z 08009KT 9SM FEW007 BKN030 OVC036 08/06 A3000 RMK AO2 RAE53 SLP158 P0005 60009 70037 T00780061 10083 20078 56012
