2023/04/16 01:53
KLAX 160153Z 26013KT 10SM FEW011 14/11 A3008 RMK AO2 SLP184 T01390111
