2022/12/11 01:53
KLAX 110153Z 19007KT 10SM SCT021 BKN042 BKN060 15/11 A3005 RMK AO2 SLP174 T01500106 $
