2023/03/08 09:53
KLAX 080953Z 06003KT 10SM FEW015 FEW250 08/06 A3011 RMK AO2 SLP194 T00780061 $
