2023/10/09 09:53
KLAX 090953Z 10003KT 2SM BR BKN002 OVC004 17/17 A2985 RMK AO2 SLP105 VIS SW-N 1 1/2 T01720167
