2022/11/23 15:53
KLAX 231553Z 00000KT 10SM FEW160 SCT180 BKN250 12/M01 A3007 RMK AO2 PRESRR SLP182 T01221006 $
