2023/08/20 05:53
KLAX 200553Z 25005KT 10SM FEW040 SCT120 BKN200 21/17 A2978 RMK AO2 SLP082 T02060172 10239 20200 50001 $
