2025/09/04 01:53
KLAX 040153Z 25014KT 10SM FEW100 23/18 A2986 RMK AO2 SLP110 T02330183 
