2026/07/01 19:53
KLAX 011953Z 26008KT 10SM SCT014 BKN029 OVC036 20/15 A2996 RMK AO2 SLP144 T02000150
