2024/12/13 09:53
KLAX 130953Z 36005KT 10SM FEW250 11/08 A3009 RMK AO2 SLP187 T01110083
