2026/05/10 02:53
KLAX 100253Z 26008KT 7SM OVC005 15/14 A2990 RMK AO2 SLP122 T01500139 53004
