2023/04/25 15:53
KLAX 251553Z 27004KT 7SM FEW009 SCT016 OVC027 16/13 A2991 RMK AO2 SLP128 T01610128 $
