2025/02/20 12:05
KLAX 201205Z 09005KT 1/8SM R25L/1200FT FG VV001 11/11 A2997 RMK AO2 T01110111 $
