2024/06/27 05:53
KLAX 270553Z 22003KT 10SM FEW008 18/14 A2992 RMK AO2 SLP130 T01780139 10217 20178 50004
