2022/12/29 05:53
KLAX 290553Z 00000KT 10SM FEW035 OVC150 14/11 A2999 RMK AO2 SLP154 T01390111 10161 20139 53013 $
