2022/10/28 05:53
KLAX 280553Z 20003KT 10SM CLR 18/15 A3006 RMK AO2 SLP176 T01780150 10200 20178 53011 VISNO RWY24 $
