2023/10/24 17:53
KLAX 241753Z VRB05KT 10SM FEW010 BKN020 20/14 A2986 RMK AO2 SLP108 T02000144 10206 20144 51008 $
