2022/12/11 17:53
KLAX 111753Z 27022G28KT 10SM SCT007 BKN016 OVC030 13/11 A2994 RMK AO2 PK WND 26028/1752 RAB23E51 SLP137 P0003 60052 T01330111 10150 20128 53009 $
