2023/03/06 23:53
KLAX 062353Z 26013KT 10SM FEW015 FEW070 SCT150 SCT250 14/06 A3012 RMK AO2 SLP199 T01390061 10150 20133 56012 $
