2025/07/13 19:53
KLAX 131953Z 27010KT 10SM FEW006 SCT012 BKN016 21/16 A3001 RMK AO2 SLP160 T02110156
