2023/07/31 21:53
KLAX 312153Z 25007KT 10SM FEW100 SCT150 BKN200 27/19 A2993 RMK AO2 SLP132 T02670189 $
