2023/11/09 17:53
KLAX 091753Z 30003KT 10SM CLR 23/M05 A3010 RMK AO2 SLP190 T02331050 10233 20106 50007
