2022/11/18 09:53
KLAX 180953Z 00000KT 10SM FEW200 SCT250 12/04 A3002 RMK AO2 SLP163 T01170039
