2024/05/04 07:53
KLAX 040753Z 25007KT 10SM SCT023 14/12 A2990 RMK AO2 SLP123 T01440122 402000139
