2024/03/10 15:53
KLAX 101553Z 14003KT 10SM FEW006 SCT250 BKN300 13/08 A3010 RMK AO2 SLP192 T01280078 $
