2022/11/30 01:53
KLAX 300153Z 19003KT 10SM CLR 16/11 A2997 RMK AO2 SLP149 T01560106
