2026/05/31 13:53
KLAX 311353Z 11004KT 7SM FEW006 17/14 A2992 RMK AO2 SLP131 T01670139 $
