2026/05/31 15:53
KLAX 311553Z 00000KT 6SM HZ FEW008 19/14 A2994 RMK AO2 SLP137 T01890144 $
