2024/06/30 17:53
KLAX 301753Z 25008KT 7SM SCT009 19/16 A2994 RMK AO2 SLP138 T01940156 10211 20156 51006
