2025/02/18 00:53
KLAX 180053Z 25010KT 10SM SCT200 BKN250 14/12 A2995 RMK AO2 SLP140 T01440122
