2026/04/29 09:53
KLAX 290953Z 00000KT 10SM FEW250 13/11 A3002 RMK AO2 SLP164 T01330111 $
