2024/10/29 17:53
KLAX 291753Z 26013KT 10SM FEW010 FEW025 19/07 A2994 RMK AO2 SLP137 T01940072 10200 20139 51013
