2025/11/26 07:53
KLAX 260753Z VRB05KT 10SM CLR 17/06 A3008 RMK AO2 SLP182 T01720056 402280117
