2024/11/09 13:53
KLAX 091353Z 09004KT 10SM FEW200 10/01 A3000 RMK AO2 SLP155 T01000006
