2022/10/22 23:53
KLAX 222353Z 27007KT 10SM FEW021 BKN028 OVC034 19/13 A2975 RMK AO2 SLP072 T01890133 10206 20189 56012
