2023/12/12 13:53
KLAX 121353Z 08005KT 6SM BR FEW002 FEW005 SCT012 11/09 A2989 RMK AO2 SLP120 T01060094 $
