2026/02/18 17:53
KLAX 181753Z 27010KT 10SM FEW029 FEW047 SCT070 SCT240 13/01 A3004 RMK AO2 PK WND 27028/1657 SLP172 60000 T01280011 10128 20106 51033
