2025/03/02 09:53
KLAX 020953Z 00000KT 10SM SCT021 SCT027 OVC034 14/11 A3009 RMK AO2 SLP188 T01390111 $
