2023/06/30 03:53
KLAX 300353Z 26009KT 10SM BKN006 16/14 A2989 RMK AO2 SLP121 T01560139
