2022/12/21 07:53
KLAX 210753Z 09003KT 10SM FEW015 12/09 A3016 RMK AO2 SLP211 T01220089 401720089
