2022/08/30 05:53
KLAX 300553Z 24005KT 10SM CLR 19/16 A2991 RMK AO2 SLP126 T01890161 10222 20189 51010 $
