2023/07/26 17:53
KLAX 261753Z 25010KT 9SM FEW009 SCT120 BKN250 25/19 A2996 RMK AO2 SLP142 T02500189 10272 20189 53006 $
