2024/12/22 15:53
KLAX 221553Z 15003KT 8SM SCT170 BKN200 BKN240 12/08 A3014 RMK AO2 SLP204 T01170083
