2025/12/28 01:53
KLAX 280153Z 30004KT 10SM FEW032 14/08 A3006 RMK AO2 SLP180 T01440083 $
