2023/05/30 13:53
KLAX 301353Z 26009KT 10SM FEW016 SCT025 OVC042 16/12 A2997 RMK AO2 SLP147 T01560122 $
