2022/09/23 23:53
KLAX 232353Z 26011KT 10SM FEW090 FEW300 26/16 A2988 RMK AO2 SLP116 TCU DSNT SE T02560156 10272 20244 56007
