2025/12/17 07:53
KLAX 170753Z VRB03KT 1/4SM R25L/3500VP6000FT FG VV002 14/14 A3009 RMK AO2 SLP188 VIS SE-S 1/2 T01390139 401670111 $
