2023/06/28 13:53
KLAX 281353Z 13005KT 9SM FEW008 OVC014 16/13 A2991 RMK AO2 SLP126 CIG 011V017 T01610128
