2025/06/01 07:53
KLAX 010753Z VRB04KT 1/2SM R25L/P6000FT FG OVC003 16/16 A2993 RMK AO2 SLP134 T01610156 402390161 $
