2023/11/28 07:53
KLAX 280753Z VRB04KT 10SM FEW160 BKN220 BKN280 16/00 A3013 RMK AO2 SLP200 T01560000 402280100 $
