2025/12/24 19:53
KLAX 241953Z 00000KT 2SM R25L/4500VP6000FT RA BR SCT009 BKN024 OVC036 14/14 A2992 RMK AO2 SLP132 VIS 1V2 1/2 BKN V SCT P0029 T01440139 $
