2025/03/18 19:53
KLAX 181953Z 24015KT 10SM FEW010 17/05 A3028 RMK AO2 SLP253 T01670050 $
