2025/02/07 00:19
KLAX 070019Z 11007KT 10SM FEW024 OVC032 16/13 A3002 RMK AO2 CIG 025 RWY24 T01610133
