2025/03/08 15:53
KLAX 081553Z 05007KT 10SM FEW017 11/08 A3029 RMK AO2 SLP257 T01110078 $
