2026/01/14 17:53
KLAX 141753Z 11006KT 10SM FEW070 FEW250 20/04 A3015 RMK AO2 SLP207 T02000044 10200 20106 53003 $
