2025/04/19 09:53
KLAX 190953Z 00000KT 10SM FEW006 BKN042 12/09 A3008 RMK AO2 SLP184 T01220089 $
