2024/02/19 05:53
KLAX 190553Z 28006KT 10SM -RA OVC049 14/12 A3004 RMK AO2 RAB52 SLP172 P0000 60000 T01440122 10161 20139 51009 $
