2023/09/19 10:53
KLAX 191053Z 14004KT 10SM FEW008 FEW016 17/16 A2994 RMK SLP136 T01720156 
