2024/08/14 19:53
KLAX 141953Z 25010KT 10SM CLR 25/18 A2999 RMK AO2 SLP154 T02500183 $
