2025/11/28 01:53
KLAX 280153Z 27007KT 10SM BKN250 19/07 A3002 RMK AO2 SLP163 T01890072 $
