2026/01/07 01:53
KLAX 070153Z 25005KT 10SM FEW065 SCT170 BKN210 16/12 A3000 RMK AO2 SLP160 T01560117 $
