2025/04/23 13:53
KLAX 231353Z 11004KT 8SM OVC025 14/08 A2994 RMK AO2 SLP137 T01390083
