2026/01/20 11:53
KLAX 201153Z 00000KT 10SM CLR 14/07 A3003 RMK AO2 SLP168 T01390072 10156 20117 56003 $
