2023/06/24 03:53
KLAX 240353Z 25012KT 10SM CLR 17/12 A3001 RMK AO2 SLP159 T01670122
