2023/05/18 19:53
KLAX 181953Z 14008KT 7SM OVC015 18/13 A2995 RMK AO2 SLP141 T01780133
