2025/06/15 19:53
KLAX 151953Z 27009KT 10SM FEW180 23/16 A2989 RMK AO2 SLP122 T02330156 $
