2024/02/05 05:53
KLAX 050553Z 15013G21KT 3SM -RA BR BKN008 OVC015 14/13 A2990 RMK AO2 SLP124 P0014 60126 T01390133 10139 20128 53001 $
