2025/05/19 23:53
KLAX 192353Z 24008KT 10SM FEW015 20/14 A2993 RMK AO2 SLP135 T02000139 10217 20200 56014
