2023/07/22 15:53
KLAX 221553Z 11005KT 4SM HZ BKN010 20/17 A2990 RMK AO2 SLP124 T02000172
