2024/05/25 21:53
KLAX 252153Z 27013KT 10SM FEW018 FEW027 SCT036 18/10 A3001 RMK AO2 SLP160 T01780100
