2024/04/14 07:53
KLAX 140753Z 15003KT 10SM FEW040 09/07 A3010 RMK AO2 SLP191 T00890072 401720089 $
