2025/02/20 09:53
KLAX 200953Z 09006KT 7SM FEW004 FEW009 SCT250 11/11 A3000 RMK AO2 SLP157 T01110106 $
