2023/02/01 01:53
KLAX 010153Z 21004KT 10SM CLR 15/00 A3005 RMK AO2 SLP177 T01500000 $
