2023/07/27 05:53
KLAX 270553Z 25005KT 10SM FEW008 21/17 A2990 RMK AO2 SLP120 T02110172 10261 20206 50008 $
