2025/03/14 07:53
KLAX 140753Z 28003KT 10SM FEW024 BKN250 11/02 A3001 RMK AO2 SLP163 T01060022 401440094
