2025/06/12 19:53
KLAX 121953Z 25008KT 10SM FEW012 BKN018 21/14 A2988 RMK AO2 SLP117 T02060144
