2025/08/16 14:53
KLAX 161453Z 13006KT 10SM OVC021 19/16 A3003 RMK AO2 SLP168 T01940156 53014 $
