2023/12/06 15:53
KLAX 061553Z 11003KT 10SM FEW011 FEW180 SCT250 16/05 A3007 RMK AO2 SLP182 T01610050
