2025/05/30 11:53
KLAX 301153Z 20005KT 10SM FEW150 FEW200 17/14 A2988 RMK AO2 SLP114 T01720139 10178 20161 56026
