2023/11/01 05:53
KLAX 010553Z 00000KT 10SM FEW035 FEW250 18/01 A3002 RMK AO2 SLP163 FU FEW035 T01830011 10256 20183 51007 $
