2025/06/30 05:53
KLAX 300553Z 24008KT 10SM FEW012 17/15 A2990 RMK AO2 SLP121 T01720150 10211 20172 50006
