2025/02/15 05:53
KLAX 150553Z 00000KT 10SM FEW015 FEW200 12/09 A3015 RMK AO2 SLP209 T01220094 10156 20122 53018
