2025/02/14 07:53
KLAX 140753Z 26013KT 9SM BKN009 OVC028 14/13 A3002 RMK AO2 SLP165 T01390128 401560122 $
