2026/05/01 04:53
KLAX 010453Z 23006KT 10SM FEW014 16/13 A2992 RMK AO2 SLP130 T01610133
