2024/06/15 05:53
KLAX 150553Z 26004KT 9SM FEW006 FEW013 17/15 A2988 RMK AO2 SLP116 T01670150 10194 20167 50003
