2023/02/26 23:53
KLAX 262353Z 26011KT 10SM SCT055 12/04 A3016 RMK AO2 SLP215 T01220044 10128 20106 55001 $
