2025/03/12 15:53
KLAX 121553Z 12008KT 5SM BR BKN008 OVC013 13/13 A2997 RMK AO2 RAB00E24 SLP148 P0001 T01330128 $
