2025/12/09 15:53
KLAX 091553Z 00000KT 10SM FEW100 FEW180 17/03 A3008 RMK AO2 SLP184 T01670028 $
