2023/03/04 03:53
KLAX 040353Z 23004KT 10SM FEW220 11/08 A2994 RMK AO2 SLP140 T01110083 $
