2022/10/25 03:53
KLAX 250353Z 27009KT 10SM CLR 19/09 A3015 RMK AO2 SLP207 T01890089
