2025/07/02 13:53
KLAX 021353Z 22005KT 8SM OVC013 17/14 A2987 RMK AO2 SLP114 T01670139 $
