2023/12/23 09:53
KLAX 230953Z 09004KT 10SM FEW030 12/12 A2995 RMK AO2 SLP140 T01220117
