2022/12/27 05:53
KLAX 270553Z 13003KT 10SM FEW250 16/12 A3007 RMK AO2 SLP178 T01560117 10194 20150 50005 $
