2025/06/27 07:53
KLAX 270753Z 26004KT 8SM FEW004 OVC007 17/16 A2991 RMK AO2 SLP125 T01720156 402220167
