2024/10/12 19:53
KLAX 121953Z 26008KT 3SM HZ SCT006 SCT250 20/15 A3007 RMK AO2 VIS 2 RWY24 SLP180 VIS W 1 T02000150
