2024/01/08 07:53
KLAX 080753Z VRB03KT 10SM CLR 09/M04 A3007 RMK AO2 PK WND 34028/0704 SLP181 T00941044 401500094
