2026/06/12 19:53
KLAX 121953Z 27011KT 10SM FEW010 SCT045 22/17 A2986 RMK AO2 SLP111 T02220167
