2022/12/05 15:53
KLAX 051553Z 26008KT 9SM FEW014 SCT120 BKN140 BKN180 14/11 A3006 RMK AO2 SLP177 T01390111 $
