2025/01/11 13:53
KLAX 111353Z 10003KT 9SM SCT043 BKN055 09/M03 A3007 RMK AO2 SLP181 FU SCT043 FU BKN055 T00941028
