2025/01/01 11:53
KLAX 011153Z 27005KT 2SM BR FEW001 OVC004 11/09 A3008 RMK AO2 SLP183 VIS 1 1/2V2 1/2 T01060094 10122 20100 50001 $
