2023/10/07 23:53
KLAX 072353Z 26008KT 10SM FEW000 SCT120 SCT230 21/17 A2982 RMK AO2 SLP095 VIS SW-W 1 1/2 FG FEW000 T02110167 10261 20200 56015
