2024/03/29 13:53
KLAX 291353Z 11004KT 10SM FEW015 SCT028 BKN032 11/08 A2995 RMK AO2 SLP140 T01060078 $
