2025/04/13 17:53
KLAX 131753Z VRB03KT 9SM BKN013 OVC016 16/12 A2999 RMK AO2 SLP153 T01560117 10161 20139 52013 $
