2024/05/05 13:53
KLAX 051353Z 26015KT 10SM CLR 12/08 A2989 RMK AO2 SLP118 T01220083
