2026/05/16 11:53
KLAX 161153Z 24005KT 10SM OVC023 16/13 A2991 RMK AO2 SLP126 T01610133 10161 20156 56007
