2023/03/23 21:53
KLAX 232153Z 26020KT 10SM FEW020 FEW045 16/09 A3021 RMK AO2 SLP230 T01560094
