2025/06/18 09:53
KLAX 180953Z 07005KT 10SM CLR 18/16 A2981 RMK AO2 SLP090 T01780156
