2024/05/16 21:53
KLAX 162153Z 25011KT 10SM BKN033 18/12 A2996 RMK AO2 SLP144 T01780117 
