2023/03/14 19:53
KLAX 141953Z 10009KT 3SM -RA BR BKN009 BKN028 OVC065 14/13 A3007 RMK AO2 SLP181 P0011 T01440133 $
