2025/08/18 21:53
KLAX 182153Z 24011KT 10SM FEW010 24/17 A2994 RMK AO2 SLP137 T02390172 $
