2025/04/02 07:53
KLAX 020753Z 28012KT 10SM FEW010 FEW150 SCT280 12/06 A2984 RMK AO2 SLP105 T01220056 401720117
