2024/09/28 05:53
KLAX 280553Z 26006KT 9SM FEW004 OVC007 16/13 A2986 RMK AO2 SLP110 T01560133 10172 20150 51010
