2025/07/03 01:53
KLAX 030153Z 24009KT 10SM FEW015 19/14 A2983 RMK AO2 SLP100 T01890139 $
