2022/11/04 23:53
KLAX 042353Z 24007KT 10SM SCT300 17/04 A3019 RMK AO2 SLP224 6//// T01720039 10194 20167 56012
