2025/11/08 17:53
KLAX 081753Z 12004KT 4SM HZ FEW005 19/15 A2995 RMK AO2 SLP141 VIS W 2 1/2 T01940150 10194 20150 51011
