2023/01/26 11:53
KLAX 261153Z 00000KT 10SM CLR 08/02 A3029 RMK AO2 SLP255 T00780022 10156 20078 51004 $
