2024/06/10 13:53
KLAX 101353Z 33003KT 10SM FEW010 OVC015 16/13 A2995 RMK AO2 SLP141 T01610133 $
