2023/03/09 19:53
KLAX 091953Z 26008KT 10SM FEW100 SCT160 SCT250 17/08 A3010 RMK AO2 SLP192 T01670083 $
