2023/05/20 09:59
KLAX 200959Z 27009KT 6SM BR SCT008 OVC015 16/15 A3006 RMK AO2 VIS W 2 T01610150
