2023/07/28 11:53
KLAX 281153Z 14004KT 10SM FEW009 20/18 A2988 RMK AO2 SLP115 T02000183 10211 20194 55005 $
