2023/03/16 05:53
KLAX 160553Z VRB04KT 10SM BKN016 OVC021 13/10 A3000 RMK AO2 SLP157 T01280100 10144 20128 51013 $
