2025/06/30 17:53
KLAX 301753Z 23011KT 10SM FEW010 22/16 A2991 RMK AO2 SLP128 T02220156 10222 20167 58003
