2026/02/28 01:53
KLAX 280153Z 25004KT 10SM SCT120 BKN220 22/13 A2987 RMK AO2 SLP115 T02170133
