2024/01/07 15:53
KLAX 071553Z 34012G24KT 10SM FEW032 FEW048 SCT070 SCT130 11/M02 A2997 RMK AO2 PK WND 34039/1516 SLP147 T01061022
