2024/06/12 15:53
KLAX 121553Z 26005KT 8SM OVC012 17/15 A3000 RMK AO2 SLP156 T01720150
