2026/06/19 10:53
KLAX 191053Z VRB04KT 10SM OVC011 17/14 A2997 RMK AO2 SLP146 T01670139 $
