2025/06/30 07:53
KLAX 300753Z 22006KT 10SM SCT009 BKN011 17/15 A2990 RMK AO2 SLP122 T01720150 402170161
