2025/11/08 23:53
KLAX 082353Z 25008KT 6SM BR BKN007 18/16 A2992 RMK AO2 SLP130 T01780156 10228 20178 56004
