2024/09/08 19:53
KLAX 081953Z 27010KT 10SM FEW025 FEW090 SCT140 SCT200 31/19 A2977 RMK AO2 SLP078 CB DSNT NE-E T03060189
