2025/05/11 21:53
KLAX 112153Z 26012KT 10SM FEW180 SCT250 22/15 A2987 RMK AO2 SLP113 T02170150
