2022/12/05 19:53
KLAX 051953Z 24008KT 9SM FEW010 SCT024 BKN035 BKN140 15/11 A3003 RMK AO2 SLP169 T01500106 $
