2022/12/28 11:53
KLAX 281153Z 00000KT 6SM BR FEW008 BKN010 OVC024 13/12 A2988 RMK AO2 SLP115 60019 70050 T01330117 10133 20122 58004
