2025/09/01 09:53
KLAX 010953Z 25003KT 10SM FEW008 21/19 A2991 RMK AO2 SLP124 T02060189 $
