2024/07/31 07:53
KLAX 310753Z 15003KT 1/2SM R25L/P6000FT FG BKN002 OVC004 16/16 A2991 RMK AO2 SLP126 VIS 1/4V1 1/2 T01610156 402170156 $
