2024/03/06 19:53
KLAX 061953Z 14009G18KT 10SM SCT010 SCT044 OVC055 16/09 A2992 RMK AO2 SLP129 T01560094
