2025/08/04 05:53
KLAX 040553Z 21005KT 10SM FEW250 18/15 A2993 RMK AO2 SLP131 T01830150 10217 20178 58001 $
