2024/11/03 00:02
KLAX 030002Z 00000KT 5SM BR BKN016 OVC021 16/13 A2990 RMK AO2 VIS W 9 T01610128 $
