2024/01/11 17:53
KLAX 111753Z 33010G22KT 10SM FEW010 FEW030 SCT060 13/M03 A3004 RMK AO2 SLP173 T01331033 10133 20111 51033
