2024/03/08 19:53
KLAX 081953Z 27005KT 10SM FEW011 FEW015 18/11 A3012 RMK AO2 SLP201 T01830111 $
