2025/01/02 07:53
KLAX 020753Z 00000KT 10SM FEW250 12/09 A3009 RMK AO2 SLP189 T01220089 401500083
