2024/09/26 19:53
KLAX 261953Z 26009KT 10SM FEW015 20/14 A2989 RMK AO2 SLP121 T02000144
