2026/05/27 06:53
KLAX 270653Z 25012KT 10SM BKN055 15/10 A2980 RMK AO2 SLP089 T01500100 $
