2026/05/12 23:53
KLAX 122353Z 26009KT 10SM FEW027 FEW250 18/12 A3001 RMK AO2 SLP161 T01830122 10194 20172 58011
