2023/11/25 13:53
KLAX 251353Z 01004KT 10SM FEW014 13/10 A3002 RMK AO2 SLP164 T01330100 $
