2022/12/25 23:53
KLAX 252353Z 25005KT 10SM FEW250 20/08 A3013 RMK AO2 SLP202 T02000083 10283 20200 56003 $
