2023/03/18 09:53
KLAX 180953Z 08003KT 9SM FEW200 12/11 A3002 RMK AO2 SLP163 T01170106
