2025/02/22 15:53
KLAX 221553Z 11005KT 6SM R25L/4000VP6000FT BCFG BR SCT001 SCT200 10/10 A3020 RMK AO2 SLP226 FG BANK SE-SW T01000100 $
