2025/07/10 03:53
KLAX 100353Z 27008KT 10SM FEW250 18/14 A2996 RMK AO2 SLP142 T01830139 $
