2024/09/17 21:53
KLAX 172153Z 26014KT 10SM SCT045 22/12 A2993 RMK AO2 SLP134 T02170122 $
