2022/10/13 02:53
KLAX 130253Z 24007KT 10SM OVC012 19/17 A3005 RMK AO2 SLP172 T01940167 53003
