2023/04/28 23:53
KLAX 282353Z 26012KT 10SM SCT007 OVC010 15/12 A2996 RMK AO2 SLP145 T01500117 10172 20144 58010
