2025/02/13 15:53
KLAX 131553Z 18008KT 8SM FEW004 BKN008 OVC019 14/14 A2999 RMK AO2 RAE1456 SLP154 P0000 T01440139
