2023/09/02 13:53
KLAX 021353Z 00000KT 10SM SCT008 OVC015 20/19 A2998 RMK AO2 DZE14 SLP149 P0000 T02000189
