2025/09/28 01:53
KLAX 280153Z 27006KT 10SM FEW015 SCT023 BKN031 BKN150 21/16 A2989 RMK AO2 SLP119 T02060161 $
