2023/09/29 03:53
KLAX 290353Z 25004KT 10SM OVC014 18/16 A2985 RMK AO2 SLP107 T01830156 $
