2023/09/16 01:53
KLAX 160153Z 26012KT 10SM BKN014 19/17 A2992 RMK AO2 SLP131 T01940167
