2022/09/13 02:53
KLAX 130253Z 26008KT 10SM FEW150 23/19 A2989 RMK AO2 SLP117 T02330189 55002 $
