2024/04/29 01:53
KLAX 290153Z 25006KT 10SM FEW090 16/12 A2993 RMK AO2 SLP135 T01610117
