2023/10/29 19:53
KLAX 291953Z 19007KT 10SM CLR 24/03 A3003 RMK AO2 SLP169 T02440028
