2026/04/09 07:53
KLAX 090753Z VRB04KT 10SM FEW011 SCT250 18/15 A2993 RMK AO2 SLP134 T01780150 402170144 $
