2026/04/27 09:53
KLAX 270953Z 26009KT 10SM FEW020 BKN065 15/08 A2998 RMK AO2 SLP149 T01500078 $
