2025/07/14 13:53
KLAX 141353Z 00000KT 4SM BR OVC008 17/15 A2999 RMK AO2 SLP153 T01670150
