2023/12/02 07:53
KLAX 020753Z 05006KT 10SM CLR 14/00 A3010 RMK AO2 SLP191 T01390000 402000128
