2023/03/28 23:53
KLAX 282353Z 25014KT 10SM FEW150 SCT250 15/09 A3004 RMK AO2 SLP170 ACSL N-NE T01500094 10200 20150 56012 $
