2025/01/11 15:53
KLAX 111553Z 09005KT 9SM SCT045 11/M03 A3009 RMK AO2 SLP188 FU SCT045 T01061028 $
