2026/04/02 03:53
KLAX 020353Z 27013KT 10SM FEW015 FEW050 SCT250 17/14 A2998 RMK AO2 SLP150 T01670139 $
