2023/06/07 07:53
KLAX 070753Z 00000KT 10SM FEW012 SCT045 BKN110 16/12 A2994 RMK AO2 SLP138 T01560117 401830139
