2025/09/03 21:53
KLAX 032153Z 26012KT 10SM FEW120 26/19 A2990 RMK AO2 SLP121 T02610189 
