2025/03/09 13:53
KLAX 091353Z 00000KT 10SM CLR 10/04 A3020 RMK AO2 SLP226 T01000044
