2024/12/04 11:53
KLAX 041153Z 08004KT 2SM BR SCT003 OVC006 13/11 A3016 RMK AO2 SLP212 VIS 3/4V2 1/2 T01280111 10133 20122 58001
