2024/09/18 11:53
KLAX 181153Z 02004KT 10SM FEW012 FEW022 16/13 A2986 RMK AO2 SLP110 T01610133 10178 20156 56009 $
