2023/11/17 02:10
KLAX 170210Z 28008KT 10SM BKN009 17/16 A2999 RMK AO2 T01720156 $
