2022/09/18 13:53
KLAX 181353Z 12009KT 8SM FEW036 BKN047 21/14 A2980 RMK AO2 SLP088 T02060144 $
