2026/04/20 23:53
KLAX 202353Z 27014KT 10SM BKN250 18/12 A2996 RMK AO2 SLP145 T01830117 10211 20183 58015 $
