2022/10/19 15:53
KLAX 191553Z 05006KT 10SM FEW120 FEW160 26/09 A3001 RMK AO2 SLP162 T02610089 $
