2026/02/27 19:53
KLAX 271953Z 26010KT 10SM FEW160 SCT180 SCT250 24/12 A2997 RMK AO2 SLP148 T02440122
