2024/08/06 09:53
KLAX 060953Z 00000KT 10SM FEW008 19/16 A2989 RMK AO2 SLP118 T01890161 $
