2024/08/24 11:53
KLAX 241153Z 03003KT 10SM FEW011 17/15 A3000 RMK AO2 SLP155 T01720150 10189 20167 53004 $
