2026/02/22 11:53
KLAX 221153Z 00000KT 10SM SCT250 11/03 A3017 RMK AO2 SLP214 T01060028 10139 20100 58012 $
