2023/10/30 03:53
KLAX 300353Z 13006KT 10SM CLR 19/M03 A3005 RMK AO2 SLP173 T01941033
