2026/05/08 19:53
KLAX 081953Z 25008KT 10SM SCT020 20/14 A3000 RMK AO2 SLP157 T02000139
