2024/03/05 07:53
KLAX 050753Z 02005KT 10SM FEW011 BKN250 12/09 A3008 RMK AO2 SLP184 T01220089 401720078
