2023/08/21 11:53
KLAX 211153Z 10010KT 3SM -RA BR FEW003 BKN008 OVC012 18/18 A2996 RMK AO2 SLP141 VIS 2V5 P0008 60079 70251 T01830178 10200 20183 51030 $
