2023/01/04 21:53
KLAX 042153Z 14012KT 6SM BR BKN007 OVC010 16/15 A3005 RMK AO2 RAB02E05 SLP175 P0000 T01610150 $
