2024/05/04 01:53
KLAX 040153Z 26013KT 10SM FEW014 16/12 A2985 RMK AO2 SLP107 T01610122
