2022/12/10 01:53
KLAX 100153Z 26007KT 10SM FEW019 FEW220 13/08 A3010 RMK AO2 SLP194 T01330078 $
