2023/05/04 19:53
KLAX 041953Z 23011G22KT 10SM FEW026 SCT033 BKN050 17/09 A2997 RMK AO2 SLP148 T01670094
