2023/09/01 13:53
KLAX 011353Z 10004KT 6SM HZ SCT016 BKN150 BKN220 21/18 A2984 RMK AO2 SLP104 ACC E-SE T02060178 $
