2022/11/05 15:53
KLAX 051553Z 13004KT 10SM FEW240 SCT300 14/04 A3010 RMK AO2 SLP191 ACSL DSNT N T01440039
