2024/07/25 03:53
KLAX 250353Z 26012KT 10SM CLR 20/16 A3000 RMK AO2 SLP157 T02000156 $
