2025/10/21 21:53
KLAX 212153Z 26017KT 10SM FEW008 FEW160 19/16 A2997 RMK AO2 PK WND 26028/2138 SLP149 T01890156
