2023/07/13 17:53
KLAX 131753Z 25007KT 10SM FEW180 FEW250 24/16 A2996 RMK AO2 SLP142 T02390156 10239 20172 58005 $
