2022/12/02 19:53
KLAX 021953Z 08010KT 7SM SCT008 BKN019 OVC026 14/12 A3013 RMK AO2 SLP202 T01440117 $
