2024/08/18 07:53
KLAX 180753Z 25004KT 10SM OVC012 19/17 A2993 RMK AO2 SLP131 T01940172 402500194 $
