2026/03/10 19:53
KLAX 101953Z 24006KT 10SM FEW009 BKN030 18/11 A3012 RMK AO2 SLP199 T01830111 $
