2025/07/09 07:53
KLAX 090753Z 13004KT 10SM BKN220 17/15 A3002 RMK AO2 SLP163 T01720150 402280167 $
