2022/10/14 13:53
KLAX 141353Z 00000KT 7SM FEW009 OVC016 19/16 A2987 RMK AO2 SLP115 T01940156 $
