2023/12/10 09:53
KLAX 100953Z 01006KT 10SM CLR 13/M11 A3020 RMK AO2 SLP224 T01331106 $
