2025/01/11 11:53
KLAX 111153Z 00000KT 10SM SCT055 09/M01 A3008 RMK AO2 SLP184 FU SCT055 T00941006 10139 20089 58015
