2025/04/02 05:53
KLAX 020553Z 27016KT 10SM FEW150 FEW240 BKN280 13/06 A2986 RMK AO2 SLP111 T01280061 10144 20128 50006
