2022/11/17 09:53
KLAX 170953Z 00000KT 10SM CLR 12/M03 A3022 RMK AO2 SLP230 T01221028
