2026/05/13 04:53
KLAX 130453Z 28007KT 10SM FEW028 FEW250 16/12 A3006 RMK AO2 SLP176 T01610122
