2025/02/08 21:53
KLAX 082153Z 25009KT 10SM FEW009 SCT022 BKN200 16/09 A3008 RMK AO2 SLP185 T01610094 $
