2025/07/31 01:53
KLAX 310153Z 27012KT 10SM CLR 21/16 A2995 RMK AO2 SLP139 T02060161 $
