2023/05/25 13:53
KLAX 251353Z 09006KT 9SM FEW015 SCT027 OVC045 16/11 A2988 RMK AO2 SLP116 T01610106 $
