2025/12/12 07:53
KLAX 120753Z 00000KT 9SM BCFG FEW000 FEW001 15/14 A3001 RMK AO2 SLP158 VIS S 2 1/2 FG FEW000 FG BANK S-W T01500139 402220111 $
