2025/04/01 17:53
KLAX 011753Z 26010KT 10SM FEW037 SCT080 BKN140 BKN250 16/06 A3001 RMK AO2 SLP160 T01610061 10161 20117 50002
