2022/12/24 19:53
KLAX 241953Z 26008KT 10SM CLR 21/11 A3023 RMK AO2 SLP235 T02060111 $
