2024/07/05 19:53
KLAX 051953Z 25008KT 7SM FEW010 SCT045 22/17 A2983 RMK AO2 SLP101 T02220167
