2025/03/27 11:53
KLAX 271153Z 25003KT 10SM FEW010 OVC033 14/11 A3004 RMK AO2 SLP173 T01390111 10144 20139 56009 $
