2024/12/03 01:53
KLAX 030153Z 26008KT 10SM FEW200 SCT250 14/12 A3008 RMK AO2 SLP184 T01440117
