2023/08/30 15:53
KLAX 301553Z 00000KT 8SM FEW045 FEW070 24/18 A2983 RMK AO2 SLP100 T02440178
