2023/05/28 17:53
KLAX 281753Z 22005KT 10SM OVC018 17/13 A2997 RMK AO2 SLP147 60000 T01670128 10167 20156 51008
