2024/04/13 17:53
KLAX 131753Z 14012G20KT 10SM SCT026 OVC060 17/08 A3006 RMK AO2 SLP177 T01670078 10167 20139 53009 $
