2025/05/31 21:53
KLAX 312153Z 25010KT 6SM HZ FEW014 SCT100 BKN220 22/17 A2993 RMK AO2 SLP133 T02170167 $
