2023/03/14 21:53
KLAX 142153Z 12010KT 5SM -RA BR FEW009 BKN014 OVC019 15/14 A3000 RMK AO2 SLP159 P0006 T01500139
