2023/03/13 11:53
KLAX 131153Z 19003KT 7SM FEW003 BKN006 OVC009 13/12 A3012 RMK AO2 SLP198 T01280117 10128 20122 58010 $
