2025/01/20 17:53
KLAX 201753Z 00000KT 7SM FEW250 14/06 A3016 RMK AO2 SLP213 T01440061 10144 20100 53021
