2024/01/09 15:53
KLAX 091553Z 10005KT 10SM FEW180 FEW250 08/M03 A3027 RMK AO2 SLP248 T00781028
