2023/04/25 03:53
KLAX 250353Z 23006KT 10SM FEW012 14/12 A2989 RMK AO2 SLP120 T01440117 $
