2023/01/16 05:53
KLAX 160553Z 09009KT 6SM -RA BR FEW010 BKN042 OVC055 11/10 A2982 RMK AO2 SLP095 P0005 60025 T01110100 10139 20111 56007 $
