2024/04/17 13:53
KLAX 171353Z 11004KT 7SM MIFG FEW002 FEW009 SCT140 BKN250 12/12 A3001 RMK AO2 SLP160 T01220117
