2025/10/21 17:53
KLAX 211753Z 25004KT 7SM FEW004 SCT008 21/16 A3005 RMK AO2 SLP175 T02060161 10211 20150
