2022/08/24 05:53
KLAX 240553Z 00000KT 10SM FEW003 FEW009 20/17 A2984 RMK AO2 SLP101 T02000172 10222 20194 51016 $
