2025/07/29 13:53
KLAX 291353Z 08004KT 7SM FEW008 OVC011 17/15 A3006 RMK AO2 SLP179 T01720150
