2023/05/21 09:53
KLAX 210953Z 25007KT 8SM OVC008 16/14 A3003 RMK AO2 SLP167 T01560139
