2022/12/06 09:53
KLAX 060953Z 07004KT 10SM FEW008 11/07 A3002 RMK AO2 SLP164 T01060072 $
