2024/07/13 05:53
KLAX 130553Z 26008KT 9SM BKN008 BKN220 18/17 A2988 RMK AO2 SLP116 T01830167 10211 20183 53008 $
