2023/12/11 07:53
KLAX 110753Z VRB06KT 10SM FEW250 17/M08 A3002 RMK AO2 SLP163 T01671078 402500106 $
