2023/10/01 07:53
KLAX 010753Z 26006KT 10SM SCT039 OVC055 17/12 A2986 RMK AO2 SLP110 T01670117 402060167 $
