2022/11/21 13:53
KLAX 211353Z 02005KT 10SM FEW220 SCT280 14/M08 A3011 RMK AO2 SLP192 T01391078 $
