2023/12/28 17:53
KLAX 281753Z 07004KT 6SM HZ FEW010 FEW025 SCT110 BKN140 15/11 A3021 RMK AO2 SLP231 T01500106 10150 20100 53009 $
