2026/01/23 17:53
KLAX 231753Z 14003KT 4SM HZ FEW010 SCT025 SCT090 16/13 A2996 RMK AO2 SLP145 T01610128 10161 20122 53010 $
