2024/12/23 07:53
KLAX 230753Z VRB05KT 2 1/2SM BR VV003 14/13 A3012 RMK AO2 SLP199 VIS 2V4 T01390128 401720100
