2025/03/30 07:53
KLAX 300753Z 16005KT 10SM FEW010 FEW040 BKN100 13/10 A3001 RMK AO2 SLP159 T01280100 401780106 $
