2025/02/26 11:53
KLAX 261153Z 11005KT 1/16SM R25L/1200V1600FT FG VV001 12/12 A2990 RMK AO2 SLP125 T01170117 10161 20117 56010 $
