2023/08/11 15:53
KLAX 111553Z 25006KT 10SM OVC016 20/17 A3001 RMK AO2 SLP159 T02000172
