2024/11/30 01:53
KLAX 300153Z 35005KT 10SM FEW120 SCT180 BKN250 20/M06 A3002 RMK AO2 SLP166 T02001061 $
