2024/05/12 07:53
KLAX 120753Z 15005KT 8SM SCT008 OVC013 15/12 A2996 RMK AO2 SLP143 T01500117 401720133 $
