2026/06/18 00:53
KLAX 180053Z 27011KT 10SM FEW015 FEW017 19/14 A2991 RMK AO2 SLP126 FU FEW015 T01940139 $
