2025/09/14 07:53
KLAX 140753Z 20004KT 10SM BKN016 20/17 A2988 RMK AO2 SLP116 T02000167 402390189 $
