2024/05/07 03:53
KLAX 070353Z 24007KT 10SM CLR 14/11 A2997 RMK AO2 SLP147 T01440111 $
