2023/04/18 13:53
KLAX 181353Z 23004KT 10SM FEW022 SCT027 BKN037 13/10 A2999 RMK AO2 SLP153 T01280100
