2026/05/05 02:53
KLAX 050253Z 23010KT 10SM FEW020 FEW070 BKN090 16/12 A2997 RMK AO2 SLP146 T01560117 58002
