2024/09/12 05:53
KLAX 120553Z 21003KT 10SM FEW010 FEW040 18/16 A2974 RMK AO2 SLP067 FU FEW040 T01830161 10211 20183 51003
