2025/03/30 23:53
KLAX 302353Z 22010KT 10SM FEW038 SCT050 16/06 A3007 RMK AO2 SLP183 T01610056 10172 20144 56009 $
