2024/05/14 15:53
KLAX 141553Z 00000KT 10SM FEW013 OVC021 16/11 A2994 RMK AO2 SLP137 T01610106 $
