2023/03/13 19:53
KLAX 131953Z 24007KT 9SM FEW009 FEW015 SCT160 BKN250 17/13 A3013 RMK AO2 SLP204 T01670128 $
