2026/03/31 09:53
KLAX 310953Z 06005KT 10SM BKN018 OVC250 18/14 A2994 RMK AO2 SLP136 T01780139
