2026/06/20 11:53
KLAX 201153Z 08004KT 10SM FEW012 15/13 A2995 RMK AO2 SLP141 FU FEW012 T01500133 10172 20144 56003
