2026/06/06 04:53
KLAX 060453Z 30005KT 10SM OVC014 18/15 A2986 RMK AO2 SLP109 T01830150 $
