2023/08/12 13:53
KLAX 121353Z 19003KT 6SM BR OVC011 20/18 A2999 RMK AO2 SLP154 T02000178 $
