2025/03/24 11:53
KLAX 241153Z 02003KT 9SM FEW008 13/12 A3004 RMK AO2 SLP172 T01280117 10144 20128 55003 $
