2023/03/22 09:53
KLAX 220953Z 27008KT 10SM FEW015 SCT025 OVC050 10/07 A2988 RMK AO2 RAE34 SLP115 SHRA DSNT E P0002 T01000072
