2023/08/20 21:53
KLAX 202153Z 33010KT 2SM R25L/5500VP6000FT +RA BR BKN050 OVC065 22/21 A2953 RMK AO2 SLP996 P0029 T02220211 $
