2023/12/24 09:59
KLAX 240959Z VRB03KT 6SM BR FEW009 BKN024 14/12 A3010 RMK AO2 T01390122 $
