2024/06/20 15:53
KLAX 201553Z 16003KT 6SM HZ FEW009 BKN015 19/15 A2983 RMK AO2 SLP101 T01940150 $
