2025/04/30 07:53
KLAX 300753Z 17003KT 8SM OVC013 14/12 A3004 RMK AO2 SLP170 T01440117 401890122 $
