2022/09/26 03:53
KLAX 260353Z 23008KT 10SM FEW150 21/17 A2992 RMK AO2 SLP130 T02110172
