2025/09/07 19:53
KLAX 071953Z 26008KT 10SM FEW110 26/18 A3005 RMK AO2 SLP172 T02610178 $
