2025/09/10 15:53
KLAX 101553Z 17004KT 10SM FEW016 SCT028 BKN039 22/14 A2991 RMK AO2 SLP127 T02170144 $
