2024/08/08 15:53
KLAX 081553Z 25006KT 8SM FEW012 SCT160 BKN200 22/17 A2995 RMK AO2 SLP139 T02220172 $
