2026/01/11 11:53
KLAX 111153Z 35008KT 10SM CLR 12/M04 A3023 RMK AO2 SLP234 T01221044 10156 20094 58010 $
