2025/11/29 07:53
KLAX 290753Z VRB04KT 4SM BR BKN009 15/13 A3002 RMK AO2 SLP161 T01500133 402220100 $
