2025/06/17 17:53
KLAX 171753Z 26009KT 10SM CLR 23/15 A2987 RMK AO2 SLP111 T02280150 10233 20167 50000
