2023/10/06 15:53
KLAX 061553Z 15003KT 10SM FEW001 23/16 A2991 RMK AO2 SLP128 T02280156 $
