2023/04/02 17:53
KLAX 021753Z VRB04KT 10SM FEW015 FEW200 16/11 A3010 RMK AO2 SLP193 T01610106 10167 20094 58000 $
