2024/05/18 19:53
KLAX 181953Z 24010KT 10SM SCT013 BKN020 OVC029 18/12 A3001 RMK AO2 SLP162 T01780122 $
