2025/01/31 15:53
KLAX 311553Z 01004KT 8SM SCT200 BKN250 08/06 A3028 RMK AO2 SLP254 T00830056
