2024/07/31 11:53
KLAX 311153Z 00000KT 9SM FEW004 SCT006 16/14 A2990 RMK AO2 SLP122 T01610144 10172 20156 55005 $
