2025/09/26 01:53
KLAX 260153Z 27013KT 10SM OVC008 19/17 A2992 RMK AO2 SLP129 T01940167 $
