2023/04/01 19:53
KLAX 011953Z 24009KT 10SM CLR 17/09 A3014 RMK AO2 SLP206 T01720094 $
