2024/09/22 11:53
KLAX 221153Z 26005KT 9SM BKN010 OVC013 18/16 A2991 RMK AO2 SLP127 T01780156 10183 20172 58003 $
