2025/08/04 03:53
KLAX 040353Z 25007KT 10SM FEW008 18/16 A2993 RMK AO2 SLP132 T01780161 $
