2025/10/03 23:53
KLAX 032353Z 23012KT 10SM FEW010 SCT042 SCT060 21/15 A2993 RMK AO2 PK WND 26028/2259 SLP132 T02110150 10228 20206 56013 $
