2025/09/11 21:53
KLAX 112153Z 27010KT 10SM FEW014 FEW028 SCT045 23/16 A2994 RMK AO2 SLP135 T02330156 $
