2026/04/14 09:53
KLAX 140953Z 06006KT 10SM FEW015 13/08 A3007 RMK AO2 SLP179 T01330083 $
