2025/11/13 05:53
KLAX 130553Z 00000KT 10SM FEW150 18/15 A3006 RMK AO2 SLP177 T01780150 10194 20172 51008 $
