2023/01/23 05:53
KLAX 230553Z 08006KT 10SM CLR 10/02 A2992 RMK AO2 SLP130 T01000017 10139 20100 53011 $
