2025/10/03 13:59
KLAX 031359Z 12003KT 7SM FEW004 SCT009 OVC018 19/17 A2998 RMK AO2 T01940172 $
