2022/09/19 11:53
KLAX 191153Z 11003KT 10SM FEW018 FEW220 18/14 A2985 RMK AO2 SLP106 T01780144 10200 20178 55001 $
