2023/11/17 09:53
KLAX 170953Z 05006KT 10SM FEW010 15/13 A2997 RMK AO2 SLP148 T01500133 $
