2023/10/23 15:53
KLAX 231553Z 11007KT 9SM FEW016 SCT025 SCT032 18/14 A2976 RMK AO2 SLP077 T01830144 $
