2024/12/26 19:53
KLAX 261953Z 17005KT 10SM FEW013 SCT280 17/09 A3007 RMK AO2 SLP181 T01720094
