2026/02/18 19:53
KLAX 181953Z 26016KT 10SM FEW032 FEW050 SCT075 SCT240 14/02 A3005 RMK AO2 SLP176 T01440022
