2025/10/06 09:53
KLAX 060953Z 00000KT 10SM CLR 17/15 A2980 RMK AO2 SLP087 T01720150 $
