2025/12/04 05:53
KLAX 040553Z 05003KT 10SM FEW250 14/11 A3012 RMK AO2 SLP194 T01440111 10172 20144 51016
