2024/12/12 11:53
KLAX 121153Z 00000KT 10SM FEW200 BKN250 09/M08 A2993 RMK AO2 SLP133 T00891083 10150 20067 58004 VISNO RWY24 $
