2024/08/26 17:53
KLAX 261753Z 24006KT 10SM FEW300 25/17 A3006 RMK AO2 SLP176 T02500172 10261 20178 56001 $
