2024/05/30 19:53
KLAX 301953Z 25008KT 10SM SCT018 18/13 A2997 RMK AO2 SLP146 T01830133
