2023/12/01 19:53
KLAX 011953Z 31011G17KT 10SM FEW070 19/02 A3002 RMK AO2 SLP164 T01940017
