2023/02/26 19:53
KLAX 261953Z 26009KT 10SM SCT033 12/04 A3018 RMK AO2 SLP219 T01170039 $
