2024/04/03 15:53
KLAX 031553Z 11005KT 10SM CLR 17/09 A3019 RMK AO2 SLP221 T01670094
