2025/07/05 02:13
KLAX 050213Z 25010KT 7SM BKN006 18/16 A3000 RMK AO2 VIS SW 2 1/2 T01830161 $
