2025/03/05 01:53
KLAX 050153Z 27011KT 10SM FEW009 SCT190 BKN270 13/10 A3008 RMK AO2 SLP186 T01280100 $
