2026/06/17 14:53
KLAX 171453Z 00000KT 10SM OVC014 18/14 A2994 RMK AO2 SLP138 T01780139 51008 $
