2023/06/22 21:53
KLAX 222153Z 24013KT 10SM FEW015 19/12 A2997 RMK AO2 SLP149 T01890117
