2022/12/09 05:53
KLAX 090553Z 00000KT 10SM SCT150 12/07 A3022 RMK AO2 SLP230 T01220067 10144 20117 50001
