2025/05/24 21:53
KLAX 242153Z 26010G18KT 10SM FEW022 SCT037 SCT190 BKN240 20/12 A3000 RMK AO2 SLP157 T02000122
