2025/02/09 09:53
KLAX 090953Z 02003KT 10SM BKN250 11/09 A3006 RMK AO2 SLP176 T01110089 $
