2026/07/18 18:53
KLAX 181853Z 26008KT 10SM FEW014 FEW170 25/18 A2999 RMK AO2 SLP153 ACSL DSNT NE T02500183 $
