2024/06/12 03:53
KLAX 120353Z 27007KT 10SM OVC012 16/13 A2991 RMK AO2 SLP127 T01610133
