2024/09/25 23:53
KLAX 252353Z 26015KT 10SM FEW014 19/14 A2982 RMK AO2 SLP096 T01890139 10194 20172 56012 $
