2023/04/20 11:53
KLAX 201153Z 36004KT 10SM CLR 13/07 A3008 RMK AO2 SLP185 T01280067 10172 20111 56001
