2025/10/21 13:53
KLAX 211353Z 03003KT 1/4SM R25L/0600V0800FT FG BKN000 BKN004 16/16 A3003 RMK AO2 SLP167 FG BKN000 T01560156
