2024/08/15 17:53
KLAX 151753Z 26009KT 10SM FEW010 24/18 A2994 RMK AO2 SLP138 T02390178 10256 20183 53001 $
