2022/09/04 03:53
KLAX 040353Z 19005KT 10SM FEW200 25/18 A2984 RMK AO2 SLP099 T02500178
