2025/01/20 15:53
KLAX 201553Z 36004KT 6SM HZ SCT020 12/07 A3012 RMK AO2 SLP198 T01170067
