2023/10/30 07:53
KLAX 300753Z 19003KT 10SM CLR 19/M10 A3007 RMK AO2 SLP178 T01891100 402610106
