2022/11/20 11:53
KLAX 201153Z 04003KT 10SM CLR 12/M09 A3013 RMK AO2 SLP202 T01221089 10178 20111 53002 $
