2024/12/12 03:53
KLAX 120353Z 00000KT 10SM SCT200 BKN250 17/M02 A2999 RMK AO2 SLP155 T01671022 $
