2022/11/28 23:53
KLAX 282353Z 23008KT 10SM FEW021 SCT026 SCT150 16/11 A2988 RMK AO2 SLP118 T01560106 10172 20156 56012
