2024/05/01 05:53
KLAX 010553Z 00000KT 10SM FEW008 FEW011 15/13 A2988 RMK AO2 SLP116 T01500128 10178 20144 51013 $
