2023/01/15 11:53
KLAX 151153Z 00000KT 10SM FEW013 BKN024 OVC029 13/11 A2982 RMK AO2 RAE1059 SLP096 P0000 60001 70154 T01330106 10144 20128 51001 $
