2024/07/25 13:53
KLAX 251353Z 25005KT 1SM R25L/4500VP6000FT BR BKN003 18/17 A3005 RMK AO2 SLP172 VIS SW-W 1/2 T01780172 $
