2022/10/02 17:53
KLAX 021753Z 25006KT 10SM FEW022 BKN026 22/16 A2997 RMK AO2 SLP148 T02170156 10217 20200 50008
