2025/10/31 05:53
KLAX 310553Z VRB03KT 10SM CLR 18/15 A2994 RMK AO2 SLP135 T01830150 10228 20178 51012 $
