2024/05/11 03:53
KLAX 110353Z 25008KT 10SM OVC009 14/12 A2995 RMK AO2 SLP142 T01390117
