2025/01/05 11:53
KLAX 051153Z 00000KT 9SM CLR 10/06 A3010 RMK AO2 SLP189 T01000056 10139 20089 58002
