2024/01/29 09:53
KLAX 290953Z 09003KT 10SM FEW220 SCT280 14/04 A3012 RMK AO2 SLP197 T01440044 $
