2022/10/06 23:53
KLAX 062353Z 25008KT 10SM OVC013 21/17 A2997 RMK AO2 SLP147 T02110172 10233 20211 56010
