2022/12/25 19:53
KLAX 251953Z 36005KT 10SM FEW240 BKN300 27/01 A3015 RMK AO2 SLP210 T02720011 $
