2023/09/20 19:53
KLAX 201953Z 24010KT 10SM FEW040 BKN050 22/16 A2989 RMK AO2 SLP121 T02220156
