2022/08/23 02:53
KLAX 230253Z 26008KT 8SM OVC004 18/16 A2989 RMK AO2 SLP119 T01830161 55006 $
