2025/03/12 09:53
KLAX 120953Z 06006KT 10SM SCT025 BKN032 BKN039 13/12 A2990 RMK AO2 SLP124 T01280117 $
