2026/05/14 14:53
KLAX 141453Z 05006KT 10SM FEW010 SCT017 OVC023 17/12 A3003 RMK AO2 SLP166 T01670122 53007
