2025/03/15 01:53
KLAX 150153Z 10005KT 10SM SCT010 BKN014 OVC019 10/08 A2995 RMK AO2 SLP143 T01000083 $
