2025/05/24 15:53
KLAX 241553Z 22005KT 10SM SCT019 BKN026 OVC033 18/13 A2999 RMK AO2 SLP154 T01780133
