2024/06/22 01:53
KLAX 220153Z 27013KT 10SM CLR 20/14 A2973 RMK AO2 SLP067 T02000139
