2024/08/06 03:53
KLAX 060353Z 21005KT 10SM FEW250 19/16 A2987 RMK AO2 SLP111 T01890156 $
