2024/11/01 05:53
KLAX 010553Z 00000KT 10SM FEW007 BKN010 BKN200 16/14 A3001 RMK AO2 SLP161 T01560139 10178 20150 52002 $
