2022/09/13 13:53
KLAX 131353Z 00000KT 7SM FEW013 FEW080 SCT160 21/19 A2988 RMK AO2 SLP115 T02110189 $
