2026/02/01 03:53
KLAX 010353Z 26006KT 10SM CLR 19/08 A3004 RMK AO2 SLP170 T01890083 $
