2024/10/25 19:53
KLAX 251953Z 26008KT 5SM HZ FEW005 18/13 A3001 RMK AO2 SLP162 T01780128 $
