2025/03/22 05:53
KLAX 220553Z VRB05KT 10SM FEW250 14/11 A3002 RMK AO2 SLP165 T01440106 10178 20139 53015 $
