2023/05/09 03:53
KLAX 090353Z 23008KT 10SM CLR 15/11 A2999 RMK AO2 SLP155 T01500106
