2023/09/17 21:53
KLAX 172153Z 27008KT 10SM OVC028 21/17 A2997 RMK AO2 SLP147 T02110167 $
