2024/08/08 19:53
KLAX 081953Z 27012KT 9SM FEW010 FEW070 SCT180 24/18 A2994 RMK AO2 SLP137 T02440178 $
