2022/12/27 15:53
KLAX 271553Z 10005KT 8SM SCT120 BKN160 OVC250 14/10 A3005 RMK AO2 SLP174 T01440100
