2025/06/02 07:53
KLAX 020753Z 26003KT 10SM BKN010 16/14 A2994 RMK AO2 SLP136 T01560139 402440156 $
