2023/09/13 13:53
KLAX 131353Z 07006KT 8SM FEW010 OVC020 19/16 A2996 RMK AO2 SLP142 T01940156 $
