2024/09/12 21:53
KLAX 122153Z 25011KT 10SM FEW028 23/16 A2972 RMK AO2 SLP064 T02280156
