2026/03/31 14:07
KLAX 311407Z 12008KT 10SM SCT022 BKN032 OVC180 18/14 A2995 RMK AO2 T01830144
