2024/07/04 09:53
KLAX 040953Z 33003KT 9SM OVC006 17/16 A2994 RMK AO2 SLP135 T01720156
