2025/10/24 19:53
KLAX 241953Z 26008KT 8SM CLR 22/16 A3001 RMK AO2 SLP160 T02170156
