2023/01/14 21:53
KLAX 142153Z 07010KT 2SM RA BR BKN006 BKN012 OVC041 11/11 A2988 RMK AO2 SLP116 P0021 T01110106
