2025/11/21 05:53
KLAX 210553Z 06018G23KT 2SM -RA BR SCT006 OVC016 12/11 A2984 RMK AO2 PK WND 06028/0539 SLP102 VIS SW-NW 1 3/4 P0017 60076 T01170111 10139 20117 58024 $
