2022/10/20 03:53
KLAX 200353Z 19003KT 10SM FEW200 SCT250 26/12 A2996 RMK AO2 SLP141 T02610117 $
