2023/01/17 13:53
KLAX 171353Z 35003KT 10SM FEW040 FEW180 08/04 A2986 RMK AO2 SLP111 T00830039 $
