2026/07/11 10:53
KLAX 111053Z 30004KT 7SM FEW007 OVC010 19/17 A2990 RMK AO2 SLP123 T01940167 $
