2024/07/03 19:53
KLAX 031953Z 27011G22KT 8SM FEW001 SCT005 SCT110 21/16 A2991 RMK AO2 SLP127 T02060156
