2025/11/12 19:53
KLAX 121953Z 28003KT 7SM FEW011 SCT025 BKN140 BKN180 19/15 A3006 RMK AO2 SLP178 T01940150 $
