2023/08/03 15:53
KLAX 031553Z 00000KT 9SM FEW009 21/16 A3000 RMK AO2 SLP157 T02110161 $
