2025/04/20 03:53
KLAX 200353Z 22006KT 10SM CLR 14/11 A3008 RMK AO2 SLP186 T01440111 $
