2025/05/14 05:53
KLAX 140553Z 27010KT 10SM CLR 15/11 A3000 RMK AO2 SLP156 T01500111 10183 20144 53009 $
