2023/07/13 13:53
KLAX 131353Z 23003KT 10SM FEW008 SCT160 SCT250 19/16 A2997 RMK AO2 SLP145 T01890161 $
