2022/09/07 03:53
KLAX 070353Z 26008KT 10SM FEW006 24/22 A2988 RMK AO2 SLP116 T02390217 $
