2026/01/14 01:53
KLAX 140153Z 00000KT 10SM FEW250 19/07 A3014 RMK AO2 SLP205 T01890072 $
