2023/07/07 07:59
KLAX 070759Z 24007KT 10SM SCT011 16/13 A2989 RMK AO2 T01560133 $
