2023/06/22 13:53
KLAX 221353Z 28004KT 10SM FEW008 BKN014 OVC140 16/13 A2995 RMK AO2 SLP141 T01610133
