2026/02/12 21:53
KLAX 122153Z 25013KT 10SM FEW008 FEW120 SCT160 SCT250 17/11 A3008 RMK AO2 SLP187 T01720106
