2022/12/08 03:53
KLAX 080353Z 30006KT 10SM FEW030 13/07 A3026 RMK AO2 SLP245 T01330072
