2025/03/02 13:53
KLAX 021353Z 00000KT 10SM FEW015 FEW031 BKN050 13/11 A3011 RMK AO2 SLP193 T01280106 $
