2024/11/23 15:53
KLAX 231553Z 11006KT 5SM BR FEW006 SCT075 BKN160 BKN220 12/11 A3004 RMK AO2 SLP171 T01220106
