2023/01/30 23:53
KLAX 302353Z 16003KT 10SM -RA OVC070 12/08 A2994 RMK AO2 RAB04 SLP136 P0000 60000 T01220078 10150 20117 53003
