2025/10/22 03:53
KLAX 220353Z 23007KT 10SM -RA FEW010 FEW050 BKN150 17/15 A2999 RMK AO2 RAB53 SLP155 P0000 T01720150
