2023/01/03 07:53
KLAX 030753Z 10008KT 10SM FEW020 BKN040 OVC050 11/09 A3003 RMK AO2 RAB02E37 SLP166 P0001 T01110089 401440078
