2023/09/21 17:59
KLAX 211759Z VRB05KT 10SM SCT029 BKN049 21/16 A2995 RMK AO2 T02060156
