2025/03/24 03:53
KLAX 240353Z 24005KT 10SM FEW010 14/12 A3003 RMK AO2 SLP167 T01440122 $
