2023/06/27 07:53
KLAX 270753Z 21004KT 10SM FEW007 BKN011 16/14 A2989 RMK AO2 SLP119 T01610144 402060144
