2023/02/22 02:17
KLAX 220217Z 26017KT 10SM FEW013 SCT027 OVC036 13/09 A2971 RMK AO2 RAE0155 P0000 T01330094 $
