2026/04/13 15:53
KLAX 131553Z 29008KT 10SM FEW018 SCT050 BKN075 16/09 A3005 RMK AO2 SLP175 T01560089 $
