2025/02/09 03:53
KLAX 090353Z 24006KT 10SM SCT250 13/10 A3007 RMK AO2 SLPNO T01280100 $
