2023/10/22 15:53
KLAX 221553Z 10007KT 10SM FEW007 18/15 A2986 RMK AO2 SLP110 T01780150 $
