2023/04/18 19:53
KLAX 181953Z 25013G22KT 9SM FEW012 FEW026 BKN110 17/09 A2999 RMK AO2 SLP157 T01720094
