2026/02/13 17:53
KLAX 131753Z VRB03KT 10SM FEW120 17/08 A3002 RMK AO2 SLP164 T01670083 10167 20089 53012
