2023/02/20 05:53
KLAX 200553Z 01003KT 10SM SCT150 SCT250 13/06 A3011 RMK AO2 SLP195 T01330056 10161 20128 52005 $
