2023/05/02 07:53
KLAX 020753Z 25010KT 10SM FEW012 FEW020 12/08 A2989 RMK AO2 SLP119 T01220083 401780122
