2026/01/25 21:53
KLAX 252153Z 26008KT 10SM FEW160 FEW230 BKN280 19/02 A3014 RMK AO2 SLP207 T01940022 $
