2025/10/15 15:53
KLAX 151553Z 33005KT 10SM FEW010 FEW040 SCT060 15/10 A3003 RMK AO2 SLP169 T01500100 $
