2023/04/03 05:53
KLAX 030553Z 25008KT 10SM FEW016 FEW090 13/09 A2999 RMK AO2 SLP153 T01280089 10156 20128 50001 $
