2026/06/06 19:53
KLAX 061953Z 25010KT 10SM SCT027 22/14 A2987 RMK AO2 SLP112 T02170139 $
