2023/05/31 07:53
KLAX 310753Z 27009KT 10SM FEW014 FEW022 BKN032 16/12 A2993 RMK AO2 SLP135 T01560117 401890156 $
