2023/01/05 23:53
KLAX 052353Z 25015G20KT 10SM FEW020 FEW032 16/12 A3007 RMK AO2 SLP183 60000 T01560122 10167 20150 53010 $
