2023/10/16 01:53
KLAX 160153Z 23010KT 10SM CLR 21/13 A2998 RMK AO2 SLP150 T02110133
