2024/06/10 21:53
KLAX 102153Z 27012KT 10SM FEW250 20/14 A2991 RMK AO2 SLP128 T02000139
