2025/11/14 09:53
KLAX 140953Z 15007KT 10SM -RA FEW018 SCT040 BKN080 BKN150 18/14 A2997 RMK AO2 RAB37 SLP145 P0000 T01780139
