2024/10/26 21:53
KLAX 262153Z 26010KT 8SM FEW003 BKN150 BKN250 20/14 A3000 RMK AO2 SLP160 T02000144 $
