2023/11/20 17:53
KLAX 201753Z 16008KT 8SM CLR 20/M02 A3015 RMK AO2 SLP207 T02001022 10200 20100 51020 $
