2025/03/20 17:53
KLAX 201753Z 00000KT 10SM FEW250 18/06 A3013 RMK AO2 SLP201 T01830056 10183 20106 50003 $
