2023/12/22 03:53
KLAX 220353Z 04008KT 10SM FEW070 BKN090 BKN110 16/14 A2992 RMK AO2 LTG DSNT E RAE53 TSE11 SLP132 P0011 T01560139
