2026/06/28 16:19
KLAX 281619Z 15009KT 10SM FEW020 BKN026 BKN037 19/13 A2994 RMK AO2 T01940128
