2024/04/24 11:53
KLAX 241153Z 17003KT 10SM FEW015 BKN035 14/10 A3005 RMK AO2 SLP173 T01390100 10150 20133 56000
