2025/09/04 06:53
KLAX 040653Z 16004KT 10SM FEW011 FEW160 21/18 A2993 RMK SLP133 T02110183 
