2023/10/13 19:53
KLAX 131953Z 26008KT 10SM FEW025 SCT140 BKN160 BKN250 22/17 A2991 RMK AO2 SLP126 T02220167
