2024/03/08 13:53
KLAX 081353Z 08005KT 10SM FEW011 FEW070 10/07 A3011 RMK AO2 SLP193 T01000072
