2023/04/19 17:53
KLAX 191753Z 26012KT 10SM FEW022 FEW180 18/03 A3007 RMK AO2 SLP183 T01830033 10183 20100 51006
