2025/06/16 01:53
KLAX 160153Z 26009KT 10SM FEW170 21/14 A2986 RMK AO2 SLP109 T02060144 $
