2024/02/26 15:53
KLAX 261553Z 10006KT 7SM FEW009 BKN120 OVC160 13/11 A3002 RMK AO2 SLP166 T01280111 $
