2023/09/15 23:53
KLAX 152353Z 26014KT 10SM BKN016 BKN100 21/17 A2992 RMK AO2 SLP128 T02110167 10228 20206 56016
