2026/02/20 13:53
KLAX 201353Z 00000KT 10SM SCT250 06/02 A3001 RMK AO2 SLP161 T00610017
