2024/06/04 17:53
KLAX 041753Z 25005KT 8SM FEW010 OVC017 18/14 A2987 RMK AO2 SLP114 T01780139 10183 20167 50000
