2025/05/22 19:53
KLAX 221953Z 24009KT 8SM FEW009 FEW160 BKN180 21/14 A2995 RMK AO2 SLP139 T02110144 $
