2025/08/02 17:53
KLAX 021753Z 27006KT 6SM HZ SCT018 21/16 A3012 RMK AO2 SLP199 T02110156 10217 20172 53004 $
