2025/02/18 15:53
KLAX 181553Z 09004KT 10SM FEW010 FEW022 SCT180 BKN250 13/10 A3006 RMK AO2 SLP178 T01280100 $
