2023/05/03 21:53
KLAX 032153Z 22013KT 10SM SCT050 BKN065 17/08 A2989 RMK AO2 SLP122 T01670083
