2026/04/19 17:53
KLAX 191753Z 25008KT 10SM FEW005 FEW240 SCT300 21/13 A2993 RMK AO2 SLP134 T02060133 10211 20161 51010 $
