2024/12/28 09:53
KLAX 280953Z 09003KT 5SM BR OVC008 14/12 A3009 RMK AO2 SLP187 T01390122
