2024/10/12 21:53
KLAX 122153Z 24008KT 6SM HZ FEW006 SCT250 19/15 A3003 RMK AO2 SLP168 VIS W 2 T01940150
