2024/06/02 09:53
KLAX 020953Z 26005KT 10SM SCT010 OVC020 15/13 A2992 RMK AO2 SLP129 T01500128
