2025/09/25 09:53
KLAX 250953Z 22003KT 1/4SM R25L/P6000FT FG VV002 18/18 A2997 RMK AO2 SLP146 VIS SW 1/8 T01830178 $
