2024/05/01 17:53
KLAX 011753Z 24010KT 10SM FEW018 FEW025 18/12 A2988 RMK AO2 SLP117 T01830122 10189 20144 53001 $
