2025/12/11 13:53
KLAX 111353Z 00000KT 10SM CLR 12/06 A3002 RMK AO2 SLP162 T01220061 $
