2024/01/01 13:53
KLAX 011353Z 02004KT 10SM BKN120 12/07 A3004 RMK AO2 SLP169 T01170067
