2023/07/21 07:53
KLAX 210753Z 23003KT 10SM FEW012 19/17 A2989 RMK AO2 SLP119 T01890167 402440183 $
