2022/09/21 02:53
KLAX 210253Z 27017KT 10SM FEW010 22/17 A2987 RMK AO2 SLP113 T02170167 53001 $
