2023/11/06 13:53
KLAX 061353Z 00000KT 1 1/2SM BR VV003 15/15 A2994 RMK AO2 SLP135 VIS 1/2V2 VIS NE 1/4 T01500150
