2025/12/08 09:53
KLAX 080953Z 00000KT 10SM CLR 13/11 A3014 RMK AO2 SLP203 T01330111 $
