2024/10/20 05:53
KLAX 200553Z 00000KT 10SM CLR 19/06 A3007 RMK AO2 SLP179 T01890061 10233 20189 53010
