2023/07/21 11:53
KLAX 211153Z 26004KT 9SM FEW005 SCT009 18/17 A2990 RMK AO2 SLP122 T01830172 10194 20183 53001 $
