2025/05/08 03:53
KLAX 080353Z 24008KT 10SM FEW012 15/12 A3004 RMK AO2 SLP171 T01500122 $
