2024/09/28 19:53
KLAX 281953Z 25010KT 6SM HZ SCT017 18/14 A2989 RMK AO2 SLP122 T01830139
