2025/12/30 21:53
KLAX 302153Z 03009KT 10SM FEW070 SCT100 BKN140 OVC190 22/02 A3005 RMK AO2 RAE05 SLP174 P0000 T02170022 $
