2023/11/28 13:53
KLAX 281353Z 10004KT 10SM FEW170 SCT220 12/M02 A3014 RMK AO2 SLP204 T01221022 $
