2024/10/02 01:53
KLAX 020153Z 23007KT 10SM FEW007 18/16 A2986 RMK AO2 SLP110 T01830161
