2025/11/18 07:53
KLAX 180753Z 09007KT 10SM FEW012 SCT025 BKN032 12/10 A2991 RMK AO2 SLP126 T01220100 401830117 $
