2022/12/24 17:53
KLAX 241753Z 00000KT 10SM CLR 19/07 A3027 RMK AO2 SLP251 T01890067 10189 20094 51020 $
