2022/09/22 23:53
KLAX 222353Z 26012KT 10SM CLR 24/16 A2987 RMK AO2 SLP112 T02440156 10267 20244 56016
