2024/08/26 05:53
KLAX 260553Z 26006KT 10SM CLR 19/17 A3004 RMK AO2 SLP169 T01940167 10233 20189 50007 $
