2024/09/08 05:53
KLAX 080553Z 22003KT 10SM FEW140 23/18 A2976 RMK AO2 SLP074 T02330178 10256 20233 51006
