2024/08/16 03:53
KLAX 160353Z 23006KT 10SM FEW010 21/18 A2985 RMK AO2 SLP107 T02110183 $
