2022/11/19 09:53
KLAX 190953Z 00000KT 8SM CLR 12/10 A2999 RMK AO2 SLP154 T01170100 $
