2024/04/21 01:53
KLAX 210153Z 28013KT 10SM FEW045 15/12 A2998 RMK AO2 SLP151 T01500117 $
