2025/05/17 23:53
KLAX 172353Z 27010KT 10SM SCT017 BKN029 OVC034 17/12 A2995 RMK AO2 SLP141 T01670117 10167 20156 56007
