2023/09/08 23:53
KLAX 082353Z 27012KT 10SM FEW100 SCT250 24/18 A2997 RMK AO2 SLP147 T02390183 10278 20239 56004
