2022/09/07 07:53
KLAX 070753Z 25008KT 10SM FEW007 23/19 A2991 RMK AO2 SLP126 T02280189 403000228 $
