2026/03/09 13:53
KLAX 091353Z 04006KT 10SM FEW180 15/09 A2986 RMK AO2 SLP109 T01500089 $
