2026/07/19 07:53
KLAX 190753Z VRB04KT 10SM BKN010 21/18 A2999 RMK AO2 SLP152 T02060183 402560206 $
