2023/02/28 13:53
KLAX 281353Z 04004KT 10SM FEW001 FEW022 SCT090 09/08 A3006 RMK AO2 SLP178 ACSL NE T00890078 $
