2022/08/25 15:53
KLAX 251553Z 15003KT 9SM FEW140 FEW220 24/18 A2997 RMK AO2 SLP147 T02390183 $
