2025/06/24 09:53
KLAX 240953Z 25004KT 10SM OVC016 17/14 A2995 RMK AO2 SLP140 T01720139
