2024/11/03 11:53
KLAX 031153Z 31005KT 10SM CLR 14/09 A2984 RMK AO2 SLP104 70001 T01390094 10150 20122 56013 $
