2025/03/03 01:53
KLAX 030153Z 26023G30KT 10SM FEW019 SCT047 SCT110 BKN160 13/08 A3003 RMK AO2 PK WND 26030/0054 SLP166 TCS DSNT NE T01330083 $
