2023/02/17 05:53
KLAX 170553Z 05003KT 10SM BKN200 11/01 A3017 RMK AO2 SLP214 T01110006 10144 20106 50005 $
