2022/09/26 17:53
KLAX 261753Z 25007KT 10SM FEW011 FEW030 SCT160 26/18 A2993 RMK AO2 SLP132 T02560178 10256 20200 51003
