2026/02/03 03:53
KLAX 030353Z 26005KT 10SM FEW007 16/14 A3013 RMK AO2 SLP203 T01560139 $
