2026/07/19 12:53
KLAX 191253Z 00000KT 10SM BKN012 BKN020 21/18 A2997 RMK AO2 SLP146 T02060178 $
