2024/03/06 03:53
KLAX 060353Z 25006KT 10SM FEW050 13/09 A3000 RMK AO2 SLP157 T01280094
