2025/12/10 15:53
KLAX 101553Z 00000KT 10SM FEW250 16/04 A3004 RMK AO2 SLP170 T01560039 $
