2023/09/17 09:53
KLAX 170953Z 27003KT 10SM FEW008 OVC018 19/17 A2996 RMK AO2 SLP144 T01890172 $
