2023/04/28 15:53
KLAX 281553Z 25003KT 3SM BR SCT003 OVC006 13/11 A2999 RMK AO2 SLP154 T01330111
