2025/06/03 17:53
KLAX 031753Z 25006KT 7SM SCT008 OVC011 18/14 A2999 RMK AO2 SLP154 SCT V BKN 60000 T01780144 10178 20156 50005 $
