2022/10/03 19:53
KLAX 031953Z 25009KT 10SM FEW012 FEW020 23/16 A2997 RMK AO2 SLP147 T02280161
