2024/03/04 11:53
KLAX 041153Z 00000KT 10SM FEW012 FEW045 09/07 A3005 RMK AO2 SLP175 70002 T00890067 10128 20083 58006 $
