2026/05/14 11:53
KLAX 141153Z 11004KT 10SM FEW011 BKN017 14/12 A3001 RMK AO2 SLP159 T01440117 10161 20144 57001
