2023/12/15 13:53
KLAX 151353Z 03009KT 10SM FEW280 14/M02 A3015 RMK AO2 SLP207 T01391022 $
