2025/10/05 17:53
KLAX 051753Z 20004KT 10SM FEW013 22/14 A2984 RMK AO2 SLP101 T02220139 10222 20156 50003 $
