2024/01/25 15:53
KLAX 251553Z 27005KT 4SM -DZ BR FEW004 BKN008 OVC017 14/13 A3014 RMK AO2 DZB25 SLP206 VIS NW 1 3/4 P0000 T01390133 $
