2023/04/04 05:53
KLAX 040553Z 32008G14KT 290V350 10SM FEW050 12/M07 A3005 RMK AO2 SLP174 T01171072 10156 20117 51027
