2025/04/25 19:53
KLAX 251953Z 27008G17KT 10SM SCT026 BKN032 BKN065 16/09 A3000 RMK AO2 SLP159 T01610089
