2025/08/05 09:53
KLAX 050953Z 08004KT 8SM CLR 18/17 A2993 RMK AO2 SLP132 T01830167
