2022/10/26 15:53
KLAX 261553Z 09004KT 10SM SCT015 BKN150 BKN180 17/08 A3000 RMK AO2 SLP159 T01720083
