2023/06/12 13:53
KLAX 121353Z 23008KT 10SM FEW010 SCT030 OVC039 17/13 A3001 RMK AO2 SLP162 T01670133
