2023/11/18 03:53
KLAX 180353Z 26009KT 10SM BKN014 OVC025 18/15 A2999 RMK AO2 SLP153 T01780150 $
