2025/10/11 11:53
KLAX 111153Z 19003KT 9SM CLR 17/15 A2977 RMK AO2 SLP077 T01670150 10189 20167 56011 $
