2023/09/05 01:53
KLAX 050153Z 25009KT 10SM FEW012 21/17 A2984 RMK AO2 SLP104 T02060167 $
