2024/09/28 21:53
KLAX 282153Z 25010KT 7SM SCT009 BKN014 19/14 A2986 RMK AO2 SLP112 T01890139
