2024/11/01 15:53
KLAX 011553Z 00000KT 10SM FEW005 FEW019 SCT180 14/06 A2999 RMK AO2 SLP154 T01440056 $
