2024/10/17 00:53
KLAX 170053Z 28010G16KT 10SM OVC022 18/14 A2990 RMK AO2 SLP123 T01780144 $
