2022/11/16 07:53
KLAX 160753Z 00000KT 10SM CLR 16/03 A3016 RMK AO2 SLP211 T01560028 402220089
