2023/09/29 21:53
KLAX 292153Z 25009KT 10SM FEW022 BKN030 OVC037 20/16 A2985 RMK AO2 SLP108 T02000156
