2026/05/29 14:53
KLAX 291453Z 26006KT 10SM FEW022 FEW070 SCT140 16/11 A3000 RMK AO2 SLP159 T01610106 51014 $
