2023/01/25 01:53
KLAX 250153Z 25007KT 10SM FEW250 13/11 A3025 RMK AO2 SLP243 T01280106 $
