2023/11/15 07:53
KLAX 150753Z 10005KT 10SM FEW250 15/06 A2995 RMK AO2 SLP139 T01500061 402500106
