2024/10/03 03:53
KLAX 030353Z 00000KT 1 3/4SM R25L/5000VP6000FT BR OVC002 17/17 A2975 RMK AO2 VIS 3/4 RWY24 SLP074 T01720172
