2022/12/16 07:53
KLAX 160753Z VRB03KT 10SM BKN200 13/07 A3011 RMK AO2 SLP196 T01280067 401610083
