2023/06/07 09:53
KLAX 070953Z 29003KT 10SM FEW012 BKN022 BKN040 BKN150 16/12 A2993 RMK AO2 SLP134 T01560117
