2025/09/03 04:53
KLAX 030453Z 16007KT 10SM CLR 23/19 A2991 RMK SLP124 T02280189 
