2025/03/11 03:53
KLAX 110353Z 33005KT 10SM SCT160 BKN230 13/08 A2990 RMK AO2 SLP125 T01330083
