2024/01/04 15:53
KLAX 041553Z 35008KT 10SM FEW100 FEW160 SCT250 13/02 A3013 RMK AO2 SLP201 T01280017
