2022/12/23 15:53
KLAX 231553Z 04003KT 10SM FEW010 FEW150 SCT190 12/06 A3015 RMK AO2 SLP206 T01170061
