2022/10/01 19:53
KLAX 011953Z 25010KT 10SM FEW021 FEW030 24/14 A2987 RMK AO2 SLP114 T02390144
