2022/12/09 09:53
KLAX 090953Z 00000KT 10SM CLR 09/06 A3019 RMK AO2 SLP220 T00890056
