2025/09/03 23:53
KLAX 032353Z 26013KT 10SM FEW120 25/18 A2988 RMK AO2 SLP115 T02500183 10267 20250 56013 
