2023/09/20 17:53
KLAX 201753Z 26010KT 10SM SCT038 BKN045 21/16 A2990 RMK AO2 SLP125 T02110156 10217 20189 53007
