2022/09/30 21:53
KLAX 302153Z 24008KT 10SM FEW010 23/17 A2984 RMK AO2 SLP101 T02280167
