2023/08/09 05:53
KLAX 090553Z 25005KT 10SM FEW008 FEW011 SCT150 20/18 A2997 RMK AO2 SLP147 T02000178 10228 20194 50004 $
