2024/10/14 19:53
KLAX 141953Z 29005KT 10SM SCT026 22/14 A3005 RMK AO2 SLP176 T02220139 $
