2023/12/16 01:53
KLAX 160153Z 27005KT 10SM BKN300 19/06 A3006 RMK AO2 SLP178 T01890056 $
