2024/03/07 09:53
KLAX 070953Z 00000KT 10SM FEW012 FEW040 BKN065 11/08 A2984 RMK AO2 SLP105 T01060083
