2023/03/09 11:53
KLAX 091153Z 09003KT 10SM FEW012 FEW140 OVC200 09/07 A3010 RMK AO2 SLP192 T00940072 10122 20094 55007 $
