2024/12/12 09:53
KLAX 120953Z 00000KT 10SM FEW200 FEW250 11/M10 A2995 RMK AO2 SLP139 T01111100 $
