2026/05/08 05:53
KLAX 080553Z 20004KT 10SM FEW006 SCT010 16/14 A3000 RMK AO2 SLP159 T01610139 10189 20156 51014
