2025/06/01 21:53
KLAX 012153Z 25009KT 10SM FEW150 BKN200 23/14 A2987 RMK AO2 SLP115 T02330139 $
