2024/01/24 17:53
KLAX 241753Z 12003KT 7SM SCT013 BKN030 OVC200 14/12 A3015 RMK AO2 SLP209 T01440117 10150 20122 53012
