2022/12/10 17:53
KLAX 101753Z VRB03KT 10SM SCT033 BKN050 BKN200 15/07 A3016 RMK AO2 SLP213 T01500067 10150 20089 51010 $
