2025/02/18 02:53
KLAX 180253Z 25007KT 10SM FEW200 SCT250 14/12 A2996 RMK AO2 SLP146 T01390117 53006
