2023/12/21 19:53
KLAX 211953Z 13007KT 7SM SCT008 BKN036 OVC048 17/16 A2999 RMK AO2 RAE16 SLP154 P0002 T01670156
