2024/12/01 15:53
KLAX 011553Z 16004KT 10SM FEW120 SCT170 SCT200 BKN230 14/05 A3012 RMK AO2 SLP197 T01440050 $
