2025/12/11 07:53
KLAX 110753Z 00000KT 10SM CLR 16/08 A3002 RMK AO2 SLP163 T01610083 402610117 $
