2022/09/05 05:53
KLAX 050553Z 12007KT 10SM FEW060 FEW150 26/22 A2981 RMK AO2 SLP089 OCNL LTGIC DSNT NE CB DSNT NE-E T02560217 10317 20256 51006
