2025/07/01 11:53
KLAX 011153Z 26004KT 10SM OVC010 17/14 A2988 RMK AO2 SLP116 T01670139 10172 20161 53001
