2026/03/02 13:53
KLAX 021353Z 00000KT 10SM FEW005 FEW150 SCT200 BKN250 14/13 A2996 RMK AO2 SLP144 T01440133
