2025/10/05 03:53
KLAX 050353Z 24007KT 10SM CLR 19/14 A2982 RMK AO2 SLP095 T01890139 $
