2026/03/11 02:53
KLAX 110253Z 26009KT 10SM FEW250 15/12 A3014 RMK AO2 SLP206 T01500117 51012 $
