2023/03/14 09:53
KLAX 140953Z 05008KT 3SM BR SCT003 OVC005 13/12 A3006 RMK AO2 SLP176 VIS SW-NW 2 T01280117 $
