2026/01/11 21:53
KLAX 112153Z 27010KT 10SM FEW210 SCT260 SCT290 23/00 A3016 RMK AO2 SLP213 CCSL DSNT NE T02280000
