2026/04/14 15:53
KLAX 141553Z VRB03KT 10SM FEW017 FEW025 17/09 A3011 RMK AO2 SLP196 T01670094
