2024/07/30 09:53
KLAX 300953Z 27004KT 10SM FEW008 16/15 A2994 RMK AO2 SLP136 T01610150 $
