2024/08/15 03:53
KLAX 150353Z 25006KT 10SM CLR 20/17 A2993 RMK AO2 SLP134 T02000172 $
