2023/07/22 05:53
KLAX 220553Z 26006KT 5SM BR SCT004 BKN005 18/17 A2987 RMK AO2 SLP111 VIS W 2 T01780167 10206 20172 52001
