2026/02/19 05:53
KLAX 190553Z 29010KT 10SM FEW015 SCT040 BKN065 12/03 A3001 RMK AO2 SLP161 T01220033 10139 20111 53006
