2023/12/03 19:53
KLAX 031953Z 27007KT 10SM FEW015 FEW240 SCT280 19/08 A3019 RMK AO2 SLP221 T01890078
