2023/03/14 11:53
KLAX 141153Z 11005KT 4SM BR FEW004 OVC008 14/12 A3001 RMK AO2 SLP162 T01390117 10139 20128 56024 $
