2025/08/01 04:53
KLAX 010453Z 26008KT 10SM FEW007 18/15 A3000 RMK AO2 SLP158 T01780150 $
