2022/10/27 17:53
KLAX 271753Z 06006KT 10SM SCT029 SCT140 20/12 A3005 RMK AO2 SLP173 T02000117 10206 20139 51015
