2023/07/30 21:53
KLAX 302153Z 26009KT 10SM FEW100 FEW180 SCT250 26/19 A2991 RMK AO2 SLP126 T02610194 $
