2025/10/20 17:53
KLAX 201753Z 10004KT 10SM FEW012 FEW025 23/10 A3007 RMK AO2 SLP179 T02330100 10233 20144 51005 $
