2026/01/17 07:53
KLAX 170753Z 09003KT 10SM BKN280 16/07 A3001 RMK AO2 SLP160 T01610072 402560111
