2026/06/23 08:53
KLAX 230853Z 25004KT 10SM SCT009 BKN011 17/15 A2999 RMK AO2 SLP154 T01720150 53001 $
