2023/05/27 17:53
KLAX 271753Z 23009KT 10SM SCT020 BKN038 18/12 A2997 RMK AO2 SLP149 T01830122 10183 20150 50001
