2025/11/13 09:53
KLAX 130953Z 00000KT 9SM BKN070 17/15 A3004 RMK AO2 SLP170 T01670150 $
