2025/10/27 15:53
KLAX 271553Z 10004KT 4SM HZ FEW009 FEW020 18/14 A3001 RMK AO2 SLP160 T01780144 $
