2023/11/03 21:53
KLAX 032153Z 27010KT 10SM FEW002 FEW220 SCT300 21/12 A2999 RMK AO2 SLP154 T02110122
