2025/03/03 09:53
KLAX 030953Z 29006KT 10SM FEW055 FEW200 11/04 A3001 RMK AO2 SLP161 T01060044 $
