2026/05/09 23:53
KLAX 092353Z 25011KT 8SM BKN010 18/14 A2988 RMK AO2 SLP118 T01830144 10206 20183 56013
