2026/02/01 07:53
KLAX 010753Z 01007KT 10SM CLR 19/04 A3005 RMK AO2 SLP171 T01940044 402940139 $
