2023/08/18 17:53
KLAX 181753Z 24010KT 7SM SCT010 21/17 A2990 RMK AO2 SLP122 T02110167 10217 20172 51004 $
