2024/07/21 21:53
KLAX 212153Z 27013KT 10SM FEW070 FEW150 23/17 A2989 RMK AO2 SLP121 T02280167 $
