2026/04/30 19:53
KLAX 301953Z 25013KT 10SM FEW160 20/12 A2989 RMK AO2 SLP118 T02000122
