2025/05/31 23:53
KLAX 312353Z 27013KT 6SM HZ SCT008 BKN014 BKN120 BKN250 20/16 A2992 RMK AO2 SLP130 T02000161 10239 20200 58001 $
