2025/08/19 05:53
KLAX 190553Z 00000KT 10SM FEW008 20/18 A2996 RMK AO2 SLP143 T02000178 10233 20200 51010 $
