2025/09/25 07:53
KLAX 250753Z VRB03KT 10SM FEW002 FEW009 SCT080 BKN200 19/18 A2996 RMK AO2 SLP144 VIS S-SW 2 1/2 T01940183 402560194 $
