2026/02/06 05:53
KLAX 060553Z 08008KT 10SM FEW010 BKN250 17/15 A3009 RMK AO2 SLP185 T01720150 10250 20172 51013
