2023/05/31 15:53
KLAX 311553Z 25005KT 10SM FEW019 FEW035 BKN060 17/12 A2991 RMK AO2 SLP128 T01670117 $
