2024/10/04 11:53
KLAX 041153Z 09005KT 5SM BR FEW006 OVC009 18/16 A2987 RMK AO2 SLP112 T01830161 10189 20178 55003
