2022/09/08 13:53
KLAX 081353Z 32003KT 9SM FEW090 FEW110 SCT160 BKN180 23/21 A2984 RMK AO2 SLP101 FU SCT160 T02280206 $
