2023/07/03 11:53
KLAX 031153Z 00000KT 1/8SM R25L/P6000FT FG VV002 14/14 A2988 RMK AO2 SLP115 T01440144 10150 20144 56002 $
