2024/01/31 21:53
KLAX 312153Z 24008KT 8SM SCT019 BKN140 BKN180 16/13 A2993 RMK AO2 SLP134 T01610128 $
