2024/01/12 07:53
KLAX 120753Z VRB04KT 10SM FEW200 FEW250 12/M11 A3015 RMK AO2 SLP207 T01171106 401780106
