2025/09/18 19:53
KLAX 181953Z 27012KT 9SM FEW029 SCT060 SCT140 BKN160 OVC250 23/19 A2984 RMK AO2 SLP104 T02280189
