2023/04/09 23:53
KLAX 092353Z 27012KT 3/4SM R25L/P6000FT HZ OVC004 14/11 A3004 RMK AO2 SLP172 T01390111 10167 20139 56020
