2023/08/29 21:53
KLAX 292153Z 27010KT 10SM CLR 26/17 A2982 RMK AO2 SLP096 T02610167
