2026/04/11 19:53
KLAX 111953Z 24012G20KT 10SM FEW042 SCT085 20/12 A3002 RMK AO2 SLP162 T02000122 $
