2025/08/19 08:53
KLAX 190853Z 24004KT 10SM FEW006 SCT010 19/18 A2997 RMK AO2 SLP146 T01940178 50003 $
