2026/02/18 07:53
KLAX 180753Z 21017G34KT 10SM FEW016 SCT026 BKN050 OVC200 14/10 A2992 RMK AO2 PK WND 23035/0659 RAB31E41 SLP130 P0000 T01390100 401560089
