2026/03/24 21:53
KLAX 242153Z 23008KT 10SM FEW250 21/14 A2998 RMK AO2 SLP150 T02060144
