2025/03/13 11:53
KLAX 131153Z 26016KT 8SM -RA FEW011 SCT020 OVC040 10/08 A2984 RMK AO2 SLP104 P0009 60048 70050 T01000083 10139 20100 56006 $
