2024/12/17 13:53
KLAX 171353Z 00000KT 10SM FEW200 11/06 A3009 RMK AO2 SLP188 T01060056 $
