2022/12/14 19:53
KLAX 141953Z 25006KT 10SM FEW030 FEW300 15/04 A3018 RMK AO2 SLP217 T01500044
