2023/08/01 11:53
KLAX 011153Z 26005KT 8SM FEW006 BKN160 BKN220 21/19 A2996 RMK AO2 SLP141 T02110194 10217 20211 53001 $
