2025/01/03 02:12
KLAX 030212Z 26004KT 2SM R25L/4500VP6000FT BR FEW001 FEW250 11/11 A3005 RMK AO2 VIS 1/4 RWY24 VIS SW-NW 1/2 T01110106
