2022/09/23 09:53
KLAX 230953Z 02003KT 10SM CLR 20/17 A2990 RMK AO2 SLP120 T02000172
