2024/01/27 15:53
KLAX 271553Z 08003KT 10SM SCT200 13/05 A3021 RMK AO2 SLP229 T01330050 $
