2025/07/12 11:53
KLAX 121153Z VRB03KT 7SM OVC012 19/16 A2996 RMK AO2 SLP141 T01890161 10189 20183 53002
