2026/05/12 19:53
KLAX 121953Z 27007KT 10SM SCT020 OVC026 18/12 A3005 RMK AO2 SLP173 T01780122
