2023/01/10 03:53
KLAX 100353Z 16011G19KT 8SM VCTS -RA BKN006 BKN010 OVC014 15/14 A3005 RMK AO2 PK WND 14026/0309 SLP176 P0013 T01500144 $
