2024/03/02 21:53
KLAX 022153Z 26011KT 10SM SCT009 BKN012 BKN046 15/13 A3001 RMK AO2 RAE05B28E34 SLP160 P0000 T01500133 $
