2022/12/02 13:53
KLAX 021353Z 08008KT 4SM -DZ BR FEW006 BKN008 OVC029 12/11 A3011 RMK AO2 RAB31E34DZB34 SLP195 P0000 T01170106 $
