2023/09/04 11:53
KLAX 041153Z 08004KT 10SM FEW010 FEW024 17/16 A2992 RMK AO2 SLP128 T01720161 10200 20167 56005 $
