2026/05/06 02:53
KLAX 060253Z 26004KT 10SM FEW020 FEW060 SCT070 16/11 A2998 RMK AO2 SLP150 T01610111 53008
