2025/12/06 13:53
KLAX 061353Z 09003KT 10SM CLR 11/03 A3005 RMK AO2 SLP173 T01110028 $
