2023/06/23 23:53
KLAX 232353Z 27018KT 10SM FEW012 19/12 A2998 RMK AO2 SLP151 T01940117 10211 20194 58013
