2025/11/11 01:53
KLAX 110153Z 23008KT 10SM SCT250 17/16 A3006 RMK AO2 SLP179 T01720156 $
