2025/01/10 09:53
KLAX 100953Z 00000KT 10SM FEW010 FEW040 10/M02 A3025 RMK AO2 SLP243 FU FEW010 FU FEW040 T01001017
