2022/09/02 02:53
KLAX 020253Z 25005KT 10SM FEW150 24/19 A2971 RMK AO2 SLP059 T02390189 53003
