2024/04/12 19:53
KLAX 121953Z VRB06KT 10SM OVC023 15/11 A2994 RMK AO2 SLP139 T01500106 $
