2025/04/30 11:53
KLAX 301153Z 14006KT 8SM FEW009 OVC012 14/12 A3001 RMK AO2 SLP159 T01440117 10150 20139 56005 $
