2024/01/18 00:04
KLAX 180004Z 00000KT 10SM SCT026 OVC033 15/12 A3001 RMK AO2 T01500117
