2024/08/03 07:53
KLAX 030753Z 25007KT 10SM CLR 18/16 A2999 RMK AO2 SLP153 T01830161 402440178 $
