2023/10/30 09:53
KLAX 300953Z 00000KT 10SM CLR 14/M04 A3006 RMK AO2 SLP177 T01391044
