2022/10/22 17:53
KLAX 221753Z 25010KT 10SM SCT022 BKN041 19/14 A2985 RMK AO2 SLP106 T01940144 10200 20189 50002
