2023/09/24 01:53
KLAX 240153Z 24010KT 8SM FEW010 FEW180 SCT270 19/16 A2996 RMK AO2 SLP145 T01890156 $
