2025/11/14 07:53
KLAX 140753Z 10010KT 10SM FEW008 SCT040 BKN100 OVC150 18/17 A3001 RMK AO2 RAB05E36 SLP160 P0000 T01830167 402220156
