2025/11/03 19:53
KLAX 031953Z 00000KT 5SM HZ FEW009 SCT017 SCT180 20/13 A3005 RMK AO2 SLP175 SCT V BKN T02000133 $
