2023/08/18 12:53
KLAX 181253Z VRB03KT 6SM BR FEW004 BKN008 18/17 A2986 RMK AO2 SLP109 BKN V SCT T01780167 $
