2024/05/15 01:53
KLAX 150153Z 25011KT 10SM BKN010 14/12 A2990 RMK AO2 SLP124 T01440117 $
