2023/11/07 03:53
KLAX 070353Z 26008KT 10SM FEW009 17/16 A2996 RMK AO2 SLP144 T01720156
