2024/12/05 07:53
KLAX 050753Z 00000KT 5SM BR FEW008 13/11 A3014 RMK AO2 SLP205 T01280111 401670117
