2026/07/09 22:53
KLAX 092253Z 26010KT 10SM FEW008 SCT011 22/17 A2987 RMK AO2 SLP111 T02220167 $
