2022/11/08 17:53
KLAX 081753Z 23015KT 7SM SCT012 BKN018 BKN050 17/15 A2988 RMK AO2 SLP116 BKN018 V SCT 60100 T01720150 10183 20139 53016
