2025/05/09 11:53
KLAX 091153Z 00000KT 5SM BR FEW002 BKN005 14/14 A3002 RMK AO2 SLP164 T01440139 10161 20144 55004 $
