2025/04/28 05:53
KLAX 280553Z 28013G23KT 10SM FEW024 FEW060 SCT150 14/11 A3008 RMK AO2 SLP185 T01390106 10161 20139 51005 $
