2023/04/29 15:53
KLAX 291553Z VRB05KT 4SM HZ OVC007 14/12 A3004 RMK AO2 SLP170 T01440117
