2022/12/11 03:53
KLAX 110353Z VRB04KT 10SM FEW019 SCT026 BKN033 14/11 A3005 RMK AO2 SLP176 T01440111 $
