2026/04/08 16:53
KLAX 081653Z 00000KT 7SM FEW009 BKN013 18/14 A2995 RMK AO2 SLP142 T01830144 $
