2024/06/09 15:53
KLAX 091553Z 00000KT 9SM FEW008 BKN014 OVC023 17/14 A2997 RMK AO2 SLP146 T01720139 $
