2025/04/17 15:53
KLAX 171553Z 27008KT 7SM FEW011 BKN065 OVC080 15/11 A2999 RMK AO2 SLP154 T01500106 $
