2025/11/26 01:53
KLAX 260153Z 27006KT 10SM CLR 18/13 A3003 RMK AO2 SLP170 T01830128
