2023/04/17 15:53
KLAX 171553Z 15003KT 7SM FEW009 OVC020 14/10 A3000 RMK AO2 SLP157 T01440100
