2023/09/01 17:53
KLAX 011753Z 15010KT 10SM FEW027 SCT170 SCT220 25/18 A2987 RMK AO2 SLP114 T02500178 10256 20194 51006
