2024/11/01 07:53
KLAX 010753Z 00000KT 10SM BKN012 15/13 A3000 RMK AO2 SLP156 T01500133 402060106 $
