2025/07/29 00:53
KLAX 290053Z 25011KT 10SM FEW015 20/15 A3001 RMK AO2 SLP159 T02000150
