2024/01/10 15:53
KLAX 101553Z 05004KT 10SM FEW009 FEW025 SCT200 08/01 A3004 RMK AO2 SLP173 T00830011
