2025/02/19 21:53
KLAX 192153Z 26010KT 8SM FEW018 SCT100 BKN180 BKN250 17/12 A3005 RMK AO2 SLP176 T01720122 $
