2024/02/02 17:53
KLAX 021753Z 25008KT 10SM FEW010 SCT028 SCT035 14/09 A2994 RMK AO2 SLP136 T01390094 10139 20100 51019 $
