2025/12/04 19:53
KLAX 041953Z 19005KT 10SM FEW050 FEW180 21/M04 A3017 RMK AO2 SLP216 T02111039 $
