2024/01/28 03:53
KLAX 280353Z 00000KT 10SM FEW230 BKN280 18/07 A3015 RMK AO2 SLP210 T01780067 $
