2023/07/30 15:53
KLAX 301553Z 07003KT 5SM HZ SCT009 SCT180 BKN280 22/19 A2993 RMK AO2 SLP131 T02220194 $
