2022/09/02 17:53
KLAX 021753Z 26008KT 10SM FEW130 31/21 A2979 RMK AO2 SLP085 T03110206 10322 20222 53001
