2024/12/29 05:53
KLAX 290553Z 20003KT 8SM FEW010 SCT015 SCT250 12/11 A3011 RMK AO2 SLP195 T01170106 10139 20117 53002
