2025/01/04 19:53
KLAX 041953Z 13005KT 6SM HZ FEW015 SCT250 16/08 A3010 RMK AO2 SLP194 T01610078
