2024/11/30 21:53
KLAX 302153Z 27010KT 10SM FEW120 BKN250 19/09 A3002 RMK AO2 SLP165 T01940089 $
