2026/02/14 15:53
KLAX 141553Z 07007KT 10SM FEW016 SCT250 13/09 A3013 RMK AO2 SLP201 T01330089
