2025/10/11 01:53
KLAX 110153Z 24011KT 10SM FEW095 SCT140 SCT240 21/15 A2980 RMK AO2 SLP091 T02060150 $
