2024/06/17 15:53
KLAX 171553Z 26007KT 8SM BKN021 18/14 A2976 RMK AO2 SLP077 T01830144
