2023/04/13 11:53
KLAX 131153Z 27008KT 7SM FEW007 SCT010 OVC020 12/10 A2978 RMK AO2 SLP083 70002 T01170100 10122 20117 58005 $
