2026/06/10 14:53
KLAX 101453Z 12004KT 10SM FEW008 BKN011 20/16 A2986 RMK AO2 SLP108 BKN V SCT T02000161 53012
