2023/09/03 07:53
KLAX 030753Z VRB03KT 10SM FEW015 BKN033 22/18 A3003 RMK AO2 SLP167 T02170183 402560194 $
