2023/03/27 15:53
KLAX 271553Z 02006KT 10SM SCT090 BKN160 BKN250 13/00 A3016 RMK AO2 SLP211 T01330000 $
