2024/01/06 03:53
KLAX 060353Z 25009KT 10SM CLR 13/09 A3014 RMK AO2 SLP205 T01330094
