2024/04/02 07:53
KLAX 020753Z VRB04KT 10SM FEW016 13/09 A3014 RMK AO2 SLP205 T01280089 401720111
