2023/01/20 17:53
KLAX 201753Z 04003KT 10SM FEW019 SCT027 13/07 A3023 RMK AO2 SLP236 T01280067 10133 20056 51023
