2023/03/25 01:53
KLAX 250153Z 27010KT 10SM FEW050 14/09 A3016 RMK AO2 SLP211 T01440089
