2023/03/13 17:53
KLAX 131753Z 23005KT 7SM BKN009 OVC016 14/12 A3017 RMK AO2 SLP214 BKN V SCT T01390122 10139 20128 53004 $
