2024/05/11 01:53
KLAX 110153Z 25012KT 10SM OVC010 15/12 A2993 RMK AO2 SLP133 T01500117
