2024/08/30 17:53
KLAX 301753Z 23007KT 8SM OVC016 21/16 A3006 RMK AO2 SLP176 T02060156 10206 20172 51013
