2023/01/25 21:53
KLAX 252153Z 26007KT 10SM FEW180 20/03 A3021 RMK AO2 SLP230 T02000028 $
