2025/07/21 09:53
KLAX 210953Z VRB04KT 10SM OVC012 19/16 A2996 RMK AO2 SLP141 T01890156 $
