2023/10/25 11:53
KLAX 251153Z 11008KT 10SM BKN018 OVC024 18/14 A2993 RMK AO2 SLP133 T01830144 10189 20183 52002 $
