2024/11/25 11:53
KLAX 251153Z 00000KT 8SM FEW002 FEW008 SCT150 BKN250 11/10 A3012 RMK AO2 SLP199 T01110100 10133 20106 55001
