2026/03/28 03:53
KLAX 280353Z 29008KT 10SM BKN009 BKN270 16/13 A2997 RMK AO2 SLP148 T01560133 $
