2024/11/03 23:59
KLAX 032359Z 25011G21KT 10SM CLR 19/11 A2981 RMK AO2 WSHFT 2340 T01940111
