2024/09/13 11:53
KLAX 131153Z 09003KT 10SM FEW012 OVC017 19/16 A2977 RMK AO2 SLP079 T01940156 10200 20183 53002 $
