2024/05/19 13:53
KLAX 191353Z 25005KT 10SM SCT017 OVC028 15/11 A3005 RMK AO2 SLP174 T01500106 $
