2023/03/31 19:53
KLAX 311953Z 25009KT 10SM FEW015 SCT080 BKN140 BKN180 16/09 A3022 RMK AO2 SLP233 T01560094 $
