2023/08/09 23:53
KLAX 092353Z 25011KT 10SM FEW010 FEW040 BKN150 21/18 A2993 RMK AO2 RAB2254E37 SLP132 P0000 60000 T02060178 10239 20206 56010 $
