2024/08/05 03:53
KLAX 050353Z 24008KT 10SM FEW150 SCT250 19/14 A2984 RMK AO2 SLP103 T01890144 $
