2025/06/21 01:53
KLAX 210153Z 24010KT 10SM FEW013 19/14 A2982 RMK AO2 SLP096 T01890144
