2024/03/12 19:53
KLAX 121953Z 25013KT 10SM FEW008 FEW027 SCT160 16/11 A3014 RMK AO2 SLP206 T01610106
