2024/10/23 01:53
KLAX 230153Z 25006KT 10SM FEW250 18/13 A2998 RMK AO2 SLP150 T01830128
