2025/03/19 09:53
KLAX 190953Z 00000KT 10SM FEW250 11/07 A3028 RMK AO2 SLP251 T01110067 $
