2024/03/31 17:53
KLAX 311753Z 09016G21KT 10SM FEW014 SCT033 SCT060 BKN170 BKN230 14/09 A2982 RMK AO2 SLP097 60001 T01440094 10144 20094 51011
