2025/02/28 15:53
KLAX 281553Z 07005KT 10SM FEW006 SCT100 SCT140 BKN250 16/07 A2996 RMK AO2 SLP142 T01610067
