2025/12/20 19:53
KLAX 201953Z 13004KT 5SM HZ FEW012 SCT280 17/11 A3005 RMK AO2 SLP174 T01720111
