2025/04/20 13:53
KLAX 201353Z 00000KT 6SM BR SCT009 13/11 A3009 RMK AO2 SLP188 T01280111 $
