2023/11/03 15:53
KLAX 031553Z 05003KT 10SM FEW000 FEW300 19/02 A3006 RMK AO2 SLP178 FG FEW000 SHLW FG BANK ALG SHORE 5S T01890017
