2026/01/30 02:53
KLAX 300253Z 30005KT 10SM CLR 21/04 A3014 RMK AO2 SLP206 T02060039 53007 $
