2023/06/26 01:53
KLAX 260153Z 25016KT 10SM CLR 18/12 A2997 RMK AO2 SLP147 T01780122
