2023/01/23 17:53
KLAX 231753Z 33008KT 10SM FEW140 FEW200 15/M07 A3002 RMK AO2 SLP166 T01501067 10156 20083 50006
