2022/08/23 05:53
KLAX 230553Z 26003KT 10SM OVC006 18/17 A2989 RMK AO2 SLP121 T01830167 10211 20178 50002 $
