2022/11/15 21:53
KLAX 152153Z 27012KT 10SM CLR 18/09 A3007 RMK AO2 SLP182 T01830089 $
