2025/10/28 15:53
KLAX 281553Z 00000KT 7SM CLR 19/13 A2999 RMK AO2 SLP152 T01940133 $
