2025/09/21 23:53
KLAX 212353Z 25009KT 9SM FEW007 FEW050 SCT150 22/18 A2987 RMK AO2 SLP111 T02170178 10250 20217 58015
