2026/04/27 17:53
KLAX 271753Z 24006KT 10SM FEW010 FEW042 SCT070 18/07 A3001 RMK AO2 SLP230 T01780072 10178 20144 VISNO RWY24 $
