2024/03/16 13:53
KLAX 161353Z 09004KT 10SM FEW016 FEW031 SCT110 12/08 A3000 RMK AO2 SLP156 T01220078 $
