2025/11/23 15:53
KLAX 231553Z 09010KT 10SM FEW080 FEW120 14/09 A3005 RMK AO2 SLP172 T01440094
