2022/11/07 05:53
KLAX 070553Z 10004KT 10SM OVC016 16/13 A2995 RMK AO2 SLP141 T01610128 10172 20156 53013
