2024/06/23 17:53
KLAX 231753Z 26009KT 9SM FEW012 FEW070 SCT100 23/15 A2989 RMK AO2 SLP120 T02330150 10244 20161 50002
