2023/04/13 19:53
KLAX 131953Z 26007KT 7SM FEW010 SCT018 OVC024 13/10 A2984 RMK AO2 SLP103 T01330100 $
