2025/10/01 11:53
KLAX 011153Z 26007KT 10SM FEW009 SCT014 19/16 A3000 RMK AO2 SLP157 SCT V BKN T01890161 10200 20183 56000 $
