2024/10/01 03:53
KLAX 010353Z 24006KT 8SM FEW006 18/16 A2991 RMK AO2 SLP126 T01780161 $
