2026/05/22 14:53
KLAX 221453Z 09004KT 8SM FEW009 OVC020 18/12 A2986 RMK AO2 SLP110 T01780122 53007
