2022/08/24 09:53
KLAX 240953Z VRB03KT 10SM FEW005 BKN009 21/18 A2984 RMK AO2 SLP101 T02060178 $
