2025/07/05 19:53
KLAX 051953Z 27010KT 10SM CLR 23/16 A3006 RMK AO2 SLP177 T02280156
