2023/10/06 05:53
KLAX 060553Z 15005KT 10SM CLR 21/14 A2994 RMK AO2 SLP134 T02110144 10244 20211 53013 $
