2023/02/10 05:53
KLAX 100553Z 00000KT 10SM CLR 19/M02 A3019 RMK AO2 SLP222 T01891017 10222 20167 53008 $
