2025/08/14 13:53
KLAX 141353Z 17004KT 5SM HZ FEW008 OVC011 19/17 A2993 RMK AO2 SLP132 T01940167 $
