2025/09/17 21:53
KLAX 172153Z 24015KT 10SM FEW020 FEW045 SCT150 BKN200 24/18 A2985 RMK AO2 SLP106 T02390178
