2024/07/07 13:53
KLAX 071353Z 14003KT 4SM BR FEW006 OVC009 19/17 A2992 RMK AO2 SLP130 T01940172 $
