2023/02/17 01:53
KLAX 170153Z 29011KT 10SM BKN250 13/03 A3016 RMK AO2 SLP214 T01280028 $
