2023/11/30 17:53
KLAX 301753Z 05004KT 8SM FEW009 BKN030 BKN041 15/11 A2998 RMK AO2 SLP153 T01500106 10150 20111 53013 $
