2023/06/29 15:53
KLAX 291553Z 11004KT 9SM FEW009 BKN016 18/13 A2995 RMK AO2 SLP141 T01780133
