2024/06/23 23:53
KLAX 232353Z 27012KT 10SM FEW050 FEW100 23/16 A2986 RMK AO2 SLP109 T02330156 10261 20217 56012
