2024/02/07 19:53
KLAX 071953Z 25013G20KT 10SM SCT026 BKN032 14/08 A2994 RMK AO2 SLP140 T01390083
