2025/12/28 05:53
KLAX 280553Z 36004KT 10SM CLR 13/05 A3011 RMK AO2 SLP195 T01280050 10150 20122 51013 $
