2023/09/28 15:53
KLAX 281553Z 11005KT 9SM FEW009 OVC016 19/16 A2989 RMK AO2 SLP121 T01890156 $
