2025/05/06 03:53
KLAX 060353Z 23004KT 10SM SCT024 BKN029 OVC041 16/12 A2989 RMK AO2 CIG 015 RWY24 SLP121 T01560122
