2026/06/20 17:53
KLAX 201753Z 22010KT 10SM FEW016 FEW020 SCT025 20/13 A3001 RMK AO2 SLP160 T02000128 10200 20144 51008
