2023/03/10 21:53
KLAX 102153Z 11007KT 1 3/4SM R25L/2400VP6000FT RA BR BKN004 BKN007 OVC022 13/12 A3002 RMK AO2 RAB19RAEMMB24 SLP165 P0013 T01280122
