2022/11/03 19:53
KLAX 031953Z 27018G23KT 10SM FEW018 FEW047 SCT120 16/04 A3007 RMK AO2 SLP183 T01610039 VISNO RWY24 $
