2024/06/03 21:53
KLAX 032153Z 27010G18KT 10SM FEW021 BKN200 20/13 A2987 RMK AO2 SLP116 T02000133 $
