2024/11/26 03:53
KLAX 260353Z 25004KT 10SM FEW075 SCT120 16/09 A3014 RMK AO2 SLP207 T01560089
