2025/03/13 19:53
KLAX 131953Z 26025G33KT 10SM FEW042 FEW065 SCT170 BKN210 14/06 A2992 RMK AO2 PK WND 25033/1946 SLP130 CB DSNT E T01390061
