2025/01/22 15:53
KLAX 221553Z 00000KT 10SM BKN140 BKN250 12/M07 A3023 RMK AO2 SLP236 T01171072
