2024/09/07 01:53
KLAX 070153Z 26007KT 10SM FEW070 SCT120 27/16 A2976 RMK AO2 SLP075 T02670161
