2026/04/07 13:53
KLAX 071353Z 00000KT 6SM HZ SCT010 15/13 A3000 RMK AO2 SLP156 T01500128 $
