2023/09/30 03:53
KLAX 300353Z 26009KT 10SM SCT014 18/16 A2985 RMK AO2 SLP105 T01830156
