2024/06/11 03:53
KLAX 110353Z 24008KT 10SM OVC008 16/14 A2991 RMK AO2 SLP127 T01560139
