2023/07/21 01:53
KLAX 210153Z 27010KT 10SM FEW250 22/17 A2991 RMK AO2 SLP128 T02170167 $
