2024/10/04 19:53
KLAX 041953Z 25011KT 5SM HZ FEW140 SCT180 BKN220 23/17 A2992 RMK AO2 SLP128 T02330172
