2024/12/25 11:53
KLAX 251153Z VRB06KT 10SM FEW006 FEW012 SCT200 13/03 A3006 RMK AO2 SLP178 70001 T01330033 10156 20122 53006 $
