2025/05/17 07:53
KLAX 170753Z 00000KT 9SM SCT014 OVC020 16/12 A2998 RMK AO2 SLP150 T01610117 401940144
