2023/07/24 11:53
KLAX 241153Z 00000KT 10SM FEW006 FEW250 19/18 A2996 RMK AO2 SLP142 T01940178 10206 20194 55005
