2025/05/16 11:53
KLAX 161153Z 00000KT 10SM BKN010 BKN016 15/13 A2995 RMK AO2 SLP139 T01500128 10156 20144 55006 $
