2023/07/27 13:53
KLAX 271353Z 25004KT 7SM FEW009 FEW150 20/18 A2990 RMK AO2 SLP122 T02000183 $
