2024/08/05 23:53
KLAX 052353Z 27012KT 10SM FEW080 FEW150 SCT250 23/16 A2985 RMK AO2 SLP106 T02280156 10250 20222 58012 $
