2025/05/16 21:53
KLAX 162153Z 25012KT 10SM SCT014 SCT026 BKN160 19/12 A2994 RMK AO2 SLP139 T01890122
