2025/05/10 13:53
KLAX 101353Z 13004KT 8SM SCT250 17/14 A2989 RMK AO2 SLP120 T01720144
