2022/09/15 13:53
KLAX 151353Z 09005KT 9SM SCT015 BKN023 19/17 A2995 RMK AO2 SLP140 T01940167 $
