2025/07/09 17:53
KLAX 091753Z 23008KT 10SM FEW180 FEW260 23/16 A3004 RMK AO2 SLP170 CCSL NE T02280161 10233 20172 50000 $
