2023/04/23 19:53
KLAX 231953Z 24013KT 10SM FEW095 20/13 A2984 RMK AO2 SLP102 T02000128
