2026/05/20 17:53
KLAX 201753Z 26009KT 9SM CLR 24/15 A2991 RMK AO2 SLP126 T02390150 10250 20156 57005
