2022/12/15 23:53
KLAX 152353Z 30007KT 10SM OVC200 14/07 A3010 RMK AO2 SLP193 T01440067 10161 20144 55000 $
