2023/05/04 17:53
KLAX 041753Z 24010KT 8SM SCT024 SCT035 BKN060 16/11 A2994 RMK AO2 SLP137 60003 T01560106 10161 20117 51021
