2022/10/14 17:53
KLAX 141753Z VRB03KT 7SM FEW009 OVC014 19/16 A2988 RMK AO2 SLP116 T01940161 10194 20189 58001 $
