2025/09/12 12:01
KLAX 121201Z 08005KT 10SM FEW009 SCT012 BKN018 19/16 A2993 RMK AO2 T01890161 $
