2023/02/08 07:53
KLAX 080753Z 00000KT 10SM FEW200 BKN250 14/06 A3023 RMK AO2 SLP233 T01390056 401940083
