2025/10/14 09:53
KLAX 140953Z 14006KT 4SM RA BR FEW015 BKN028 OVC050 16/14 A2982 RMK AO2 RAB0859 SLP094 P0006 T01560139 $
