2026/05/02 15:53
KLAX 021553Z 00000KT 6SM HZ OVC010 16/13 A2998 RMK AO2 SLP152 T01610133
