2024/09/25 11:53
KLAX 251153Z 26003KT 4SM BR SCT002 OVC005 16/15 A2984 RMK AO2 SLP102 VIS S-NW 2 1/2 T01610150 10167 20161 58008 $
