2026/02/13 13:53
KLAX 131353Z 11004KT 10SM FEW015 FEW160 SCT250 09/06 A2998 RMK AO2 SLP150 T00940061
