2026/05/02 05:53
KLAX 020553Z 25005KT 10SM BKN011 15/13 A2995 RMK AO2 SLP139 T01500128 10194 20150 51015
