2025/06/21 13:53
KLAX 211353Z 12008KT 10SM SCT021 BKN029 BKN038 18/13 A2987 RMK AO2 SLP112 T01780128
