2024/03/29 21:53
KLAX 292153Z 22008KT 10SM FEW023 FEW036 SCT140 BKN180 BKN270 16/06 A2992 RMK AO2 SLP131 T01610056
