2026/04/17 23:53
KLAX 172353Z 27015KT 10SM FEW060 20/12 A2995 RMK AO2 SLP140 T02000122 10228 20189 58011
