2025/12/12 21:53
KLAX 122153Z 27007KT 4SM BR SCT009 BKN120 BKN180 16/14 A2997 RMK AO2 SLP148 VIS S-SW 2 VIS SW-W 1 SCT V BKN T01610139 $
