2026/01/21 07:53
KLAX 210753Z 26007KT 7SM FEW006 SCT008 BKN250 14/13 A3009 RMK AO2 SLP188 T01440128 402170111 $
