2023/03/15 09:53
KLAX 150953Z 10009KT 3SM -RA BR FEW003 BKN005 OVC009 14/13 A2992 RMK AO2 SLP129 VIS SW-NW 2 P0033 T01390133 $
