2025/03/09 07:53
KLAX 090753Z 11003KT 10SM CLR 11/07 A3028 RMK AO2 SLP251 T01060072 401670072
