2025/05/04 17:53
KLAX 041753Z 17004KT 10SM FEW016 BKN027 OVC055 16/10 A2979 RMK AO2 SLP088 T01560100 10156 20133 53005
