2023/01/13 17:53
KLAX 131753Z 09004KT 10SM FEW090 SCT160 BKN190 OVC250 16/06 A3018 RMK AO2 SLP219 T01560056 10156 20111 53012
