2025/04/24 06:53
KLAX 240653Z 27010KT 10SM FEW015 BKN028 OVC033 14/10 A3000 RMK AO2 SLP157 T01390100
