2024/11/09 21:53
KLAX 092153Z 25007KT 10SM CLR 21/06 A2994 RMK AO2 SLP138 T02060056
