2025/01/23 17:53
KLAX 231753Z 20004KT 10SM FEW280 23/03 A3029 RMK AO2 SLP257 T02280028 10228 20083 51011
