2022/10/21 03:53
KLAX 210353Z 23005KT 10SM CLR 21/18 A2988 RMK AO2 SLP114 T02110178 $
