2025/08/17 07:53
KLAX 170753Z 21004KT 10SM FEW012 19/16 A3000 RMK AO2 SLP156 T01890161 402330189 $
