2023/07/01 05:53
KLAX 010553Z VRB03KT 3SM BR OVC004 16/15 A2990 RMK AO2 SLP124 VIS W-NW 1/2 T01560150 10189 20156 53020 $
