2024/07/29 01:53
KLAX 290153Z 25012KT 10SM CLR 19/14 A2991 RMK AO2 SLP128 T01890144
