2023/12/15 09:53
KLAX 150953Z 03005KT 10SM FEW280 15/M02 A3015 RMK AO2 SLP207 T01501017 $
