2026/06/05 04:53
KLAX 050453Z 25005KT 8SM SCT009 OVC012 18/15 A2990 RMK AO2 SLP124 T01780150 $
