2024/01/29 03:53
KLAX 290353Z 23004KT 10SM BKN250 21/00 A3011 RMK AO2 SLP197 T02060000 $
