2024/06/13 19:53
KLAX 131953Z 28009KT 10SM FEW012 SCT019 20/13 A3000 RMK AO2 SLP159 T02000133
