2025/11/30 05:53
KLAX 300553Z 20007KT 8SM FEW015 16/13 A3001 RMK AO2 SLP161 T01560128 10167 20150 53005 $
