2025/01/27 17:53
KLAX 271753Z 13005KT 10SM R25L/2600VP6000FT FEW019 FEW055 SCT140 BKN250 13/07 A3014 RMK AO2 SLP204 T01280067 10128 20083 $
