2023/07/20 09:53
KLAX 200953Z 27005KT 10SM FEW008 19/17 A2995 RMK AO2 SLP138 T01890172 $
