2024/01/30 17:53
KLAX 301753Z 10005KT 10SM FEW180 SCT250 19/07 A3006 RMK AO2 SLP179 T01890067 10189 20111 58002 $
