2026/01/25 07:53
KLAX 250753Z 07004KT 10SM CLR 12/09 A3004 RMK AO2 SLP172 T01220094 401720117 $
