2025/01/04 21:53
KLAX 042153Z 24009KT 10SM FEW015 BKN250 16/09 A3008 RMK AO2 SLP185 T01560089
