2025/03/16 12:53
KLAX 161253Z VRB04KT 10SM FEW250 09/06 A3013 RMK AO2 SLP201 T00890056 $
