2024/03/13 01:53
KLAX 130153Z 26011KT 10SM FEW020 FEW046 SCT250 15/12 A3007 RMK AO2 SLP181 T01500117
