2022/12/16 05:53
KLAX 160553Z 00000KT 10SM BKN200 13/09 A3012 RMK AO2 SLP197 T01280094 10144 20128 53006
