2025/01/02 03:53
KLAX 020353Z 00000KT 10SM CLR 13/11 A3010 RMK AO2 SLP192 T01280111
