2025/09/19 17:53
KLAX 191753Z 24006KT 8SM FEW009 SCT044 BKN090 25/18 A2993 RMK AO2 SLP132 T02500178 10250 20200 50006
