2025/09/27 03:53
KLAX 270353Z 24003KT 10SM SCT014 SCT020 OVC037 20/17 A2988 RMK AO2 SLP117 T02000172 $
