2026/07/03 20:53
KLAX 032053Z 25010KT 10SM FEW027 FEW160 SCT250 22/15 A3000 RMK AO2 SLP157 T02220150 58002 $
