2022/11/27 01:53
KLAX 270153Z 27006KT 10SM FEW220 16/11 A3003 RMK AO2 SLP169 T01560111 $
