2024/04/15 17:53
KLAX 151753Z VRB05KT 10SM FEW024 SCT029 SCT220 16/09 A3015 RMK AO2 SLP211 T01610094 10161 20083 51014 $
