2025/11/04 01:53
KLAX 040153Z 26007KT 10SM FEW010 SCT250 16/14 A3003 RMK AO2 SLP166 T01610139 $
