2022/11/15 11:53
KLAX 151153Z 06003KT 10SM CLR 11/04 A3010 RMK AO2 SLP192 T01060044 10144 20100 58001 $
