2025/07/05 16:02
KLAX 051602Z VRB03KT 5SM HZ SCT013 19/16 A3008 RMK AO2 T01940156
