2022/11/06 19:53
KLAX 061953Z 25009KT 10SM FEW019 19/12 A2992 RMK AO2 SLP130 T01940122
