2024/05/08 15:53
KLAX 081553Z 02005KT 10SM FEW012 BKN019 17/11 A2988 RMK AO2 SLP118 T01670111 $
