2024/04/19 01:53
KLAX 190153Z 27009KT 10SM FEW020 FEW250 15/12 A2996 RMK AO2 SLP145 T01500117 $
