2024/12/16 13:53
KLAX 161353Z 00000KT 10SM SCT240 BKN280 10/03 A3012 RMK AO2 SLP200 T01000028 $
