2026/06/05 17:53
KLAX 051753Z 27005KT 6SM HZ SCT007 OVC009 18/15 A2988 RMK AO2 SLP118 T01780150 10183 20178 51009 $
