2024/02/17 07:53
KLAX 170753Z 26007KT 10SM BKN011 13/11 A3010 RMK AO2 SLP191 T01280111 401720122
