2025/09/17 17:53
KLAX 171753Z 26004KT 10SM FEW025 FEW100 SCT160 BKN250 24/18 A2990 RMK AO2 SLP121 T02440178 10250 20206 58008
