2026/06/02 14:53
KLAX 021453Z VRB03KT 6SM HZ OVC016 17/14 A3000 RMK AO2 SLP158 T01720139 53006 $
