2023/05/23 01:53
KLAX 230153Z 24007KT 10SM OVC009 16/14 A2992 RMK AO2 SLP129 T01560144
