2025/02/23 17:53
KLAX 231753Z 00000KT 10SM CLR 20/04 A3024 RMK AO2 SLP240 T02000044 10200 20094 51009 $
