2022/10/03 07:53
KLAX 030753Z 25003KT 10SM FEW018 19/15 A2997 RMK AO2 SLP145 T01890150 402390189
