2023/11/03 17:53
KLAX 031753Z 00000KT 10SM FEW300 23/01 A3006 RMK AO2 SLP179 T02280006 10228 20122 50008
