2025/08/23 16:53
KLAX 231653Z 09008KT 8SM FEW011 SCT030 BKN140 BKN180 26/19 A2993 RMK AO2 SLP133 T02560194
