2025/12/17 09:53
KLAX 170953Z 00000KT 1/16SM R25L/1000V1400FT FG VV002 13/13 A3007 RMK AO2 SLP181 T01330133 $
