2023/05/23 15:53
KLAX 231553Z 23006KT 7SM FEW007 OVC012 16/14 A2993 RMK AO2 SLP135 T01560144 $
