2022/10/22 13:53
KLAX 221353Z 00000KT 10SM FEW011 OVC033 19/14 A2984 RMK AO2 SLP103 T01890139
