2024/06/12 19:53
KLAX 121953Z 28008KT 9SM FEW012 SCT017 SCT025 21/15 A2999 RMK AO2 SLP153 SCT021 V BKN T02060150
