2023/05/14 19:53
KLAX 141953Z 26010KT 10SM FEW016 FEW100 19/14 A2995 RMK AO2 SLP141 T01940139
