2026/01/27 17:53
KLAX 271753Z 03004KT 10SM FEW080 FEW160 SCT250 18/M03 A3029 RMK AO2 SLP257 T01781033 10178 20094 51017 $
