2024/05/13 11:53
KLAX 131153Z 00000KT 6SM BR FEW004 BKN006 OVC010 14/12 A2995 RMK AO2 SLP141 T01440122 10144 20133 55004 $
