2023/01/05 19:53
KLAX 051953Z 22014KT 7SM FEW008 SCT014 BKN026 16/14 A3004 RMK AO2 SLP172 T01610144
