2024/07/23 15:53
KLAX 231553Z VRB03KT 10SM FEW003 SCT220 21/17 A2992 RMK AO2 SLP128 T02110172 $
