2025/02/11 21:53
KLAX 112153Z 24013KT 10SM FEW021 SCT055 SCT220 14/08 A2992 RMK AO2 SLP132 T01440083 $
