2023/12/31 05:53
KLAX 310553Z 00000KT 10SM SCT015 14/11 A3012 RMK AO2 SLP197 T01390106 10161 20133 53010
