2024/05/12 09:53
KLAX 120953Z 15003KT 9SM SCT008 OVC013 15/12 A2994 RMK AO2 SLP136 T01500117 $
