2023/11/12 07:53
KLAX 120753Z 09005KT 10SM CLR 15/02 A3004 RMK AO2 SLP168 T01500022 402500100
