2022/11/09 05:53
KLAX 090553Z 32007KT 10SM SCT021 BKN033 BKN120 13/10 A2990 RMK AO2 WSHFT 0449 RAB0455E16 SLP123 P0000 60006 T01280100 10144 20122 51016
