2023/08/18 09:53
KLAX 180953Z 20004KT 9SM FEW005 OVC008 18/17 A2986 RMK AO2 SLP110 T01780167 $
