2025/06/21 07:53
KLAX 210753Z 23003KT 10SM OVC021 18/12 A2984 RMK AO2 SLP102 T01780122 402220172
