2024/06/18 03:53
KLAX 180353Z 23004KT 10SM FEW180 17/14 A2972 RMK AO2 SLP063 T01720139
