2025/02/01 19:53
KLAX 011953Z VRB05KT 9SM FEW250 18/10 A3016 RMK AO2 SLP212 T01830100
