2025/06/23 11:53
KLAX 231153Z 11010KT 10SM FEW012 BKN018 18/14 A2990 RMK AO2 SLP121 T01780139 10183 20167 57001
