2023/03/05 11:53
KLAX 051153Z 28006KT 10SM BKN050 11/07 A3005 RMK AO2 SLP176 T01060067 10117 20106 55003 $
