2023/06/18 21:53
KLAX 182153Z 24009KT 10SM FEW017 19/14 A2992 RMK AO2 SLP129 T01940139
