2025/10/26 03:53
KLAX 260353Z 26005KT 10SM BKN010 16/13 A3001 RMK AO2 SLP162 T01610133 $
