2023/02/26 12:53
KLAX 261253Z 00000KT 10SM BKN036 06/04 A3006 RMK AO2 SLP178 T00560044 $
