2024/03/25 23:53
KLAX 252353Z 24009KT 10SM FEW070 BKN200 14/10 A2990 RMK AO2 SLP125 T01440100 10178 20144 56009
