2022/09/22 07:53
KLAX 220753Z 24005KT 10SM CLR 19/17 A2993 RMK AO2 SLP132 T01940167 402500172
