2026/07/15 16:53
KLAX 151653Z 27007KT 10SM FEW040 25/18 A2988 RMK AO2 SLP116 T02500178 $
