2025/05/26 17:53
KLAX 261753Z 24006KT 9SM OVC019 18/13 A3000 RMK AO2 SLP159 T01780133 10183 20167 51001 $
