2023/03/16 21:53
KLAX 162153Z 23007KT 10SM FEW025 BKN039 15/10 A3006 RMK AO2 SLP177 T01500100 $
