2022/08/27 19:53
KLAX 271953Z 23009KT 10SM FEW018 24/18 A2988 RMK AO2 SLP116 T02440178 $
