2023/07/18 21:53
KLAX 182153Z 26012KT 10SM FEW010 FEW060 24/17 A2995 RMK AO2 SLP140 T02390172 $
