2024/11/15 05:53
KLAX 150553Z 25011KT 10SM SCT021 14/11 A2988 RMK AO2 SLP115 T01440106 10172 20144 51007
