2023/09/07 15:53
KLAX 071553Z 24005KT 8SM SCT008 SCT016 21/18 A2997 RMK AO2 SLP145 T02060178
