2024/05/14 09:53
KLAX 140953Z 27004KT 10SM FEW009 OVC015 15/12 A2992 RMK AO2 SLP131 T01500117
