2022/12/18 13:53
KLAX 181353Z VRB04KT 10SM CLR 09/M04 A2995 RMK AO2 SLP141 T00891039 VISNO RWY24 $
