2022/09/08 05:53
KLAX 080553Z VRB04KT 10SM FEW120 24/18 A2989 RMK AO2 SLP118 FU FEW120 T02390178 10261 20233 50009 $
