2024/07/09 03:53
KLAX 090353Z 28006KT 7SM OVC006 17/16 A2983 RMK AO2 SLP099 VIS SW 1 W 1/2 T01720156 $
