2023/06/05 11:53
KLAX 051153Z 16005KT 10SM FEW012 OVC016 15/12 A2986 RMK AO2 SLP110 T01500122 10161 20150 57008
