2023/11/28 19:53
KLAX 281953Z 25004KT 10SM CLR 21/01 A3012 RMK AO2 SLP197 T02060006 $
