2023/06/21 13:53
KLAX 211353Z 00000KT 10SM FEW009 FEW140 SCT200 17/14 A2997 RMK AO2 SLP147 T01670139
