2023/01/07 19:53
KLAX 071953Z VRB03KT 10SM FEW070 BKN150 18/03 A3015 RMK AO2 SLP209 T01830033 $
