2025/07/29 11:53
KLAX 291153Z 00000KT 10SM FEW008 BKN012 17/15 A3004 RMK AO2 SLP171 BKN V SCT T01720150 10178 20172 53003
