2025/11/18 13:53
KLAX 181353Z 04006KT 10SM FEW015 FEW025 SCT050 BKN200 11/08 A2991 RMK AO2 SLP127 T01110083 $
