2023/01/23 03:53
KLAX 230353Z 36013G20KT 10SM CLR 12/00 A2987 RMK AO2 SLP116 T01220000 $
