2024/06/12 05:53
KLAX 120553Z 24003KT 10SM OVC011 17/14 A2993 RMK AO2 SLP134 T01670139 10172 20156 51010
