2025/06/01 02:35
KLAX 010235Z 27009KT 2SM BR OVC005 17/16 A2993 RMK AO2 T01720156 $
