2025/10/28 17:53
KLAX 281753Z 24007KT 9SM CLR 25/14 A2999 RMK AO2 SLP155 T02500144 10250 20150 51010 $
