2023/04/10 05:53
KLAX 100553Z 25003KT 1SM R25L/P6000FT BR VV003 12/12 A3007 RMK AO2 SLP180 VIS SW 1/2 T01220117 10139 20117 51009
