2023/05/12 05:53
KLAX 120553Z 25007KT 10SM FEW012 14/12 A2998 RMK AO2 SLP149 T01390117 10167 20139 50004
