2026/07/02 12:53
KLAX 021253Z 27006KT 10SM SCT014 OVC018 18/14 A2994 RMK AO2 SLP136 T01830144 $
