2026/03/06 21:53
KLAX 062153Z 25009KT 10SM FEW060 FEW140 SCT180 SCT250 23/M03 A2999 RMK AO2 SLP153 T02281033
