2024/03/15 03:53
KLAX 150353Z 34006KT 10SM FEW040 17/03 A2977 RMK AO2 SLP079 T01670033 $
