2024/04/29 13:53
KLAX 291353Z 00000KT 10SM MIFG FEW005 FEW012 SCT180 14/13 A2994 RMK AO2 SLP138 FU FEW005 T01440128
