2025/05/19 21:53
KLAX 192153Z 27010KT 10SM CLR 21/13 A2996 RMK AO2 SLP145 T02110128
