2024/03/17 21:53
KLAX 172153Z 25016KT 10SM FEW015 FEW085 SCT150 SCT250 17/11 A3005 RMK AO2 SLP174 T01670111 $
