2025/06/12 13:53
KLAX 121353Z 00000KT 6SM -DZ BR FEW005 OVC008 17/15 A2987 RMK AO2 SLP112 P0000 T01720150 $
