2025/12/28 11:53
KLAX 281153Z 00000KT 10SM CLR 09/06 A3014 RMK AO2 SLP205 T00940061 10133 20083 50003 $
