2023/06/10 13:53
KLAX 101353Z 23005KT 10SM BKN014 OVC020 17/14 A2992 RMK AO2 SLP131 T01670139
