2024/06/23 09:53
KLAX 230953Z 28004KT 4SM BR OVC004 16/16 A2986 RMK AO2 SLP109 T01610156
