2024/03/24 03:53
KLAX 240353Z 27026G33KT 10SM FEW015 SCT035 SCT060 13/08 A2981 RMK AO2 PK WND 27036/0327 SLP094 T01280078 $
