2023/03/23 09:53
KLAX 230953Z 09003KT 10SM FEW009 BKN037 BKN050 11/09 A3015 RMK AO2 RAB32E42 SLP208 P0000 T01060089
