2025/05/08 11:53
KLAX 081153Z 28003KT 10SM FEW006 FEW010 14/12 A3006 RMK AO2 SLP177 T01390122 10144 20133 57004 $
