2025/07/25 15:53
KLAX 251553Z 06005KT 8SM FEW009 BKN018 BKN032 BKN180 19/14 A3003 RMK AO2 SLP168 T01940144 $
