2025/10/26 15:53
KLAX 261553Z 13004KT 3SM BR OVC009 16/13 A3004 RMK AO2 SLP172 VIS SW-W 2 T01560133 $
