2024/03/02 23:53
KLAX 022353Z 26011KT 10SM SCT021 BKN029 OVC048 14/10 A3000 RMK AO2 RAB34E47 SLP158 P0001 60005 T01390100 10156 20128 55004 $
