2025/06/23 21:53
KLAX 232153Z 26012G18KT 10SM FEW015 FEW060 21/14 A2994 RMK AO2 SLP137 T02060139
