2024/09/30 03:53
KLAX 300353Z 22005KT 10SM FEW005 17/16 A2985 RMK AO2 SLP107 T01720156 $
