2024/08/26 11:53
KLAX 261153Z 00000KT 10SM FEW010 18/16 A3004 RMK AO2 SLP168 T01830161 10194 20178 58001 $
