2022/10/28 01:53
KLAX 280153Z 27011KT 10SM CLR 18/14 A3001 RMK AO2 SLP162 T01830139
