2024/05/18 09:53
KLAX 180953Z 28006KT 10SM BKN010 OVC021 14/12 A2996 RMK AO2 SLP144 T01440122 $
