2022/10/02 11:53
KLAX 021153Z 03003KT 10SM OVC022 20/14 A2990 RMK AO2 SLP123 T02000144 10200 20194 55001
