2024/06/24 09:53
KLAX 240953Z VRB05KT 10SM FEW110 BKN150 20/14 A2991 RMK AO2 SLP127 T02000139
