2023/12/07 19:53
KLAX 071953Z 26011KT 8SM FEW009 FEW029 SCT070 18/09 A3006 RMK AO2 SLP179 T01830094
