2024/02/14 09:53
KLAX 140953Z 08003KT 10SM BKN015 11/09 A3008 RMK AO2 SLP184 T01060094 $
