2023/11/23 01:53
KLAX 230153Z 25007KT 10SM FEW150 SCT250 19/08 A2995 RMK AO2 SLP142 T01890083
