2025/01/01 23:53
KLAX 012353Z 25008KT 10SM FEW250 15/11 A3007 RMK AO2 SLP181 T01500111 10150 20122 55004
