2023/04/23 07:53
KLAX 230753Z 30003KT 9SM CLR 17/12 A2979 RMK AO2 SLP086 T01670117 402720139
