2024/12/27 17:53
KLAX 271753Z 08006KT 2SM BR SCT005 OVC011 13/13 A3010 RMK AO2 SLP190 VIS 1 1/2V3 T01280128 10128 20100 $
