2025/01/17 13:53
KLAX 171353Z 07005KT 10SM FEW011 SCT018 08/04 A3021 RMK AO2 SLP229 SCT V BKN T00830039 $
