2023/11/18 09:53
KLAX 180953Z 00000KT 10SM FEW010 BKN060 BKN070 17/16 A2999 RMK AO2 SLP152 T01670156 $
