2023/10/02 09:53
KLAX 020953Z 10003KT 10SM FEW015 FEW200 14/11 A2995 RMK AO2 SLP140 T01390111 $
