2024/11/08 11:53
KLAX 081153Z 00000KT 10SM CLR 12/M03 A3014 RMK AO2 SLP203 T01171033 10161 20111 56003 $
