2023/12/12 09:53
KLAX 120953Z 07006KT 1/4SM R25L/4500VP6000FT FG VV002 13/13 A2988 RMK AO2 SLP116 T01280128 $
