2022/12/14 05:53
KLAX 140553Z 34003KT 10SM CLR 12/04 A3016 RMK AO2 SLP212 T01170039 10133 20111 51021 $
