2024/08/17 02:12
KLAX 170212Z 26010KT 10SM SCT009 BKN250 22/19 A2986 RMK AO2 T02170189 $
