2022/10/15 02:53
KLAX 150253Z 25004KT 10SM OVC020 19/16 A2985 RMK AO2 CIG 014 RWY24 SLP104 T01890161 53012 $
