2026/02/04 23:53
KLAX 042353Z 26009KT 10SM FEW250 27/01 A3003 RMK AO2 SLP170 T02720011 10306 20239 55010 $
