2025/06/24 07:53
KLAX 240753Z 23005KT 10SM OVC015 17/14 A2995 RMK AO2 SLP139 T01720139 402330167
