2023/01/31 17:53
KLAX 311753Z 13003KT 9SM FEW190 14/03 A3013 RMK AO2 SLP201 T01390033 10139 20061 52020 $
