2025/10/23 13:53
KLAX 231353Z 05004KT 10SM FEW010 SCT014 15/13 A3005 RMK AO2 SLP174 T01500128
