2024/02/04 05:53
KLAX 040553Z VRB03KT 10SM -RA FEW029 SCT049 OVC065 12/08 A3005 RMK AO2 SLP173 P0004 60004 T01220083 10133 20122 51016 $
