2022/11/26 07:53
KLAX 260753Z 10006KT 10SM CLR 15/01 A3017 RMK AO2 SLP213 T01500011 402440089 $
