2023/11/14 17:53
KLAX 141753Z VRB04KT 10SM FEW180 SCT250 22/02 A3003 RMK AO2 SLP167 T02220017 10222 20106 50005
