2026/04/09 09:53
KLAX 090953Z 05004KT 10SM FEW011 SCT250 17/14 A2991 RMK AO2 SLP127 T01670144 $
