2023/10/18 01:53
KLAX 180153Z 26007KT 10SM FEW009 19/17 A2985 RMK AO2 SLP108 T01890172
