2025/09/21 05:53
KLAX 210553Z 24006KT 9SM BKN007 19/18 A2993 RMK AO2 SLP132 T01940178 10206 20194 51004
