2026/01/20 17:53
KLAX 201753Z 02004KT 10SM FEW014 SCT160 BKN250 21/03 A3011 RMK AO2 SLP194 T02060028 10206 20111 51016 $
