2026/05/16 09:53
KLAX 160953Z 26004KT 9SM FEW010 OVC022 16/13 A2992 RMK AO2 SLP130 T01610133
