2025/11/01 15:53
KLAX 011553Z 13004KT 1 3/4SM BR OVC004 16/15 A3007 RMK AO2 SLP182 T01610150 $
