2023/02/21 05:53
KLAX 210553Z 21004KT 10SM FEW150 SCT200 BKN250 14/10 A2998 RMK AO2 SLP149 T01390100 10161 20139 58007 $
