2025/06/13 03:53
KLAX 130353Z 26007KT 10SM OVC013 18/15 A2986 RMK AO2 SLP111 T01780150
