2024/10/02 17:53
KLAX 021753Z 25006KT 7SM MIFG FEW000 FEW060 21/16 A2985 RMK AO2 SLP106 VIS S-NW 2 FG FEW000 T02060161 10211 20161 58003
