2023/03/23 07:53
KLAX 230753Z 10003KT 10SM FEW022 FEW040 BKN050 11/08 A3016 RMK AO2 SLP210 T01060083 401500089
