2022/12/01 03:53
KLAX 010353Z 15005KT 10SM BKN039 14/08 A2999 RMK AO2 SLP156 T01440078 $
