2023/09/30 11:53
KLAX 301153Z 18003KT 10SM BKN015 BKN020 OVC027 18/15 A2984 RMK AO2 RAE1057 SLP101 P0000 60000 T01780150 10189 20178 56005 $
