2024/09/26 09:53
KLAX 260953Z 20004KT 10SM FEW008 BKN010 17/15 A2983 RMK AO2 SLP101 T01670150 $
