2023/05/01 03:53
KLAX 010353Z 19003KT 10SM OVC012 15/12 A2988 RMK AO2 SLP116 T01500122
