2023/06/06 03:53
KLAX 060353Z 23007KT 10SM SCT021 OVC036 16/11 A2990 RMK AO2 CIG 021 RWY24 SLP123 T01560111
