2024/07/15 17:53
KLAX 151753Z 26007KT 8SM FEW012 SCT060 22/17 A3005 RMK AO2 SLP174 T02220167 10222 20178 58005
