2024/09/26 11:53
KLAX 261153Z 00000KT 10SM FEW008 BKN011 16/14 A2984 RMK AO2 SLP101 T01610139 10172 20161 56000 $
