2024/07/22 21:53
KLAX 222153Z 27015KT 10SM FEW070 FEW150 23/15 A2984 RMK AO2 SLP102 T02330150 $
