2023/06/23 09:53
KLAX 230953Z 20003KT 10SM FEW014 SCT250 14/12 A2998 RMK AO2 SLP152 T01440122
