2025/12/17 17:53
KLAX 171753Z 00000KT 2SM BR SCT005 OVC009 15/13 A3010 RMK AO2 SLP192 VIS 1V2 1/2 VIS S-W 1 1/2 SCT V BKN T01500128 10150 20133 51009 $
