2023/01/26 15:53
KLAX 261553Z 30003KT 10SM FEW250 11/02 A3037 RMK AO2 SLP281 T01110022
