2025/04/23 09:53
KLAX 230953Z 19004KT 10SM OVC021 14/09 A2995 RMK AO2 SLP141 T01390089
