2025/07/14 21:53
KLAX 142153Z 25013KT 10SM FEW010 21/15 A2994 RMK AO2 SLP138 T02060150
