2026/04/12 11:53
KLAX 121153Z 16005KT 10SM FEW020 FEW035 BKN065 16/12 A2992 RMK AO2 SLP130 60000 T01610117 10167 20161 56014 $
