2023/10/31 09:53
KLAX 310953Z 02003KT 10SM CLR 17/M06 A3003 RMK SLP165 T01721056 
