2025/11/15 05:53
KLAX 150553Z 18006KT 4SM -RA BR BKN005 BKN041 OVC070 17/17 A2995 RMK AO2 PK WND 09029/0518 SLP141 P0012 60061 T01720167 10183 20172 53001 $
