2022/09/23 21:53
KLAX 232153Z 26012KT 10SM FEW090 FEW300 27/15 A2989 RMK AO2 SLP119 TCU DSNT SE T02670150
