2024/01/02 23:53
KLAX 022353Z 26011KT 10SM FEW020 FEW150 SCT250 16/11 A3019 RMK AO2 SLP222 T01560106 10183 20150 55005
