2022/11/12 19:53
KLAX 121953Z 27008KT 10SM CLR 20/02 A3004 RMK AO2 SLP171 T02000022 $
