2023/11/21 05:53
KLAX 210553Z 05005KT 10SM CLR 17/02 A3020 RMK AO2 SLP223 T01670022 10206 20156 51010 $
