2023/06/30 15:53
KLAX 301553Z 24005KT 3SM BR SCT004 OVC007 17/15 A2994 RMK AO2 SLP137 T01670150 $
