2023/04/06 11:53
KLAX 061153Z 00000KT 10SM FEW250 11/02 A3006 RMK AO2 SLP177 T01110022 10144 20106 55008 $
