2025/11/16 13:53
KLAX 161353Z 09006KT 10SM BKN027 BKN037 14/13 A2996 RMK AO2 SLP144 T01390128 $
