2022/10/16 17:53
KLAX 161753Z 23008KT 10SM FEW029 SCT038 21/15 A3003 RMK AO2 SLP169 T02060150 10211 20172 51014 $
