2025/10/24 05:53
KLAX 240553Z 20003KT 10SM FEW008 SCT011 18/16 A3000 RMK AO2 SLP157 T01780156 10194 20172 53001
