2023/07/10 15:53
KLAX 101553Z 00000KT 10SM FEW009 20/15 A2995 RMK AO2 SLP141 T02000150
