2024/02/03 07:53
KLAX 030753Z 35004KT 10SM FEW026 SCT170 12/07 A3001 RMK AO2 SLP159 T01170072 401560100 $
