2026/05/04 15:53
KLAX 041553Z 24010KT 10SM FEW025 SCT070 BKN160 BKN250 16/09 A2999 RMK AO2 SLP152 T01610094
