2025/01/30 19:53
KLAX 301953Z VRB06KT 9SM SCT027 OVC037 14/07 A3028 RMK AO2 SLP251 T01390072 $
