2024/04/24 21:53
KLAX 242153Z 24014G20KT 10SM FEW030 FEW050 SCT180 SCT250 17/10 A3006 RMK AO2 SLP178 T01670100
