2023/09/10 23:53
KLAX 102353Z 25016KT 10SM FEW095 FEW150 24/17 A2988 RMK AO2 SLP118 T02390167 10300 20239 56009
