2023/11/26 19:53
KLAX 261953Z 03008KT 10SM FEW120 SCT160 BKN200 BKN280 21/M04 A3005 RMK AO2 SLP175 T02061039 $
