2025/09/04 23:53
KLAX 042353Z 23016KT 10SM FEW010 FEW110 23/18 A2979 RMK AO2 SLP086 T02330183 10244 20233 56024 $
