2022/09/03 11:53
KLAX 031153Z 31004KT 10SM SCT070 24/18 A2979 RMK AO2 SLP086 T02390183 10250 20228 58006
