2025/02/11 01:53
KLAX 110153Z 23008KT 10SM FEW035 FEW250 13/08 A3001 RMK AO2 SLP161 T01330083
