2026/01/04 03:53
KLAX 040353Z 08004KT 5SM BR BKN005 OVC010 15/14 A2999 RMK AO2 RAE0255 SLP156 P0000 T01500144 $
