2023/10/12 05:53
KLAX 120553Z 08006KT 10SM CLR 17/14 A2967 RMK AO2 SLP044 T01720139 10211 20172 53005
