2024/08/13 19:53
KLAX 131953Z 26010KT 10SM CLR 24/18 A2994 RMK AO2 SLP138 T02440178
