2023/10/11 19:53
KLAX 111953Z 26012KT 10SM FEW010 FEW020 22/15 A2970 RMK AO2 SLP055 T02170150
