2025/04/10 15:53
KLAX 101553Z 00000KT 9SM FEW002 FEW220 SCT280 18/13 A3015 RMK AO2 SLP208 T01830128
