2023/01/20 01:53
KLAX 200153Z 28004KT 10SM FEW018 FEW250 12/09 A3006 RMK AO2 SLP179 T01220089
