2026/03/27 21:53
KLAX 272153Z 25010KT 7SM FEW160 SCT250 BKN300 20/14 A2993 RMK AO2 SLP134 T02000144
