2024/06/13 09:53
KLAX 130953Z 27003KT 10SM OVC008 16/13 A2993 RMK AO2 SLP135 T01560133
