2024/02/10 01:53
KLAX 100153Z 27014KT 10SM FEW020 SCT065 SCT280 12/06 A2999 RMK AO2 SLP157 T01220061 $
