2025/09/09 05:53
KLAX 090553Z 15003KT 10SM FEW008 21/17 A2995 RMK AO2 SLP140 T02110172 10239 20206 50001 $
