2025/02/18 09:53
KLAX 180953Z 09005KT 7SM FEW006 BKN015 BKN250 12/11 A2999 RMK AO2 SLP154 T01220111 $
