2023/10/26 11:53
KLAX 261153Z 28004KT 10SM FEW014 FEW022 BKN048 17/15 A3000 RMK AO2 SLP155 T01720150 10178 20172 55002 $
