2025/01/27 07:53
KLAX 270753Z 11005KT 3SM RA BKN017 BKN020 OVC040 09/07 A3007 RMK AO2 SLP180 VIS NW 2 1/2 P0020 T00940072 401440094 $
