2024/05/30 11:53
KLAX 301153Z 13005KT 8SM OVC011 15/12 A2995 RMK AO2 SLP139 T01500122 10156 20144 56008 $
