2025/12/07 07:53
KLAX 070753Z 04003KT 10SM CLR 14/10 A3009 RMK AO2 SLP186 T01390100 402060083 $
