2024/02/24 15:53
KLAX 241553Z 32005KT 10SM BKN150 OVC200 16/12 A3005 RMK AO2 SLP173 T01560117
