2025/04/04 23:53
KLAX 042353Z 24014G22KT 10SM FEW027 SCT120 17/06 A3005 RMK AO2 SLP177 T01720061 10178 20161 56010
