2022/12/05 07:53
KLAX 050753Z 25007KT 8SM FEW004 FEW006 BKN009 15/14 A3007 RMK AO2 SLP179 SHRA N T01500139 401780122 $
