2022/08/25 19:53
KLAX 251953Z 25009KT 10SM FEW045 FEW140 26/19 A2997 RMK AO2 SLP146 T02610194 $
