2024/06/22 19:53
KLAX 221953Z 26010KT 10SM FEW008 22/16 A2983 RMK AO2 SLP102 T02170156
