2024/10/17 16:53
KLAX 171653Z 24005KT 9SM FEW013 SCT020 OVC040 19/16 A2991 RMK AO2 CIG 012 RWY24 SLP125 T01890156
