2022/09/11 21:53
KLAX 112153Z 25014KT 10SM FEW100 FEW150 28/21 A2995 RMK AO2 SLP139 CB DSNT N T02830206 $
