2025/07/13 21:53
KLAX 132153Z 25010KT 10SM FEW007 SCT014 21/15 A2999 RMK AO2 SLP154 T02060150
