2022/10/28 15:53
KLAX 281553Z 10005KT 8SM FEW009 17/11 A3015 RMK AO2 SLP208 T01720111 VISNO RWY24 $
