2023/12/27 05:53
KLAX 270553Z 26005KT 9SM CLR 14/14 A3015 RMK AO2 SLP208 T01440139 10161 20144 53007
