2025/01/28 01:53
KLAX 280153Z 23006KT 10SM FEW070 13/06 A3009 RMK AO2 SLP188 T01280061
