2023/04/24 03:53
KLAX 240353Z 26004KT 10SM BKN009 14/12 A2984 RMK AO2 SLP101 T01440122
