2024/01/01 19:53
KLAX 011953Z 10006KT 10SM FEW120 FEW150 SCT220 18/06 A3008 RMK AO2 SLP187 T01830056
