2025/08/30 23:53
KLAX 302353Z 25010KT 10SM FEW100 26/16 A2986 RMK AO2 SLP110 T02560161 10283 20256 56017 $
