2026/04/22 07:53
KLAX 220753Z VRB04KT 10SM FEW015 FEW020 SCT050 SCT150 16/11 A3011 RMK AO2 SLP196 T01560111 402110133 $
