2025/09/22 17:53
KLAX 221753Z 23006KT 8SM FEW009 FEW050 SCT140 23/18 A2989 RMK AO2 SLP120 T02330178 10239 20183 50004 $
