2024/02/05 07:53
KLAX 050753Z 15012G20KT 3SM -RA BR FEW006 BKN008 OVC015 14/13 A2990 RMK AO2 SLP123 VIS 2 1/2V4 VIS N 2 1/2 P0005 T01390133 401440100 $
