2025/05/20 11:53
KLAX 201153Z 04003KT 10SM FEW010 FEW016 16/14 A2992 RMK AO2 SLP130 T01560139 10178 20150 56003
