2025/03/19 05:53
KLAX 190553Z 03005KT 10SM CLR 15/M01 A3028 RMK AO2 SLP251 T01501011 10161 20133 51011 $
