2026/05/24 20:14
KLAX 242014Z 24012KT 10SM SCT024 BKN036 19/12 A3003 RMK AO2 T01890117 $
