2024/09/18 21:53
KLAX 182153Z 25014KT 10SM FEW025 FEW040 21/14 A2985 RMK AO2 SLP107 T02060144 $
