2024/01/28 19:53
KLAX 281953Z 23004KT 10SM FEW200 FEW260 SCT300 25/04 A3012 RMK AO2 SLP199 T02500044
