2023/03/30 09:53
KLAX 300953Z 08007KT 3SM BR SCT016 SCT024 OVC032 08/07 A2989 RMK AO2 RAE34 SLP119 P0005 T00830072
