2024/02/10 21:53
KLAX 102153Z 14005KT 10SM FEW065 FEW080 17/01 A3003 RMK AO2 SLP168 T01720011 $
