2024/02/21 01:53
KLAX 210153Z 12008KT 10SM FEW038 OVC050 14/12 A3010 RMK AO2 SLP190 T01440122 $
