2024/05/10 17:53
KLAX 101753Z 26005KT 9SM OVC015 16/12 A2999 RMK AO2 SLP154 T01610122 10167 20150 51002 $
