2024/06/07 16:53
KLAX 071653Z 14005KT 7SM FEW005 OVC010 17/15 A2993 RMK AO2 SLP132 VIS SW-W 2 1/2 T01720150 $
