2024/10/23 09:53
KLAX 230953Z 00000KT 10SM CLR 16/12 A3001 RMK AO2 SLP159 T01610122
