2023/04/30 13:53
KLAX 301353Z 26003KT 2SM BR OVC005 14/13 A2992 RMK AO2 SLP132 VIS SW-NW 1 1/2 T01390128
