2023/09/20 21:53
KLAX 202153Z 26011KT 10SM FEW017 FEW050 22/14 A2987 RMK AO2 SLP113 T02170144
