2024/07/13 19:53
KLAX 131953Z 28009KT 10SM SCT020 SCT160 23/17 A2996 RMK AO2 SLP145 T02330172 $
