2024/07/22 01:53
KLAX 220153Z 24009KT 10SM FEW050 FEW150 21/15 A2985 RMK AO2 SLP108 T02110150 $
