2023/03/27 19:53
KLAX 271953Z VRB05KT 10SM FEW100 FEW160 SCT250 22/M02 A3014 RMK AO2 SLP206 T02171017 $
