2024/11/27 23:53
KLAX 272353Z 27011KT 1/4SM R25L/2200VP6000FT FG VV002 14/13 A2999 RMK AO2 SLP155 T01440133 10183 20144 56001 $
