2022/12/13 05:53
KLAX 130553Z 36006KT 10SM FEW046 FEW060 11/05 A2997 RMK AO2 SLP149 T01060050 10139 20106 51014
