2024/09/22 01:53
KLAX 220153Z 27011KT 10SM FEW012 FEW027 18/15 A2990 RMK AO2 SLP123 T01830150 $
