2022/12/31 05:53
KLAX 310553Z 12003KT 4SM BR BKN006 OVC011 14/13 A3011 RMK AO2 RAB0456E47 SLP195 P0003 60003 T01390133 10156 20139 50004
