2025/06/26 21:53
KLAX 262153Z 25012KT 10SM SCT013 22/15 A2992 RMK AO2 SLP131 T02170150
