2024/04/23 05:53
KLAX 230553Z VRB05KT 10SM FEW006 BKN011 OVC014 15/12 A2994 RMK AO2 SLP138 T01500122 10150 20144 51013
