2025/03/03 07:53
KLAX 030753Z 35004KT 10SM FEW055 FEW200 12/06 A3003 RMK AO2 SLP166 T01170056 401720117 $
