2024/03/19 01:53
KLAX 190153Z 33005KT 10SM FEW060 FEW150 SCT250 17/09 A3005 RMK AO2 SLP174 T01720094
