2023/05/29 19:53
KLAX 291953Z 25006KT 10SM FEW009 BKN018 OVC021 17/14 A3002 RMK AO2 SLP163 T01670139 $
