2023/12/29 13:53
KLAX 291353Z VRB03KT 7SM FEW003 FEW008 SCT200 BKN250 13/10 A3011 RMK AO2 SLP196 T01280100 $
