2025/11/27 21:53
KLAX 272153Z 28009KT 10SM FEW140 SCT180 BKN250 22/10 A3001 RMK AO2 SLP160 T02170100 $
