2024/05/07 17:53
KLAX 071753Z 26009KT 10SM FEW016 FEW300 19/11 A2994 RMK AO2 SLP138 T01940106 10194 20117 51001 $
