2026/01/16 09:53
KLAX 160953Z 09004KT 10SM CLR 13/06 A2998 RMK AO2 SLP147 T01330061 $
