2024/02/26 09:53
KLAX 260953Z 04003KT 10SM FEW008 FEW012 SCT160 SCT220 12/11 A3004 RMK AO2 SLP171 T01220111 $
