2026/02/10 09:53
KLAX 100953Z 07003KT 10SM FEW008 FEW014 OVC200 16/14 A2991 RMK AO2 SLP127 T01560139 $
