2025/11/08 13:53
KLAX 081353Z 03003KT 3SM BR OVC004 16/15 A2990 RMK AO2 SLP123 T01560150 $
