2024/01/27 03:53
KLAX 270353Z 26004KT 10SM FEW140 FEW180 SCT280 16/11 A3022 RMK AO2 SLP231 T01560111 $
