2025/04/02 23:53
KLAX 022353Z 26028KT 10SM FEW100 15/07 A2981 RMK AO2 PK WND 26039/2304 SLP094 T01500072 10172 20150 56004
