2024/12/25 17:53
KLAX 251753Z 13004KT 9SM FEW032 FEW120 SCT160 BKN200 14/09 A3012 RMK AO2 SLP198 T01440094 10156 20106 51020
