2023/02/13 21:53
KLAX 132153Z 22006KT 10SM SCT028 BKN030 16/09 A2993 RMK AO2 SLP135 T01610089 $
