2026/03/24 13:53
KLAX 241353Z 00000KT 6SM BR OVC010 17/14 A2998 RMK AO2 SLP150 T01670144
