2022/09/30 17:53
KLAX 301753Z 07004KT 8SM SCT010 SCT020 23/16 A2991 RMK AO2 SLP125 T02330161 10233 20200 50002
