2024/02/01 21:53
KLAX 012153Z 06006KT 10SM FEW007 BKN013 13/11 A2973 RMK AO2 SLP065 T01330106 $
