2022/11/09 21:53
KLAX 092153Z 24011KT 10SM FEW014 FEW060 16/08 A3007 RMK AO2 SLP181 T01610083
