2025/06/16 21:53
KLAX 162153Z 26011KT 10SM CLR 23/14 A2989 RMK AO2 SLP121 T02330144 $
