2024/02/11 11:53
KLAX 111153Z 06005KT 10SM CLR 08/01 A3015 RMK AO2 SLP208 T00830006 10122 20067 51001 $
