2024/07/06 03:53
KLAX 060353Z 23006KT 10SM FEW010 20/17 A2977 RMK AO2 SLP078 T02000172
