2023/10/22 09:53
KLAX 220953Z 00000KT 10SM CLR 16/14 A2983 RMK AO2 SLP097 T01560144 $
