2023/12/26 11:53
KLAX 261153Z 07003KT 9SM FEW007 FEW012 SCT180 12/11 A3014 RMK AO2 SLP203 T01170106 10150 20111 58006
