2024/03/23 19:53
KLAX 231953Z 26020KT 10SM SCT020 BKN028 BKN220 16/11 A2989 RMK AO2 PK WND 26026/1926 WSHFT 1840 SLP122 T01610106 $
