2026/06/18 14:53
KLAX 181453Z 25005KT 10SM FEW008 SCT018 OVC024 17/14 A2997 RMK AO2 SLP147 T01720144 53015 $
