2025/12/30 17:53
KLAX 301753Z 03006KT 10SM -RA SCT075 OVC110 18/03 A3016 RMK AO2 RAB46 SLP213 P0000 60000 T01780028 10194 20161 51025 $
