2022/11/05 19:53
KLAX 051953Z 24007KT 10SM SCT300 19/09 A3003 RMK AO2 SLP167 T01890089
