2024/02/21 09:53
KLAX 210953Z 06004KT 6SM BR FEW005 BKN009 BKN028 13/13 A3005 RMK AO2 SLP173 T01330128 $
