2022/10/16 15:53
KLAX 161553Z 25007KT 10SM FEW011 FEW023 SCT034 19/16 A3002 RMK AO2 SLP162 T01890161 $
