2024/11/01 21:53
KLAX 012153Z 26011G19KT 10SM SCT026 BKN140 18/12 A2990 RMK AO2 SLP125 T01830122 $
