2025/04/10 19:53
KLAX 101953Z 25011KT 10SM FEW000 SCT230 SCT280 21/12 A3014 RMK AO2 SLP205 VIS W 1 3/4 FG FEW000 T02110122
