2023/10/02 19:53
KLAX 021953Z 25012KT 10SM FEW019 FEW035 21/11 A3000 RMK AO2 SLP156 T02060111 $
