2022/09/04 01:53
KLAX 040153Z 24006KT 9SM FEW120 FEW170 SCT250 24/19 A2981 RMK AO2 SLP091 T02440189
