2024/04/12 15:53
KLAX 121553Z 00000KT 5SM BR FEW009 OVC013 13/11 A2988 RMK AO2 SLP116 T01330106
