2026/06/30 14:53
KLAX 301453Z 26009KT 10SM FEW014 SCT022 SCT038 18/14 A2995 RMK AO2 SLP138 T01830139 51014 $
