2025/02/06 07:53
KLAX 060753Z 12003KT 3SM BR FEW005 BKN027 OVC035 15/14 A3003 RMK AO2 RAB0659E15 SLP167 P0000 T01500144 401720117 $
