2025/05/18 07:53
KLAX 180753Z 10005KT 10SM SCT014 BKN025 15/12 A2995 RMK AO2 SLP139 T01500122 401720150
