2025/11/03 15:53
KLAX 031553Z 01003KT 3SM BR FEW002 SCT006 OVC011 17/14 A3009 RMK AO2 SLP187 VIS 2V3 T01670144 $
