2023/05/17 05:53
KLAX 170553Z 25006KT 1/2SM R25L/P6000FT FG OVC003 14/13 A3000 RMK AO2 SLP157 T01390133 10167 20139 51014
