2022/12/19 09:53
KLAX 190953Z VRB04KT 10SM FEW008 FEW250 09/03 A3014 RMK AO2 SLP205 FU FEW008 T00890028 $
