2025/08/08 19:53
KLAX 081953Z 25010KT 10SM FEW025 23/17 A2993 RMK AO2 SLP133 T02330172 $
