2026/03/04 23:53
KLAX 042353Z 25011KT 10SM FEW013 SCT250 16/12 A2996 RMK AO2 SLP145 T01610122 10183 20150 56018
