2026/04/22 17:53
KLAX 221753Z 26011KT 10SM FEW018 FEW025 SCT140 SCT250 19/09 A3016 RMK AO2 SLP213 T01890094 10189 20128 51007 $
