2025/08/13 07:53
KLAX 130753Z 31003KT 10SM FEW008 OVC010 19/16 A2993 RMK AO2 SLP131 T01940161 402440183
