2023/11/22 19:53
KLAX 221953Z VRB03KT 10SM FEW160 SCT250 27/M03 A3007 RMK AO2 SLP182 T02671033
