2025/05/10 11:53
KLAX 101153Z 00000KT 10SM CLR 16/14 A2989 RMK AO2 SLP118 T01610144 10200 20161 58014
