2026/05/06 09:53
KLAX 060953Z 08004KT 10SM FEW020 14/11 A3004 RMK AO2 SLP171 T01440111
