2023/04/25 13:53
KLAX 251353Z 26004KT 7SM FEW009 OVC019 16/12 A2988 RMK AO2 SLP119 T01560122 $
