2025/10/11 19:53
KLAX 111953Z 24010KT 10SM FEW010 23/14 A2980 RMK AO2 SLP088 T02280144 $
