2023/11/11 15:53
KLAX 111553Z 07003KT 10SM CLR 16/M03 A3008 RMK AO2 SLP185 T01561028
