2024/03/25 00:10
KLAX 250010Z 29013G22KT 10SM FEW037 SCT055 BKN070 13/10 A2978 RMK AO2 RAE02 TSE05 P0000 T01330100 $
