2025/08/04 12:53
KLAX 041253Z 08004KT 6SM BR FEW008 SCT012 SCT250 17/15 A2993 RMK AO2 SLP133 T01720150 $
