2022/12/24 01:53
KLAX 240153Z 27005KT 10SM CLR 14/12 A3014 RMK AO2 SLP206 T01440122 $
