2026/05/04 04:53
KLAX 040453Z 23006KT 10SM FEW020 BKN055 16/09 A2997 RMK AO2 SLP148 T01560094
