2023/01/16 17:53
KLAX 161753Z 27020KT 9SM FEW022 BKN034 14/11 A2978 RMK AO2 PK WND 26030/1705 SLP083 60022 T01390106 10139 20106 53027 $
