2026/05/25 10:53
KLAX 251053Z 00000KT 10SM FEW015 15/12 A2996 RMK AO2 SLP144 T01500117 $
