2025/05/01 13:53
KLAX 011353Z 18005KT 8SM FEW011 BKN016 OVC021 15/12 A2996 RMK AO2 SLP146 T01500117
