2025/08/20 21:53
KLAX 202153Z 25011KT 10SM FEW200 FEW250 26/16 A2990 RMK AO2 SLP124 T02560161
