2025/04/03 01:53
KLAX 030153Z 25020G27KT 10SM FEW080 13/08 A2981 RMK AO2 PK WND 26032/0104 SLP094 T01280078
