2024/07/06 07:53
KLAX 060753Z 10004KT 10SM CLR 20/18 A2980 RMK AO2 SLP089 T02000178 402280172
