2025/08/03 05:53
KLAX 030553Z 24004KT 7SM FEW008 17/15 A3003 RMK AO2 SLP168 T01670150 10217 20167 50005 $
