2025/04/18 14:11
KLAX 181411Z 27010KT 7SM OVC029 13/08 A2999 RMK AO2 T01330078 $
