2022/12/14 17:53
KLAX 141753Z 00000KT 10SM FEW300 13/04 A3022 RMK AO2 SLP231 T01280039 10128 20067 51018 $
