2026/03/04 17:53
KLAX 041753Z 11006KT 4SM HZ OVC013 16/12 A3005 RMK AO2 SLP175 T01560122 10156 20122 50010
