2025/06/22 05:53
KLAX 220553Z 22005KT 10SM CLR 18/13 A2987 RMK AO2 SLP111 T01780133 10206 20178 51009
