2024/04/19 05:53
KLAX 190553Z 24006KT 10SM FEW011 13/12 A2999 RMK AO2 SLP155 T01330117 10167 20128 50010 $
