2025/05/20 17:53
KLAX 201753Z 26007KT 10SM CLR 22/14 A2994 RMK AO2 SLP137 T02220144 10233 20156 50000
