2024/03/18 03:53
KLAX 180353Z 24005KT 10SM FEW060 13/11 A3006 RMK AO2 SLP176 T01330111 $
