2023/08/16 01:53
KLAX 160153Z 23011KT 9SM FEW010 FEW100 SCT150 21/18 A2990 RMK AO2 SLP124 T02110178 $
