2025/03/25 21:53
KLAX 252153Z 26010KT 10SM OVC008 15/12 A2996 RMK AO2 SLP145 T01500117 $
