2025/03/26 13:53
KLAX 261353Z 25003KT 7SM FEW005 BKN009 OVC014 13/11 A3005 RMK AO2 SLP175 T01330111 $
