2025/08/07 23:53
KLAX 072353Z 25012KT 10SM FEW008 FEW150 SCT250 23/17 A2991 RMK AO2 SLP128 T02280167 10256 20228 56011 $
