2023/09/14 11:53
KLAX 141153Z 29005KT 10SM FEW009 SCT012 OVC020 19/16 A2994 RMK AO2 SLP134 T01940161 10194 20189 57002 $
