2025/06/15 17:53
KLAX 151753Z 23006KT 9SM FEW180 22/16 A2992 RMK AO2 SLP130 T02220156 10228 20161 56003 $
