2024/01/23 13:55
KLAX 231355Z 03003KT 1/2SM R25L/1400V2200FT FG OVC002 11/11 A2985 RMK AO2 T01110111
