2024/04/26 03:53
KLAX 260353Z 27006KT 10SM FEW016 OVC050 14/11 A3003 RMK AO2 SLP168 T01440106
