2024/05/13 21:53
KLAX 132153Z 24010G16KT 10SM FEW022 BKN200 18/12 A2995 RMK AO2 SLP139 T01780122
