2025/08/17 13:53
KLAX 171353Z 11004KT 10SM BKN018 OVC021 20/16 A3000 RMK AO2 SLP156 T02000156 $
