2025/10/09 15:53
KLAX 091553Z 00000KT 10SM FEW075 SCT160 SCT200 18/13 A2993 RMK AO2 SLP134 T01830128 $
