2025/09/25 17:53
KLAX 251753Z 27003KT 5SM BR OVC006 19/18 A3002 RMK AO2 SLP163 T01940178 10194 20183 51007 $
