2025/04/27 01:53
KLAX 270153Z 24006KT 10SM BKN026 BKN034 BKN070 14/08 A2996 RMK AO2 SLP145 T01440078 $
