2023/07/12 01:53
KLAX 120153Z 26008KT 10SM FEW009 19/15 A2994 RMK AO2 SLP139 T01940150 $
