2024/09/20 01:53
KLAX 200153Z 26012KT 10SM BKN013 19/15 A2986 RMK AO2 SLP108 T01890150 $
