2026/06/08 04:53
KLAX 080453Z 26006KT 10SM FEW015 FEW250 17/13 A2985 RMK AO2 SLP107 T01670128 $
