2023/08/18 03:53
KLAX 180353Z 24007KT 10SM FEW007 18/17 A2984 RMK AO2 SLP104 T01830167 $
