2022/12/12 09:53
KLAX 120953Z 08004KT 10SM FEW018 SCT044 SCT055 08/04 A2990 RMK AO2 RAB43E52 SLP123 P0000 T00830044 $
