2023/01/09 17:53
KLAX 091753Z 10011KT 2SM -RA BR BKN012 OVC019 12/10 A3016 RMK AO2 SLP210 VIS SW-NW 1 3/4 P0002 60011 T01170100 10139 20117 50006
