2024/01/23 05:53
KLAX 230553Z 33005KT 7SM FEW006 BKN010 OVC028 14/13 A2982 RMK AO2 VIS 2 RWY24 SLP098 60019 T01390133 10139 20133 51012
