2023/02/02 23:53
KLAX 022353Z 25008KT 10SM FEW200 SCT250 16/05 A3027 RMK AO2 SLP249 T01610050 10194 20144 55008 $
