2024/04/20 19:53
KLAX 201953Z 25008KT 10SM SCT025 18/12 A3003 RMK AO2 SLP168 T01780122 $
