2022/12/30 05:53
KLAX 300553Z 09004KT 10SM OVC029 14/11 A3006 RMK AO2 SLP178 60000 T01440111 10144 20139 51013 $
