2025/02/10 02:03
KLAX 100203Z 25014KT 10SM FEW150 FEW250 14/09 A3002 RMK AO2 T01440089 CHINO RWY24 $
