2023/12/26 19:53
KLAX 261953Z VRB03KT 10SM FEW040 SCT120 BKN160 OVC250 18/09 A3014 RMK AO2 SLP206 T01780094
