2024/09/21 11:53
KLAX 211153Z 09004KT 10SM SCT016 OVC020 18/14 A2989 RMK AO2 SLP120 T01780144 10178 20167 50000
