2023/04/08 15:53
KLAX 081553Z 18004KT 10SM BKN012 BKN250 14/11 A3008 RMK AO2 SLP186 T01390111
