2024/12/29 00:07
KLAX 290007Z 26006KT 10SM BKN011 OVC250 14/11 A3009 RMK AO2 T01390111
