2022/10/26 11:53
KLAX 261153Z 05003KT 10SM FEW009 FEW250 15/09 A2997 RMK AO2 SLP148 FU FEW009 T01500094 10178 20144 57004
