2024/04/29 03:53
KLAX 290353Z 24006KT 10SM CLR 16/11 A2994 RMK AO2 SLP138 T01560111
