2024/01/21 23:53
KLAX 212353Z 26009KT 10SM FEW055 SCT200 BKN250 16/13 A2990 RMK AO2 SLP124 60004 T01610128 10178 20144 53006 $
