2024/04/28 15:53
KLAX 281553Z 11005KT 10SM FEW015 17/11 A3003 RMK AO2 SLP167 T01670111
