2025/04/04 09:53
KLAX 040953Z 00000KT 10SM FEW012 11/09 A3002 RMK AO2 SLP164 T01060089
