2025/04/27 15:53
KLAX 271553Z 26006KT 10SM FEW028 FEW033 SCT055 SCT130 BKN240 14/07 A3007 RMK AO2 SLP182 T01390072 $
