2023/04/08 19:53
KLAX 081953Z 26010KT 10SM FEW015 FEW250 17/12 A3008 RMK AO2 SLP187 T01670117
