2026/03/03 13:53
KLAX 031353Z 06004KT 10SM SCT014 BKN020 14/11 A3001 RMK AO2 SLP161 T01390111
