2024/11/22 23:53
KLAX 222353Z 26012KT 10SM FEW011 FEW270 16/11 A3001 RMK AO2 SLP160 T01560111 10211 20156 55000
