2023/08/21 15:53
KLAX 211553Z 09009KT 10SM FEW014 BKN021 OVC032 19/17 A3003 RMK AO2 SLP168 T01890172
