2025/10/01 19:53
KLAX 011953Z 23010KT 10SM FEW010 FEW025 23/15 A3001 RMK AO2 SLP162 T02330150 $
