2025/01/14 05:53
KLAX 140553Z 00000KT 10SM CLR 13/M07 A3028 RMK AO2 SLP252 T01281067 10172 20128 51017
