2024/05/16 01:53
KLAX 160153Z 26006KT 10SM FEW013 SCT150 16/12 A2991 RMK AO2 SLP127 T01560117
