2025/09/14 23:53
KLAX 142353Z 26013KT 10SM FEW012 22/17 A2981 RMK AO2 SLP094 T02220172 10239 20211 56014 $
