2024/02/07 09:53
KLAX 070953Z 07005KT 9SM FEW008 BKN025 BKN042 09/09 A2980 RMK AO2 SLP090 T00940089
