2023/07/24 19:53
KLAX 241953Z 26011KT 7SM SCT005 SCT090 BKN250 23/18 A3000 RMK AO2 SLP156 SCT005 V BKN T02280183
