2023/09/20 07:53
KLAX 200753Z 00000KT 10SM FEW009 BKN016 19/16 A2990 RMK AO2 SLP123 T01890156 402390161
