2024/07/28 05:53
KLAX 280553Z 21003KT 10SM CLR 18/14 A2988 RMK AO2 SLP117 T01780139 10206 20178 52014
