2026/06/25 19:53
KLAX 251953Z 25009KT 10SM FEW009 FEW029 22/14 A2995 RMK AO2 SLP140 T02170139
