2025/07/24 13:53
KLAX 241353Z 17003KT 10SM SCT008 BKN012 17/16 A3008 RMK AO2 SLP183 T01720156 $
