2024/02/18 17:53
KLAX 181753Z 10004KT 10SM FEW019 BKN030 BKN044 15/12 A3010 RMK AO2 SLP193 T01500117 10150 20128 51010
