2022/12/14 03:53
KLAX 140353Z 33003KT 10SM CLR 12/06 A3012 RMK AO2 SLP199 T01170056 $
