2025/05/24 19:53
KLAX 241953Z 24009KT 10SM FEW022 BKN036 BKN050 19/13 A3002 RMK AO2 SLP162 T01940128
