2023/09/04 03:53
KLAX 040353Z 25013KT 10SM FEW060 20/16 A2996 RMK AO2 SLP141 T02000156 $
