2023/06/23 03:53
KLAX 230353Z 24011KT 10SM FEW020 16/12 A2997 RMK AO2 SLP148 T01560122
