2022/10/23 17:53
KLAX 231753Z VRB04KT 10SM FEW024 SCT055 21/10 A2986 RMK AO2 SLP110 T02060100 10211 20150 50014
