2025/03/11 09:53
KLAX 110953Z 09007KT 10SM -RA FEW011 SCT070 BKN100 OVC170 13/11 A2986 RMK AO2 RAB23 SLP110 P0001 T01280111
