2025/02/01 15:53
KLAX 011553Z 00000KT 7SM SCT250 11/08 A3016 RMK AO2 SLP214 T01110078
