2024/04/10 17:53
KLAX 101753Z VRB03KT 10SM CLR 23/05 A3008 RMK AO2 SLP185 T02280050 10228 20122 53006 $
