2024/07/05 03:53
KLAX 050353Z 25008KT 10SM SCT008 17/15 A2991 RMK AO2 SLP127 T01720150
