2022/08/25 04:21
KLAX 250421Z 00000KT 10SM BKN014 22/19 A2989 RMK AO2 T02220189 $
