2023/05/24 11:53
KLAX 241153Z 00000KT 4SM -DZ BR FEW007 BKN009 OVC011 14/13 A2993 RMK AO2 DZB44 SLP134 P0000 60000 T01390128 10156 20139 53001 $
