2025/10/08 23:53
KLAX 082353Z 25012KT 10SM FEW020 20/14 A2987 RMK AO2 SLP115 T02000144 10217 20194 55007 $
