2023/01/04 23:53
KLAX 042353Z 13011KT 6SM -RA BR BKN009 OVC016 16/14 A3004 RMK AO2 RAB07 SLP172 P0001 60027 T01560144 10161 20150 55009 $
