2025/03/15 23:53
KLAX 152353Z 25009KT 10SM FEW060 SCT250 15/05 A3007 RMK AO2 SLP182 T01500050 10161 20139 55010 $
