2023/04/05 19:53
KLAX 051953Z 24011KT 10SM FEW050 FEW080 17/04 A3012 RMK AO2 SLP200 T01670039 $
