2026/04/18 07:53
KLAX 180753Z 08006KT 10SM CLR 16/11 A2997 RMK AO2 SLP146 T01610111 402280133
