2024/05/02 07:53
KLAX 020753Z VRB03KT 10SM FEW010 15/12 A2988 RMK AO2 SLP115 T01500122 402000144 $
