2023/09/23 13:53
KLAX 231353Z 00000KT 7SM FEW015 SCT200 17/15 A3000 RMK AO2 SLP159 T01670150 $
