2025/09/30 17:53
KLAX 301753Z 25008KT 8SM FEW015 SCT025 BKN050 22/14 A3005 RMK AO2 SLP174 T02170139 10217 20183 51015 $
