2025/04/30 01:53
KLAX 300153Z 27011KT 10SM OVC009 15/12 A3000 RMK AO2 SLP157 T01500122 $
