2024/10/23 03:53
KLAX 230353Z 19004KT 10SM CLR 19/13 A2999 RMK AO2 SLP153 T01890128
