2024/02/02 05:53
KLAX 020553Z 29007KT 10SM BKN060 BKN095 13/09 A2981 RMK AO2 RAE00 SLP094 P0000 60009 T01280089 10150 20117 51011 $
