2025/01/29 21:53
KLAX 292153Z 27009KT 10SM FEW009 FEW040 SCT140 16/07 A3010 RMK AO2 SLP263 T01560067 $
