2025/05/07 03:53
KLAX 070353Z 26007KT 10SM BKN019 OVC043 15/12 A3001 RMK AO2 SLP161 T01500117 $
