2026/01/06 03:53
KLAX 060353Z 00000KT 10SM SCT018 SCT250 14/12 A3008 RMK AO2 SLP185 T01440117 $
