2026/05/07 22:11
KLAX 072211Z 25012KT 10SM FEW009 FEW110 20/14 A2996 RMK AO2 T02000139
