2023/10/20 09:53
KLAX 200953Z 18003KT 8SM FEW003 FEW006 SCT200 18/17 A2991 RMK AO2 SLP126 T01780172 $
