2025/05/06 07:53
KLAX 060753Z 00000KT 10SM FEW011 SCT025 BKN036 15/12 A2993 RMK AO2 SLP132 T01500117 401830144 $
