2023/07/13 21:53
KLAX 132153Z 26012KT 10SM FEW010 FEW250 23/16 A2994 RMK AO2 SLP136 T02330156 $
