2025/12/03 07:53
KLAX 030753Z 04005KT 10SM FEW018 BKN250 13/12 A2997 RMK AO2 SLP147 T01330117 401890089 $
