2025/09/24 21:53
KLAX 242153Z 26014KT 10SM FEW010 FEW100 SCT150 24/18 A2994 RMK AO2 SLP135 T02390183 $
