2026/06/19 21:53
KLAX 192153Z 26016KT 10SM FEW006 FEW014 SCT029 20/14 A3001 RMK AO2 SLP159 T02000139 
