2024/12/31 05:53
KLAX 310553Z 32003KT 10SM FEW009 13/11 A3004 RMK AO2 SLP170 T01280111 10133 20117 53004
