2025/07/31 09:53
KLAX 310953Z 00000KT 10SM FEW014 18/16 A2996 RMK AO2 SLP142 T01780156 $
