2024/12/15 02:53
KLAX 150253Z 26009KT 10SM FEW015 FEW036 SCT060 13/11 A3018 RMK AO2 SLP220 T01330111 51006
