2023/05/30 17:53
KLAX 301753Z 25010KT 10SM FEW022 SCT035 BKN043 17/12 A2999 RMK AO2 SLP155 T01720117 10178 20156 51004 $
