2023/10/24 09:53
KLAX 240953Z 00000KT 10SM FEW011 FEW020 SCT200 16/14 A2979 RMK AO2 SLP085 T01610139 $
