2024/05/31 13:53
KLAX 311353Z 01005KT 4SM BR SCT009 OVC012 16/13 A2992 RMK AO2 SLP130 T01560133
