2025/02/12 19:53
KLAX 121953Z 09010KT 2 1/2SM BR SCT005 BKN010 OVC016 12/11 A2996 RMK AO2 RAE08B23E38 SLP143 P0002 T01170111 $
