2022/10/19 17:53
KLAX 191753Z VRB04KT 10SM FEW080 FEW120 SCT160 32/09 A3001 RMK AO2 SLP159 T03220094 10322 20183 50005 $
