2022/11/25 17:53
KLAX 251753Z 05004KT 10SM FEW120 SCT160 BKN250 22/M06 A3027 RMK AO2 SLP251 T02171061 10217 20100 58001 $
