2023/04/13 17:53
KLAX 131753Z 23008KT 7SM SCT015 BKN024 OVC035 13/10 A2984 RMK AO2 SLP103 T01330100 10139 20117 51010 $
