2023/06/19 19:53
KLAX 191953Z 25008KT 10SM FEW009 FEW020 BKN035 20/14 A2997 RMK AO2 SLP148 T02000144
