2025/06/29 09:53
KLAX 290953Z 26005KT 8SM OVC006 16/14 A2997 RMK AO2 SLP146 T01610144 $
