2024/07/02 07:53
KLAX 020753Z 00000KT 10SM FEW006 OVC008 17/16 A2985 RMK AO2 SLP104 T01720156 402330161
