2025/12/14 11:53
KLAX 141153Z 00000KT 5SM BR OVC007 14/13 A3004 RMK AO2 SLP173 T01440133 10150 20144 56001 $
