2025/12/16 01:53
KLAX 160153Z 18003KT 9SM FEW008 FEW250 16/14 A3007 RMK AO2 SLP181 T01610139
