2025/09/03 06:53
KLAX 030653Z 18007KT 10SM CLR 22/19 A2992 RMK SLP130 T02170189 
