2022/12/10 19:53
KLAX 101953Z VRB05KT 10SM BKN028 BKN040 17/11 A3012 RMK AO2 SLP198 T01720106 $
