2022/11/25 01:53
KLAX 250153Z 25010KT 10SM CLR 19/02 A3017 RMK AO2 SLP215 T01940022 $
