2026/05/11 16:53
KLAX 111653Z 25009KT 4SM HZ FEW003 BKN006 17/14 A2997 RMK AO2 SLP147 VIS S-SW 1 3/4 T01720139
