2025/09/22 19:53
KLAX 221953Z 23007KT 200V260 9SM FEW009 FEW050 SCT150 24/18 A2986 RMK AO2 SLP109 T02440178 $
