2024/09/16 09:53
KLAX 160953Z 26006KT 10SM BKN021 OVC030 18/15 A2984 RMK AO2 SLP103 T01830150 $
