2025/08/29 21:53
KLAX 292153Z 25010KT 10SM FEW100 28/15 A2995 RMK AO2 SLP142 T02780150 $
