2025/04/07 11:53
KLAX 071153Z 26004KT 10SM FEW250 12/10 A3008 RMK AO2 SLP186 T01170100 10144 20111 55008 $
