2024/10/20 01:53
KLAX 200153Z 27008KT 10SM CLR 21/05 A3002 RMK AO2 SLP166 T02110050
