2025/08/03 11:53
KLAX 031153Z 08003KT 8SM OVC010 18/16 A3003 RMK AO2 SLP166 T01780156 10178 20167 55000 $
