2025/06/22 03:53
KLAX 220353Z 24005KT 10SM CLR 18/13 A2985 RMK AO2 SLP106 T01830128
