2026/06/22 16:59
KLAX 221659Z 30003KT 10SM FEW009 SCT020 21/14 A2994 RMK AO2 T02060139 $
