2025/04/26 21:53
KLAX 262153Z 22008G20KT 10SM SCT045 BKN070 17/07 A2996 RMK AO2 SLP146 T01670067 $
