2023/01/02 09:53
KLAX 020953Z 30010KT 10SM FEW220 BKN280 13/02 A2988 RMK AO2 SLP116 T01280017
