2026/07/07 02:53
KLAX 070253Z 24008KT 10SM CLR 20/15 A2990 RMK AO2 SLP122 T02000150 55005
