2024/10/28 15:53
KLAX 281553Z 00000KT 7SM BKN014 18/15 A2996 RMK AO2 SLP142 T01830150
