2024/09/02 05:53
KLAX 020553Z 05004KT 10SM FEW009 21/18 A2991 RMK AO2 SLP125 T02060178 10222 20200 51014 $
