2026/07/17 21:53
KLAX 172153Z 27009KT 10SM FEW013 FEW110 SCT160 27/18 A2994 RMK AO2 SLP135 T02720178 $
