2026/03/15 07:53
KLAX 150753Z 12006KT 4SM BR BKN008 16/14 A2997 RMK AO2 SLP145 T01560139 402610133 $
