2026/05/20 12:53
KLAX 201253Z 07004KT 10SM FEW050 17/09 A2991 RMK AO2 SLP125 FU FEW050 T01670094 $
