2023/02/22 05:53
KLAX 220553Z 26036G42KT 10SM FEW031 FEW038 11/04 A2964 RMK AO2 PK WND 27047/0523 SLP034 60000 T01110039 10144 20111 56019 $
