2023/04/29 02:14
KLAX 290214Z 25009KT 9SM OVC006 14/12 A2998 RMK AO2 VIS W 1 T01390117
