2023/03/26 19:53
KLAX 261953Z 26017KT 10SM FEW060 SCT220 SCT280 17/03 A3011 RMK AO2 SLP197 T01720028 $
