2023/08/26 15:53
KLAX 261553Z 26006KT 9SM SCT005 19/17 A2996 RMK AO2 SLP143 SCT V BKN T01940172
