2022/11/09 03:53
KLAX 090353Z VRB03KT 10SM BKN025 OVC030 13/11 A2986 RMK AO2 RAE0254 SLP111 P0000 T01330106
