2025/06/03 11:53
KLAX 031153Z 29007KT 5SM -DZ FEW004 BKN008 OVC015 16/14 A2998 RMK AO2 DZB02 SLP150 P0000 60000 T01560144 10161 20156 56008 $
