2024/10/09 21:53
KLAX 092153Z 27011KT 7SM SCT008 19/15 A2992 RMK AO2 SLP130 T01890150 $
