2022/12/29 19:53
KLAX 291953Z 16006KT 8SM FEW025 OVC055 16/10 A3001 RMK AO2 CIG 047 RWY24 SLP161 T01560100 $
