2024/04/15 09:53
KLAX 150953Z 00000KT 10SM FEW009 FEW013 SCT150 10/08 A3007 RMK AO2 SLP180 T01000083 $
