2025/04/18 01:53
KLAX 180153Z 26007KT 10SM FEW024 OVC055 15/10 A2996 RMK AO2 SLP145 T01500100 $
