2025/08/08 11:53
KLAX 081153Z 25004KT 10SM FEW008 FEW050 18/17 A2987 RMK AO2 SLP113 FU FEW050 T01830167 10206 20183 52001 $
