2025/04/28 09:53
KLAX 280953Z 25004KT 10SM FEW014 FEW024 SCT055 SCT160 13/10 A3007 RMK AO2 SLP180 T01280100 $
