2025/09/15 21:53
KLAX 152153Z 25010KT 4SM HZ FEW007 FEW011 23/18 A2987 RMK AO2 SLP113 T02330178
