2023/11/07 15:53
KLAX 071553Z 13003KT 10SM FEW010 BKN025 18/14 A3001 RMK AO2 SLP161 T01780139
