2025/07/17 21:53
KLAX 172153Z 25013KT 10SM FEW090 FEW150 22/16 A2992 RMK AO2 SLP131 T02220156 $
