2025/12/01 23:53
KLAX 012353Z 26009KT 9SM FEW250 17/13 A3000 RMK AO2 SLP157 T01720128 10200 20167 56005 $
