2023/12/13 01:53
KLAX 130153Z 26005KT 10SM CLR 14/12 A2990 RMK AO2 SLP122 T01440117
