2024/06/28 13:53
KLAX 281353Z VRB04KT 9SM FEW010 BKN018 19/16 A2982 RMK AO2 SLP096 T01890156
