2025/08/16 07:53
KLAX 160753Z 14005KT 10SM OVC018 21/16 A2998 RMK AO2 SLP150 T02060161 402440189 $
