2023/09/02 19:53
KLAX 021953Z 14009KT 10SM SCT014 BKN026 OVC033 23/20 A3003 RMK AO2 SLP168 T02280200 $
