2024/05/30 07:53
KLAX 300753Z 33004KT 10SM BKN011 15/12 A2999 RMK AO2 SLP152 T01500122 401940144 $
