2024/10/30 21:53
KLAX 302153Z 26010KT 10SM FEW150 21/09 A3009 RMK AO2 SLP188 T02110094 $
