2026/03/30 19:53
KLAX 301953Z 27009KT 10SM FEW018 BKN160 OVC250 21/14 A3001 RMK AO2 SLP163 T02060139
