2023/06/30 23:53
KLAX 302353Z 24012KT 10SM SCT010 18/14 A2984 RMK AO2 SLP104 T01830144 10206 20183 56015 $
