2026/02/16 19:53
KLAX 161953Z 23014KT 2 1/2SM RA BR SCT007 BKN036 OVC055 13/12 A2980 RMK AO2 SLP089 VIS 1/2V3 P0046 T01280117 $
