2025/12/02 19:53
KLAX 021953Z 24005KT 10SM FEW011 SCT160 SCT250 18/09 A3003 RMK AO2 SLP168 T01830094 $
