2022/10/31 13:53
KLAX 311353Z 08005KT 10SM FEW004 FEW140 BKN220 14/09 A2991 RMK AO2 SLP127 T01390094 VISNO RWY24 $
