2024/05/06 07:53
KLAX 060753Z 09007KT 10SM CLR 13/08 A3002 RMK AO2 SLP163 T01330083 401891083 $
