2023/01/01 07:53
KLAX 010753Z 23019G27KT 5SM BR OVC010 14/13 A2973 RMK AO2 PK WND 22027/0735 RAE41 SLP065 P0013 T01440133 401560139
