2025/01/15 17:53
KLAX 151753Z 10005KT 10SM CLR 16/M03 A3023 RMK AO2 SLP237 T01611028 10161 20067 53005
