2022/09/14 21:53
KLAX 142153Z 22012KT 10SM FEW015 FEW030 25/17 A2988 RMK AO2 SLP115 T02500172 $
