2022/12/01 21:53
KLAX 012153Z 26008KT 9SM FEW010 BKN030 BKN047 15/08 A3002 RMK AO2 SLP165 T01500078 $
