2022/12/15 09:53
KLAX 150953Z 07003KT 10SM FEW220 BKN280 10/05 A3015 RMK AO2 SLP207 T01000050
