2024/11/18 11:53
KLAX 181153Z 00000KT 10SM FEW160 10/06 A2999 RMK AO2 SLP153 T01000061 10128 20094 53013 $
