2024/02/10 17:53
KLAX 101753Z 36009G17KT 10SM FEW085 15/M01 A3005 RMK AO2 SLP174 T01501006 10156 20100 53010 $
