2024/10/03 00:11
KLAX 030011Z 26009KT 4SM BR OVC005 18/16 A2974 RMK AO2 VIS W 1/4 T01830161
