2025/11/22 05:53
KLAX 220553Z 00000KT 10SM SCT033 SCT120 16/09 A2999 RMK AO2 SLP154 T01610089 10178 20156 50009 $
