2026/06/24 02:53
KLAX 240253Z 26011KT 10SM FEW100 FEW150 19/15 A2999 RMK AO2 SLP154 T01890150 53005 $
