2026/05/31 04:53
KLAX 310453Z 19003KT 10SM CLR 17/14 A2994 RMK AO2 SLP138 T01720139 $
