2024/08/13 07:53
KLAX 130753Z VRB04KT 10SM FEW012 19/16 A2991 RMK AO2 SLP126 T01940156 402440189
