2025/03/09 11:53
KLAX 091153Z 08003KT 9SM CLR 09/07 A3022 RMK AO2 SLP231 T00890072 10122 20083 56020
