2025/02/12 13:53
KLAX 121353Z 27010KT 10SM FEW008 SCT017 BKN036 OVC140 11/08 A2992 RMK AO2 RAE49 SLP131 P0001 T01060083 $
