2023/02/15 11:53
KLAX 151153Z 33007KT 10SM FEW090 09/M04 A3001 RMK AO2 SLP161 T00891039 10106 20083 53009 $
