2023/06/01 15:53
KLAX 011553Z 24007KT 10SM SCT018 BKN023 OVC033 16/13 A2993 RMK AO2 SLP133 T01610128
