2024/10/06 09:53
KLAX 060953Z 27003KT 3/4SM R25L/4000VP6000FT BR OVC002 17/16 A2995 RMK AO2 SLP140 VIS SW-W 1/4 T01670161
