2025/12/23 21:53
KLAX 232153Z 10012G21KT 8SM SCT018 OVC080 17/14 A2995 RMK AO2 RAE20 SLP139 P0001 T01670139 $
