2023/11/13 13:53
KLAX 131353Z 10004KT 10SM FEW008 SCT200 BKN250 12/02 A3001 RMK AO2 SLP162 T01220022
