2024/08/19 21:53
KLAX 192153Z 26012KT 10SM CLR 26/18 A2995 RMK AO2 SLP141 T02560178
