2025/05/07 21:53
KLAX 072153Z 26020KT 10SM FEW017 20/11 A3002 RMK AO2 PK WND 27026/2129 SLP165 T02000111 $
