2023/05/25 03:53
KLAX 250353Z 25006KT 10SM OVC027 16/12 A2990 RMK AO2 CIG 020 RWY24 SLP125 T01610122 $
