2025/06/01 11:53
KLAX 011153Z 28005KT 6SM BR FEW002 BKN008 17/15 A2992 RMK AO2 SLP128 T01670150 10172 20161 55004 $
