2023/09/27 19:53
KLAX 271953Z 26009KT 8SM FEW005 FEW220 BKN280 21/17 A2989 RMK AO2 SLP122 VIRGA OHD T02060172 $
