2023/11/05 09:53
KLAX 050953Z 00000KT 1/4SM R25L/P6000FT FG SCT000 14/14 A2997 RMK AO2 SLP148 FG SCT000 VIS E-SW 6 T01390139
