2025/09/19 01:53
KLAX 190153Z 25006KT 10SM FEW100 BKN150 23/17 A2981 RMK AO2 SLP093 T02280167
