2024/09/30 13:53
KLAX 301353Z 00000KT 1SM R25L/P6000FT BR BKN003 OVC005 16/14 A2988 RMK AO2 SLP115 VIS W-N 3/4 T01560144 $
