2025/01/01 07:53
KLAX 010753Z 31003KT 3SM BR FEW004 BKN006 12/10 A3008 RMK AO2 SLP183 VIS S-NW 2 1/2 T01170100 401610094 $
