2024/06/18 11:53
KLAX 181153Z 08004KT 10SM FEW011 OVC015 17/14 A2973 RMK AO2 SLP066 T01720139 10183 20172 53005
