2025/12/16 09:53
KLAX 160953Z 10004KT 6SM BR FEW003 12/12 A3007 RMK AO2 SLP180 T01220117
