2026/04/15 11:53
KLAX 151153Z 08003KT 10SM FEW008 FEW010 SCT250 13/12 A3001 RMK AO2 SLP160 FU FEW010 T01330117 10161 20128 56006
