2022/10/15 07:53
KLAX 150753Z 25007KT 9SM SCT006 BKN019 OVC027 18/17 A2986 RMK AO2 SLP110 T01780167 402060178 $
