2025/01/14 19:53
KLAX 141953Z 27009KT 10SM CLR 18/M02 A3028 RMK AO2 SLP253 T01781017
