2023/12/23 15:53
KLAX 231553Z 09005KT 10SM BKN010 BKN013 BKN019 13/11 A3001 RMK AO2 SLP162 T01280111 $
