2025/07/10 21:53
KLAX 102153Z 24010KT 10SM FEW009 23/15 A2991 RMK AO2 SLP126 FG BNK SW-NW T02280150 $
