2025/02/09 11:53
KLAX 091153Z 00000KT 10SM SCT250 10/08 A3003 RMK AO2 SLP167 T01000078 10128 20100 58008 $
