2024/05/14 03:53
KLAX 140353Z 26005KT 10SM OVC013 14/12 A2994 RMK AO2 SLP138 T01440117
