2025/04/20 19:53
KLAX 201953Z 26011KT 9SM FEW010 SCT190 17/11 A3008 RMK AO2 SLP186 T01670106 $
