2026/01/04 17:53
KLAX 041753Z 13006KT 6SM BR FEW007 BKN026 OVC033 15/14 A3006 RMK AO2 RAE21 SLP179 P0002 60006 T01500139 10150 20133 53014
