2025/03/17 09:53
KLAX 170953Z 00000KT 9SM FEW008 BKN170 BKN250 11/10 A3010 RMK AO2 SLP190 T01110100 $
