2024/11/06 11:53
KLAX 061153Z 06004KT 10SM FEW006 SCT150 BKN250 13/12 A2982 RMK AO2 SLP097 T01330122 10156 20133 58000 $
