2025/02/25 11:53
KLAX 251153Z 08005KT 10SM FEW002 FEW008 11/11 A3000 RMK AO2 SLP156 T01110106 10156 20111 58013 $
