2023/09/22 05:53
KLAX 220553Z 25005KT 10SM CLR 18/13 A2997 RMK AO2 SLP146 T01780133 10206 20178 51009
