2023/06/30 11:53
KLAX 301153Z 00000KT 1/4SM R25L/P6000FT FG VV002 15/15 A2991 RMK AO2 SLP126 T01500150 10156 20139 $
