2024/06/06 01:53
KLAX 060153Z 25009KT 10SM OVC008 17/15 A2987 RMK AO2 SLP113 T01720150
