2024/03/04 21:53
KLAX 042153Z 24011KT 10SM FEW025 SCT043 BKN270 15/09 A3007 RMK AO2 SLP183 T01500089
