2023/06/02 05:53
KLAX 020553Z 26007KT 10SM FEW011 FEW022 OVC040 16/13 A2996 RMK AO2 SLP145 T01610128 10178 20161 50001
