2024/02/19 15:53
KLAX 191553Z VRB06G15KT 5SM -RA BR SCT009 BKN017 OVC021 14/13 A3006 RMK AO2 RAE1458B15 PRESRR SLP178 P0002 T01440133 $
