2025/03/22 19:53
KLAX 221953Z 23009KT 7SM VCFG FEW000 FEW200 SCT300 17/12 A2998 RMK AO2 SLP151 VIS SW-W 1 3/4 FG FEW000 FG BANK ALG SHORE S-W-NW T01670117 $
