2023/02/19 03:53
KLAX 190353Z 25006KT 10SM SCT200 12/07 A3000 RMK AO2 SLP158 T01220067 $
