2024/12/04 05:53
KLAX 040553Z 00000KT 7SM FEW007 FEW150 13/12 A3016 RMK AO2 SLP210 T01330122 10144 20133 51010
