2024/09/05 03:53
KLAX 050353Z 25007KT 10SM CLR 25/16 A2986 RMK AO2 SLP110 T02500161
