2026/02/07 02:53
KLAX 070253Z 24008KT 10SM FEW011 FEW130 SCT220 SCT270 16/12 A3014 RMK AO2 SLP204 T01610122 53016 $
