2025/11/21 21:53
KLAX 212153Z 13010KT 10SM FEW019 FEW038 SCT100 SCT140 BKN180 19/09 A2992 RMK AO2 SLP130 T01890094 $
