2023/06/26 19:53
KLAX 261953Z 24010KT 10SM FEW010 19/13 A2996 RMK AO2 SLP144 T01940133
