2024/12/24 05:53
KLAX 240553Z VRB04KT 2 1/2SM BR FEW005 13/12 A3012 RMK AO2 VIS 1/4 RWY24 SLP199 VIS N-NE 1 W 1/2 NW-N 1 T01280117 10139 20122 52003
