2025/09/12 13:53
KLAX 121353Z 08005KT 8SM FEW009 SCT012 OVC021 19/16 A2994 RMK AO2 SLP136 T01940161 $
