2024/03/02 01:53
KLAX 020153Z 21009KT 10SM SCT017 BKN024 OVC050 14/11 A3009 RMK AO2 SLP187 T01440111 $
