2025/04/28 17:53
KLAX 281753Z 24008KT 7SM FEW017 SCT022 BKN037 16/10 A3009 RMK AO2 SLP189 T01560100 10161 20106 51005 $
