2024/10/03 23:53
KLAX 032353Z 27008KT 6SM BR BKN006 BKN120 19/17 A2976 RMK AO2 SLP075 VIS SW-W 1/2 T01890167 10256 20189 56006
