2024/06/20 03:53
KLAX 200353Z 24009KT 10SM SCT010 17/14 A2984 RMK AO2 SLP102 T01720144 $
