2024/08/16 09:53
KLAX 160953Z 10003KT 10SM FEW011 20/18 A2985 RMK AO2 SLP105 T02000183 $
