2026/02/05 23:53
KLAX 052353Z 25007KT 10SM FEW150 BKN200 BKN250 25/06 A3000 RMK AO2 SLP159 T02500056 10283 20239 55004
