2022/09/30 07:53
KLAX 300753Z 23004KT 10SM FEW010 19/17 A2991 RMK AO2 SLP126 T01940172 402440194
