2025/06/01 03:53
KLAX 010353Z 10003KT 5SM BR FEW005 BKN080 BKN250 17/16 A2992 RMK AO2 SLP130 T01720156 $
