2022/09/07 02:53
KLAX 070253Z 26006KT 10SM FEW150 24/22 A2985 RMK AO2 SLP105 FU FEW150 T02440217 53012 $
