2025/12/23 17:53
KLAX 231753Z 12007G15KT 4SM BR FEW009 OVC013 16/13 A3001 RMK AO2 SLP162 T01560133 10156 20150 53027 $
