2025/05/30 15:53
KLAX 301553Z 20004KT 7SM BKN014 BKN160 19/15 A3000 RMK AO2 SLP158 T01940150
