2024/05/27 19:53
KLAX 271953Z 25009KT 9SM FEW010 SCT020 18/12 A3005 RMK AO2 SLP175 T01830122
