2022/09/06 21:53
KLAX 062153Z 24009KT 10SM FEW100 SCT150 30/19 A2981 RMK AO2 SLP093 FU SCT150 T03000189 $
