2022/12/02 01:53
KLAX 020153Z 20006KT 10SM FEW030 SCT036 BKN150 14/07 A3003 RMK AO2 SLP169 T01390072 $
