2026/01/08 03:53
KLAX 080353Z 36008G17KT 10SM CLR 16/03 A2994 RMK AO2 SLP139 T01560033 $
