2023/10/22 23:53
KLAX 222353Z 23009KT 10SM BKN013 19/16 A2977 RMK AO2 SLP081 T01940161 10228 20194 56008 $
