2023/09/13 11:53
KLAX 131153Z 10004KT 10SM FEW010 OVC014 20/17 A2993 RMK AO2 SLP133 T02000167 10200 20189 58002 $
