2022/12/04 21:53
KLAX 042153Z 26003KT 10SM FEW008 SCT018 OVC024 17/13 A3009 RMK AO2 RAE09 SLP188 P0000 T01670133 $
