2025/01/24 09:53
KLAX 240953Z 01009KT 10SM CLR 15/M04 A3016 RMK AO2 SLP209 T01501044
