2023/05/18 09:53
KLAX 180953Z 00000KT 6SM BR FEW007 OVC010 15/13 A2985 RMK AO2 SLP105 T01500128
