2024/09/02 09:53
KLAX 020953Z 13003KT 8SM BKN008 20/18 A2989 RMK AO2 SLP117 T02000183 $
