2023/02/02 11:53
KLAX 021153Z VRB04KT 10SM BCFG FEW000 FEW280 07/M01 A3024 RMK AO2 SLP239 FG FEW000 FG BANK W T00721006 10117 20072 50004 $
