2025/09/27 11:53
KLAX 271153Z 16004KT 10SM FEW010 OVC016 19/17 A2987 RMK AO2 SLP111 T01890172 10206 20189 58003 $
