2025/01/24 01:53
KLAX 240153Z 25005KT 10SM CLR 22/02 A3021 RMK AO2 SLP229 T02220022
