2025/09/25 04:00
KLAX 250400Z 22006KT 10SM FEW007 20/18 A2995 RMK AO2 T02000183 $
