2025/06/14 15:53
KLAX 141553Z 11005KT 7SM OVC014 19/15 A2995 RMK AO2 SLP140 T01890150 $
