2026/02/01 02:53
KLAX 010253Z 26006KT 10SM CLR 19/08 A3004 RMK AO2 SLP170 T01890083 55000 $
