2023/11/28 01:53
KLAX 280153Z 27008KT 10SM FEW150 SCT250 17/07 A3007 RMK AO2 SLP183 T01670067 $
