2023/08/12 21:53
KLAX 122153Z 26011KT 10SM FEW010 SCT100 23/18 A2999 RMK AO2 SLP153 T02280178 $
