2023/09/25 15:53
KLAX 251553Z VRB04KT 7SM SCT009 OVC015 18/15 A3007 RMK AO2 SLP181 T01830150
