2025/07/14 15:53
KLAX 141553Z VRB03KT 6SM HZ OVC011 18/15 A2999 RMK AO2 SLP155 T01830150
