2024/05/04 21:53
KLAX 042153Z 27014G19KT 10SM SCT013 BKN035 OVC041 17/12 A2992 RMK AO2 SLP132 T01670122
