2024/11/09 15:53
KLAX 091553Z 08005KT 10SM CLR 14/M01 A3002 RMK AO2 SLP165 T01391006
