2023/03/24 19:53
KLAX 241953Z 26018KT 10SM FEW006 FEW070 16/07 A3024 RMK AO2 SLP238 T01610072
