2025/03/31 21:53
KLAX 312153Z 24007KT 10SM BKN019 BKN034 BKN042 17/14 A3004 RMK AO2 SLP171 T01720139
