2022/10/15 05:53
KLAX 150553Z 21004KT 8SM FEW008 BKN011 OVC018 18/17 A2988 RMK AO2 SLP115 T01830167 10189 20183 52010 $
