2025/01/30 13:53
KLAX 301353Z 07005KT 8SM FEW008 SCT024 OVC030 11/08 A3022 RMK AO2 T01060083 $
