2025/08/15 09:53
KLAX 150953Z 14007KT 10SM OVC015 19/16 A2989 RMK AO2 SLP117 T01940161 $
