2023/09/28 05:53
KLAX 280553Z 22003KT 10SM FEW008 18/18 A2987 RMK AO2 SLP113 T01830178 10228 20183 53008 $
