2026/01/04 11:53
KLAX 041153Z 00000KT 9SM FEW005 SCT017 SCT075 14/13 A3000 RMK AO2 SLP159 70023 T01390128 10150 20133 58008
