2023/04/09 17:53
KLAX 091753Z 26005KT 6SM HZ FEW005 FEW011 16/12 A3015 RMK AO2 SLP207 T01560117 10156 20117 51008
