2023/11/05 03:53
KLAX 050353Z 27008KT 10SM BKN007 17/16 A3001 RMK AO2 SLP159 T01670161
