2026/04/30 11:53
KLAX 301153Z 26004KT 10SM FEW008 FEW012 BKN016 16/13 A2992 RMK AO2 SLP130 T01560128 10161 20156 56015
