2024/08/04 17:53
KLAX 041753Z 27008KT 9SM FEW009 FEW190 21/17 A2990 RMK AO2 SLP125 T02110167 10217 20167 50003 $
