2023/12/24 17:53
KLAX 241753Z VRB04KT 10SM SCT049 17/11 A3018 RMK AO2 SLP220 T01670106 10167 20122 51011
