2023/03/26 01:53
KLAX 260153Z 27013KT 10SM FEW040 16/06 A3002 RMK AO2 SLP165 T01560061 $
