2026/03/06 07:53
KLAX 060753Z 36007KT 290V040 10SM CLR 17/M03 A2995 RMK AO2 SLP141 T01721033 402440106
