2025/10/16 19:53
KLAX 161953Z 26008KT 10SM CLR 22/07 A2992 RMK AO2 SLP129 T02220072 $
