2022/09/08 03:53
KLAX 080353Z 24005KT 10SM FEW150 24/18 A2989 RMK AO2 SLP119 T02390183 $
