2023/11/14 15:53
KLAX 141553Z 00000KT 10SM FEW009 FEW180 SCT250 17/02 A3003 RMK AO2 SLP166 T01670022
