2023/02/24 21:53
KLAX 242153Z 15017G29KT 3SM -RA BR BKN011 BKN018 OVC034 12/11 A2994 RMK AO2 PK WND 14029/2147 SLP137 VIS E-SE 2 1/2 P0011 T01170106 $
