2024/12/01 05:53
KLAX 010553Z 26005KT 10SM FEW120 SCT220 16/09 A3009 RMK AO2 SLP186 T01610089 10194 20161 53014 $
