2026/01/17 05:53
KLAX 170553Z 00000KT 10SM BKN280 16/08 A3001 RMK AO2 SLP159 T01610083 10211 20161 53012
