2024/04/18 17:53
KLAX 181753Z 14004KT 6SM HZ FEW009 SCT140 OVC180 18/12 A2999 RMK AO2 SLP154 T01780122 10178 20117 55002 $
