2026/01/25 19:53
KLAX 251953Z 21003KT 10SM FEW220 OVC300 18/03 A3017 RMK AO2 SLP215 T01830028 $
