2025/10/23 21:53
KLAX 232153Z 26010KT 10SM CLR 21/13 A3001 RMK AO2 SLP161 T02110133
