2025/04/14 07:53
KLAX 140753Z 00000KT 8SM OVC009 14/12 A2998 RMK AO2 SLP150 T01390117 401830128 $
