2023/12/05 07:53
KLAX 050753Z 29003KT 10SM FEW014 FEW200 SCT250 16/13 A3010 RMK AO2 SLP192 T01560128 402220106
