2022/10/05 17:53
KLAX 051753Z 25009KT 6SM HZ SCT009 SCT014 23/18 A3000 RMK AO2 SLP155 SCT014 V BKN T02280178 10228 20194 50009
