2022/11/23 03:53
KLAX 230353Z 22005KT 10SM CLR 16/11 A3005 RMK AO2 SLP174 T01560106 $
