2024/03/07 05:53
KLAX 070553Z 05006KT 10SM FEW044 SCT055 11/10 A2982 RMK AO2 SLP097 60052 T01110100 10128 20111 50001
