2023/01/03 13:53
KLAX 031353Z 08010KT 10SM FEW008 BKN020 OVC040 11/08 A3001 RMK AO2 RAB1255E14 SLP161 P0000 T01060083
