2022/12/28 05:53
KLAX 280553Z 03006KT 6SM RA OVC024 13/12 A2994 RMK AO2 SLP136 P0002 60025 T01280117 10150 20128 51003
