2024/10/12 05:53
KLAX 120553Z 24006KT 10SM BKN006 17/16 A3004 RMK AO2 SLP172 T01720161 10189 20167 53006 $
