2025/03/20 23:53
KLAX 202353Z 24012KT 10SM FEW250 16/06 A3004 RMK AO2 SLP173 T01610061 10194 20161 56016 $
