2023/04/30 23:59
KLAX 302359Z 27012KT 10SM OVC009 16/12 A2988 RMK AO2 T01560122
