2025/04/09 21:53
KLAX 092153Z 27010KT 10SM CLR 21/12 A3006 RMK AO2 SLP179 T02060122 $
