2022/10/21 23:53
KLAX 212353Z 26009KT 10SM BKN010 BKN070 19/17 A2984 RMK AO2 SLP104 T01940172 10244 20194 56012
