2022/08/29 09:53
KLAX 290953Z 24005KT 10SM FEW011 SCT100 19/16 A2987 RMK AO2 SLP112 T01890156 $
