2025/12/01 01:53
KLAX 010153Z 24007KT 10SM FEW020 FEW080 BKN250 15/11 A2996 RMK AO2 SLP146 T01500111 $
