2026/01/23 01:53
KLAX 230153Z 23005KT 10SM FEW015 SCT150 BKN220 15/13 A2997 RMK AO2 SLP149 T01500128 $
