2024/12/06 17:53
KLAX 061753Z 25006KT 1/2SM R25L/P6000FT FG SCT000 BKN001 12/11 A3012 RMK AO2 SLP200 VIS E 1 1/2 FG SCT000 T01170106 10117 20089 51014
