2025/07/07 01:53
KLAX 070153Z 25012KT 10SM FEW012 19/16 A2991 RMK AO2 SLP126 T01940156
