2024/05/15 17:53
KLAX 151753Z 28007KT 10SM OVC018 16/12 A2994 RMK AO2 SLP138 T01560117 10156 20144 50005
