2023/02/09 15:53
KLAX 091553Z 11004KT 10SM CLR 13/04 A3020 RMK AO2 SLP226 T01280044 $
