2023/07/25 19:53
KLAX 251953Z 26009KT 8SM FEW009 FEW070 SCT180 SCT250 24/18 A2997 RMK AO2 SLP146 T02390178 $
