2022/11/21 11:53
KLAX 211153Z VRB03KT 10SM FEW250 13/M09 A3010 RMK AO2 SLP192 T01331089 10178 20128 58005 $
