2022/11/23 07:53
KLAX 230753Z 08005KT 10SM CLR 13/07 A3007 RMK AO2 SLP179 T01280067 402330106 $
