2023/12/07 21:53
KLAX 072153Z 25007KT 10SM FEW009 FEW035 SCT150 17/11 A3003 RMK AO2 SLP167 T01720111
