2026/06/12 10:53
KLAX 121053Z 25005KT 9SM OVC006 18/17 A2987 RMK AO2 SLP110 T01830167
