2023/10/10 21:53
KLAX 102153Z 22010KT 10SM FEW015 FEW025 21/16 A2975 RMK AO2 SLP074 T02110156 $
