2026/02/16 07:53
KLAX 160753Z 09007KT 10SM FEW018 BKN050 BKN120 OVC250 13/10 A2991 RMK AO2 SLP128 T01330100 401720111
