2025/04/07 01:53
KLAX 070153Z 25010KT 10SM FEW250 16/08 A3012 RMK AO2 SLP197 T01560078 $
