2025/02/11 09:53
KLAX 110953Z 12007KT 10SM FEW020 SCT034 BKN250 11/05 A2998 RMK AO2 SLP151 T01110050 $
