2025/09/10 13:53
KLAX 101353Z 00000KT 10SM FEW014 SCT025 BKN038 19/16 A2988 RMK AO2 SLP116 T01940161 $
