2026/05/15 11:53
KLAX 151153Z VRB03KT 10SM FEW009 OVC015 17/13 A2996 RMK AO2 SLP141 T01670128 10167 20156 58008
