2023/02/13 07:53
KLAX 130753Z 09008KT 10SM FEW020 FEW250 09/07 A2988 RMK AO2 SLP118 T00940067 401500072 $
