2024/02/09 11:53
KLAX 091153Z 10005KT 10SM -RA FEW011 BKN022 BKN042 09/08 A3004 RMK AO2 RAB31 SLP172 P0001 60001 70001 T00940083 10122 20089 58008 $
