2024/10/09 13:53
KLAX 091353Z 34003KT 2SM BR FEW002 OVC007 17/16 A2993 RMK AO2 SLP134 VIS 1 1/2V2 1/2 VIS W-N 1 T01670156 $
