2024/01/20 17:53
KLAX 201753Z 11005KT 1 1/2SM -RA BR BKN012 BKN018 OVC023 14/13 A2996 RMK AO2 RAB02 SLP143 P0002 60002 T01390128 10139 20128 53011 $
