2025/01/10 23:53
KLAX 102353Z 18004KT 10SM FEW028 FEW047 SCT070 18/03 A3023 RMK AO2 SLP236 FU FEW028 FU FEW047 FU SCT070 T01830028 10211 20183 56012
