2024/01/03 17:53
KLAX 031753Z 31009KT 9SM FEW009 FEW030 SCT075 BKN160 14/09 A3010 RMK AO2 SLP192 60020 T01440094 10144 20111 53003
