2025/05/10 05:53
KLAX 100553Z 12005KT 10SM CLR 19/13 A2993 RMK AO2 SLP134 T01890128 10217 20183 51016
