2024/08/13 05:53
KLAX 130553Z 25004KT 10SM FEW012 19/16 A2991 RMK AO2 SLP126 T01940161 10228 20194 51010
