2025/12/02 07:53
KLAX 020753Z 07003KT 10SM FEW003 14/07 A3005 RMK AO2 SLP173 T01390067 402000117 $
