2024/05/11 23:53
KLAX 112353Z 26011KT 10SM OVC010 15/12 A2990 RMK AO2 SLP123 T01500117 10172 20150 56016 $
