2025/01/27 15:53
KLAX 271553Z 02005KT 10SM FEW016 FEW050 BKN140 BKN180 10/07 A3011 RMK AO2 SLP194 T01000067 $
