2022/12/07 17:53
KLAX 071753Z 00000KT 10SM FEW014 FEW027 SCT050 14/08 A3022 RMK AO2 SLP232 T01440083 10144 20072 51019 $
