2025/03/04 21:53
KLAX 042153Z 24013KT 10SM FEW160 FEW220 16/09 A3011 RMK AO2 SLP195 T01610089 $
