2022/09/04 19:53
KLAX 041953Z 27011KT 10SM FEW120 SCT180 BKN240 32/16 A2980 RMK AO2 SLP088 TCU DSNT E T03220161
