2024/02/08 21:53
KLAX 082153Z 27018KT 10SM FEW010 SCT040 SCT050 14/07 A3001 RMK AO2 SLP162 T01390072 $
