2024/07/17 21:53
KLAX 172153Z 25011KT 10SM FEW011 FEW050 SCT150 23/17 A2994 RMK AO2 SLP136 T02330172
