2025/05/07 15:53
KLAX 071553Z 26009KT 8SM FEW010 OVC028 16/12 A3006 RMK AO2 SLP177 T01610122 $
