2025/05/22 05:53
KLAX 220553Z 25004KT 10SM FEW003 18/14 A2991 RMK AO2 SLP127 T01780139 10206 20178 50007 $
