2025/05/05 19:53
KLAX 051953Z 23009KT 9SM FEW013 OVC022 17/11 A2985 RMK AO2 SLP105 T01670106
