2022/12/04 03:53
KLAX 040353Z 24008KT 10SM FEW012 SCT048 16/14 A3009 RMK AO2 SLP188 T01560144
