2025/04/11 07:53
KLAX 110753Z 19003KT 10SM FEW250 15/13 A3005 RMK AO2 SLP174 T01500128 402170139
