2026/04/20 02:53
KLAX 200253Z 26011KT 10SM FEW015 FEW250 17/14 A2990 RMK AO2 SLP123 T01720139 53003
