2023/12/13 17:53
KLAX 131753Z VRB03KT 7SM CLR 16/10 A3006 RMK AO2 SLP177 T01610100 10161 20122 51013
