2025/10/22 21:53
KLAX 222153Z 25011KT 10SM FEW010 FEW040 20/13 A3001 RMK AO2 SLP162 T02000133
