2022/09/05 17:53
KLAX 051753Z VRB04KT 10SM FEW050 FEW150 32/21 A2979 RMK AO2 SLP083 T03220206 10322 20244 57002 $
