2025/07/19 09:53
KLAX 190953Z 25003KT 10SM BKN011 18/16 A3000 RMK AO2 SLP155 T01830161 $
