2023/01/01 23:53
KLAX 012353Z 25008KT 10SM FEW046 FEW070 SCT090 14/09 A2975 RMK AO2 WSHFT 2248 RAB2257E44 SLP075 P0010 60010 T01390094 10161 20133 53005
