2023/03/13 05:53
KLAX 130553Z 27004KT 3SM BR VV003 13/12 A3016 RMK AO2 DZE42 SLP211 VIS S-NW 2 P0000 60000 T01280122 10139 20128 51015 $
