2022/12/30 11:53
KLAX 301153Z 13003KT 10SM SCT007 BKN018 OVC028 14/12 A3007 RMK AO2 SLP183 T01390117 10144 20133 50003 $
