2023/05/24 05:53
KLAX 240553Z 24005KT 10SM FEW011 OVC018 16/13 A2994 RMK AO2 SLP139 T01560128 10161 20150 50003 $
