2025/08/11 01:53
KLAX 110153Z 26011KT 10SM BKN008 19/16 A2993 RMK AO2 SLP134 T01890161 $
