2025/07/05 07:53
KLAX 050753Z 24003KT 8SM BKN009 17/16 A3005 RMK AO2 SLP172 T01720156 402330167 $
