2023/03/22 21:53
KLAX 222153Z 21010G18KT 10SM FEW029 SCT046 SCT055 15/08 A3006 RMK AO2 SLP180 SHRA NW T01500083
