2025/06/17 11:53
KLAX 171153Z 34003KT 10SM CLR 17/14 A2985 RMK AO2 SLP106 T01720144 10189 20172 55000 $
