2023/10/29 13:53
KLAX 291353Z 10004KT 10SM CLR 12/10 A3001 RMK AO2 SLP161 T01220100
