2023/04/23 15:53
KLAX 231553Z VRB05KT 10SM BKN010 17/13 A2984 RMK AO2 SLP102 T01720133
