2025/07/31 19:53
KLAX 311953Z 26008KT 10SM FEW014 22/16 A3001 RMK AO2 SLP162 T02220161 $
