2024/05/30 15:53
KLAX 301553Z 20005KT 8SM OVC016 17/13 A2998 RMK AO2 SLP151 T01720128
