2024/06/17 17:53
KLAX 171753Z 24009KT 8SM FEW022 SCT027 21/14 A2976 RMK AO2 SLP076 T02060144 10206 20172 50002
