2025/07/27 07:53
KLAX 270753Z 21004KT 10SM FEW010 17/15 A2997 RMK AO2 SLP147 T01720150 402280167
