2026/05/19 02:53
KLAX 190253Z 24007KT 9SM CLR 18/12 A2990 RMK AO2 SLP124 T01780122 53010
