2023/09/23 17:53
KLAX 231753Z 28008KT 9SM SCT021 BKN030 21/16 A3005 RMK AO2 SLP173 T02060156 10206 20167 51008 $
