2023/05/03 07:53
KLAX 030753Z VRB04KT 10SM FEW016 FEW040 SCT060 12/07 A2994 RMK AO2 SLP136 T01220072 401780117
