2024/09/29 09:53
KLAX 290953Z 26006KT 8SM OVC009 16/13 A2990 RMK AO2 SLP125 T01560133 $
