2024/03/01 09:53
KLAX 010953Z 25007KT 10SM SCT026 BKN032 OVC047 13/09 A3016 RMK AO2 RAB18E33 SLP213 P0000 T01280094 $
