2024/02/28 07:53
KLAX 280753Z 00000KT 10SM FEW016 13/12 A3001 RMK AO2 SLP162 T01330117 401670117 $
