2024/12/27 19:53
KLAX 271953Z 11008KT 2SM BR OVC004 14/13 A3009 RMK AO2 RAB1859E53 SLP260 VIS 1V2 1/2 P0000 T01390133 $
