2025/06/17 05:53
KLAX 170553Z 19004KT 10SM CLR 19/13 A2986 RMK AO2 SLP108 T01890133 10228 20183 50005 $
