2024/09/06 03:53
KLAX 060353Z 26003KT 10SM FEW100 23/18 A2981 RMK AO2 SLP090 T02330183 $
