2023/12/07 12:53
KLAX 071253Z 09004KT 7SM FEW008 FEW014 12/12 A3005 RMK AO2 SLP173 T01170117
