2025/11/04 03:53
KLAX 040353Z 23006KT 8SM FEW010 BKN200 16/14 A3003 RMK AO2 SLP169 T01610139 $
