2024/06/20 17:53
KLAX 201753Z 25006KT 6SM HZ FEW009 SCT018 20/15 A2984 RMK AO2 SLP104 T02000150 10206 20156 51006 $
