2025/01/19 21:53
KLAX 192153Z 27009KT 10SM SCT020 14/07 A3013 RMK AO2 SLP204 T01440072 $
