2023/10/03 13:53
KLAX 031353Z 09004KT 10SM FEW180 FEW250 16/13 A2995 RMK AO2 SLP140 T01560128 $
