2026/03/05 23:53
KLAX 052353Z 28017G25KT 10SM FEW250 21/06 A2989 RMK AO2 SLP120 T02110056 10244 20189 55012
