2024/08/25 09:53
KLAX 250953Z 05003KT 10SM CLR 18/16 A3001 RMK AO2 SLP158 T01830156 $
