2023/10/01 03:53
KLAX 010353Z 27010KT 10SM FEW013 SCT031 BKN065 18/13 A2984 RMK AO2 SLP103 T01780128 $
