2024/01/07 01:53
KLAX 070153Z 22006KT 10SM BKN028 BKN180 14/11 A3003 RMK AO2 SLP169 T01440106
