2023/06/21 01:53
KLAX 210153Z 24008KT 10SM CLR 18/13 A2997 RMK AO2 SLP147 T01830133
