2023/05/21 17:53
KLAX 211753Z 25006KT 8SM FEW009 OVC012 17/14 A3002 RMK AO2 SLP164 T01720144 10178 20150 56005
