2025/09/17 23:53
KLAX 172353Z 26016KT 10SM FEW020 FEW150 OVC200 22/17 A2985 RMK AO2 PK WND 25028/2259 SLP106 T02170172 10267 20217 55001
