2025/08/27 07:53
KLAX 270753Z 29006KT 10SM FEW011 20/17 A3001 RMK AO2 SLP161 T02000172 402440194 $
