2025/01/26 16:53
KLAX 261653Z 11010KT 7SM -RA FEW024 BKN045 OVC060 11/08 A3006 RMK AO2 RAB07E24B43 SLP178 P0000 T01110083
