2023/04/26 05:53
KLAX 260553Z 24005KT 10SM FEW006 FEW012 14/12 A2996 RMK AO2 SLP142 T01440117 10178 20144 51014 $
