2026/01/26 07:53
KLAX 260753Z 03003KT 10SM BKN180 BKN250 14/11 A3024 RMK AO2 SLP237 T01390106 402060078 $
