2025/02/01 13:53
KLAX 011353Z 08003KT 9SM CLR 09/07 A3015 RMK AO2 SLP210 T00940072
