2023/11/16 05:53
KLAX 160553Z 09009KT 10SM FEW011 BKN036 14/14 A3000 RMK AO2 DZE02 SLP158 P0000 60009 T01440139 10156 20133 58003
