2025/12/20 05:53
KLAX 200553Z 09007KT 1/4SM R25L/1600V2000FT FG VV000 14/14 A3003 RMK AO2 SLP169 FG VV000 T01390139 10161 20133 53011
