2023/09/29 07:53
KLAX 290753Z VRB03KT 9SM FEW009 OVC016 19/16 A2985 RMK AO2 SLP106 T01940156 402280172 $
