2023/05/08 03:53
KLAX 080353Z 26009KT 10SM FEW010 15/12 A3005 RMK AO2 SLP176 T01500117
