2025/03/22 17:53
KLAX 221753Z 00000KT 9SM FEW005 SCT300 18/09 A3001 RMK AO2 SLP161 T01830089 10189 20106 50002 $
