2023/07/16 05:53
KLAX 160553Z 00000KT 9SM SCT006 18/17 A2987 RMK AO2 SLP114 T01830167 10206 20183 50009
