2024/08/20 21:53
KLAX 202153Z 27013KT 10SM CLR 26/18 A2992 RMK AO2 SLP130 T02610178
