2023/10/05 21:53
KLAX 052153Z 26011KT 10SM CLR 25/17 A2991 RMK AO2 SLP126 T02500172 $
