2024/01/22 15:53
KLAX 221553Z 10009KT 5SM -RA BR SCT018 SCT045 OVC075 13/13 A2978 RMK AO2 SLP082 P0010 T01330128
