2024/01/09 09:53
KLAX 090953Z 13003KT 10SM CLR 08/M02 A3029 RMK AO2 SLP257 T00781017
