2023/12/22 01:53
KLAX 220153Z 05004KT 10SM BKN065 OVC150 17/14 A2995 RMK AO2 SLP141 T01720144
