2022/11/04 19:53
KLAX 041953Z 25010KT 10SM BKN330 18/03 A3025 RMK AO2 SLP244 T01830033 $
