2025/10/14 11:53
KLAX 141153Z 16007KT 4SM RA BR FEW015 BKN025 OVC040 16/14 A2980 RMK AO2 SLP090 P0007 60019 70020 T01560139 10178 20156 56005 $
