2025/03/01 13:53
KLAX 011353Z 00000KT 10SM BKN019 14/11 A2995 RMK AO2 SLP139 T01390106 $
