2022/09/29 03:53
KLAX 290353Z 00000KT 10SM CLR 23/19 A2996 RMK AO2 SLP142 T02330189
