2026/04/26 05:53
KLAX 260553Z 22007KT 10SM BKN019 BKN034 OVC085 14/11 A2990 RMK AO2 RAB21E39 SLP123 P0001 60001 T01440111 10161 20139 50004
