2025/03/23 23:53
KLAX 232353Z 27010KT 10SM FEW250 17/12 A2998 RMK AO2 SLP153 T01670122 10189 20167 56012 $
