2024/02/14 11:53
KLAX 141153Z 11003KT 10SM SCT015 BKN024 11/09 A3009 RMK AO2 SLP187 T01060094 10128 20100 53005 $
