2025/11/02 23:53
KLAX 022353Z 26008KT 6SM BR FEW008 FEW250 17/14 A3000 RMK AO2 SLP157 T01670144 10194 20167 56010 $
