2024/12/19 17:53
KLAX 191753Z 16003KT 8SM FEW006 SCT160 BKN250 17/11 A3014 RMK AO2 SLP206 T01720106 10172 20094 51018
