2023/08/14 21:53
KLAX 142153Z 27015G21KT 10SM BKN009 OVC100 22/18 A2992 RMK AO2 SLP129 T02170178 $
