2026/04/21 21:53
KLAX 212153Z 22011G18KT 10SM FEW010 SCT025 BKN048 BKN200 20/12 A3005 RMK AO2 SLP174 T02000122 $
