2025/03/19 15:53
KLAX 191553Z 02005KT 10SM FEW250 16/01 A3029 RMK AO2 SLP258 T01610006
