2023/05/25 21:53
KLAX 252153Z 23012KT 10SM BKN027 BKN033 OVC046 18/12 A2990 RMK AO2 RAE09 SLP123 P0000 T01780117 $
