2024/12/18 05:53
KLAX 180553Z 01004KT 10SM CLR 16/07 A3012 RMK AO2 SLP198 T01560067 10167 20144 51012 $
