2024/01/05 01:53
KLAX 050153Z 30007KT 10SM CLR 16/02 A3013 RMK AO2 SLP203 T01610017
