2025/08/24 00:53
KLAX 240053Z 25011KT 10SM FEW007 FEW120 SCT140 SCT190 BKN230 25/18 A2981 RMK AO2 SLP093 T02500183
