2023/08/06 13:53
KLAX 061353Z 09004KT 6SM BR FEW007 18/17 A2992 RMK SLP129 T01830172 
