2023/11/16 23:53
KLAX 162353Z 24007KT 10SM FEW011 FEW040 19/15 A2996 RMK AO2 SLP145 T01890150 10228 20189 56006
