2024/11/12 09:53
KLAX 120953Z 34006KT 10SM FEW009 14/02 A3003 RMK AO2 SLP166 T01440022
