2024/10/16 07:53
KLAX 160753Z 14004KT 10SM OVC016 18/14 A3000 RMK AO2 SLP157 T01830144 402170172 $
