2026/01/11 05:53
KLAX 110553Z 00000KT 10SM CLR 14/M04 A3029 RMK AO2 SLP255 T01391039 10211 20128 50002 $
