2025/12/27 11:53
KLAX 271153Z 00000KT 10SM FEW010 10/09 A3002 RMK AO2 SLP163 70037 T01000089 10150 20100 50001 $
