2024/07/01 03:53
KLAX 010353Z 26005KT 4SM BR BKN004 16/14 A2988 RMK AO2 SLP117 VIS W 1/2 T01560144
