2026/07/22 01:53
KLAX 220153Z 25017KT 10SM CLR 24/15 A2995 RMK AO2 SLP141 T02440150
