2023/05/08 21:53
KLAX 082153Z 26013KT 10SM FEW013 SCT029 18/12 A3003 RMK AO2 SLP168 T01830117
