2023/09/03 11:53
KLAX 031153Z 25005KT 10SM FEW010 BKN039 21/18 A3001 RMK AO2 SLP161 60000 70002 T02110178 10222 20211 58005 $
