2023/12/30 11:53
KLAX 301153Z 09008KT 5SM BR FEW029 SCT050 OVC065 13/12 A3006 RMK AO2 SLP177 60004 70004 T01280122 10144 20128 58012 $
