2024/05/18 11:53
KLAX 181153Z 29006KT 10SM FEW010 OVC017 14/12 A2997 RMK AO2 SLP147 T01390122 10150 20139 53004 $
