2023/03/29 16:53
KLAX 291653Z 00000KT 6SM -RA BR BKN006 BKN012 OVC075 11/10 A2996 RMK AO2 SLP145 P0003 T01110100
