2023/11/04 23:53
KLAX 042353Z 26010KT 9SM FEW002 SCT200 19/16 A2999 RMK AO2 SLP155 FG BANK SW-W T01890161 10211 20183 56010
