2024/02/21 07:53
KLAX 210753Z VRB04KT 6SM BR FEW003 BKN008 OVC018 13/13 A3007 RMK AO2 RAB17E28 SLP182 P0000 T01330128 401500122 $
