2025/05/30 09:53
KLAX 300953Z 36004KT 10SM FEW012 17/14 A2993 RMK AO2 SLP134 T01670144
