2023/12/04 17:53
KLAX 041753Z 30004KT 10SM FEW140 SCT160 BKN250 18/07 A3014 RMK AO2 SLP204 T01830072 10183 20106 51007
