2022/11/04 11:53
KLAX 041153Z 08004KT 10SM FEW010 FEW025 SCT280 11/01 A3023 RMK AO2 SLP234 T01060006 10144 20100 51010 VISNO RWY24 $
