2026/01/21 19:53
KLAX 211953Z 23005KT 3SM HZ FEW009 BKN120 OVC140 16/13 A3008 RMK AO2 SLP186 VIS 2 1/2V4 T01610128
