2025/05/05 07:53
KLAX 050753Z VRB05KT 10SM BKN019 OVC150 15/11 A2979 RMK AO2 SLP085 T01500106 401720133
