2023/11/09 03:53
KLAX 090353Z 02007KT 10SM FEW250 21/M08 A3005 RMK AO2 SLP173 T02111078
