2023/02/19 17:53
KLAX 191753Z 00000KT 10SM FEW230 FEW280 15/04 A3006 RMK AO2 SLP178 T01500039 10150 20061 51013 $
