2023/04/15 15:53
KLAX 151553Z 00000KT 9SM FEW015 15/11 A3012 RMK AO2 SLP199 T01500111
