2025/07/01 16:00
KLAX 011600Z 25006KT 9SM SCT015 BKN025 18/14 A2991 RMK AO2 SCT V BKN T01830139
