2024/01/21 13:53
KLAX 211353Z 07003KT 6SM BR SCT006 BKN042 OVC095 13/13 A2987 RMK AO2 SLP112 T01330128 $
