2025/01/03 03:53
KLAX 030353Z 13003KT 7SM FEW002 12/11 A3006 RMK AO2 SLP179 T01170106
