2026/05/01 02:53
KLAX 010253Z 18005KT 10SM FEW014 FEW040 16/13 A2988 RMK AO2 SLP117 T01610133 53009
