2022/09/12 03:53
KLAX 120353Z 29007KT 10SM BKN130 26/20 A2999 RMK AO2 SLP153 T02560200 $
