2026/01/21 21:53
KLAX 212153Z 25011KT 4SM HZ FEW010 BKN120 OVC140 16/13 A3006 RMK AO2 SLP178 T01610128
