2023/05/27 07:53
KLAX 270753Z 23006KT 10SM FEW015 SCT050 15/12 A2997 RMK AO2 SLP148 T01500122 402000144
