2025/03/30 15:53
KLAX 301553Z 24006KT 10SM FEW012 BKN045 OVC095 13/09 A3008 RMK AO2 RAB09E48 SLP183 P0000 T01280094 $
