2025/09/19 11:53
KLAX 191153Z 26007KT 10SM FEW006 BKN009 BKN110 BKN200 21/18 A2988 RMK AO2 SLP115 70004 T02060183 10217 20200 53004
