2022/09/04 11:53
KLAX 041153Z 00000KT 10SM CLR 27/16 A2988 RMK AO2 SLP114 T02670161 10272 20250 53009
