2025/05/13 07:53
KLAX 130753Z 26015KT 10SM FEW014 FEW045 SCT200 14/10 A2996 RMK AO2 SLP142 T01440100 402170144 $
