2025/07/29 04:24
KLAX 290424Z 25009KT 10SM SCT009 17/15 A3003 RMK AO2 T01720150
