2023/02/22 23:53
KLAX 222353Z 26030G37KT 10SM FEW030 FEW065 SCT250 12/02 A2984 RMK AO2 PK WND 27043/2319 SLP105 T01220022 10139 20117 55001
