2025/01/17 21:53
KLAX 172153Z 25008KT 10SM FEW010 SCT032 16/07 A3017 RMK AO2 SLP217 T01560067
