2023/04/30 11:53
KLAX 301153Z 25005KT 3/4SM R25L/P6000FT BR BKN003 OVC007 13/12 A2993 RMK AO2 SLP135 T01330122 10139 20133 56005
