2025/04/27 23:53
KLAX 272353Z 27014G20KT 10SM FEW020 16/09 A3006 RMK AO2 SLP179 T01610094 10172 20150 58004 $
