2025/11/17 02:20
KLAX 170220Z 33004KT 10SM -RA SCT016 SCT023 OVC029 15/13 A2999 RMK AO2 RAB02 P0001 T01500128 $
