2026/03/22 19:53
KLAX 221953Z 26009KT 5SM HZ FEW010 SCT180 SCT240 BKN300 18/14 A2993 RMK AO2 SLP134 T01830144
