2025/01/04 03:53
KLAX 040353Z 25006KT 10SM BKN011 13/11 A3007 RMK AO2 SLP181 T01280106
