2022/08/23 09:53
KLAX 230953Z 00000KT 4SM BR FEW004 SCT006 18/17 A2984 RMK AO2 SLP102 T01780167 $
