2023/07/07 11:53
KLAX 071153Z 09004KT 10SM FEW008 OVC012 16/13 A2987 RMK AO2 SLP114 T01610133 10167 20156 57002 $
