2023/07/14 17:53
KLAX 141753Z 26010KT 9SM FEW006 24/17 A2990 RMK AO2 SLP123 T02390167 10250 20167 51005
