2025/12/02 15:53
KLAX 021553Z VRB03KT 10SM FEW009 FEW250 11/07 A3007 RMK AO2 SLP180 T01060067 $
