2024/08/14 05:53
KLAX 140553Z 25006KT 10SM FEW010 20/18 A2992 RMK AO2 SLP131 T02000178 10233 20200 51005 $
