2025/05/21 19:53
KLAX 211953Z 27010KT 8SM FEW009 22/15 A2991 RMK AO2 SLP128 T02220150 $
