2023/07/25 03:53
KLAX 250353Z 24005KT 10SM FEW150 FEW250 20/17 A2995 RMK AO2 SLP140 T02000167
