2025/04/27 13:53
KLAX 271353Z 02003KT 10SM FEW027 SCT050 SCT085 BKN130 BKN240 12/07 A3005 RMK AO2 SLP173 T01170072 $
