2023/10/17 17:53
KLAX 171753Z 15004KT 6SM HZ FEW004 SCT008 22/16 A2993 RMK AO2 SLP134 T02170161 10217 20167 50002
