2023/04/27 15:53
KLAX 271553Z 13004KT 2 1/2SM BCFG BR OVC006 14/12 A2998 RMK AO2 SLP149 VIS 2V3 VIS SW-NW 1 1/2 T01390122 $
