2025/11/24 23:53
KLAX 242353Z 26010KT 10SM FEW250 17/13 A3009 RMK AO2 SLP189 T01720133 10194 20161 55008
