2024/12/01 19:53
KLAX 011953Z 24007KT 10SM FEW160 SCT230 20/07 A3011 RMK AO2 SLP195 T02000072 $
