2022/11/20 19:53
KLAX 201953Z 24004KT 10SM FEW300 24/M07 A3014 RMK AO2 SLP205 T02391067 $
