2024/08/17 05:53
KLAX 170553Z 22004KT 10SM SCT010 SCT250 20/18 A2990 RMK AO2 SLP121 T02000183 10239 20200 51010 $
