2023/03/02 05:53
KLAX 020553Z 31017G25KT 10SM CLR 10/M04 A2992 RMK AO2 SLP132 T01001039 10128 20094 51025
