2023/01/12 19:53
KLAX 121953Z 07007KT 040V120 10SM SCT120 BKN180 BKN250 21/06 A3018 RMK AO2 SLP218 T02060056 $
