2024/06/03 07:53
KLAX 030753Z 24005KT 10SM CLR 15/13 A2991 RMK AO2 SLP126 T01500128 402000144
