2025/01/16 13:53
KLAX 161353Z 04004KT 10SM CLR 10/M08 A3016 RMK AO2 SLP211 T01001083 $
