2023/05/25 07:53
KLAX 250753Z 11005KT 10SM BKN024 OVC030 16/11 A2990 RMK AO2 SLP123 T01610106 401830139 $
