2024/01/14 05:53
KLAX 140553Z 00000KT 10SM FEW020 FEW200 12/09 A3008 RMK AO2 SLP184 T01170089 10144 20111 53002 $
