2022/11/04 21:53
KLAX 042153Z 25010KT 10SM BKN300 18/M02 A3021 RMK AO2 SLP231 T01831017
