2025/02/17 05:53
KLAX 170553Z 17003KT 10SM FEW250 14/12 A2996 RMK AO2 SLP144 T01390122 10183 20133 56001 $
