2024/05/07 15:53
KLAX 071553Z 00000KT 10SM FEW300 16/11 A2995 RMK AO2 SLP140 T01610106 $
