2025/01/25 18:53
KLAX 251853Z 15011G21KT 10SM FEW020 SCT029 BKN180 16/07 A2990 RMK AO2 SLP126 T01610072
