2024/07/06 11:53
KLAX 061153Z 09004KT 6SM BR BKN008 19/18 A2978 RMK AO2 SLP082 T01940178 10211 20189 56004
