2025/08/25 05:53
KLAX 250553Z 23005KT 10SM FEW015 FEW200 21/18 A2988 RMK AO2 SLP117 T02060178 10244 20206 51011
