2026/06/28 00:18
KLAX 280018Z 27012G19KT 10SM BKN017 21/15 A2991 RMK AO2 T02060150
