2023/09/17 17:53
KLAX 171753Z 23004KT 10SM FEW004 SCT008 OVC025 19/18 A3001 RMK AO2 SLP162 60003 T01940178 10194 20178 53008 $
