2024/10/04 07:53
KLAX 040753Z 10006KT 4SM BR FEW005 OVC008 18/17 A2987 RMK AO2 SLP111 T01830167 402560167
