2026/03/21 21:53
KLAX 212153Z 24009KT 10SM FEW005 FEW150 SCT250 20/16 A2992 RMK AO2 SLP129 FG BNK S-NW T02000156
