2024/08/28 19:53
KLAX 281953Z 26009KT 10SM FEW022 23/16 A2997 RMK AO2 SLP146 T02280156
