2026/06/25 14:53
KLAX 251453Z 15005KT 8SM FEW009 OVC015 18/14 A2994 RMK AO2 SLP138 T01830139 53005
