2022/11/10 11:53
KLAX 101153Z 00000KT 10SM CLR 09/04 A3010 RMK AO2 SLP192 70010 T00890039 10139 20089 56015 VISNO RWY24 $
