2024/12/22 23:53
KLAX 222353Z 26008KT 10SM FEW150 FEW200 SCT250 16/12 A3009 RMK AO2 SLP188 T01610122 10172 20144 50006
