2024/05/14 19:53
KLAX 141953Z 25008KT 10SM FEW019 SCT026 18/12 A2993 RMK AO2 SLP134 T01830117 $
