2023/12/20 07:53
KLAX 200753Z 10006KT 5SM BR SCT008 BKN016 OVC026 16/15 A2988 RMK AO2 SLP116 T01560150 401940144
