2023/11/25 19:53
KLAX 251953Z 19004KT 10SM FEW025 19/09 A3004 RMK AO2 SLP171 T01940089 $
