2025/07/26 04:53
KLAX 260453Z 26011KT 10SM FEW014 18/14 A3000 RMK AO2 SLP155 T01780144 $
