2026/07/24 09:53
KLAX 240953Z 24004KT 10SM FEW010 21/18 A2986 RMK AO2 SLP107 T02060178 $
