2025/09/20 11:53
KLAX 201153Z 25005KT 9SM OVC008 20/18 A2994 RMK AO2 SLP136 T02000183 10206 20200 50000
