2025/04/22 05:53
KLAX 220553Z 26006KT 10SM BKN012 13/11 A3000 RMK AO2 SLP156 T01330106 10161 20128 51009 $
