2023/05/03 01:53
KLAX 030153Z 26012KT 10SM FEW020 FEW060 SCT150 14/07 A2991 RMK AO2 SLP128 T01440072
