2024/08/05 13:53
KLAX 051353Z 00000KT 10SM FEW006 FEW150 SCT200 BKN250 18/16 A2988 RMK AO2 SLP117 T01780156 $
