2022/08/24 21:53
KLAX 242153Z 26010KT 10SM FEW110 FEW150 SCT250 26/19 A2984 RMK AO2 SLP102 T02560189 $
