2026/06/01 04:53
KLAX 010453Z 20007KT 10SM FEW009 17/15 A2990 RMK AO2 SLP122 T01720150 $
