2022/12/02 15:53
KLAX 021553Z 08008KT 2 1/2SM BR SCT006 BKN016 OVC026 12/11 A3014 RMK AO2 RAE34 SLP205 VIS 1V3 SCT V BKN P0001 T01170111 $
