2025/11/11 15:57
KLAX 111557Z 00000KT 1/2SM R25L/1400V3000FT FG OVC002 14/14 A3010 RMK AO2 T01440144 $
