2023/04/18 17:53
KLAX 181753Z 25009KT 9SM FEW010 SCT025 BKN034 16/10 A3001 RMK AO2 SLP161 T01610100 10167 20128 53004
