2026/03/07 07:53
KLAX 070753Z 35007KT 290V080 10SM CLR 17/M02 A3002 RMK AO2 SLP162 T01721017 402280111 $
