2025/04/24 12:53
KLAX 241253Z 00000KT 10SM BKN016 OVC039 13/11 A2997 RMK AO2 SLP146 T01330106
