2024/03/31 07:53
KLAX 310753Z 07012KT 8SM BKN021 BKN028 OVC049 10/08 A2976 RMK AO2 RAE41 SLP078 P0003 T01000083 401330100
