2026/07/07 14:53
KLAX 071453Z 00000KT 10SM FEW009 FEW014 SCT030 19/16 A2996 RMK AO2 SLP142 T01940161 53011
