2022/10/09 03:53
KLAX 090353Z 26005KT 6SM BR OVC007 19/18 A3002 RMK AO2 SLP164 T01940178 $
