2023/07/04 01:53
KLAX 040153Z 24010KT 10SM OVC006 17/14 A2987 RMK AO2 SLP115 T01670144
