2024/02/01 11:53
KLAX 011153Z 09014KT 4SM RA BR FEW010 BKN012 OVC028 12/11 A2980 RMK AO2 SLP088 P0002 60006 70006 T01170106 10139 20117 56020 $
