2023/02/26 03:53
KLAX 260353Z 05008KT 10SM BKN029 BKN036 OVC049 07/06 A2995 RMK AO2 RAB08E43 SLP142 P0000 T00720056 $
