2026/07/21 12:53
KLAX 211253Z 09003KT 8SM FEW007 SCT010 BKN200 21/19 A2996 RMK AO2 SLP141 T02110194 $
