2023/12/01 09:53
KLAX 010953Z 34005KT 10SM FEW012 FEW150 13/07 A2995 RMK AO2 SLP141 T01330072
