2026/07/16 18:53
KLAX 161853Z 18004KT 10SM FEW012 FEW050 28/18 A2984 RMK AO2 SLP101 T02780183 $
