2025/06/08 07:53
KLAX 080753Z 23007KT 10SM OVC010 16/13 A2999 RMK AO2 SLP153 T01560133 402000156 $
