2023/08/04 17:53
KLAX 041753Z 26008KT 10SM FEW022 FEW160 23/17 A2995 RMK A02 SLP141 T02280167 1