2024/12/14 09:53
KLAX 140953Z 00000KT 8SM FEW100 11/09 A3018 RMK AO2 SLP217 T01110089
