2025/04/07 05:53
KLAX 070553Z VRB05KT 10SM FEW250 14/07 A3014 RMK AO2 SLP203 T01440072 10194 20133 50004 $
