2023/02/22 09:53
KLAX 220953Z 28025G31KT 10SM CLR 10/01 A2969 RMK AO2 PK WND 28032/0910 SLP051 T01000006 $
