2025/08/06 11:53
KLAX 061153Z VRB03KT 10SM FEW012 FEW250 19/16 A2999 RMK AO2 SLP153 T01940156 10200 20183 53000
