2024/03/16 15:53
KLAX 161553Z 12006KT 10SM FEW017 FEW035 SCT100 14/09 A3002 RMK AO2 SLP166 T01440089 $
