2022/12/23 19:53
KLAX 231953Z VRB03KT 6SM HZ FEW110 SCT160 BKN250 19/08 A3013 RMK AO2 SLP201 T01890083 $
