2025/11/09 11:53
KLAX 091153Z 30004KT 1SM R25L/P6000FT BR BKN003 16/15 A3002 RMK AO2 SLP164 VIS W 1/2 T01610150 10172 20156 55002
