2026/05/01 09:53
KLAX 010953Z 08004KT 10SM FEW011 BKN016 16/13 A2992 RMK AO2 SLP129 T01610133
