2023/07/18 09:53
KLAX 180953Z 24005KT 9SM FEW004 FEW010 SCT250 18/17 A2993 RMK AO2 SLP132 T01780172 $
