2023/01/21 11:53
KLAX 211153Z 00000KT 10SM CLR 07/03 A3028 RMK AO2 SLP252 T00670028 10111 20067 58001
