2024/03/11 07:53
KLAX 110753Z 23005KT 10SM FEW011 FEW150 12/11 A3004 RMK AO2 SLP171 T01220106 401780094 $
