2024/06/24 13:53
KLAX 241353Z 34004KT 9SM FEW060 FEW130 SCT250 21/16 A2993 RMK AO2 SLP131 T02060161
