2025/06/25 01:53
KLAX 250153Z 25013KT 10SM SCT014 18/14 A2996 RMK AO2 SLP144 T01830139
