2024/05/05 05:53
KLAX 050553Z 25010KT 10SM BKN014 BKN018 OVC060 14/12 A2992 RMK AO2 SLP131 T01440117 10161 20139 51005
