2026/06/15 15:53
KLAX 151553Z 25009KT 9SM BKN008 BKN011 19/16 A3002 RMK AO2 SLP165 T01940156 $
