2023/04/10 15:53
KLAX 101553Z 00000KT 1SM R25L/P6000FT BR FEW003 OVC005 13/12 A3007 RMK AO2 SLP180 VIS W 3/4 T01280122
