2023/10/06 01:53
KLAX 060153Z 25012KT 10SM CLR 22/15 A2990 RMK AO2 SLP124 T02170150 $
