2023/03/26 05:53
KLAX 260553Z 34010G22KT 290V360 10SM CLR 13/M03 A3007 RMK AO2 SLP181 T01331028 10183 20133 51013 $
