2024/02/01 01:53
KLAX 010153Z 15006KT 10SM BKN017 BKN180 14/12 A2993 RMK AO2 SLP133 T01440122 $
