2026/04/23 07:53
KLAX 230753Z 25009KT 10SM FEW250 16/12 A3003 RMK AO2 SLP166 T01560117 401940128 $
