2024/07/19 01:53
KLAX 190153Z 26010KT 6SM HZ BKN008 19/17 A2995 RMK AO2 SLP140 T01940167
