2025/07/11 05:53
KLAX 110553Z 24007KT 10SM FEW008 18/16 A2989 RMK AO2 SLP118 T01780156 10217 20178 53005 $
