2022/09/01 09:53
KLAX 010953Z 00000KT 10SM BKN150 25/16 A2972 RMK AO2 SLP063 T02500161
