2026/06/02 10:53
KLAX 021053Z 08003KT 9SM FEW008 OVC012 17/13 A2999 RMK AO2 SLP152 T01720133 $
