2024/01/15 07:53
KLAX 150753Z 06005KT 10SM FEW012 FEW250 12/10 A3005 RMK AO2 SLP175 T01170100 401560067 $
