2023/12/01 13:53
KLAX 011353Z 33012G22KT 10SM FEW140 FEW220 14/03 A2995 RMK AO2 SLP142 T01440033
