2025/02/20 17:53
KLAX 201753Z 00000KT 6SM HZ FEW007 FEW160 SCT250 16/12 A3002 RMK AO2 SLP167 T01610117 10161 20111 51009
