2025/10/25 02:25
KLAX 250225Z 23009KT 9SM BKN008 18/16 A2997 RMK AO2 T01780161
