2026/02/28 21:53
KLAX 282153Z 27008KT 10SM FEW220 FEW290 25/13 A2990 RMK AO2 SLP122 T02500128
