2023/12/16 09:53
KLAX 160953Z 00000KT 10SM BKN300 14/M03 A3006 RMK AO2 SLP175 T01441028 $
