2025/06/29 01:53
KLAX 290153Z 27012KT 10SM FEW015 20/16 A2992 RMK AO2 SLP129 T02000156 $
