2025/01/19 13:53
KLAX 191353Z 05004KT 6SM BR FEW010 08/06 A3023 RMK AO2 SLP235 T00830056 VISNO RWY24 $
