2023/09/29 05:53
KLAX 290553Z 00000KT 9SM OVC015 19/16 A2987 RMK AO2 SLP112 T01890156 10206 20183 51006 $
