2025/10/18 19:53
KLAX 181953Z 24008KT 10SM CLR 24/13 A2999 RMK AO2 SLP155 T02440133 $
