2023/02/15 21:53
KLAX 152153Z 21011KT 10SM CLR 17/M08 A3014 RMK AO2 SLP205 T01671078 $
