2024/05/26 13:53
KLAX 261353Z 13003KT 10SM SCT018 OVC024 15/11 A3001 RMK AO2 SLP163 T01500111
