2024/09/06 21:53
KLAX 062153Z 25010KT 10SM FEW130 SCT180 32/19 A2979 RMK AO2 SLP086 T03170194
