2025/06/21 21:53
KLAX 212153Z 27012G21KT 10SM SCT015 SCT032 21/14 A2986 RMK AO2 SLP109 T02060139
