2022/09/16 13:53
KLAX 161353Z 09003KT 10SM FEW022 18/16 A2992 RMK AO2 SLP131 T01830161 $
