2023/12/02 03:53
KLAX 020353Z 35009KT 10SM FEW200 17/M01 A3005 RMK AO2 SLP174 T01671006
