2025/10/01 07:53
KLAX 010753Z 28005KT 10SM FEW010 19/17 A3001 RMK AO2 SLP158 T01940172 402330183 $
