2026/07/07 06:53
KLAX 070653Z 22009KT 10SM FEW011 18/16 A2992 RMK AO2 SLP127 T01830161 $
