2023/09/17 07:53
KLAX 170753Z 28005KT 10SM SCT008 BKN016 OVC021 18/17 A2997 RMK AO2 SLP148 T01830172 402060183 $
