2024/03/01 15:53
KLAX 011553Z 14003KT 10SM FEW010 BKN021 BKN045 13/10 A3016 RMK AO2 SLP213 T01330100 $
