2023/12/24 15:53
KLAX 241553Z 00000KT 10SM BKN049 13/11 A3016 RMK AO2 SLP213 T01330106
