2025/04/08 15:53
KLAX 081553Z 00000KT 8SM FEW010 FEW140 17/12 A3004 RMK AO2 SLP173 T01670117 $
