2024/09/21 07:53
KLAX 210753Z 21003KT 10SM OVC011 17/15 A2990 RMK AO2 SLP121 T01720150 402110172
