2022/12/29 13:53
KLAX 291353Z 00000KT 10SM FEW010 FEW022 OVC090 13/11 A2998 RMK AO2 SLP151 T01330111 $
