2026/02/20 05:53
KLAX 200553Z 31007KT 10SM CLR 11/03 A2989 RMK AO2 SLP121 T01060033 10139 20106 53010
