2022/09/07 13:53
KLAX 071353Z VRB03KT 10SM FEW070 FEW120 24/20 A2992 RMK AO2 SLP130 T02390200 $
