2026/06/03 21:53
KLAX 032153Z 26012G19KT 10SM FEW200 SCT250 19/13 A2994 RMK AO2 SLP138 T01940133 $
