2025/10/18 21:53
KLAX 182153Z 23009KT 10SM CLR 24/12 A2997 RMK AO2 SLP145 T02440117 $
