2025/03/05 15:53
KLAX 051553Z 00000KT 7SM FEW009 SCT015 OVC160 12/09 A3003 RMK AO2 SLP170 T01170094
