2026/07/15 09:53
KLAX 150953Z 00000KT 10SM FEW250 20/18 A2989 RMK AO2 SLP118 T02000178 $
