2024/03/21 09:53
KLAX 210953Z 00000KT 8SM FEW008 OVC011 13/12 A3005 RMK AO2 SLP175 T01330117 $
