2026/06/26 21:53
KLAX 262153Z 25012KT 210V280 10SM FEW014 FEW180 SCT220 21/13 A2995 RMK AO2 SLP141 T02110133
