2023/06/30 19:53
KLAX 301953Z 25008KT 7SM FEW009 SCT012 20/15 A2990 RMK AO2 SLP125 SCT V BKN T02000150 $
