2025/07/12 09:53
KLAX 120953Z 26004KT 7SM OVC011 18/16 A2994 RMK AO2 SLP136 T01830161
