2024/12/10 19:53
KLAX 101953Z VRB03KT 10SM SCT050 22/M16 A3028 RMK AO2 SLP252 FU SCT050 T02221156 $
