2023/05/22 23:53
KLAX 222353Z 23008G15KT 10SM OVC010 17/14 A2991 RMK AO2 SLP128 T01670139 10178 20161 56010
