2025/02/18 07:53
KLAX 180753Z 05003KT 9SM FEW006 FEW012 SCT250 12/11 A3000 RMK AO2 SLP156 T01220111 401830083
