2026/07/01 10:53
KLAX 011053Z 28006KT 10SM BKN016 OVC035 18/14 A2990 RMK AO2 SLP124 T01780144 $
