2026/06/02 02:53
KLAX 020253Z 28008KT 9SM FEW015 18/14 A2996 RMK AO2 SLP142 T01780139 53004 $
