2024/11/21 15:53
KLAX 211553Z 09003KT 10SM FEW280 12/02 A3018 RMK AO2 SLP219 T01220017
