2023/03/29 13:53
KLAX 291353Z 08008KT 2SM +RA BR OVC004 11/10 A2992 RMK AO2 SLP131 VIS SW-N 1 1/2 P0023 T01060100 $
