2024/12/26 11:53
KLAX 261153Z 07003KT 10SM FEW150 FEW220 BKN280 10/06 A3006 RMK AO2 SLP179 T01000061 10161 20094 58000
