2025/06/05 01:53
KLAX 050153Z 25007G17KT 10SM BKN014 17/13 A2988 RMK AO2 SLP116 T01720133
