2024/01/07 03:53
KLAX 070353Z 26007KT 10SM SCT025 BKN180 14/11 A3001 RMK AO2 SLP161 T01390111
