2023/01/13 01:53
KLAX 130153Z 01006KT 10SM BKN300 19/07 A3013 RMK AO2 SLP200 T01890067 $
