2025/02/19 03:53
KLAX 190353Z 23005KT 10SM FEW250 13/12 A3005 RMK AO2 SLP176 T01330122 $
