2023/07/30 01:53
KLAX 300153Z 24009KT 8SM SCT008 SCT170 22/18 A2988 RMK AO2 SLP115 T02170183 $
