2025/08/10 21:53
KLAX 102153Z 25011KT 10SM FEW010 FEW110 23/17 A2996 RMK AO2 SLP142 T02280167 $
