2023/05/19 19:53
KLAX 191953Z 24008KT 8SM SCT008 OVC012 17/14 A3007 RMK AO2 SLP180 T01670139
