2025/10/09 17:53
KLAX 091753Z 29006KT 10SM FEW080 FEW160 SCT250 21/13 A2993 RMK AO2 SLP134 T02110128 10211 20144 50003 $
