2025/05/30 19:53
KLAX 301953Z 27010KT 10SM FEW160 24/16 A2994 RMK AO2 SLP138 T02440156
