2025/05/29 00:16
KLAX 290016Z 24006KT 10SM OVC014 17/13 A2996 RMK AO2 T01720128 $
