2024/10/09 09:53
KLAX 090953Z 00000KT 3SM BR FEW002 OVC006 17/16 A2991 RMK AO2 SLP126 VIS SW-N 2 T01720156 $
