2023/11/07 17:53
KLAX 071753Z 00000KT 10SM SCT025 SCT030 20/13 A3002 RMK AO2 SLP165 T02000133 10200 20167 51012
