2025/06/11 15:53
KLAX 111553Z 24003KT 3SM BR FEW004 OVC011 18/15 A2994 RMK AO2 SLP137 VIS 2 1/2V4 T01780150 $
