2024/10/03 09:53
KLAX 030953Z 11006KT 1 1/2SM BR VV003 17/16 A2977 RMK AO2 SLP079 VIS 1V2 T01720161
