2024/05/30 09:53
KLAX 300953Z 09003KT 10SM OVC011 15/12 A2996 RMK AO2 SLP142 T01500122 $
