2024/05/05 15:53
KLAX 051553Z 27009KT 10SM SCT029 14/08 A2992 RMK AO2 SLP129 T01390083
