2026/04/08 11:53
KLAX 081153Z 00000KT 10SM FEW007 FEW012 15/14 A2990 RMK AO2 SLP123 T01500139 10172 20150 56007 $
