2023/06/11 11:53
KLAX 111153Z 10004KT 10SM FEW006 FEW011 OVC021 16/13 A2985 RMK AO2 SLP108 70001 T01610128 10167 20161 56007
