2026/05/29 21:53
KLAX 292153Z 25016G23KT 10SM FEW022 SCT040 SCT070 19/12 A3002 RMK AO2 SLP163 T01940122 $
