2026/04/25 17:53
KLAX 251753Z 19008KT 10SM FEW009 FEW030 BKN045 BKN200 18/09 A2992 RMK AO2 SLP130 FU FEW009 T01780094 10183 20150 51002
