2026/02/13 07:53
KLAX 130753Z 00000KT 10SM SCT200 BKN250 15/08 A3001 RMK AO2 SLP162 T01500083 401780100
