2023/02/15 15:53
KLAX 151553Z 36017G23KT 10SM CLR 09/M06 A3010 RMK AO2 SLP191 T00891061 $
