2024/05/12 19:53
KLAX 121953Z 24011G18KT 10SM FEW016 FEW100 19/13 A2995 RMK AO2 SLP142 T01890128 $
