2022/10/23 13:53
KLAX 231353Z 35003KT 10SM FEW017 FEW038 SCT050 16/12 A2981 RMK AO2 SLP093 T01560122
