2023/02/03 21:53
KLAX 032153Z 26010KT 10SM FEW150 BKN190 BKN270 17/05 A3017 RMK AO2 SLP217 T01720050 $
