2024/04/26 05:53
KLAX 260553Z 25005KT 10SM FEW008 FEW011 BKN045 14/12 A3003 RMK AO2 SLP167 T01390117 10161 20139 50001
