2022/12/14 07:53
KLAX 140753Z VRB05KT 10SM CLR 10/04 A3015 RMK AO2 SLP207 T01000039 401500072 $
