2025/04/08 23:53
KLAX 082353Z 25009KT 10SM FEW005 17/12 A3000 RMK AO2 SLP159 T01670122 10194 20167 56008 $
