2023/01/05 21:53
KLAX 052153Z 24012KT 8SM FEW009 SCT016 BKN032 16/11 A3004 RMK AO2 SLP173 T01610111 $
