2022/08/22 23:53
KLAX 222353Z 26012KT 10SM OVC010 21/17 A2990 RMK AO2 SLP125 T02060172 10233 20200 56023 $
