2024/11/06 03:53
KLAX 060353Z 25005KT 10SM FEW005 FEW120 BKN250 16/14 A2984 RMK AO2 SLP104 FG BNK S-W T01610139 $
