2025/04/17 23:53
KLAX 172353Z 27009KT 10SM FEW024 OVC070 16/10 A2997 RMK AO2 SLP148 T01560100 10167 20150 58010 $
