2023/12/03 21:53
KLAX 032153Z 26009KT 10SM FEW008 FEW220 BKN280 18/07 A3015 RMK AO2 SLP211 T01780067
