2025/08/17 19:53
KLAX 171953Z 23008KT 200V260 10SM FEW014 FEW021 24/16 A2998 RMK AO2 SLP151 T02440161 $
