2024/11/12 15:53
KLAX 121553Z 36011G23KT 10SM FEW004 FEW070 16/02 A3007 RMK AO2 PK WND 01027/1529 SLP181 T01610022
