2026/04/21 17:53
KLAX 211753Z 19004KT 8SM -RA FEW011 SCT027 OVC037 17/12 A3007 RMK AO2 RAB30 SLP180 P0001 60001 T01670117 10189 20133 53014 $
