2024/06/12 01:53
KLAX 120153Z 24005KT 10SM OVC011 16/13 A2989 RMK AO2 SLP119 T01610133
