2025/07/11 15:53
KLAX 111553Z 13005KT 8SM OVC012 19/16 A2994 RMK AO2 SLP138 T01940161
