2025/07/09 19:53
KLAX 091953Z 25011KT 10SM FEW220 22/15 A3003 RMK AO2 SLP167 CCSL NE T02220150 $
