2026/05/08 23:53
KLAX 082353Z 25010KT 10SM BKN012 18/14 A2993 RMK AO2 SLP134 T01780139 10206 20178 56018
