2025/02/08 19:53
KLAX 081953Z 25005KT 10SM SCT019 BKN220 16/10 A3014 RMK AO2 SLP276 T01610100 $
