2023/08/10 13:53
KLAX 101353Z 32003KT 10SM OVC014 20/17 A2997 RMK AO2 SLP145 T02000172 $
