2022/09/17 15:53
KLAX 171553Z 13008KT 10SM FEW017 SCT027 BKN031 21/17 A2985 RMK AO2 SLP107 T02110167 $
