2025/02/03 21:53
KLAX 032153Z 26009KT 1SM R25L/P6000FT BR OVC003 13/11 A2993 RMK AO2 SLP135 VIS SW-W 3/41 T01280106 $
