2025/07/22 19:53
KLAX 221953Z 25009KT 9SM FEW018 BKN035 22/16 A3000 RMK AO2 SLP157 T02220161 $
