2026/04/23 11:54
KLAX 231154Z AUTO 00000KT 13/09 A2999 RMK AO2 SLP155 6//// 7//// T01330094 10161 20133 RVRNO CHINO RWY24 VISNO RWY24 $
