2024/07/03 01:53
KLAX 030153Z 26009KT 10SM FEW015 19/16 A2980 RMK AO2 SLP088 T01940161 $
