2022/12/31 18:00
KLAX 311800Z VRB04KT 2 1/2SM R25L/5500VP6000FT -RA BR OVC005 14/14 A3006 RMK AO2 P0001 T01440144
