2026/07/18 16:53
KLAX 181653Z 24009KT 10SM SCT019 24/18 A3001 RMK AO2 SLP159 T02440178 $
