2024/06/25 21:53
KLAX 252153Z 26012KT 10SM FEW015 FEW100 22/16 A2994 RMK AO2 SLP138 T02170156
