2023/12/02 14:53
KLAX 021453Z 05006KT 10SM FEW021 10/03 A3017 RMK AO2 SLP215 T01000033 53015
