2023/06/24 07:53
KLAX 240753Z 11003KT 10SM CLR 15/13 A2999 RMK AO2 SLP154 T01500128 402110144
