2024/06/27 19:53
KLAX 271953Z 27010KT 10SM CLR 23/16 A2987 RMK AO2 SLP113 T02330161
