2025/05/31 05:53
KLAX 310553Z 28005KT 10SM FEW005 OVC008 17/16 A2997 RMK AO2 SLP147 T01720156 10217 20172 51014 $
