2023/07/31 07:53
KLAX 310753Z 00000KT 9SM FEW006 FEW009 SCT150 SCT220 21/19 A2989 RMK AO2 SLP117 T02110194 402670194 $
