2024/02/05 03:53
KLAX 050353Z 15015G22KT 2 1/2SM -RA BR OVC008 13/13 A2990 RMK AO2 VIS 1 3/4 RWY24 CIG 006V012 SLP123 P0024 T01330128 $
