2026/05/09 09:53
KLAX 090953Z 01003KT 6SM BR OVC010 16/13 A2993 RMK AO2 SLP133 T01610133
