2024/07/14 09:53
KLAX 140953Z 29007KT 9SM OVC007 18/17 A2999 RMK AO2 SLP152 T01830172 $
