2023/09/03 03:59
KLAX 030359Z 27007KT 10SM FEW012 BKN029 BKN040 22/17 A3001 RMK AO2 T02220172 $
