2023/10/22 17:53
KLAX 221753Z 19004KT 10SM SCT022 21/15 A2986 RMK AO2 SLP110 T02110150 10211 20139 51002 $
