2023/09/03 19:53
KLAX 031953Z 26012KT 10SM SCT044 BKN055 BKN065 24/14 A3002 RMK AO2 SLP163 T02440139 $
