2024/05/09 19:53
KLAX 091953Z 24010KT 10SM CLR 20/12 A2994 RMK AO2 SLP137 T02000122 $
