2026/02/24 02:53
KLAX 240253Z 24006KT 10SM FEW250 16/10 A3010 RMK AO2 SLP191 T01610100 55000
