2022/10/15 00:07
KLAX 150007Z 24008KT 10SM BKN015 OVC022 19/16 A2981 RMK AO2 CIG 010 RWY24 T01890161 $
