2023/09/16 17:53
KLAX 161753Z 24004KT 3SM BR FEW007 OVC011 18/18 A3001 RMK AO2 RAE25 SLP159 VIS W 2 P0000 60000 T01830178 10189 20183 53009
