2024/10/10 03:53
KLAX 100353Z 26006KT 8SM OVC006 17/16 A2995 RMK AO2 SLP139 T01720156 $
