2024/05/31 23:53
KLAX 312353Z 27012KT 10SM BKN012 BKN020 17/13 A2989 RMK AO2 SLP120 T01670128 10194 20167 56008
