2023/07/09 17:53
KLAX 091753Z 24009KT 9SM SCT022 21/15 A2994 RMK AO2 SLP138 T02110150 10217 20167 51008
