2023/05/13 17:53
KLAX 131753Z 24006KT 6SM BR SCT011 BKN016 17/13 A2990 RMK AO2 SLP123 T01720133 10178 20144 58001
