2026/04/26 07:53
KLAX 260753Z 22006KT 10SM -RA SCT027 BKN033 OVC055 13/12 A2989 RMK AO2 SLP120 P0009 T01330117 401890128
