2024/01/04 07:53
KLAX 040753Z 32013G29KT 10SM FEW050 14/02 A3005 RMK AO2 PK WND 32035/0709 SLP176 T01390017 401610111
