2025/04/01 02:12
KLAX 010212Z 25016KT 10SM FEW008 FEW019 SCT250 14/12 A3003 RMK AO2 T01390117
