2024/06/05 03:53
KLAX 050353Z 26005KT 10SM FEW015 17/14 A2986 RMK AO2 SLP111 T01670144 $
