2024/12/14 21:53
KLAX 142153Z VRB03KT 10SM BKN041 BKN150 17/08 A3016 RMK AO2 SLP214 T01670083
