2024/08/12 19:53
KLAX 121953Z 26012KT 10SM FEW009 24/18 A2996 RMK AO2 SLP143 T02390178
