2024/12/17 11:53
KLAX 171153Z 12003KT 10SM CLR 11/07 A3009 RMK AO2 SLP189 T01060072 10133 20100 56007 $
