2023/01/07 05:53
KLAX 070553Z 00000KT 10SM FEW180 12/09 A3018 RMK AO2 SLP218 T01220094 10144 20122 50003 $
