2026/02/10 17:53
KLAX 101753Z 09007KT 10SM SCT016 OVC024 17/13 A2996 RMK AO2 SLP144 T01670133 10167 20150 53007 $
