2026/01/04 07:53
KLAX 040753Z 18003KT 10SM BKN009 OVC017 15/13 A3002 RMK AO2 SLP165 T01500133 401720133
