2024/01/01 03:53
KLAX 010353Z 00000KT 10SM SCT045 BKN150 14/11 A3008 RMK AO2 SLP184 T01440111
