2022/10/27 05:53
KLAX 270553Z 23003KT 10SM CLR 17/13 A2994 RMK AO2 SLP137 T01670128 10189 20167 51009
