2022/10/12 19:53
KLAX 121953Z 25011KT 10SM FEW009 SCT019 BKN140 23/17 A3006 RMK AO2 SLP178 CB DSNT N-NE T02280172
