2024/04/12 11:53
KLAX 121153Z 11005KT 6SM BR FEW004 OVC008 12/11 A2983 RMK AO2 SLP098 T01220106 10122 20117 57008 $
