2025/11/10 09:53
KLAX 100953Z 27008KT 1/16SM R25L/1000V2200FT FG VV001 15/15 A3011 RMK AO2 SLP196 T01500150 $
