2023/11/20 19:53
KLAX 201953Z 23009KT 10SM CLR 22/M02 A3011 RMK AO2 SLP196 T02221017 $
