2022/09/04 09:53
KLAX 040953Z 14006KT 10SM CLR 26/16 A2987 RMK AO2 SLP109 T02610161
