2023/02/15 23:53
KLAX 152353Z 26017KT 10SM CLR 15/01 A3014 RMK AO2 SLP206 T01500011 10167 20128 56002 $
