2024/03/09 17:53
KLAX 091753Z VRB03KT 10SM SCT250 17/09 A3015 RMK AO2 SLP211 T01670089 10167 20089 51012 $
