2025/08/31 01:53
KLAX 310153Z 26011KT 10SM CLR 23/19 A2986 RMK AO2 SLP111 T02330189 $
