2024/08/02 03:53
KLAX 020353Z VRB05KT 10SM FEW009 SCT130 SCT220 18/16 A3002 RMK AO2 SLP162 T01830156 $
