2026/07/10 06:53
KLAX 100653Z 21003KT 7SM FEW004 BKN007 18/17 A2986 RMK AO2 SLP107 T01830167 $
