2024/08/25 17:53
KLAX 251753Z 25005KT 10SM CLR 24/16 A3005 RMK AO2 SLP174 T02390161 10256 20172 50003
