2025/03/17 07:53
KLAX 170753Z 20004KT 10SM FEW008 BKN170 BKN250 12/11 A3012 RMK AO2 SLP197 T01220106 401780078 $
