2024/10/19 15:53
KLAX 191553Z 00000KT 10SM SCT250 20/01 A3007 RMK AO2 SLP179 T02000011
