2025/08/10 01:53
KLAX 100153Z 26012KT 10SM BKN010 19/16 A2986 RMK AO2 SLP109 T01890156 $
