2022/12/11 23:53
KLAX 112353Z 27019KT 10SM FEW037 FEW090 SCT150 14/05 A2989 RMK AO2 PK WND 26028/2312 SLP119 T01390050 10150 20133 55004 $
