2022/09/12 11:53
KLAX 121153Z 00000KT 10SM FEW050 BKN110 BKN150 23/21 A2995 RMK AO2 SLP138 T02330206 10244 20228 56003 $
