2026/01/14 07:53
KLAX 140753Z 09004KT 10SM CLR 14/06 A3016 RMK AO2 SLP208 T01390061 402610083 $
