2026/04/03 11:53
KLAX 031153Z 07003KT 10SM FEW016 FEW200 13/12 A2995 RMK AO2 SLP138 T01330117 10167 20133 56006 $
