2024/09/22 07:53
KLAX 220753Z 26008KT 10SM FEW010 SCT015 17/16 A2992 RMK AO2 SLP131 T01720156 402280167 $
