2025/01/18 03:53
KLAX 180353Z 23004KT 10SM FEW025 12/07 A3019 RMK AO2 SLP223 T01220072
