2024/04/17 19:53
KLAX 171953Z 27010KT 5SM BCFG BR FEW000 SCT005 BKN140 16/13 A3001 RMK AO2 SLP163 VIS SW-NW 3/4 FG FEW000 SCT V BKN T01610128
