2023/03/22 19:53
KLAX 221953Z 21015G22KT 4SM -RA BR BKN032 BKN070 OVC090 13/08 A3008 RMK AO2 RAB50 SLP184 P0000 T01330083 $
