2024/01/10 17:53
KLAX 101753Z 08005KT 10SM FEW010 FEW045 SCT140 13/04 A3006 RMK AO2 SLP178 T01330044 10133 20061 53009
