2025/12/08 11:53
KLAX 081153Z 00000KT 10SM CLR 13/09 A3012 RMK AO2 SLP199 T01280094 10161 20117 58006 $
