2023/10/03 17:53
KLAX 031753Z 24009G14KT 10SM FEW180 FEW250 24/13 A2997 RMK AO2 SLP147 T02390133 10250 20144 50002 $
