2025/02/07 03:19
KLAX 070319Z 13009G17KT 4SM -RA BR BKN008 OVC018 15/14 A3003 RMK AO2 P0004 T01500139
