2026/06/05 06:53
KLAX 050653Z 17003KT 9SM FEW009 OVC011 18/15 A2989 RMK AO2 SLP119 T01780150 $
