2023/04/15 17:53
KLAX 151753Z 26007KT 10SM FEW015 17/11 A3012 RMK AO2 SLP198 T01720111 10172 20094 51003
