2022/09/12 21:53
KLAX 122153Z 26015KT 10SM FEW100 FEW150 28/20 A2991 RMK AO2 SLP126 T02780200 $
