2025/02/12 01:53
KLAX 120153Z 28016KT 10SM FEW015 FEW050 SCT250 13/08 A2991 RMK AO2 SLP127 T01330083 $
