2025/07/27 19:53
KLAX 271953Z 26010KT 10SM FEW011 SCT017 22/15 A3000 RMK AO2 SLP156 T02170150
