2023/11/25 17:53
KLAX 251753Z VRB03KT 10SM FEW025 18/11 A3007 RMK AO2 SLP182 T01780106 10178 20117 51015 $
