2023/06/22 09:53
KLAX 220953Z 23005KT 10SM FEW008 SCT014 16/14 A2994 RMK AO2 SLP135 T01560139
