2023/12/14 19:53
KLAX 141953Z 35004KT 10SM CLR 23/01 A3014 RMK AO2 SLP207 T02280011 $
