2024/04/27 01:53
KLAX 270153Z 27021KT 10SM FEW011 SCT033 SCT055 15/11 A2984 RMK AO2 PK WND 26031/0112 SLP102 T01500106
