2022/11/25 07:53
KLAX 250753Z 09007KT 10SM CLR 14/00 A3026 RMK AO2 SLP242 T01390000 402560083 $
