2023/08/24 13:53
KLAX 241353Z 18004KT 3SM BR OVC006 18/18 A2995 RMK AO2 SLP138 T01830178 $
