2024/10/15 07:53
KLAX 150753Z 20003KT 10SM OVC013 18/15 A3004 RMK AO2 SLP171 T01780150 402220167 $
