2025/01/11 03:53
KLAX 110353Z 15004KT 10SM FEW022 SCT034 SCT042 16/04 A3021 RMK AO2 SLP228 FU FEW022 FU SCT034 FU SCT042 T01560039
