2022/10/24 15:53
KLAX 241553Z VRB03KT 10SM CLR 17/09 A3013 RMK AO2 SLP203 T01720089
