2026/03/23 07:53
KLAX 230753Z 23005KT 2 1/2SM BR FEW002 BKN005 16/14 A2990 RMK AO2 SLP124 T01560144 402110156
