2024/03/26 15:53
KLAX 261553Z 10009KT 10SM FEW025 SCT035 14/09 A3004 RMK AO2 SLP170 T01440094
