2025/01/07 01:53
KLAX 070153Z 23003KT 10SM FEW200 SCT250 16/09 A2997 RMK AO2 SLP148 T01560094
