2023/03/05 03:53
KLAX 050353Z 27011KT 10SM FEW029 BKN041 12/06 A3001 RMK AO2 SLP161 T01170056 $
