2024/06/30 13:53
KLAX 301353Z 00000KT 2 1/2SM BR OVC006 17/15 A2992 RMK AO2 SLP130 VIS 2V3 T01670150
