2026/07/13 14:10
KLAX 131410Z VRB03KT 9SM SCT010 BKN150 BKN250 20/17 A2996 RMK AO2 SCT V BKN T02000172 $
