2024/07/01 21:53
KLAX 012153Z 26010KT 10SM FEW012 23/17 A2986 RMK AO2 SLP111 T02280167
