2023/12/18 17:53
KLAX 181753Z 11005KT 10SM BKN070 BKN110 OVC180 18/11 A3003 RMK AO2 SLP167 T01780111 10178 20139 51016 $
