2025/09/03 01:53
KLAX 030153Z 23010KT 10SM FEW100 FEW150 24/19 A2986 RMK AO2 SLP111 T02390189
