2025/04/19 23:53
KLAX 192353Z 25016G23KT 10SM CLR 17/11 A3007 RMK AO2 SLP183 T01720106 10189 20172 55010 $
