2026/07/22 05:53
KLAX 220553Z 26010KT 10SM SCT008 BKN010 22/20 A3000 RMK AO2 SLP156 T02220200 10261 20222 51012
