2026/01/13 01:53
KLAX 130153Z 35003KT 10SM FEW060 FEW250 18/02 A3015 RMK AO2 SLP208 T01780022 $
