2024/05/26 23:53
KLAX 262353Z 27013KT 10SM FEW015 18/12 A3001 RMK AO2 SLP160 T01780122 10194 20172 58010
