2025/06/12 01:53
KLAX 120153Z 27008KT 9SM OVC007 17/15 A2988 RMK AO2 SLP117 T01720150 $
