2023/12/31 11:53
KLAX 311153Z 06004KT 10SM SCT019 11/09 A3010 RMK AO2 SLP189 70058 T01110094 10150 20106 53001
