2024/05/20 01:53
KLAX 200153Z 27010KT 10SM FEW017 16/11 A3000 RMK AO2 SLP157 T01560106 $
