2022/12/13 11:53
KLAX 131153Z 04006KT 10SM FEW018 SCT030 BKN045 09/04 A2998 RMK AO2 SLP149 70028 T00890044 10111 20083 50003
