2024/08/26 21:53
KLAX 262153Z 26012KT 10SM CLR 25/15 A3000 RMK AO2 SLP156 T02500150 $
