2024/11/24 13:53
KLAX 241353Z 27007KT 1/2SM R25L/1800V3500FT FG BKN002 OVC006 13/12 A3004 RMK AO2 SLP170 T01280122
