2025/07/14 02:53
KLAX 140253Z 26010KT 10SM OVC006 17/16 A2994 RMK AO2 SLP138 T01720156 55006
