2025/09/28 05:53
KLAX 280553Z 00000KT 10SM FEW010 BKN150 19/16 A2992 RMK AO2 SLP130 T01940161 10217 20194 50006 $
