2023/07/31 19:53
KLAX 311953Z 24009KT 10SM FEW027 SCT120 BKN160 BKN250 26/20 A2997 RMK AO2 SLP145 T02610200 $
