2025/06/04 19:53
KLAX 041953Z 24009KT 7SM SCT009 BKN020 19/13 A2991 RMK AO2 SLP128 T01890133
