2023/06/22 23:53
KLAX 222353Z 24011G18KT 10SM FEW022 FEW050 18/12 A2996 RMK AO2 SLP146 60000 T01830117 10211 20183 56006
