2024/12/23 17:53
KLAX 231753Z 08003KT 3SM HZ FEW004 SCT008 BKN140 14/11 A3015 RMK AO2 SLP207 T01440111 10144 20128 51012
