2023/05/07 01:53
KLAX 070153Z 25015KT 10SM SCT040 SCT250 16/11 A3007 RMK AO2 SLP183 T01610111
