2024/12/25 03:53
KLAX 250353Z 00000KT 10SM FEW010 SCT050 14/11 A3006 RMK AO2 SLP178 T01390106 $
