2026/01/31 15:53
KLAX 311553Z 02008KT 10SM CLR 18/00 A3017 RMK AO2 SLP213 T01830000 $
