2024/02/11 19:53
KLAX 111953Z 00000KT 10SM FEW015 17/M02 A3020 RMK AO2 SLP227 T01671017 $
