2022/08/29 05:53
KLAX 290553Z 25008KT 10SM FEW010 FEW150 19/16 A2984 RMK AO2 SLP103 T01940161 10228 20194 51014 $
