2023/01/05 11:53
KLAX 051153Z 14011KT 4SM +RA BR FEW008 BKN020 OVC025 13/12 A3003 RMK AO2 SLP167 P0011 60043 70096 T01330122 10144 20133 55014 $
