2025/07/18 05:53
KLAX 180553Z 27008KT 10SM BKN012 BKN150 18/16 A2995 RMK AO2 SLP140 T01830156 10217 20183 51012 $
