2023/01/26 05:53
KLAX 260553Z VRB04KT 10SM CLR 14/03 A3026 RMK AO2 SLP246 T01440028 10161 20122 51009 $
