2025/08/29 19:53
KLAX 291953Z 24009KT 10SM FEW110 28/16 A3000 RMK AO2 SLP156 T02780161 $
