2026/01/09 05:53
KLAX 090553Z 32008KT 10SM CLR 12/M04 A3015 RMK AO2 SLP210 T01221039 10161 20122 53018 $
