2025/12/22 13:53
KLAX 221353Z 07004KT 3SM BR FEW001 FEW003 SCT250 10/10 A3001 RMK AO2 SLP161 VIS 2 1/2V4 VIS SE-SW 2 T01000100 $
