2025/04/15 13:53
KLAX 151353Z 00000KT 8SM FEW016 OVC022 13/08 A3005 RMK AO2 SLP173 T01330083 $
