2026/02/24 17:53
KLAX 241753Z 00000KT 10SM FEW100 SCT250 SCT280 20/07 A3007 RMK AO2 SLP182 T02000067 10200 20117 50005
