2026/04/19 05:53
KLAX 190553Z 00000KT 10SM SCT220 18/11 A2994 RMK AO2 SLP136 T01780111 10211 20178 51014 $
