2024/12/16 19:53
KLAX 161953Z 24010KT 10SM FEW200 SCT230 SCT270 18/03 A3013 RMK AO2 SLP203 T01830033 $
