2022/12/15 15:53
KLAX 151553Z 10003KT 10SM FEW160 SCT200 BKN280 10/03 A3013 RMK AO2 SLP203 T01000033 VISNO RWY24 $
