2023/02/27 13:53
KLAX 271353Z 09004KT 10SM FEW018 SCT025 BKN042 08/06 A3014 RMK AO2 SLP206 T00780061 $
