2025/02/24 11:53
KLAX 241153Z 00000KT 10SM FEW009 FEW250 10/10 A3012 RMK AO2 SLP197 T01000100 10161 20100 58013 $
