2026/06/15 18:53
KLAX 151853Z 26012KT 10SM FEW008 BKN011 19/15 A3004 RMK AO2 SLP171 T01940150 $
