2023/07/27 17:53
KLAX 271753Z 25007KT 9SM FEW010 FEW250 26/19 A2994 RMK AO2 SLP135 T02560189 10256 20194 51008 $
