2024/05/20 13:53
KLAX 201353Z 22004KT 10SM FEW012 BKN021 OVC026 14/11 A2999 RMK AO2 SLP156 T01440111 $
