2024/07/27 07:53
KLAX 270753Z 00000KT 10SM CLR 18/16 A2988 RMK AO2 SLP117 T01830161 402220161
