2023/04/05 07:53
KLAX 050753Z 02006KT 10SM BKN250 13/M05 A3011 RMK AO2 SLP195 T01331050 401610094 $
