2024/09/14 13:53
KLAX 141353Z VRB03KT 8SM -DZ BKN013 OVC019 19/15 A2988 RMK AO2 SLP115 P0000 T01940150
