2024/05/26 07:53
KLAX 260753Z 26003KT 10SM FEW015 14/11 A3000 RMK AO2 SLP158 T01390111 401890128
