2024/12/02 07:53
KLAX 020753Z 14003KT 10SM FEW250 14/08 A3013 RMK AO2 SLP202 T01440078 402110117 $
