2023/03/08 23:53
KLAX 082353Z 26010KT 10SM FEW035 FEW150 SCT250 13/06 A3013 RMK AO2 SLP202 T01330061 10144 20128 56012 $
