2024/04/30 17:53
KLAX 301753Z 27007KT 10SM FEW010 19/13 A2989 RMK AO2 SLP120 T01890133 10206 20139 $
