2026/05/24 15:53
KLAX 241553Z 23004KT 10SM BKN016 OVC019 16/12 A3004 RMK AO2 SLP170 T01610117 $
