2022/10/06 03:53
KLAX 060353Z VRB03KT 8SM OVC007 19/18 A2997 RMK AO2 SLP147 T01940178
