2025/05/31 13:53
KLAX 311353Z 00000KT 1/2SM R25L/P6000FT FG OVC002 17/16 A2997 RMK AO2 SLP145 T01670156 $
