2026/02/11 04:30
KLAX 110430Z 13013G20KT 10SM SCT019 SCT025 BKN050 OVC150 17/13 A2997 RMK AO2 CIG 038 RWY24 T01670128 $
