2022/11/29 17:53
KLAX 291753Z 04007KT 8SM FEW022 BKN040 17/11 A2999 RMK AO2 SLP155 T01670106 10167 20117 51020
