2024/08/30 07:53
KLAX 300753Z 25004KT 10SM BKN009 17/16 A2998 RMK AO2 SLP149 T01720156 402330172
