2023/01/01 21:53
KLAX 012153Z 26023G28KT 10SM SCT032 SCT065 BKN090 16/10 A2973 RMK AO2 PK WND 26032/2056 SLP067 T01610100
