2023/08/19 21:53
KLAX 192153Z 24009KT 10SM FEW011 SCT048 BKN100 BKN180 22/15 A2985 RMK AO2 SLP107 T02220150 $
