2023/03/23 01:53
KLAX 230153Z 25010KT 10SM FEW022 FEW050 SCT085 12/08 A3009 RMK AO2 SLP188 SHRA N AND NW T01220083
