2023/11/21 13:53
KLAX 211353Z 00000KT 10SM CLR 16/M03 A3025 RMK AO2 SLP242 T01561028 $
