2023/11/30 21:53
KLAX 302153Z 26010KT 10SM FEW008 FEW035 SCT060 SCT180 18/11 A2990 RMK AO2 SLP125 T01780111
