2023/02/25 13:53
KLAX 251353Z 12012G16KT 4SM RA BR SCT007 BKN011 OVC018 08/08 A2985 RMK AO2 SLP107 P0014 T00830078 $
