2023/05/17 09:53
KLAX 170953Z 24005KT 6SM BR OVC006 14/13 A2996 RMK AO2 SLP142 T01390128
