2025/06/04 21:53
KLAX 042153Z 23010KT 10SM FEW024 19/13 A2989 RMK AO2 SLP120 T01940133
