2025/05/18 21:53
KLAX 182153Z 25012KT 10SM FEW015 FEW037 19/13 A2996 RMK AO2 SLP143 T01890128
