2023/08/10 21:53
KLAX 102153Z 25010KT 10SM FEW019 FEW100 SCT150 24/18 A2996 RMK AO2 SLP144 T02390183 $
