2025/04/22 09:53
KLAX 220953Z 19006KT 9SM BKN012 13/10 A2997 RMK AO2 SLP148 T01330100 $
