2024/08/22 13:53
KLAX 221353Z 00000KT 10SM BKN014 20/17 A2995 RMK AO2 SLP138 T02000172
