2024/06/17 05:53
KLAX 170553Z 15006KT 8SM BKN012 18/16 A2974 RMK AO2 SLP068 T01830156 10206 20178 51007
