2026/01/26 15:53
KLAX 261553Z 05004KT 10SM FEW120 BKN160 BKN250 12/01 A3026 RMK AO2 SLP247 T01220011 $
