2025/11/30 19:53
KLAX 301953Z 24007KT 4SM HZ BKN019 BKN220 17/12 A2999 RMK AO2 SLP156 T01670122 $
