2024/10/25 05:53
KLAX 250553Z 32004KT 1/8SM R25L/P6000FT FG BKN002 15/14 A2992 RMK AO2 SLP129 VIS SE 1 T01500144 10161 20150 50004 $
