2024/08/25 19:53
KLAX 251953Z 24012KT 10SM CLR 24/17 A3004 RMK AO2 SLP171 T02390167
