2026/01/24 15:53
KLAX 241553Z 26005KT 10SM FEW016 BKN039 14/11 A2988 RMK AO2 RAE1458 SLP118 P0000 T01390111 $
