2024/06/27 07:53
KLAX 270753Z 32004KT 10SM FEW008 18/15 A2991 RMK AO2 SLP125 T01830150 402220172
