2025/12/24 03:53
KLAX 240353Z 10014KT 10SM FEW035 SCT060 BKN085 17/10 A2995 RMK AO2 SLP141 T01670100 $
