2023/07/05 17:53
KLAX 051753Z 26008KT 8SM FEW010 SCT020 19/13 A2997 RMK AO2 SLP147 T01940133 10200 20150 58003 $
