2025/06/24 15:53
KLAX 241553Z 18003KT 8SM FEW018 OVC026 18/12 A3001 RMK AO2 SLP162 T01830122
