2024/07/19 03:53
KLAX 190353Z 27010KT 2SM BR FEW002 OVC004 18/16 A2997 RMK AO2 SLP147 VIS SW-NW 1 1/2 T01780161
