2025/04/14 05:53
KLAX 140553Z 25006KT 8SM FEW008 BKN010 14/12 A2997 RMK AO2 SLP149 T01390117 10172 20139 51007 $
