2022/12/22 11:53
KLAX 221153Z 08006KT 10SM FEW250 11/04 A3005 RMK AO2 SLP175 T01060044 10150 20094 50002
