2024/10/03 05:53
KLAX 030553Z 13003KT 3SM BR FEW002 FEW004 18/17 A2978 RMK AO2 SLP082 VIS 2 1/2V4 T01780167 10189 20167 53010
