2024/09/19 01:53
KLAX 190153Z 25008KT 10SM FEW150 18/14 A2984 RMK AO2 SLP102 T01780139 $
