2023/03/19 01:53
KLAX 190153Z 26007KT 10SM OVC200 17/03 A3000 RMK AO2 SLP157 T01720033
