2022/12/21 09:53
KLAX 210953Z 08004KT 10SM CLR 09/07 A3014 RMK AO2 SLP204 T00890067
