2025/04/22 17:53
KLAX 221753Z 25008KT 7SM FEW010 FEW025 16/09 A2998 RMK AO2 SLP153 T01610089 10161 20128 53004
