2023/04/15 19:53
KLAX 151953Z 25010KT 10SM FEW015 17/11 A3011 RMK AO2 SLP196 T01720106
