2025/02/26 09:53
KLAX 260953Z 07003KT 1/16SM R25L/1400V1800FT FG VV001 13/13 A2992 RMK AO2 SLP132 T01280128 $
