2022/09/16 02:53
KLAX 160253Z 26012KT 10SM CLR 22/15 A2991 RMK AO2 SLP126 T02170150 53003 $
