2025/02/06 17:53
KLAX 061753Z 25007KT 1 1/4SM BR VCFG FEW002 BKN004 OVC006 14/13 A3009 RMK AO2 SLP187 VIS SW 3/4 W 1/2 NW 3/4 60006 T01390133 10144 20139 51019 $
