2025/12/11 15:53
KLAX 111553Z 00000KT 10SM CLR 14/07 A3003 RMK AO2 SLP168 T01390067 $
