2023/10/27 17:53
KLAX 271753Z 20003KT 10SM SCT025 BKN041 20/14 A3004 RMK AO2 SLP170 T02000139 10200 20139 51009
