2023/04/17 13:53
KLAX 171353Z 08003KT 7SM FEW009 OVC014 13/10 A2998 RMK AO2 SLP151 T01330100
