2026/07/20 21:53
KLAX 202153Z 26010KT 10SM BKN200 26/18 A2990 RMK AO2 SLP124 T02560183 $
