2025/07/07 11:53
KLAX 071153Z 00000KT 8SM FEW009 OVC011 17/14 A2993 RMK AO2 SLP133 T01720144 10172 20167 56003 $
