2026/02/17 18:10
KLAX 171810Z 02008KT 6SM -RA BR SCT017 BKN023 OVC038 12/10 A3010 RMK AO2 P0001 T01220100
