2023/05/30 21:53
KLAX 302153Z 26013G19KT 10SM FEW040 BKN055 18/12 A2996 RMK AO2 SLP146 T01780122 $
