2024/08/31 15:53
KLAX 311553Z 00000KT 6SM HZ OVC010 19/17 A3001 RMK AO2 SLP160 T01940167 $
