2023/05/07 05:53
KLAX 070553Z 26012KT 10SM FEW040 FEW200 15/09 A3009 RMK AO2 SLP188 T01500089 10178 20150 50003
