2024/04/22 15:53
KLAX 221553Z VRB03KT 2SM BR OVC008 15/13 A2990 RMK AO2 SLP125 VIS 1V3 T01500128
