2025/06/28 09:53
KLAX 280953Z 31003KT 8SM OVC010 18/16 A2997 RMK AO2 SLP144 T01780156 $
