2024/11/06 21:53
KLAX 062153Z 31006KT 10SM FEW100 FEW140 SCT180 BKN250 24/M07 A2990 RMK AO2 SLP191 FU FEW100 T02391067 $ 
