2024/09/01 21:53
KLAX 012153Z 24012KT 10SM FEW009 FEW100 24/18 A2988 RMK AO2 SLP117 T02390183 $
