2023/11/30 15:53
KLAX 301553Z 07005KT 8SM FEW009 SCT015 OVC043 13/09 A2996 RMK AO2 SLP142 T01280094
