2024/05/06 15:53
KLAX 061553Z 00000KT 10SM FEW017 SCT160 16/07 A3002 RMK AO2 SLP166 T01610072 $
