2025/11/27 03:53
KLAX 270353Z 00000KT 10SM CLR 22/06 A3005 RMK AO2 SLP175 T02170061 $
