2026/07/01 08:53
KLAX 010853Z 28004KT 10SM BKN017 OVC037 18/14 A2990 RMK AO2 SLP124 T01780139 58010 $
