2025/02/22 11:58
KLAX 221158Z 10005KT 1/4SM R25L/1000V1600FT FG VV001 09/09 A3014 RMK AO2 T00940094
