2022/08/24 13:53
KLAX 241353Z 09003KT 6SM HZ FEW006 FEW011 21/18 A2984 RMK AO2 SLP102 T02060178 $
