2025/08/11 23:53
KLAX 112353Z 24009KT 10SM FEW007 23/18 A2990 RMK AO2 SLP123 T02280178 10239 20222 58015 $
