2025/02/27 15:53
KLAX 271553Z 02004KT 6SM HZ FEW000 SCT230 BKN280 14/11 A3009 RMK AO2 SLP188 VIS W 1 3/4 FG FEW000 T01440111
