2025/12/14 17:53
KLAX 141753Z 24005KT 7SM BKN010 15/12 A3012 RMK AO2 SLP197 T01500122 10161 20144 53013
