2025/08/18 19:53
KLAX 181953Z 26012KT 10SM FEW010 24/17 A2997 RMK AO2 SLP146 T02390172 $
