2024/12/06 09:53
KLAX 060953Z 00000KT 2 1/2SM BR FEW003 10/09 A3008 RMK AO2 SLP184 VIS N 1 1/4 T01000089 $
