2026/07/19 16:53
KLAX 191653Z 27006KT 9SM FEW012 FEW220 24/18 A2995 RMK AO2 SLP141 T02440183 $
