2026/04/21 15:53
KLAX 211553Z 13004KT 10SM FEW020 BKN035 BKN160 BKN250 17/12 A3004 RMK AO2 SLP171 T01670117 $
