2025/05/09 07:53
KLAX 090753Z 24006KT 10SM CLR 16/14 A3004 RMK AO2 SLP172 T01560139 402060133 $
