2026/01/09 09:53
KLAX 090953Z 00000KT 10SM CLR 10/M01 A3022 RMK AO2 SLP232 T01001011 $
