2024/06/07 05:53
KLAX 070553Z 24006KT 1SM R25L/P6000FT BR VV002 15/14 A2989 RMK AO2 SLP118 VIS 1/4V2 1/2 T01500144 10189 20150 51011 $
