2022/09/02 07:53
KLAX 020753Z 08004KT 10SM FEW150 24/19 A2976 RMK AO2 SLP072 T02390194 403110211
