2025/05/20 21:53
KLAX 202153Z 26011KT 10SM CLR 23/14 A2990 RMK AO2 SLP125 T02280144
