2022/10/25 17:53
KLAX 251753Z VRB03KT 10SM CLR 22/01 A3008 RMK AO2 SLP185 T02170006 10222 20133 58004
