2026/07/10 01:53
KLAX 100153Z 26006KT 8SM BKN009 BKN012 19/17 A2984 RMK AO2 SLP103 T01940167 $
