2023/05/14 05:53
KLAX 140553Z 13004KT 6SM BR OVC008 15/14 A2988 RMK AO2 SLP117 VIS W 3 T01500139 10167 20144 52013
