2026/06/02 12:53
KLAX 021253Z 33004KT 5SM HZ FEW009 OVC014 17/14 A2998 RMK AO2 SLP148 T01670139 $
