2023/04/02 11:53
KLAX 021153Z 05004KT 8SM FEW015 11/09 A3009 RMK AO2 SLP188 T01060089 10128 20100 58008 $
