2026/05/25 17:53
KLAX 251753Z 25009KT 10SM FEW010 SCT025 19/12 A2999 RMK AO2 SLP154 T01890117 10194 20144 50004 $
