2023/06/10 05:53
KLAX 100553Z 25006KT 10SM FEW010 BKN016 16/14 A2999 RMK AO2 SLP153 T01610139 10189 20161 50003
