2024/07/29 13:53
KLAX 291353Z 26006KT 7SM FEW004 SCT010 16/15 A2997 RMK AO2 SLP148 T01610150
