2026/05/18 16:53
KLAX 181653Z VRB04KT 7SM SCT028 SCT036 BKN044 19/12 A2989 RMK AO2 SLP120 T01890117
