2024/09/16 19:53
KLAX 161953Z 25014G21KT 10SM FEW030 FEW045 21/12 A2989 RMK AO2 SLP122 T02060122 $
