2023/09/03 01:53
KLAX 030153Z 25009KT 10SM FEW015 BKN034 BKN045 22/18 A2999 RMK AO2 SLP152 T02170183 $
