2025/03/25 03:53
KLAX 250353Z 22004KT 8SM SCT005 13/12 A3004 RMK AO2 SLP170 T01330122 $
