2025/01/16 05:53
KLAX 160553Z 12004KT 10SM CLR 13/01 A3022 RMK AO2 SLP231 T01280006 10194 20117 51011 $
