2023/05/14 15:53
KLAX 141553Z 09004KT 9SM OVC009 16/14 A2994 RMK AO2 SLP139 T01560139
