2023/01/02 07:53
KLAX 020753Z 28010KT 10SM CLR 13/02 A2987 RMK AO2 SLP115 T01280022 401610122
