2023/10/18 19:53
KLAX 181953Z 27011KT 6SM BCFG BR SCT000 SCT005 20/16 A2991 RMK AO2 SLP127 VIS S-NW 1 FG SCT000 SCT005 V BKN T02000161 $
