2023/04/14 01:53
KLAX 140153Z 26008KT 10SM BKN020 OVC029 13/11 A2985 RMK AO2 CIG 011 RWY24 SLP106 T01330106 $
