2025/08/29 18:53
KLAX 291853Z 25010KT 10SM FEW120 28/18 A3001 RMK AO2 SLP161 T02780178 $
