2026/05/26 23:53
KLAX 262353Z 26014KT 10SM FEW033 FEW044 18/10 A2979 RMK AO2 SLP088 T01780100 10200 20172 58016 $
