2024/02/01 15:53
KLAX 011553Z 05017G22KT 2SM R25L/5500VP6000FT +RA BR FEW009 BKN017 OVC020 09/09 A2977 RMK AO2 PRESFR SLP080 VIS 3/4V3 P0063 T00940089 $
