2026/03/01 17:53
KLAX 011753Z 00000KT 10SM FEW230 FEW280 23/12 A2999 RMK AO2 SLP154 T02330122 10233 20139 50009
