2025/09/06 11:53
KLAX 061153Z 09006KT 7SM OVC012 20/17 A2990 RMK AO2 SLP122 T02000172 10200 20189 53000
