2023/03/15 05:53
KLAX 150553Z 10007KT 2 1/2SM RA BR OVC004 14/13 A2999 RMK AO2 SLP155 P0012 60059 T01390133 10139 20133 53002 $
