2025/08/07 09:53
KLAX 070953Z 24004KT 10SM CLR 19/17 A2996 RMK AO2 SLP144 T01890172
