2025/03/29 01:53
KLAX 290153Z 26019KT 10SM FEW013 SCT045 BKN150 15/10 A2993 RMK AO2 PK WND 25027/0104 SLP134 T01500100 $
