2022/10/13 03:53
KLAX 130353Z 26005KT 10SM OVC012 19/17 A3005 RMK AO2 SLP176 T01940167
