2024/12/17 09:53
KLAX 170953Z 10003KT 10SM BKN200 11/07 A3011 RMK AO2 SLP193 T01060072 $
