2022/10/30 09:53
KLAX 300953Z 08005KT 10SM CLR 14/10 A3001 RMK AO2 SLP160 T01390100 CHINO RWY24 VISNO RWY24 $
