2024/11/15 01:53
KLAX 150153Z 25009KT 10SM FEW010 16/11 A2985 RMK AO2 SLP108 T01560111
