2024/05/29 03:53
KLAX 290353Z 27007KT 10SM OVC007 14/12 A3003 RMK AO2 SLP169 T01390122
