2026/02/11 05:53
KLAX 110553Z 14014G23KT 10SM FEW018 FEW055 BKN090 OVC150 17/13 A2994 RMK AO2 SLP138 T01670128 10172 20167 58007 $
