2023/04/16 15:53
KLAX 161553Z 25007KT 10SM BKN009 OVC013 13/11 A3014 RMK AO2 SLP204 T01330111
