2024/06/14 05:53
KLAX 140553Z 25011KT 10SM OVC009 16/14 A2999 RMK AO2 SLP155 T01610139 10189 20156 53006
