2025/11/25 03:53
KLAX 250353Z 30008KT 9SM CLR 16/14 A3010 RMK AO2 SLP194 T01610139
