2024/12/11 13:53
KLAX 111353Z 36007KT 10SM FEW055 BKN280 14/M14 A3020 RMK AO2 SLP226 FU FEW055 T01391144
