2024/04/27 19:53
KLAX 271953Z 24012KT 10SM SCT028 18/11 A3000 RMK AO2 SLP159 T01780111
