2023/10/08 01:53
KLAX 080153Z 26007KT 1SM R25L/6000VP6000FT BCFG VV001 17/17 A2985 RMK AO2 SLP105 VIS SW-NW 1/8 T01720172
