2025/01/08 19:53
KLAX 081953Z 03018G29KT 7SM SCT044 SCT070 BKN140 BKN180 21/02 A3009 RMK AO2 PK WND 02029/1946 SLP189 FU SCT044 FU SCT070 T02060017
