2024/10/01 05:53
KLAX 010553Z 24004KT 9SM FEW006 18/16 A2993 RMK AO2 SLP133 T01780161 10200 20178 51018 $
