2023/08/29 09:53
KLAX 290953Z 00000KT 10SM CLR 20/18 A2983 RMK AO2 SLP099 T02000183
