2023/10/23 01:53
KLAX 230153Z 26009KT 10SM FEW013 FEW060 18/16 A2977 RMK AO2 SLP079 T01830161 $
