2024/09/03 23:53
KLAX 032353Z 25016KT 10SM FEW007 FEW095 23/18 A2986 RMK AO2 SLP108 T02280183 10250 20222 56015 $
