2025/07/25 19:53
KLAX 251953Z 24011KT 9SM FEW028 FEW180 SCT250 22/14 A3002 RMK AO2 SLP164 T02220144 $
