2024/06/19 05:53
KLAX 190553Z VRB03KT 10SM BKN012 17/15 A2982 RMK AO2 SLP094 T01720150 10217 20172 51011 $
