2026/02/14 11:53
KLAX 141153Z 07005KT 10SM BKN016 14/11 A3008 RMK AO2 SLP185 T01390111 10150 20122 53002
