2025/10/29 01:53
KLAX 290153Z 25007KT 10SM CLR 20/17 A2997 RMK AO2 SLP146 T02000172 $
