2024/04/08 15:53
KLAX 081553Z 00000KT 10SM FEW009 13/08 A2998 RMK AO2 SLP152 T01280083
