2025/03/27 04:53
KLAX 270453Z 25008KT 10SM OVC032 14/11 A3009 RMK AO2 SLP187 T01440106 $
