2025/05/24 09:53
KLAX 240953Z 26004KT 10SM BKN018 OVC023 17/13 A2994 RMK AO2 SLP137 T01670133
