2026/06/27 17:53
KLAX 271753Z 24009KT 10SM SCT026 BKN032 21/14 A2998 RMK AO2 SLP150 T02110139 10217 20178 51007
