2025/04/11 21:53
KLAX 112153Z 26010KT 10SM FEW000 SCT220 SCT280 21/13 A3000 RMK AO2 SLP157 FG FEW000 T02060128
