2024/11/25 03:53
KLAX 250353Z 27007KT 10SM FEW020 FEW250 13/11 A3010 RMK AO2 SLP193 T01330111
