2023/09/07 00:53
KLAX 070053Z 26017KT 10SM FEW015 22/16 A2991 RMK AO2 SLP126 T02220161
