2023/05/16 17:53
KLAX 161753Z 23005KT 9SM SCT006 OVC010 16/13 A3006 RMK AO2 SLP177 T01560133 10156 20144 53006
