2024/11/30 13:53
KLAX 301353Z 02007KT 10SM BKN200 16/M08 A3005 RMK AO2 SLP173 T01561078 $
