2025/11/04 19:53
KLAX 041953Z 31004KT 6SM HZ FEW009 SCT017 19/13 A3010 RMK AO2 SLP191 T01940133 $
