2024/07/15 13:53
KLAX 151353Z 22005KT 7SM OVC010 18/16 A3005 RMK AO2 SLP175 T01830161
