2024/06/26 17:53
KLAX 261753Z 25009KT 10SM FEW008 21/16 A2999 RMK AO2 SLP154 T02110161 10217 20172 51007
