2024/04/05 07:53
KLAX 050753Z 28012KT 10SM FEW025 BKN034 11/03 A2994 RMK AO2 SLP136 T01110033 401610106 $
