2023/12/04 01:53
KLAX 040153Z 26005KT 10SM FEW200 SCT250 15/12 A3016 RMK AO2 SLP211 T01500122
