2023/03/12 19:53
KLAX 121953Z 25009KT 4SM BR BKN007 15/13 A3015 RMK AO2 SLP208 VIS S-W 1 1/4 T01500133 $
