2023/02/01 19:53
KLAX 011953Z 22007KT 10SM FEW180 18/M04 A3015 RMK AO2 SLP208 T01781039 $
