2026/05/21 04:53
KLAX 210453Z 24007KT 10SM FEW250 20/11 A2984 RMK AO2 SLP101 T02000106
