2024/04/12 03:53
KLAX 120353Z 21003KT 1/2SM R25L/P6000FT FG OVC003 12/12 A2983 RMK AO2 SLP100 T01170117 $
