2022/10/29 17:53
KLAX 291753Z 27006KT 9SM FEW300 21/11 A3013 RMK AO2 SLP201 T02060106 10206 20128 51008 VISNO RWY24 $
