2026/04/04 07:53
KLAX 040753Z 12007KT 10SM FEW240 SCT290 17/14 A3004 RMK AO2 SLP170 T01720144 402560133 $
