2024/11/21 11:53
KLAX 211153Z VRB03KT 10SM FEW220 SCT280 10/03 A3014 RMK AO2 SLP204 T01000033 10139 20094 56004
