2023/04/03 07:53
KLAX 030753Z 26006KT 10SM BKN018 BKN029 13/09 A2997 RMK AO2 SLP148 T01280089 401670094 $
