2024/07/07 17:53
KLAX 071753Z 25007KT 8SM FEW012 FEW019 23/17 A2995 RMK AO2 SLP139 T02280167 10233 20189 53005 $
