2024/01/23 11:53
KLAX 231153Z 00000KT 1/8SM R25L/1000V1600FT FG BKN001 BKN003 BKN150 12/12 A2983 RMK AO2 SLP100 70112 T01170117 10144 20117 50001
