2023/05/19 07:53
KLAX 190753Z VRB04KT 10SM OVC012 16/13 A2997 RMK AO2 SLP146 T01560133 402110144
