2022/10/20 02:53
KLAX 200253Z 24006KT 10SM FEW200 FEW250 26/11 A2995 RMK AO2 SLP140 T02610111 53011 $
