2023/09/18 17:53
KLAX 181753Z 24009KT 10SM SCT030 SCT100 21/16 A3002 RMK AO2 SLP162 T02110161 10211 20167 51009 $
