2023/07/27 07:53
KLAX 270753Z 19004KT 10SM FEW008 21/18 A2991 RMK AO2 SLP124 T02060178 402780189 $
