2025/01/12 17:53
KLAX 121753Z 00000KT 10SM FEW016 17/M02 A3011 RMK AO2 SLP196 FU FEW016 T01721017 10172 20083 51015 $
