2022/09/14 13:53
KLAX 141353Z 10005KT 9SM BKN018 BKN024 21/18 A2989 RMK AO2 SLP118 T02060178 $
