2024/07/23 13:53
KLAX 231353Z 27007KT 10SM SCT006 SCT110 BKN220 19/17 A2989 RMK AO2 SLP119 T01890172 $
