2023/12/17 11:53
KLAX 171153Z 08005KT 10SM FEW250 14/M02 A3001 RMK AO2 SLP160 T01391022 10194 20133 58007 $
