2023/11/09 13:53
KLAX 091353Z 11003KT 10SM CLR 12/M01 A3007 RMK AO2 SLP181 T01171011
