2026/03/26 05:53
KLAX 260553Z 27008KT 9SM OVC006 16/14 A2998 RMK AO2 SLP149 T01560144 10172 20150 51014 $
