2026/05/18 21:53
KLAX 182153Z 27014KT 8SM FEW060 21/13 A2989 RMK AO2 SLP118 T02060128
