2023/11/10 15:53
KLAX 101553Z 06005KT 10SM SCT180 SCT220 BKN280 17/M07 A3006 RMK AO2 SLP177 T01671072
