2025/07/29 07:53
KLAX 290753Z 00000KT 10SM FEW016 18/15 A3003 RMK AO2 SLP168 T01780150 402280172
