2026/02/22 23:53
KLAX 222353Z 25013KT 10SM FEW250 18/09 A3017 RMK AO2 SLP215 T01780094 10206 20178 56007 $
