2024/09/30 05:53
KLAX 300553Z 27005KT 8SM FEW003 BKN005 17/16 A2987 RMK AO2 SLP112 T01670156 10189 20167 51008 $
