2023/06/22 07:53
KLAX 220753Z 23005KT 10SM FEW010 16/12 A2994 RMK AO2 SLP137 T01610117 402220150
