2024/08/19 15:53
KLAX 191553Z 00000KT 10SM FEW008 24/18 A2998 RMK AO2 SLP149 T02390183
