2025/07/20 05:53
KLAX 200553Z 00000KT 10SM OVC013 18/16 A3002 RMK AO2 SLP162 T01830156 10211 20183 51011 $
