2022/11/29 23:53
KLAX 292353Z 25008KT 10SM FEW045 17/11 A2995 RMK AO2 SLP140 T01670106 10189 20161 56005
