2025/04/14 21:53
KLAX 142153Z 26012KT 10SM FEW018 FEW200 SCT250 17/10 A3001 RMK AO2 SLP163 T01670100 $
