2024/11/27 17:53
KLAX 271753Z 24005KT 7SM BCFG FEW000 SCT025 BKN140 BKN250 17/15 A3007 RMK AO2 SLP182 FG FEW000 VIS W-NW 1/2 T01720150 10172 20150 51003
