2024/04/03 09:53
KLAX 030953Z 00000KT 10SM CLR 13/11 A3022 RMK AO2 SLP232 T01330111
