2024/09/28 14:53
KLAX 281453Z 25005KT 3SM BR OVC008 16/13 A2988 RMK AO2 SLP119 T01560133 51011
