2025/08/02 19:53
KLAX 021953Z 26009KT 6SM HZ FEW019 22/15 A3011 RMK AO2 SLP195 T02170150 $
