2022/12/29 03:53
KLAX 290353Z VRB05KT 10SM FEW035 BKN200 14/11 A2995 RMK AO2 SLP139 T01440111 $
