2026/02/22 13:53
KLAX 221353Z 33003KT 10SM FEW250 12/00 A3019 RMK AO2 SLP220 T01220000 $
