2025/09/07 07:53
KLAX 070753Z 25003KT 10SM CLR 20/17 A3002 RMK AO2 SLP162 T02000172 402610189
