2023/01/25 06:53
KLAX 250653Z 00000KT 10SM CLR 11/08 A3028 RMK AO2 SLP252 T01060083 $
