2026/03/15 02:53
KLAX 150253Z 24006KT 7SM BKN004 15/14 A2992 RMK AO2 VIS 3/4 RWY24 SLP132 VIS W 2 T01500139 53004 $
