2025/04/17 01:53
KLAX 170153Z 25011KT 10SM FEW024 FEW070 16/10 A2996 RMK AO2 SLP143 T01560100 $
