2023/11/04 21:53
KLAX 042153Z 27010KT 7SM BCFG FEW000 BKN200 19/14 A3000 RMK AO2 SLP159 FG FEW000 FG BANK SW-W T01940144
