2023/12/12 19:53
KLAX 121953Z VRB04KT 10SM FEW009 FEW070 18/10 A2989 RMK AO2 SLP121 T01780100
