2026/06/28 23:53
KLAX 282353Z 28013KT 10SM FEW032 21/13 A2986 RMK AO2 SLP111 T02060133 10217 20189 57016
