2026/06/18 06:53
KLAX 180653Z 25008KT 10SM FEW010 OVC016 17/14 A2994 RMK AO2 SLP135 T01720144 $
