2025/04/26 19:53
KLAX 261953Z 26013G21KT 10SM SCT027 BKN045 16/09 A2996 RMK AO2 SLP145 T01610089 $
