2025/12/24 05:53
KLAX 240553Z 09008KT 10SM SCT065 OVC080 17/11 A2996 RMK AO2 SLP145 T01670106 10172 20150 53006 $
