2025/07/01 03:53
KLAX 010353Z 26012KT 10SM BKN006 17/14 A2986 RMK AO2 SLP108 T01670144
