2026/05/19 12:53
KLAX 191253Z 09004KT 6SM BR FEW010 FEW220 SCT280 14/12 A2993 RMK AO2 SLP134 T01440122
