2023/07/12 21:53
KLAX 122153Z 27010KT 10SM FEW100 FEW250 24/15 A2997 RMK AO2 SLP149 T02390150 $
