2024/04/05 15:53
KLAX 051553Z 10010KT 8SM FEW016 SCT024 BKN040 09/07 A2994 RMK AO2 RAB28E41 SLP140 SCT V BKN P0000 T00890067 $
