2024/04/26 23:53
KLAX 262353Z 26027G35KT 10SM FEW015 SCT033 SCT045 17/11 A2984 RMK AO2 PK WND 26035/2352 SLP106 T01720111 10189 20167 58028
