2023/11/24 15:53
KLAX 241553Z 01005KT 10SM SCT028 SCT060 16/11 A2990 RMK AO2 SLP124 T01610106
