2023/01/05 09:53
KLAX 050953Z 09011KT 4SM RA BR FEW008 BKN020 OVC045 13/13 A3004 RMK AO2 RAB0859 SLP170 P0023 T01330128 $
