2024/12/02 21:53
KLAX 022153Z 28010KT 10SM FEW120 SCT160 SCT250 18/09 A3006 RMK AO2 SLP180 T01780089
