2026/03/18 02:53
KLAX 180253Z 24005KT 10SM FEW250 24/09 A2990 RMK AO2 SLP125 T02390094 53007 $
