2023/02/28 07:53
KLAX 280753Z 13007KT 090V150 7SM -RA FEW012 BKN020 OVC037 11/08 A3009 RMK AO2 SLP189 P0000 T01060083 401220078 $
