2026/03/17 17:53
KLAX 171753Z VRB03KT 10SM FEW260 SCT300 32/05 A2994 RMK AO2 SLP137 T03220050 10322 20150 51010 $
