2022/10/26 13:53
KLAX 261353Z 03003KT 10SM FEW012 FEW140 SCT180 15/08 A2999 RMK AO2 SLP155 T01500083
