2024/06/19 15:53
KLAX 191553Z VRB05KT 10SM FEW017 OVC021 19/14 A2986 RMK AO2 SLP109 T01940139 $
