2025/01/25 01:53
KLAX 250153Z 27008KT 10SM BKN250 16/M05 A2992 RMK AO2 SLP132 T01561050
