2022/10/26 03:53
KLAX 260353Z 33005KT 10SM CLR 18/14 A2999 RMK AO2 SLP156 T01780144
