2024/02/28 01:53
KLAX 280153Z 27007KT 10SM FEW019 FEW050 14/11 A2998 RMK AO2 SLP150 T01390111 $
