2025/04/21 07:53
KLAX 210753Z 17005KT 10SM FEW250 BKN300 14/12 A3000 RMK AO2 SLP159 T01390117 401780117 $
