2024/01/30 09:53
KLAX 300953Z 12004KT 10SM FEW220 12/08 A3007 RMK AO2 SLP179 T01220083 $
