2022/09/20 21:53
KLAX 202153Z 25019KT 10SM FEW017 FEW060 24/18 A2988 RMK AO2 SLP117 T02440178 $
