2023/01/06 21:53
KLAX 062153Z 26003KT 10SM FEW160 FEW180 17/08 A3018 RMK AO2 SLP218 T01670083 $
