2024/06/18 17:53
KLAX 181753Z 20005KT 8SM SCT014 BKN024 21/14 A2979 RMK AO2 SLP085 T02060139 10206 20172 51006
