2026/06/11 18:53
KLAX 111853Z 28009KT 10SM FEW015 23/17 A2987 RMK AO2 SLP112 T02330167
