2023/04/11 09:53
KLAX 110953Z 28005KT 1/4SM R25L/P4000VP6000FT FG VV002 12/12 A3002 RMK AO2 SLP165 T01220117
