2026/03/19 13:53
KLAX 191353Z 08004KT 7SM FEW009 FEW070 18/17 A3004 RMK AO2 SLP168 T01780167 $
