2025/06/28 07:53
KLAX 280753Z 00000KT 8SM BKN009 17/15 A2996 RMK AO2 SLP141 T01720150 402280167 $
