2025/04/02 09:53
KLAX 020953Z 27010KT 10SM FEW070 FEW150 SCT280 11/05 A2982 RMK AO2 SLP097 T01060050
