2025/11/12 15:53
KLAX 121553Z 00000KT 3SM BR SCT005 BKN140 OVC180 16/15 A3008 RMK AO2 SLP185 VIS 2 1/2V4 VIS SE-SW 2 VIS W-NW 1 T01560150 $
