2023/03/24 13:53
KLAX 241353Z 35010KT 10SM FEW140 SCT160 SCT250 12/02 A3022 RMK AO2 SLP231 ACSL NE-SE T01220017
