2025/12/29 07:53
KLAX 290753Z 04005KT 10SM SCT250 14/05 A3016 RMK AO2 SLP210 T01390050 401940072 $
