2023/12/18 15:53
KLAX 181553Z 27007KT 10SM SCT080 BKN110 BKN190 OVC270 17/13 A3000 RMK AO2 SLP159 T01670128 $
