2024/09/06 09:53
KLAX 060953Z 08003KT 10SM FEW110 BKN150 24/18 A2983 RMK AO2 SLP098 T02390178 $
