2024/08/29 11:53
KLAX 291153Z 31004KT 9SM OVC012 18/16 A2997 RMK AO2 SLP147 T01830156 10183 20172 53003
