2026/04/14 17:53
KLAX 141753Z 14003KT 10SM FEW010 FEW028 19/08 A3012 RMK AO2 SLP199 T01890083 10189 20111 51006
