2025/02/15 01:53
KLAX 150153Z 26018KT 10SM FEW022 SCT065 SCT240 BKN290 13/09 A3010 RMK AO2 PK WND 25031/0056 SLP190 T01330094
