2024/03/26 11:53
KLAX 261153Z 11005KT 10SM FEW014 BKN026 12/10 A2998 RMK AO2 SLP150 T01220100 10122 20100 58005
