2024/09/15 23:53
KLAX 152353Z 26013KT 10SM FEW015 FEW040 21/15 A2983 RMK AO2 SLP101 T02110150 10228 20206 56017 $
