2025/06/06 05:53
KLAX 060553Z 27010KT 10SM FEW014 SCT018 SCT090 16/13 A2992 RMK AO2 SLP130 T01610133 10194 20161 50008
