2023/06/19 15:53
KLAX 191553Z 25006KT 9SM SCT009 OVC015 16/15 A2996 RMK AO2 SLP143 T01610150
