2024/01/19 13:53
KLAX 191353Z 00000KT 8SM FEW001 FEW003 BKN250 12/11 A3003 RMK AO2 SLP168 T01220111 $
