2024/11/14 21:53
KLAX 142153Z 25010KT 10SM FEW250 18/10 A2990 RMK AO2 SLP125 T01830100
