2025/07/23 21:53
KLAX 232153Z 26013KT 10SM FEW250 22/14 A3004 RMK AO2 SLP170 T02170144 $
