2022/11/24 15:53
KLAX 241553Z 11003KT 10SM FEW025 13/05 A3017 RMK AO2 SLP215 T01280050
