2023/04/03 17:53
KLAX 031753Z VRB03KT 9SM SCT016 SCT030 BKN046 16/03 A2994 RMK AO2 RAE1657 SLP137 P0000 60001 T01560033 10161 20117 53008
