2024/09/14 17:53
KLAX 141753Z 01005KT 10SM SCT017 OVC026 22/15 A2991 RMK AO2 SLP127 60000 T02220150 10222 20189 51007
