2023/08/21 09:53
KLAX 210953Z 13017G21KT 1 1/2SM RA BR FEW003 BKN006 OVC012 18/18 A2990 RMK AO2 SLP123 P0015 T01830183 $
