2023/01/31 13:53
KLAX 311353Z 10004KT 10SM FEW002 FEW200 07/06 A3005 RMK AO2 SLP173 T00670056
