2023/05/16 11:53
KLAX 161153Z 27005KT 2 1/2SM BR FEW002 OVC004 14/14 A3000 RMK AO2 SLP159 VIS W 1 3/4 T01440139 10156 20139 55012
