2026/07/15 20:53
KLAX 152053Z 26011KT 10SM FEW018 FEW045 26/18 A2985 RMK AO2 SLP104 T02610183 58009 $
