2024/07/12 11:53
KLAX 121153Z 00000KT 3SM BR FEW003 OVC005 19/17 A2988 RMK AO2 SLP116 VIS SW-N 2 1/2 T01890172 10189 20172 53008 $
