2023/05/05 21:53
KLAX 052153Z 25013G16KT 10SM FEW009 FEW013 SCT050 18/09 A3008 RMK AO2 SLP185 T01830094
