2022/11/29 03:53
KLAX 290353Z 26004KT 10SM BKN018 BKN026 OVC032 15/11 A2989 RMK AO2 SLP120 T01500111
