2023/12/01 01:53
KLAX 010153Z 26010KT 10SM SCT016 16/13 A2991 RMK AO2 SLP126 T01560133
