2026/05/11 12:53
KLAX 111253Z 00000KT 3SM BR FEW005 OVC007 16/14 A2995 RMK AO2 SLP139 VIS SW-N 2 1/2 T01560139
