2022/08/28 23:53
KLAX 282353Z 25013KT 10SM FEW014 FEW110 23/17 A2980 RMK AO2 SLP088 T02280167 10244 20222 56020 $
