2024/03/15 09:53
KLAX 150953Z 20004KT 10SM FEW050 FEW110 13/02 A2977 RMK AO2 SLP079 T01330017 $
