2024/09/17 07:53
KLAX 170753Z 15005KT 10SM FEW018 17/12 A2992 RMK AO2 SLP130 T01670122 402170167 $
