2024/12/23 03:53
KLAX 230353Z 12003KT 9SM FEW015 BKN200 14/13 A3012 RMK AO2 SLP198 T01440128
