2023/08/13 01:53
KLAX 130153Z 25012KT 10SM SCT010 SCT080 21/18 A2994 RMK AO2 SLP138 T02110178 $
