2024/10/27 05:53
KLAX 270553Z 00000KT 8SM FEW005 SCT250 17/15 A3004 RMK AO2 SLP171 T01670150 10183 20167 50004 $
