2022/12/24 03:53
KLAX 240353Z 29006KT 10SM CLR 14/12 A3017 RMK AO2 SLP214 T01440117 $
