2023/12/06 09:53
KLAX 060953Z 08004KT 10SM FEW250 15/08 A3007 RMK AO2 SLP181 T01500078
