2025/11/12 00:11
KLAX 120011Z 26008KT 7SM BKN005 BKN200 17/15 A3003 RMK AO2 T01670150 $
