2025/11/03 11:53
KLAX 031153Z 00000KT 2SM BR BKN003 OVC007 15/14 A3003 RMK AO2 SLP165 T01500144 10161 20139 55001 $
