2023/03/17 01:53
KLAX 170153Z 26010KT 10SM FEW035 FEW250 13/09 A3004 RMK AO2 SLP171 T01280089 $
