2023/02/24 05:53
KLAX 240553Z 09009KT 10SM FEW014 SCT025 BKN035 BKN140 08/05 A3005 RMK AO2 RAE06 SLP174 P0000 60000 T00830050 10111 20083 50008
