2022/11/26 01:53
KLAX 260153Z 24008KT 10SM CLR 18/04 A3018 RMK AO2 SLP221 T01780039 $
