2023/03/18 23:53
KLAX 182353Z 26007KT 10SM BKN250 19/03 A2999 RMK AO2 SLP154 T01890028 10239 20189 56010
