2026/02/04 15:53
KLAX 041553Z 13004KT 10SM CLR 15/03 A3016 RMK AO2 SLP211 T01500028 $
