2025/06/06 15:53
KLAX 061553Z 25005KT 9SM SCT010 OVC014 17/13 A2995 RMK AO2 SLP141 T01670133
