2026/02/06 23:53
KLAX 062353Z 26008KT 10SM FEW026 FEW110 SCT180 SCT220 BKN270 18/12 A3009 RMK AO2 SLP187 T01830122 10200 20178 56011 $
