2026/03/03 03:53
KLAX 030353Z 10003KT 10SM CLR 16/13 A2996 RMK AO2 SLP143 T01560128
