2025/05/16 09:53
KLAX 160953Z 26004KT 10SM FEW010 BKN014 15/12 A2995 RMK AO2 SLP141 T01500122 $
