2024/06/21 19:53
KLAX 211953Z 24010G19KT 10SM CLR 21/15 A2978 RMK AO2 SLP082 T02110150
