2023/04/25 05:53
KLAX 250553Z 00000KT 10SM FEW009 BKN016 14/12 A2991 RMK AO2 SLP126 T01390117 10172 20139 51010 $
