2022/09/24 15:53
KLAX 241553Z 22003KT 10SM FEW250 24/17 A3001 RMK AO2 SLP159 T02390172
