2026/05/03 08:20
KLAX 030820Z 19005KT 10SM FEW011 OVC015 16/11 A2993 RMK AO2 T01560111
