2023/09/18 19:53
KLAX 181953Z 24010KT 10SM FEW030 SCT100 22/16 A2999 RMK AO2 SLP153 T02220156 $
