2025/11/14 19:53
KLAX 141953Z 07011G20KT 8SM SCT010 BKN043 OVC055 17/15 A2998 RMK AO2 RAE36 SLP151 P0000 T01670150 $
