2025/08/21 11:53
KLAX 211153Z 00000KT 10SM SCT250 21/18 A2986 RMK AO2 SLP108 T02110178 10222 20206 58002
