2022/11/21 21:53
KLAX 212153Z 26008KT 10SM FEW240 BKN300 22/00 A3007 RMK AO2 SLP182 T02220000 $
