2025/09/04 05:53
KLAX 040553Z 21005KT 10SM FEW011 FEW160 22/18 A2992 RMK SLP130 T02170178 10250 20217 51018 
