2025/03/29 21:53
KLAX 292153Z 26012G20KT 10SM FEW017 SCT035 BKN150 17/11 A2997 RMK AO2 SLP148 T01670106 $
