2023/07/23 07:53
KLAX 230753Z 24004KT 9SM BKN011 19/18 A2988 RMK AO2 SLP114 T01890178 402330172
