2026/05/27 08:53
KLAX 270853Z 24008KT 10SM FEW022 SCT055 14/10 A2980 RMK AO2 SLP089 T01440100 58000 $
