2024/06/19 03:53
KLAX 190353Z 24006KT 10SM BKN012 17/14 A2980 RMK AO2 SLP088 T01720144 $
