2022/10/11 03:53
KLAX 110353Z 26007KT 10SM BKN012 BKN150 19/16 A2993 RMK AO2 SLP134 T01940161 $
