2023/05/31 21:53
KLAX 312153Z 24012KT 10SM FEW023 SCT029 SCT048 19/12 A2993 RMK AO2 SLP133 T01890122
