2022/10/31 15:53
KLAX 311553Z 11003KT 10SM FEW007 SCT140 BKN250 17/11 A2994 RMK AO2 SLP136 T01720111 VISNO RWY24 $
