2024/01/06 01:53
KLAX 060153Z 27008KT 10SM FEW250 14/10 A3011 RMK AO2 SLP196 T01390100
