2023/04/13 05:53
KLAX 130553Z 27007KT 6SM BR BKN008 OVC020 12/11 A2981 RMK AO2 SLP093 60002 T01220111 10144 20122 50002 $
