2025/11/15 15:53
KLAX 151553Z 24015KT 2SM -RA BR SCT008 BKN018 OVC026 15/14 A2984 RMK AO2 SLP104 VIS SW-W 1 P0014 T01500139 $
