2023/12/05 00:53
KLAX 050053Z 26007KT 10SM FEW150 FEW250 17/11 A3007 RMK AO2 SLP183 T01720111
