2023/12/19 05:53
KLAX 190553Z 25005KT 9SM OVC047 18/12 A2995 RMK AO2 SLP139 60000 T01830117 10189 20167 53003 $
