2022/11/13 19:53
KLAX 131953Z 30010KT 10SM FEW034 FEW046 SCT080 19/03 A3000 RMK AO2 SLP157 T01890028 $
