2025/02/20 21:53
KLAX 202153Z 26012KT 6SM BCFG BR SCT006 BKN250 16/12 A2995 RMK AO2 SLP140 VIS S-NW 2 T01560122
