2025/09/03 11:53
KLAX 031153Z 00000KT 10SM CLR 21/18 A2993 RMK SLP132 T02060178 10222 20206 55003 
