2022/10/22 21:53
KLAX 222153Z 23007KT 9SM FEW024 OVC033 19/13 A2976 RMK AO2 SLP077 T01940133
