2025/06/13 17:53
KLAX 131753Z 26010KT 10SM SCT021 SCT240 21/14 A2988 RMK AO2 SLP118 T02110144 10211 20172 51002
