2025/09/06 21:53
KLAX 062153Z 27012KT 10SM CLR 24/17 A2995 RMK AO2 SLP141 T02390167
