2024/11/13 13:53
KLAX 131353Z 06004KT 10SM FEW250 13/M04 A3007 RMK AO2 SLP182 T01331039
