2023/05/21 05:53
KLAX 210553Z 28006KT 10SM OVC007 15/14 A3008 RMK AO2 SLP184 OCNL LTGIC DSNT NE CB DSNT NE T01500139 10172 20150 51007
