2023/03/03 02:53
KLAX 030253Z 27004KT 10SM FEW250 12/06 A3008 RMK AO2 SLP185 T01170061 53004 $
