2024/07/03 05:53
KLAX 030553Z 27007KT 1/4SM R25L/3500VP6000FT FG VV002 16/16 A2984 RMK AO2 SLP102 T01610156 10217 20161 53012 $
