2024/08/18 23:53
KLAX 182353Z 25014KT 10SM FEW015 23/18 A2991 RMK AO2 SLP128 T02330178 10244 20228 57010 $
