2024/03/11 11:53
KLAX 111153Z 06003KT 10SM FEW011 FEW015 11/09 A3003 RMK AO2 SLP168 T01060089 10133 20106 58003 $
