2025/02/16 01:53
KLAX 160153Z 20006KT 10SM BKN250 14/08 A3019 RMK AO2 SLP223 T01440083 $
