2026/07/21 20:53
KLAX 212053Z 25013KT 10SM FEW025 FEW100 SCT190 27/15 A2999 RMK AO2 SLP153 T02670150 57002
