2025/05/06 01:53
KLAX 060153Z 26007KT 10SM FEW019 OVC029 16/12 A2986 RMK AO2 SLP111 T01560117
