2022/10/10 13:53
KLAX 101353Z 08005KT 5SM HZ FEW008 OVC010 19/16 A2999 RMK AO2 SLP153 T01890161 $
