2024/01/07 09:53
KLAX 070953Z 28027G39KT 10SM FEW018 SCT031 13/07 A2987 RMK AO2 PK WND 29039/0952 SLP113 T01280072
