2024/06/09 07:53
KLAX 090753Z 27005KT 10SM OVC012 17/14 A2993 RMK AO2 SLP135 T01670139 402060161 $
