2026/01/05 03:53
KLAX 050353Z 00000KT 10SM FEW013 SCT039 BKN120 14/12 A3000 RMK AO2 CIG 055 RWY24 SLP158 T01440122
