2024/03/20 05:53
KLAX 200553Z 30005KT 10SM FEW006 FEW009 14/12 A3003 RMK AO2 SLP166 T01390122 10178 20139 51012 $
