2026/05/02 02:53
KLAX 020253Z 27014KT 10SM SCT010 SCT200 16/13 A2990 RMK AO2 SLP123 T01610133 53003
