2022/11/05 03:53
KLAX 050353Z 26007KT 10SM SCT200 15/10 A3020 RMK AO2 SLP226 T01500100
