2024/05/29 15:53
KLAX 291553Z 00000KT 8SM OVC014 16/12 A3005 RMK AO2 SLP176 T01560117 $
