2026/04/21 05:53
KLAX 210553Z 25006KT 10SM FEW018 BKN250 16/12 A3002 RMK AO2 SLP163 T01560122 10189 20156 51017 $
