2023/09/20 05:53
KLAX 200553Z 27006KT 10SM FEW010 BKN015 19/16 A2990 RMK AO2 SLP124 T01890161 10211 20189 51005
