2024/05/27 11:53
KLAX 271153Z 19005KT 9SM BKN008 14/12 A3001 RMK AO2 SLP161 T01390122 10150 20139 53006
