2024/06/18 09:53
KLAX 180953Z 11004KT 10SM BKN012 17/14 A2971 RMK AO2 SLP059 T01720144
