2025/05/27 01:53
KLAX 270153Z 26010KT 10SM FEW016 SCT200 18/13 A2995 RMK AO2 SLP141 T01780133 $
