2025/08/16 05:53
KLAX 160553Z VRB06KT 10SM BKN019 21/17 A2998 RMK AO2 SLP149 T02060167 10222 20200 51012 $
