2026/06/13 13:53
KLAX 131353Z VRB03KT 7SM OVC008 18/16 A2988 RMK AO2 SLP117 T01780161 $
