2024/10/15 06:53
KLAX 150653Z 23004KT 10SM BKN012 17/15 A3005 RMK AO2 SLP173 T01720150 $
