2026/05/12 15:53
KLAX 121553Z 18004KT 5SM HZ FEW007 OVC011 16/12 A2999 RMK AO2 SLP155 T01560122
