2023/03/06 09:53
KLAX 060953Z 24008KT 10SM FEW012 FEW025 BKN045 12/08 A3013 RMK AO2 RAB30E41 SLP201 SHRA N P0000 T01170083 $
