2026/02/02 09:53
KLAX 020953Z 08003KT 10SM SCT220 14/11 A3005 RMK AO2 SLP174 T01390111
