2024/03/27 15:53
KLAX 271553Z 08005KT 10SM FEW014 SCT140 14/10 A3018 RMK AO2 SLP220 T01390100 $
