2023/05/12 21:53
KLAX 122153Z 26013KT 10SM FEW016 FEW025 19/12 A2995 RMK AO2 SLP141 T01890122
