2024/01/23 19:53
KLAX 231953Z 25010KT 10SM FEW040 SCT070 17/13 A2991 RMK AO2 SLP128 T01670128
