2025/07/16 03:53
KLAX 160353Z 28007KT 10SM OVC010 18/15 A2993 RMK AO2 SLP132 T01780150
