2024/10/26 19:53
KLAX 261953Z 27006KT 6SM HZ FEW004 BKN250 20/13 A3003 RMK AO2 SLP169 T02000128 $
