2025/05/21 09:53
KLAX 210953Z 27004KT 10SM FEW015 17/13 A2988 RMK AO2 SLP116 T01670133 $
