2023/03/17 09:53
KLAX 170953Z 10003KT 10SM FEW008 FEW014 SCT045 09/08 A3005 RMK AO2 SLP175 T00940083 $
