2025/03/12 00:14
KLAX 120014Z 08005KT 10SM -RA FEW023 BKN027 OVC042 13/11 A2983 RMK AO2 RAB2356 P0000 T01330106
