2023/11/04 11:53
KLAX 041153Z 11003KT 5SM R25L/1000V3000FT BCFG BR SCT000 SCT002 12/12 A3004 RMK AO2 SLP171 FG SCT000 T01220122 10167 20122 58002
