2025/02/16 15:53
KLAX 161553Z 35004KT 10SM FEW130 SCT240 BKN280 12/05 A3012 RMK AO2 SLP197 T01220050 CHINO RWY24 $
