2022/09/05 21:53
KLAX 052153Z 25011KT 10SM FEW050 FEW110 29/19 A2973 RMK AO2 SLP063 FU FEW050 T02890189 $
