2024/10/11 00:53
KLAX 110053Z 26009KT 8SM FEW220 SCT280 18/15 A2996 RMK AO2 SLP145 T01830150 $
