2022/10/11 15:53
KLAX 111553Z 00000KT 10SM FEW010 OVC020 21/16 A3000 RMK AO2 SLP159 T02060156 $
