2025/07/15 09:53
KLAX 150953Z 00000KT 9SM OVC010 18/15 A2994 RMK AO2 SLP135 T01780150
