2025/11/06 05:53
KLAX 060553Z VRB03KT 10SM CLR 17/12 A3019 RMK AO2 SLP222 T01670117 10183 20167 51005 $
