2023/06/08 13:53
KLAX 081353Z 23003KT 10SM FEW009 FEW017 SCT160 BKN250 16/14 A3000 RMK AO2 SLP159 T01560139
