2022/10/05 07:53
KLAX 050753Z 00000KT 10SM FEW009 20/18 A2995 RMK AO2 SLP141 T02000178 402500178
