2025/03/08 23:53
KLAX 082353Z 26012KT 10SM CLR 14/09 A3025 RMK AO2 SLP242 T01440089 10167 20144 56010
