2025/02/14 15:53
KLAX 141553Z 26011KT 10SM FEW007 SCT014 SCT038 14/12 A3012 RMK AO2 SLP198 T01390117 $
