2022/10/25 11:53
KLAX 251153Z 11003KT 10SM CLR 14/01 A3010 RMK AO2 SLP190 T01390011 10183 20128 58014
