2025/04/16 13:53
KLAX 161353Z 29004KT 8SM FEW019 OVC039 13/09 A2997 RMK AO2 SLP147 T01330094
