2025/04/10 21:53
KLAX 102153Z 27011KT 10SM FEW000 FEW200 SCT250 21/13 A3011 RMK AO2 SLP195 FG FEW000 FG BNK SW-W T02110133
