2024/12/17 15:53
KLAX 171553Z 00000KT 10SM FEW047 FEW140 SCT160 12/06 A3013 RMK AO2 SLP201 T01170056 $
