2022/08/31 19:53
KLAX 311953Z 26009KT 10SM FEW022 26/17 A2986 RMK AO2 SLP109 T02560167
