2026/02/17 12:11
KLAX 171211Z 06003KT 10SM FEW015 BKN029 BKN050 BKN200 10/08 A2996 RMK AO2 T01000083 $
