2025/02/16 13:53
KLAX 161353Z 00000KT 10SM FEW250 09/06 A3010 RMK AO2 SLP191 T00940061 CHINO RWY24 $
