2025/04/20 09:53
KLAX 200953Z 27003KT 10SM CLR 13/11 A3006 RMK AO2 SLP176 T01330111 $
