2023/12/17 15:53
KLAX 171553Z 02006KT 10SM FEW180 SCT230 BKN300 18/M04 A3001 RMK AO2 SLP161 T01781039 $
