2023/06/03 21:53
KLAX 032153Z 26011G17KT 10SM SCT016 19/14 A2993 RMK AO2 SLP135 T01940139
