2024/06/21 15:53
KLAX 211553Z VRB03KT 10SM CLR 20/14 A2978 RMK AO2 SLP083 T02000139
