2024/11/18 03:53
KLAX 180353Z 04005KT 10SM CLR 14/07 A2995 RMK AO2 SLP141 T01440067 $
