2023/02/27 19:53
KLAX 271953Z 13006G21KT 7SM -RA BKN014 OVC029 11/09 A3015 RMK AO2 SLP211 P0001 T01110089 $
