2026/02/17 00:18
KLAX 170018Z 23014G21KT 10SM R25L/3500VP6000FT -RA FEW009 SCT020 SCT030 13/11 A2977 RMK AO2 P0009 T01330111 $
