2022/12/24 13:53
KLAX 241353Z 00000KT 6SM FU FEW001 10/08 A3021 RMK AO2 SLP228 FU FEW001 T01000078 $
