2024/12/11 21:53
KLAX 112153Z 27005KT 10SM FEW090 BKN180 OVC250 19/01 A3003 RMK AO2 SLP167 T01940006 $
