2025/01/22 19:53
KLAX 221953Z 27006KT 10SM FEW009 SCT100 BKN140 BKN250 21/02 A3021 RMK AO2 SLP231 FU FEW009 T02110017
