2024/01/07 11:53
KLAX 071153Z 32005KT 10SM CLR 12/06 A2989 RMK AO2 SLP119 60000 T01170056 10139 20117 53002
