2022/09/13 07:53
KLAX 130753Z 25005KT 10SM FEW050 SCT150 22/18 A2989 RMK AO2 SLP119 T02170183 402890217 $
