2024/10/03 19:53
KLAX 031953Z 28008KT 9SM FEW005 FEW130 23/17 A2979 RMK AO2 SLP088 T02280167
