2023/07/11 17:53
KLAX 111753Z 26008KT 7SM SCT008 20/16 A2999 RMK AO2 SLP154 T02000156 10200 20161 51005 $
