2026/03/05 13:53
KLAX 051353Z 35007G16KT 9SM FEW006 FEW012 15/03 A2991 RMK AO2 SLP126 T01500028
