2022/10/11 01:53
KLAX 110153Z 25010KT 10SM BKN014 19/16 A2991 RMK AO2 SLP127 T01940161 $
