2026/02/04 21:53
KLAX 042153Z 23007KT 10SM FEW220 FEW300 30/M02 A3004 RMK AO2 SLP171 T03001022 $
