2022/09/11 11:53
KLAX 111153Z 14004KT 10SM SCT030 BKN060 24/21 A2995 RMK AO2 SLP139 T02440206 10244 20239 53003 $
