2022/12/12 13:53
KLAX 121353Z 10006KT 10SM FEW010 BKN030 BKN050 08/06 A2988 RMK AO2 RAE49 SLP116 P0002 T00780061 $
