2023/01/05 07:53
KLAX 050753Z 10011KT 10SM FEW012 SCT016 BKN060 OVC200 14/13 A3006 RMK AO2 SLP178 T01440133 401610139 $
