2023/12/26 07:53
KLAX 260753Z 11005KT 10SM FEW011 BKN180 BKN220 BKN280 13/12 A3015 RMK AO2 SLP208 T01330117 401830094
