2023/09/07 09:53
KLAX 070953Z 00000KT 10SM CLR 19/17 A2993 RMK AO2 SLP133 T01890167
