2025/02/10 19:53
KLAX 101953Z VRB04KT 10SM FEW024 BKN036 15/07 A3006 RMK AO2 SLP180 T01500072
