2022/11/28 17:53
KLAX 281753Z 12008KT 7SM FEW006 SCT014 BKN040 BKN140 16/11 A2997 RMK AO2 SLP149 T01610111 10161 20122 51004 $
