2025/04/11 09:53
KLAX 110953Z 09003KT 10SM FEW250 14/13 A3003 RMK AO2 SLP165 T01390128
