2024/01/24 11:53
KLAX 241153Z 07007KT 10SM FEW008 BKN012 13/12 A3008 RMK AO2 SLP186 T01330122 10144 20128 51008
