2023/07/06 05:53
KLAX 060553Z 25006KT 10SM SCT008 BKN011 16/14 A2995 RMK AO2 SLP139 T01560139 10194 20150 51007 $
