2026/02/27 13:53
KLAX 271353Z 10003KT 10SM FEW020 FEW200 SCT250 17/12 A2997 RMK AO2 SLP146 T01670122
