2022/11/03 17:53
KLAX 031753Z 26011KT 10SM FEW045 FEW080 SCT140 16/02 A3008 RMK AO2 SLP184 T01560017 10161 20117 50017 VISNO RWY24 $
