2024/06/05 11:53
KLAX 051153Z 25005KT 7SM FEW008 OVC010 17/14 A2985 RMK AO2 SLP107 T01670144 10178 20167 55002 $
