2024/12/11 11:53
KLAX 111153Z 01009KT 10SM FEW055 BKN280 12/M14 A3019 RMK AO2 SLP220 FU FEW055 T01221139 10161 20122 58017
