2023/10/02 17:53
KLAX 021753Z 00000KT 10SM FEW019 FEW180 19/12 A3001 RMK AO2 SLP160 T01940117 10200 20122 50007 $
