2026/02/08 02:53
KLAX 080253Z 30003KT 10SM FEW150 SCT220 19/12 A3013 RMK AO2 SLP202 T01890122 53004 $
