2025/09/12 17:53
KLAX 121753Z 19003KT 9SM FEW009 SCT019 BKN029 23/15 A2996 RMK AO2 SLP145 T02280150 10228 20189 51005 $
