2023/11/04 15:53
KLAX 041553Z 31004KT 6SM HZ FEW003 SCT200 17/11 A3008 RMK AO2 SLP183 T01670111
