2024/10/26 23:53
KLAX 262353Z 27010KT 9SM FEW004 BKN250 18/16 A3000 RMK AO2 SLP157 T01830156 10217 20161 55004 $
