2023/02/14 11:53
KLAX 141153Z 26012KT 10SM FEW020 FEW035 BKN050 12/08 A2995 RMK AO2 SLP141 T01220083 10139 20122 58005 $
