2026/06/28 08:53
KLAX 280853Z 25004KT 10SM BKN021 OVC028 17/14 A2992 RMK AO2 SLP129 T01720139 58002
