2024/03/26 01:53
KLAX 260153Z 27014KT 10SM FEW070 BKN200 13/09 A2992 RMK AO2 SLP130 T01330094
