2024/12/26 15:53
KLAX 261553Z 04003KT 10SM FEW150 SCT190 OVC240 11/05 A3009 RMK AO2 SLP188 T01110050
