2024/06/30 09:53
KLAX 300953Z 00000KT 4SM BR OVC004 16/14 A2989 RMK AO2 SLP120 T01560144
