2023/07/06 02:21
KLAX 060221Z 26014KT 10SM BKN010 17/14 A2992 RMK AO2 T01670139 $
