2025/04/28 11:53
KLAX 281153Z 10003KT 10SM FEW011 FEW020 SCT090 SCT180 11/09 A3006 RMK AO2 SLP176 T01110094 10139 20111 58006 $
