2025/08/12 05:53
KLAX 120553Z 21004KT 10SM CLR 19/17 A2991 RMK AO2 SLP126 T01940167 10228 20194 52006 $
