2024/07/26 17:53
KLAX 261753Z 25008KT 8SM SCT006 21/17 A2993 RMK AO2 SLP133 T02110167 10211 20161 56006
