2023/03/16 11:53
KLAX 161153Z 10004KT 10SM FEW015 BKN024 BKN038 12/09 A3001 RMK AO2 SLP160 70015 T01220089 10128 20122 55006 $
