2024/04/10 07:53
KLAX 100753Z 09003KT 10SM CLR 16/09 A3004 RMK AO2 SLP170 T01560089 402560111 $
