2024/12/01 09:53
KLAX 010953Z 12004KT 10SM BKN200 14/08 A3007 RMK AO2 SLP182 T01440078 $
