2022/09/01 13:53
KLAX 011353Z 07003KT 6SM HZ SCT160 BKN200 22/17 A2976 RMK AO2 SLP073 T02220172
