2023/09/06 03:53
KLAX 060353Z 25007KT 10SM OVC027 20/17 A2993 RMK AO2 SLP132 T02000167 $
