2024/10/09 05:53
KLAX 090553Z 26005KT 3SM BR FEW002 OVC004 17/16 A2990 RMK AO2 SLP123 VIS 2 1/2V5 T01670156 10194 20167 53020 $
