2022/11/13 09:53
KLAX 130953Z 08003KT 10SM FEW010 SCT015 11/07 A3000 RMK AO2 SLP158 T01110072 $
