2025/03/28 23:53
KLAX 282353Z 27020KT 10SM FEW014 SCT055 SCT150 17/11 A2994 RMK AO2 SLP139 T01670106 10189 20161 58014 $
