2022/12/01 11:53
KLAX 011153Z 09005KT 10SM FEW025 BKN042 13/06 A2999 RMK AO2 SLP155 T01330056 10139 20133 56002 $
