2023/05/01 21:53
KLAX 012153Z 24010KT 220V280 10SM FEW024 17/10 A2986 RMK AO2 SLP110 T01720100
