2023/02/15 13:53
KLAX 151353Z 34010KT 10SM FEW250 08/M04 A3005 RMK AO2 SLP174 T00781039 $
