2023/05/15 07:53
KLAX 150753Z VRB05KT 10SM OVC010 16/13 A3003 RMK AO2 SLP169 T01610133 402110144
