2026/01/08 23:53
KLAX 082353Z 32013G22KT 10SM FEW050 16/M01 A3002 RMK AO2 PK WND 30030/2314 SLP166 T01611011 10167 20150 53001 $
