2024/11/11 17:53
KLAX 111753Z 23004KT 6SM HZ FEW009 SCT180 18/07 A3007 RMK AO2 SLP182 T01830067 10183 20089 53007
