2025/08/14 21:53
KLAX 142153Z 25011KT 10SM OVC012 22/17 A2990 RMK AO2 SLP124 T02170167 $
