2025/04/09 13:53
KLAX 091353Z 08003KT 8SM FEW010 13/11 A3004 RMK AO2 SLP172 T01280111 $
