2023/03/02 07:53
KLAX 020753Z 26009KT 10SM CLR 10/M02 A2997 RMK AO2 SLP149 T01001022 401280094
