2023/10/08 03:53
KLAX 080353Z 25004KT 1 3/4SM BCFG VV001 17/17 A2986 RMK AO2 SLP110 VIS SW-W 1/4 T01720172
