2023/05/11 05:53
KLAX 110553Z 04003KT 10SM FEW025 SCT050 14/09 A3004 RMK AO2 SLP171 T01440094 10172 20144 50003
