2023/02/25 17:53
KLAX 251753Z 10006KT 10SM SCT018 BKN033 OVC050 09/08 A2995 RMK AO2 SLP139 60067 T00940078 10094 20083 51025 $
