2026/06/03 02:53
KLAX 030253Z 25012KT 10SM FEW008 SCT250 17/14 A2997 RMK AO2 SLP148 T01670144 53002 $
