2025/09/13 17:53
KLAX 131753Z 23008KT 9SM SCT018 OVC024 22/17 A2994 RMK AO2 SLP137 T02220167 10222 20194 51005 $
