2023/05/05 13:53
KLAX 051353Z 00000KT 10SM FEW009 FEW015 BKN047 BKN140 13/11 A3003 RMK AO2 SLP168 FU FEW015 T01330106
