2026/01/28 03:53
KLAX 280353Z 24005KT 10SM BKN210 16/11 A3024 RMK AO2 SLP240 T01560106
