2022/12/07 03:53
KLAX 070353Z 27013KT 10SM FEW020 FEW150 13/07 A3006 RMK AO2 SLP177 T01330067 $
