2023/06/06 23:53
KLAX 062353Z 26013KT 10SM FEW034 SCT045 BKN200 17/11 A2990 RMK AO2 SLP125 T01670106 10183 20167 57008
