2022/08/21 21:53
KLAX 212153Z 24010KT 10SM FEW023 FEW110 24/18 A3001 RMK AO2 SLP161 T02440178 $
