2023/11/27 09:53
KLAX 270953Z 07003KT 10SM FEW200 BKN250 14/M03 A3003 RMK AO2 SLP167 T01391028 $
