2023/05/01 23:53
KLAX 012353Z 27012KT 10SM FEW025 FEW040 17/09 A2983 RMK AO2 SLP102 T01670089 10178 20161 56009
