2025/02/11 15:53
KLAX 111553Z 06004KT 10SM SCT026 BKN048 12/07 A2997 RMK AO2 RAB06E17 SLP148 P0000 T01170067 $
