2023/05/18 03:53
KLAX 180353Z 27006KT 3SM BR OVC004 14/13 A2987 RMK AO2 SLP114 T01390133
