2025/01/12 07:53
KLAX 120753Z 06004KT 10SM FEW040 11/07 A3003 RMK AO2 SLP168 FU FEW040 T01060067 401890078 $
