2023/06/01 01:53
KLAX 010153Z 26006KT 10SM BKN022 OVC029 16/12 A2990 RMK AO2 SLP122 T01610122
