2025/05/13 09:53
KLAX 130953Z 26014KT 10SM FEW016 FEW044 14/09 A2995 RMK AO2 SLP141 T01390094 $
