2023/04/29 07:53
KLAX 290753Z 24004KT 2SM BR OVC004 13/12 A3004 RMK AO2 SLP170 T01280122 401720122
