2023/08/14 17:53
KLAX 141753Z 24008KT 8SM FEW009 BKN013 22/18 A2996 RMK AO2 SLP141 T02220178 10228 20189 58001 $
