2023/04/14 13:53
KLAX 141353Z 30005KT 8SM BKN018 BKN026 13/09 A2990 RMK AO2 SLP124 T01280094 $
