2025/04/18 21:53
KLAX 182153Z 25012KT 10SM SCT023 BKN037 16/09 A3000 RMK AO2 SLP158 T01610089 $
