2025/08/17 05:53
KLAX 170553Z 22005KT 10SM SCT014 19/16 A3001 RMK AO2 SLP158 T01940161 10228 20194 51008 $
