2023/12/12 07:53
KLAX 120753Z 09006KT 10SM FEW007 SCT200 BKN250 11/10 A2990 RMK AO2 SLP121 T01110100 402280100 $
