2023/01/13 21:53
KLAX 132153Z 26007KT 10SM FEW120 BKN140 BKN220 16/11 A3011 RMK AO2 SLP196 T01560106
