2024/05/05 21:53
KLAX 052153Z 26020KT 10SM FEW045 FEW200 18/08 A2992 RMK AO2 PK WND 27028/2105 SLP130 T01830083
