2026/06/02 21:53
KLAX 022153Z 24012KT 10SM FEW250 21/13 A3000 RMK AO2 SLP157 T02060128 $
