2025/05/09 17:53
KLAX 091753Z 27008KT 6SM HZ FEW002 SCT006 19/14 A3001 RMK AO2 SLP162 T01940144 10194 20144 58003
