2024/11/02 11:53
KLAX 021153Z 09004KT 7SM FEW015 BKN250 13/11 A2991 RMK AO2 SLP128 T01280106 10161 20117 56009 $
