2025/11/08 07:53
KLAX 080753Z 08006KT 6SM BR BKN008 18/16 A2991 RMK AO2 SLP124 T01780156 402110144 $
