2023/02/21 23:53
KLAX 212353Z 19010KT 9SM BKN018 BKN024 14/09 A2973 RMK AO2 SLP067 T01390094 10172 20139 56020 $
