2023/08/26 09:53
KLAX 260953Z 25003KT 10SM FEW010 18/17 A2993 RMK AO2 SLP134 T01780172
