2022/09/09 21:53
KLAX 092153Z 10019G27KT 10SM FEW100 BKN130 OVC200 36/16 A2953 RMK AO2 PK WND 11029/2139 SLP995 T03610156 $
