2024/09/16 01:53
KLAX 160153Z 26013KT 10SM FEW014 19/15 A2984 RMK AO2 SLP101 T01890150 $
