2022/11/30 07:53
KLAX 300753Z 09004KT 10SM CLR 13/10 A3002 RMK AO2 SLP163 T01280100 401890111
