2022/09/01 21:53
KLAX 012153Z 24007KT 10SM FEW100 FEW150 SCT250 30/18 A2973 RMK AO2 SLP064 T03000178
