2023/11/26 03:53
KLAX 260353Z VRB06KT 10SM CLR 17/01 A3004 RMK AO2 SLP172 T01670011 $
