2025/02/19 07:53
KLAX 190753Z 00000KT 9SM FEW200 SCT250 13/12 A3007 RMK AO2 SLP181 T01280117 401830100 $
