2024/12/11 07:53
KLAX 110753Z 36009G18KT 310V020 10SM FEW055 SCT280 15/M14 A3026 RMK AO2 SLP244 FU FEW055 T01501139 402330089
