2024/12/13 21:53
KLAX 132153Z 24007KT 10SM FEW035 SCT100 BKN140 BKN180 16/11 A3015 RMK AO2 SLP210 T01610106
