2023/07/30 07:53
KLAX 300753Z 25004KT 8SM CLR 21/18 A2989 RMK AO2 SLP120 T02060183 402610194 $
