2025/05/05 05:53
KLAX 050553Z 00000KT 10SM FEW016 BKN022 BKN150 14/11 A2978 RMK AO2 SLP084 T01440106 10156 20144 53006
