2024/02/17 13:53
KLAX 171353Z 14005KT 6SM BR OVC014 13/11 A3008 RMK AO2 SLP183 T01280106
