2024/02/07 05:53
KLAX 070553Z 09004KT 10SM -RA FEW024 SCT043 BKN050 09/09 A2976 RMK AO2 RAE0456B18 SLP077 P0004 60029 T00940089 10106 20094 53014
