2024/01/11 13:53
KLAX 111353Z 36009G20KT 10SM FEW016 FEW025 SCT035 11/07 A2990 RMK AO2 PK WND 28035/1305 SLP124 T01110072
