2024/01/21 01:53
KLAX 210153Z 08007KT 3SM BR BKN004 OVC009 13/12 A2988 RMK AO2 RAB43E53 SLP116 P0000 T01280122 $
