2025/01/13 21:53
KLAX 132153Z 26008KT 10SM CLR 19/M02 A3018 RMK AO2 SLP219 T01891017
