2026/05/25 08:53
KLAX 250853Z 28007KT 10SM FEW015 16/12 A2997 RMK AO2 SLP147 T01610117 58003 $
