2025/11/13 21:53
KLAX 132153Z 24003KT 7SM FEW055 BKN065 BKN140 21/16 A3000 RMK AO2 SLP156 T02110161
