2025/11/21 17:53
KLAX 211753Z 07015KT 10SM FEW009 SCT020 SCT050 BKN140 BKN250 15/11 A2996 RMK AO2 SLP144 60003 T01500111 10150 20122 53027 $
