2023/04/09 19:53
KLAX 091953Z 26010KT 6SM BCFG FEW000 SCT006 16/12 A3013 RMK AO2 SLP201 VIS SW-W 1 3/4 FG FEW000 FG BANK ALG SHORE SW-NW T01610117
