2026/06/04 18:00
KLAX 041800Z 28008KT 7SM FEW009 OVC015 19/15 A2991 RMK AO2 T01940150 $
