2025/02/09 21:53
KLAX 092153Z 25009KT 10SM FEW180 FEW250 SCT300 18/06 A3001 RMK AO2 SLP162 T01780061 $
