2024/07/05 17:53
KLAX 051753Z 28009KT 5SM HZ FEW010 22/17 A2985 RMK AO2 SLP106 T02220167 10222 20172 58007
