2025/04/23 04:53
KLAX 230453Z 23007KT 10SM BKN016 13/10 A2995 RMK AO2 SLP141 T01330100
