2025/10/18 11:53
KLAX 181153Z 06003KT 10SM CLR 15/11 A2996 RMK AO2 SLP142 T01500111 10194 20150 53005
