2025/12/31 05:53
KLAX 310553Z 03010KT 10SM OVC110 21/02 A3003 RMK AO2 SLP169 T02060017 10222 20200 51002 $
