2024/12/02 23:53
KLAX 022353Z 26008KT 10SM FEW200 SCT250 17/08 A3006 RMK AO2 SLP178 T01670078 10200 20167 55005
