2025/08/27 23:53
KLAX 272353Z 25013KT 10SM FEW110 FEW190 SCT230 SCT300 24/17 A2999 RMK AO2 SLP153 TCU DSNT SE T02390167 10272 20239 56009 $
