2025/01/09 11:53
KLAX 091153Z 10003KT 10SM FEW008 BKN025 10/M08 A3008 RMK AO2 SLP183 FU FEW008 FU BKN025 T01001083 10156 20094 50000
