2023/03/06 17:53
KLAX 061753Z 27007KT 10SM FEW025 FEW042 SCT070 BKN150 14/06 A3017 RMK AO2 SLP216 T01390056 10144 20094 51009 $
