2024/10/19 11:53
KLAX 191153Z 00000KT 10SM CLR 14/06 A3000 RMK AO2 SLP155 T01440061 10189 20122 55002
