2023/10/09 03:53
KLAX 090353Z 23005KT 6SM BR OVC005 17/17 A2984 RMK AO2 SLP104 VIS W 1 T01720167
