2024/07/28 07:53
KLAX 280753Z 25005KT 10SM FEW008 17/14 A2990 RMK AO2 SLP122 T01720144 402280167
