2023/05/11 13:53
KLAX 111353Z 07003KT 7SM SCT011 BKN021 BKN024 13/11 A3002 RMK AO2 SLP165 T01330111
