2024/07/26 07:53
KLAX 260753Z 26004KT 10SM FEW002 FEW006 SCT008 18/16 A2997 RMK AO2 SLP144 T01780161 402440172
