2024/10/25 07:53
KLAX 250753Z 25005KT 1/4SM R25L/1600VP6000FT FG VV002 13/13 A2993 RMK AO2 SLP134 VIS 1/8V3/4 T01330133 402220133 $
