2025/06/18 17:53
KLAX 181753Z 24009KT 9SM FEW016 23/16 A2983 RMK AO2 SLP100 T02280161 10239 20172 53002 $
