2025/04/15 17:53
KLAX 151753Z 25007KT 8SM FEW020 OVC027 14/08 A3010 RMK AO2 SLP191 T01440078 10144 20133 51011
