2025/09/12 21:53
KLAX 122153Z 23013KT 10SM FEW018 FEW040 23/16 A2990 RMK AO2 SLP123 T02330161 $
