2025/12/21 07:53
KLAX 210753Z 13003KT 4SM BR CLR 14/12 A3009 RMK AO2 SLP188 T01440122 401830139 $
