2026/04/13 19:53
KLAX 131953Z 27016G22KT 10SM FEW026 FEW065 SCT120 18/08 A3005 RMK AO2 SLP175 T01830083 $
