2023/07/19 21:53
KLAX 192153Z 25010KT 10SM FEW009 FEW060 SCT250 23/17 A2997 RMK AO2 SLP147 T02330167 $
