2024/11/29 15:53
KLAX 291553Z 02009KT 10SM FEW160 SCT180 BKN250 16/M06 A3006 RMK AO2 SLP176 T01611056 $
