2025/07/07 09:53
KLAX 070953Z 00000KT 10SM FEW008 BKN010 17/15 A2993 RMK AO2 SLP133 T01720150
