2023/07/01 01:53
KLAX 010153Z 27009KT 10SM BKN007 17/14 A2984 RMK AO2 SLP102 T01670144 $
