2024/06/10 01:53
KLAX 100153Z 26013KT 10SM FEW013 FEW250 18/14 A2994 RMK AO2 SLP137 T01780139 $
