2025/02/20 03:53
KLAX 200353Z 25004KT 10SM FEW010 13/13 A3004 RMK AO2 SLP170 T01330133 $
