2025/01/08 15:53
KLAX 081553Z 25007KT 7SM SCT035 SCT075 BKN120 BKN180 16/M03 A3014 RMK AO2 SLP205 FU SCT035 FU SCT075 T01561028
