2023/07/03 07:53
KLAX 030753Z 27007KT 1/8SM R25L/P6000FT FG VV002 14/14 A2991 RMK AO2 SLP126 T01440144 402060144 $
