2025/03/02 17:53
KLAX 021753Z 25017KT 10SM FEW018 FEW032 SCT055 SCT150 16/08 A3014 RMK AO2 SLP206 60000 T01610083 10161 20122 53012 $
