2023/12/21 15:53
KLAX 211553Z 09006KT 10SM SCT009 SCT040 BKN090 16/13 A2997 RMK AO2 SLP146 T01560133
