2025/11/04 21:53
KLAX 042153Z 26008KT 5SM HZ FEW011 SCT020 19/13 A3007 RMK AO2 SLP182 T01890133 $
