2023/11/05 15:53
KLAX 051553Z 00000KT 4SM BR FEW007 FEW140 SCT200 15/13 A3001 RMK AO2 SLP160 T01500128
