2025/10/06 11:53
KLAX 061153Z 00000KT 10SM FEW012 17/15 A2980 RMK AO2 SLP088 T01670150 10183 20167 55003 $
