2025/03/03 19:53
KLAX 031953Z 25014KT 10SM FEW018 FEW050 16/04 A3008 RMK AO2 SLP186 T01610044 $
