2026/01/21 00:18
KLAX 210018Z 26010KT 8SM OVC005 14/13 A3005 RMK AO2 T01440128 $
