2024/03/03 07:53
KLAX 030753Z 26008KT 10SM FEW011 FEW037 12/09 A3006 RMK AO2 RAE01 SLP177 P0000 T01170094 401560111 $
