2025/06/13 06:53
KLAX 130653Z VRB03KT 10SM OVC012 18/15 A2987 RMK AO2 SLP114 T01830150
