2025/05/04 09:53
KLAX 040953Z 24007KT 10SM BKN028 BKN048 OVC060 13/11 A2979 RMK AO2 SLP085 T01330106
