2025/10/08 21:53
KLAX 082153Z 23009KT 220V100 10SM CLR 21/14 A2988 RMK AO2 SLP117 T02060144 $
