2024/07/11 07:53
KLAX 110753Z 31005KT 10SM FEW005 FEW009 SCT150 18/16 A2987 RMK AO2 SLP110 T01780161 402390172
