2023/02/08 13:53
KLAX 081353Z 10003KT 10SM FEW190 FEW240 09/03 A3022 RMK AO2 SLP232 T00940028
