2024/09/06 17:53
KLAX 061753Z 26006KT 10SM SCT180 28/18 A2986 RMK AO2 SLP111 T02830183 10300 20228 51006
