2025/12/25 17:53
KLAX 251753Z 14010KT 10SM FEW015 BKN028 BKN070 18/15 A3012 RMK AO2 SLP197 60001 T01830150 10183 20139 51010 $
