2025/04/15 01:53
KLAX 150153Z 25012KT 10SM FEW015 FEW200 14/10 A3000 RMK AO2 SLP159 T01390100 $
