2023/07/07 23:53
KLAX 072353Z 25012KT 10SM FEW010 19/14 A2982 RMK AO2 SLP097 T01940139 10211 20189 58015
