2022/12/28 17:53
KLAX 281753Z 09007KT 4SM BR SCT003 BKN007 14/13 A2996 RMK AO2 SLP143 T01390128 10139 20117 51022
