2023/03/13 09:53
KLAX 130953Z 00000KT 7SM FEW002 OVC006 12/12 A3014 RMK AO2 SLP205 T01220122 $
