2022/09/20 11:53
KLAX 201153Z 03003KT 10SM FEW016 FEW150 SCT220 19/16 A2989 RMK AO2 SLP120 T01890156 10211 20189 53003 $
