2023/07/08 21:53
KLAX 082153Z 27013KT 10SM FEW021 21/14 A2985 RMK AO2 SLP107 T02110144
