2025/04/14 19:53
KLAX 141953Z 23014KT 10SM FEW016 SCT210 BKN280 17/10 A3000 RMK AO2 SLP159 T01720100 $
