2023/08/06 11:53
KLAX 061153Z 00000KT 7SM FEW005 SCT010 18/17 A2990 RMK SLP123 T01830172 
