2024/08/22 01:53
KLAX 220153Z 25007KT 10SM FEW015 FEW150 22/18 A2990 RMK AO2 SLP121 T02220183
