2026/06/27 15:53
KLAX 271553Z VRB06KT 10SM SCT026 BKN032 20/13 A2997 RMK AO2 SLP147 T02000128
