2026/02/16 13:53
KLAX 161353Z 11009KT 10SM FEW028 BKN045 BKN060 OVC200 13/09 A2982 RMK AO2 RAE02 SLP097 P0000 T01330094 $
