2026/06/09 16:53
KLAX 091653Z 23009KT 10SM FEW015 21/14 A2991 RMK AO2 SLP127 T02110144 $
