2024/12/04 07:53
KLAX 040753Z 00000KT 7SM BKN007 13/12 A3016 RMK AO2 SLP213 T01280117 401830100
