2023/04/04 11:53
KLAX 041153Z 33008KT 10SM FEW045 FEW060 11/M03 A3007 RMK AO2 SLP180 70001 T01061033 10122 20094 55001
