2025/10/25 13:53
KLAX 251353Z 00000KT 4SM BR OVC009 17/15 A3000 RMK AO2 SLP157 VIS W 2 T01670150 $
