2023/01/13 11:53
KLAX 131153Z 00000KT 10SM FEW220 SCT280 13/04 A3014 RMK AO2 SLP203 T01280044 10167 20122 50001 $
