2023/04/15 09:53
KLAX 150953Z 09004KT 10SM FEW039 11/09 A3004 RMK AO2 SLP171 T01060094
