2024/06/17 09:53
KLAX 170953Z VRB05KT 9SM OVC016 18/14 A2972 RMK AO2 SLP060 T01780139
