2025/10/31 19:53
KLAX 311953Z 25007KT 10SM FEW018 SCT140 21/15 A2999 RMK AO2 SLP153 T02110150 $
