2023/12/14 17:53
KLAX 141753Z 01006KT 10SM FEW180 19/02 A3019 RMK AO2 SLP222 T01940022 10194 20083 53012
