2024/10/04 23:53
KLAX 042353Z 28008KT 9SM SCT008 SCT130 BKN190 20/17 A2989 RMK AO2 SLP120 T02000172 10278 20200 56007
