2026/04/21 07:53
KLAX 210753Z 25005KT 10SM FEW018 SCT250 15/12 A3003 RMK AO2 SLP167 T01500122 402110133 $
