2022/09/14 02:53
KLAX 140253Z 26008KT 10SM SCT011 22/19 A2983 RMK AO2 SLP098 T02170189 53003 $
