2023/10/03 05:53
KLAX 030553Z 25007KT 10SM FEW012 17/14 A2997 RMK AO2 SLP146 T01720144 10189 20172 51005 $
