2024/07/21 13:53
KLAX 211353Z 26004KT 8SM FEW009 FEW160 SCT250 19/17 A2989 RMK AO2 SLP119 T01890172 $
