2025/09/30 03:53
KLAX 300353Z 24012KT 10SM FEW020 FEW250 19/15 A2995 RMK AO2 SLP142 T01940150 $
