2026/01/24 11:53
KLAX 241153Z 26008KT 10SM FEW018 OVC026 14/11 A2987 RMK AO2 SLP114 T01440106 10150 20144 56007 $
