2025/05/29 21:53
KLAX 292153Z 26010G23KT 10SM FEW018 20/13 A2995 RMK AO2 SLP142 T02000133
