2024/10/07 21:53
KLAX 072153Z 27009KT 1 1/2SM HZ OVC005 19/16 A2985 RMK AO2 SLP106 VIS SW-W 1/2 T01940161
