2024/05/19 01:53
KLAX 190153Z 27012KT 10SM FEW012 SCT019 SCT032 16/12 A2999 RMK AO2 SLP156 T01560122 $
