2024/02/28 05:53
KLAX 280553Z 31003KT 10SM CLR 14/11 A3001 RMK AO2 SLP161 T01390111 10156 20139 51011 $
