2023/02/23 15:53
KLAX 231553Z 12005KT 10SM SCT020CB BKN055 BKN070 BKN200 08/05 A2998 RMK AO2 RAB39E49 SLP153 CB SE-SW-W MOV E P0000 T00830050
