2023/10/22 21:53
KLAX 222153Z 24012KT 10SM FEW025 21/14 A2978 RMK AO2 SLP083 T02110144 $
