2025/08/18 05:53
KLAX 180553Z 00000KT 10SM SCT009 BKN014 19/17 A2992 RMK AO2 SLP130 T01940172 10228 20189 50003 $
