2025/12/09 05:53
KLAX 090553Z 04003KT 10SM CLR 19/09 A3010 RMK AO2 SLP190 T01890089 10222 20167 51005 $
