2025/01/11 23:53
KLAX 112353Z 26010KT 10SM FEW040 15/11 A2996 RMK AO2 SLP144 FU FEW040 T01500106 10189 20150 56011 $
