2023/12/24 07:53
KLAX 240753Z 10003KT 10SM FEW018 BKN030 14/13 A3007 RMK AO2 SLP182 T01390128 401890106 $
