2023/03/20 11:53
KLAX 201153Z 34005KT 2 1/2SM -DZ BR FEW003 SCT006 OVC008 13/12 A2991 RMK AO2 RAB41E43DZB43 SLP128 VIS W 1 1/2 SCT V BKN P0001 60002 70007 T01280117 10128 20122 56015
