2023/01/09 03:53
KLAX 090353Z VRB04KT 10SM FEW043 BKN060 15/09 A3015 RMK AO2 SLP208 T01500094 $
