2026/06/18 11:21
KLAX 181121Z 18004KT 10SM FEW008 FEW011 OVC019 17/14 A2993 RMK AO2 T01720139 $
