2023/12/05 12:53
KLAX 051253Z 07003KT 10SM FEW012 FEW200 SCT250 14/05 A3008 RMK AO2 SLP184 T01390050
