2026/04/02 10:18
KLAX 021018Z 27014KT 10SM FEW012 BKN021 BKN050 BKN250 16/12 A2998 RMK AO2 T01560122 $
