2024/10/21 07:53
KLAX 210753Z 18003KT 10SM FEW110 18/09 A3007 RMK AO2 SLP179 T01830089 402670144 $
