2024/09/08 21:53
KLAX 082153Z 25011KT 10SM FEW040 FEW090 SCT200 29/18 A2973 RMK AO2 SLP066 CB DSNT N-SE T02890178
