2022/09/19 17:53
KLAX 191753Z 26009KT 10SM FEW010 FEW029 24/15 A2988 RMK AO2 SLP118 T02390150 10239 20178 50004 $
