2024/11/19 19:53
KLAX 191953Z VRB03KT 10SM FEW018 BKN160 BKN250 18/08 A3005 RMK AO2 SLP176 T01830078 $
