2026/04/06 17:53
KLAX 061753Z 08005KT 10SM FEW012 SCT019 SCT120 BKN160 24/12 A3003 RMK AO2 SLP168 T02390122 10239 20172 51007 $
