2025/06/07 04:53
KLAX 070453Z 24006KT 10SM BKN016 16/13 A2996 RMK AO2 SLP145 T01610128
