2024/02/23 21:53
KLAX 232153Z VRB03KT 10SM FEW130 SCT180 BKN270 24/03 A3000 RMK AO2 SLP159 T02390033
