2024/10/01 01:53
KLAX 010153Z 27007KT 10SM FEW060 18/16 A2986 RMK AO2 SLP110 FU FEW060 T01830156 $
