2024/09/14 09:53
KLAX 140953Z 31005KT 10SM OVC017 19/16 A2985 RMK AO2 SLP105 T01890161
