2024/09/25 17:53
KLAX 251753Z 26007KT 6SM BR OVC008 18/15 A2990 RMK AO2 SLP122 T01780150 10178 20161 51009 $
