2025/11/10 23:53
KLAX 102353Z 26011KT 10SM FEW005 SCT250 18/16 A3006 RMK AO2 SLP178 T01780156 10206 20172 56006 $
