2024/12/18 19:53
KLAX 181953Z 15004KT 10SM CLR 28/M02 A3011 RMK AO2 SLP195 T02781022
