2025/03/29 09:53
KLAX 290953Z 08005KT 10SM SCT150 13/09 A2994 RMK AO2 SLP138 T01280094 $
