2023/02/02 19:53
KLAX 021953Z 00000KT 10SM SCT140 BKN180 BKN250 18/M02 A3032 RMK AO2 SLP266 T01781017 $
