2023/07/25 13:53
KLAX 251353Z 24003KT 1/4SM R25L/4500VP6000FT FG BKN003 18/18 A2997 RMK AO2 SLP146 VIS 1/8V3/4 T01780178 $
