2025/07/03 11:53
KLAX 031153Z 11007KT 10SM FEW012 OVC017 18/13 A2987 RMK AO2 SLP113 T01830133 10183 20172 53001 $
