2025/12/22 03:53
KLAX 220353Z 23006KT 9SM FEW008 16/14 A3006 RMK AO2 SLP179 T01560139 $
