2026/03/30 11:53
KLAX 301153Z 00000KT 1/16SM R25L/1200V1600FT FG VV001 14/14 A2993 RMK AO2 SLP132 T01390139 10150 20133 58004 $
