2023/11/13 21:53
KLAX 132153Z 26007KT 10SM FEW120 SCT180 BKN250 21/13 A2997 RMK AO2 SLP149 T02060133
