2026/02/26 03:53
KLAX 260353Z 23004KT 10SM FEW250 16/14 A3004 RMK AO2 SLP172 T01560139
