2026/02/26 19:53
KLAX 261953Z 26008KT 8SM FEW010 SCT140 BKN180 22/14 A3004 RMK AO2 SLP173 T02170144
