2023/01/05 15:53
KLAX 051553Z 15015G26KT 5SM -RA BR BKN009 BKN017 OVC025 14/13 A3001 RMK AO2 PK WND 15026/1544 SLP160 P0001 T01390128 $
