2026/01/16 23:53
KLAX 162353Z 26010KT 10SM FEW250 FEW300 21/09 A2994 RMK AO2 SLP138 T02110089 10256 20200 56008
