2025/02/17 15:53
KLAX 171553Z 10007KT 10SM FEW007 SCT250 12/09 A3002 RMK AO2 SLP163 T01220094 $
