2024/09/25 21:53
KLAX 252153Z 25012KT 10SM SCT012 19/14 A2984 RMK AO2 SLP103 T01890139 $
