2025/05/01 17:53
KLAX 011753Z 24007KT 8SM FEW015 OVC026 17/11 A2999 RMK AO2 SLP155 T01670106 10167 20144 51007
