2025/08/11 11:53
KLAX 111153Z 26004KT 10SM FEW008 18/16 A2994 RMK AO2 SLP135 T01780161 10178 20178 56003 $
