2024/09/21 13:53
KLAX 211353Z 00000KT 10SM OVC021 18/14 A2991 RMK AO2 SLP125 T01830144
