2024/01/11 21:53
KLAX 112153Z 32006KT 10SM FEW140 FEW180 17/M08 A3002 RMK AO2 SLP164 T01721083
