2024/08/01 19:53
KLAX 011953Z 27008G17KT 9SM FEW010 SCT090 BKN160 BKN200 19/16 A3001 RMK AO2 SLP162 T01940156 $
