2023/12/09 19:53
KLAX 091953Z VRB03KT 10SM FEW100 SCT160 BKN280 21/M04 A3021 RMK AO2 SLP230 T02111039 $
