2022/12/30 21:53
KLAX 302153Z 25006KT 7SM SCT014 SCT018 BKN026 15/13 A3009 RMK AO2 RAB09E21 SLP188 P0000 T01500133
