2023/11/07 09:53
KLAX 070953Z VRB03KT 10SM FEW011 BKN018 16/14 A2995 RMK AO2 SLP139 T01610144
