2022/09/10 07:53
KLAX 100753Z 14004KT 6SM -RA BR SCT006 BKN011 OVC020 22/21 A2975 RMK AO2 SLP069 P0003 T02170206 403890217 $
