2024/09/13 17:53
KLAX 131753Z VRB03KT 10SM SCT027 23/16 A2982 RMK AO2 SLP096 T02330156 10233 20194 51007
