2025/07/04 19:53
KLAX 041953Z 26010KT 10SM CLR 22/15 A3003 RMK AO2 SLP168 T02220150 $
