2024/07/17 23:53
KLAX 172353Z 27014KT 10SM FEW011 FEW070 SCT150 23/17 A2989 RMK AO2 SLP120 T02330167 10244 20222 58022
