2023/08/27 11:53
KLAX 271153Z 00000KT 9SM FEW005 18/17 A2990 RMK AO2 SLP123 T01830172 10194 20178 56004 $
