2023/03/21 11:53
KLAX 211153Z 07010KT 6SM -RA BR FEW008 BKN029 OVC050 10/09 A2977 RMK AO2 SLP080 P0010 60029 70029 T01000094 10128 20100 56028
