2023/02/22 07:53
KLAX 220753Z 28024G30KT 10SM FEW026 FEW040 11/02 A2965 RMK AO2 PK WND 28040/0710 SLP038 T01110017 401720094 $
