2025/03/13 21:53
KLAX 132153Z 26027G37KT 10SM FEW024 FEW046 SCT085 14/06 A2988 RMK AO2 PK WND 25037/2146 SLP119 T01390056
