2024/04/21 21:53
KLAX 212153Z 25013KT 7SM OVC008 16/13 A2994 RMK AO2 SLP137 T01610128
