2023/10/28 07:53
KLAX 280753Z 00000KT 10SM CLR 16/14 A2999 RMK AO2 SLP152 T01610139 402220139
