2025/06/09 13:53
KLAX 091353Z 08004KT 4SM BR OVC009 16/14 A2995 RMK AO2 SLP139 T01610139 $
