2023/04/11 19:53
KLAX 111953Z 25008KT 5SM BR BKN008 BKN010 15/12 A3002 RMK AO2 SLP164 T01500122
