2024/03/31 21:53
KLAX 312153Z 13010KT 10SM FEW020 FEW040 SCT049 SCT200 16/07 A2977 RMK AO2 SLP081 T01560072
