2025/10/26 13:53
KLAX 261353Z VRB03KT 3SM BR OVC011 16/13 A3001 RMK AO2 SLP159 T01560133 $
