2025/08/17 21:53
KLAX 172153Z 25011G21KT 10SM FEW014 FEW080 23/17 A2995 RMK AO2 PK WND 28026/2100 SLP142 T02330167 $
