2023/01/26 19:53
KLAX 261953Z 24008KT 10SM FEW250 20/01 A3033 RMK AO2 SLP269 T02000006 $
