2025/07/17 03:53
KLAX 170353Z 27011KT 10SM FEW014 18/15 A2993 RMK AO2 SLP132 T01830150 $
