2022/10/15 23:53
KLAX 152353Z 24008KT 10SM FEW011 BKN028 OVC037 20/14 A2988 RMK AO2 SLP115 T02000144 10217 20183 55006 $
