2025/05/17 15:53
KLAX 171553Z 11005KT 10SM FEW022 BKN026 OVC033 17/11 A3000 RMK AO2 SLP158 T01670111
