2025/02/07 13:18
KLAX 071318Z 25007KT 2 1/2SM -RA BR SCT002 OVC004 14/14 A3007 RMK AO2 VIS 1 1/2V4 T01440144 PNO $
