2026/06/30 19:53
KLAX 301953Z 25013G20KT 10SM FEW009 SCT019 BKN045 21/14 A2996 RMK AO2 SLP144 T02110144 $
