2026/07/04 05:53
KLAX 040553Z 25010KT 10SM BKN009 BKN200 18/16 A3001 RMK AO2 SLP161 T01780156 10217 20178 53008 $
