2024/12/10 17:53
KLAX 101753Z 19006KT 10SM SCT050 19/M08 A3033 RMK AO2 SLP269 FU SCT050 T01941083 10194 20100 51016 $
