2025/12/25 21:53
KLAX 252153Z 17009G20KT 10SM SCT024 BKN031 BKN070 BKN140 19/13 A3006 RMK AO2 SLP178 TCU DSNT N T01890133 $
