2025/10/25 17:53
KLAX 251753Z 25003KT 4SM BR OVC009 17/15 A3006 RMK AO2 SLP178 T01670150 10172 20167 50011 $
