2022/12/26 05:53
KLAX 260553Z 00000KT 10SM CLR 16/09 A3015 RMK AO2 SLP206 T01560089 10206 20156 53007 $
