2024/01/27 07:53
KLAX 270753Z 01004KT 10SM SCT280 16/08 A3024 RMK AO2 SLP237 T01560078 402110100 $
