2024/02/09 13:53
KLAX 091353Z 09005KT 10SM FEW020 SCT040 SCT080 08/08 A3005 RMK AO2 SLP176 T00830078 $
