2024/01/03 09:53
KLAX 030953Z 07003KT 10SM FEW014 FEW028 SCT030 BKN220 12/10 A3017 RMK AO2 SLP216 T01170100
