2023/09/22 17:53
KLAX 221753Z VRB03KT 10SM SCT025 BKN140 BKN180 22/14 A3001 RMK AO2 SLP162 T02170144 10217 20161 50010
