2024/10/19 19:53
KLAX 191953Z 25009KT 10SM FEW250 26/M03 A3004 RMK AO2 SLP173 T02611028
