2023/10/28 13:53
KLAX 281353Z 05005KT 10SM SCT015 14/12 A2999 RMK AO2 SLP153 T01390117
