2022/12/27 03:53
KLAX 270353Z 00000KT 10SM FEW150 16/11 A3006 RMK AO2 SLP177 T01610106 $
