2024/05/17 01:53
KLAX 170153Z 24010KT 10SM FEW015 FEW250 16/12 A2993 RMK AO2 SLP133 T01560122
