2024/05/07 23:53
KLAX 072353Z 23009KT 10SM CLR 18/11 A2987 RMK AO2 SLP114 T01780111 10200 20178 56015 $
