2026/04/06 15:53
KLAX 061553Z 00000KT 10SM FEW017 SCT120 BKN160 19/15 A3003 RMK AO2 SLP167 T01890150 $
