2025/08/23 19:53
KLAX 231953Z 25012KT 9SM FEW019 FEW045 SCT100 BKN160 26/19 A2991 RMK AO2 SLP125 T02610194
