2026/04/09 19:53
KLAX 091953Z 25009KT 10SM FEW025 SCT120 BKN160 OVC200 21/15 A2996 RMK AO2 SLP142 T02060150 $
