2025/08/29 16:53
KLAX 291653Z VRB03KT 10SM CLR 28/12 A3002 RMK AO2 SLP163 T02780117 $
