2025/11/23 19:53
KLAX 231953Z 16007KT 10SM FEW090 20/14 A3007 RMK AO2 SLP180 T02000139
