2023/01/06 17:53
KLAX 061753Z 07003KT 10SM FEW080 FEW130 SCT140 SCT180 13/07 A3026 RMK AO2 SLP244 T01330072 10133 20078 53013 $
