2023/01/25 13:53
KLAX 251353Z 08005KT 10SM FEW010 07/02 A3028 RMK AO2 SLP252 T00720017 $
