2024/03/27 05:53
KLAX 270553Z VRB03KT 10SM FEW018 13/09 A3011 RMK AO2 SLP196 T01330094 10156 20122 51013 $
