2024/10/19 21:53
KLAX 192153Z 26011KT 10SM CLR 24/04 A3003 RMK AO2 SLP167 T02390039
