2023/10/25 21:53
KLAX 252153Z 24009KT 10SM FEW024 FEW044 SCT250 20/14 A2999 RMK AO2 SLP152 T02000144 $
