2025/10/06 21:53
KLAX 062153Z 26013KT 10SM CLR 22/15 A2980 RMK AO2 SLP090 T02170150 $
