2026/07/03 22:53
KLAX 032253Z 25013KT 10SM FEW024 SCT150 SCT220 22/15 A2999 RMK AO2 SLP155 T02170150 $
