2024/03/21 03:53
KLAX 210353Z 26006KT 10SM BKN010 14/12 A3003 RMK AO2 SLP166 T01390117 $
