2023/01/15 13:53
KLAX 151353Z 26009KT 9SM FEW020 FEW100 OVC240 12/11 A2983 RMK AO2 SLP101 T01220106 $
