2024/09/08 07:53
KLAX 080753Z 30005KT 10SM FEW140 23/19 A2975 RMK AO2 SLP070 T02280189 403170222
