2023/06/04 11:53
KLAX 041153Z 31003KT 7SM OVC009 15/13 A2988 RMK AO2 SLP116 T01500133 10161 20150 58010
