2022/09/09 07:53
KLAX 090753Z 00000KT 10SM BKN150 27/18 A2955 RMK AO2 SLP002 T02720178 403610228
