2023/03/11 21:53
KLAX 112153Z 23006KT 8SM SCT007 OVC014 16/15 A3006 RMK AO2 SLP178 T01610150
