2022/11/17 11:53
KLAX 171153Z VRB03KT 10SM CLR 12/M06 A3021 RMK AO2 SLP226 T01221056 10167 20106 58007
