2025/09/24 17:53
KLAX 241753Z 26008KT 9SM FEW008 FEW090 SCT120 BKN160 23/18 A2998 RMK AO2 SLP151 T02330183 10233 20200 51013 $
