2026/06/01 09:27
KLAX 010927Z 26004KT 9SM FEW007 BKN010 16/15 A2991 RMK AO2 T01610150 $
