2023/01/03 15:53
KLAX 031553Z 07011KT 7SM FEW008 OVC014 11/09 A3003 RMK AO2 SLP169 T01110089
