2025/01/01 19:53
KLAX 011953Z 25007KT 5SM HZ FEW009 SCT160 BKN250 13/08 A3011 RMK AO2 SLP194 T01330083
