2023/09/29 01:53
KLAX 290153Z 25009KT 10SM FEW010 19/16 A2984 RMK AO2 SLP101 T01890156 $
