2024/03/06 23:53
KLAX 062353Z 12007KT 10SM FEW015 BKN043 OVC055 13/12 A2984 RMK AO2 RAE44 SLP104 P0004 60015 T01330117 10161 20128 58018
