2022/12/16 12:53
KLAX 161253Z VRB04KT 10SM BKN200 12/01 A3010 RMK AO2 SLP190 T01170011
