2024/01/03 11:53
KLAX 031153Z 08004KT 5SM -RA BR FEW009 BKN018 BKN030 OVC140 11/11 A3012 RMK AO2 RAB25 SLP199 P0000 60000 T01110106 10139 20111 58022
