2023/10/29 15:53
KLAX 291553Z 00000KT 10SM CLR 17/11 A3006 RMK AO2 SLP177 T01670111
