2024/08/31 08:53
KLAX 310853Z 00000KT 9SM FEW010 18/16 A2997 RMK AO2 SLP147 T01780161 58010 $
