2023/05/16 21:53
KLAX 162153Z 27015G20KT 10SM BKN013 BKN060 BKN150 18/13 A3001 RMK AO2 SLP160 T01830133
