2025/05/18 11:53
KLAX 181153Z 07003KT 10SM FEW024 14/12 A2995 RMK AO2 SLP142 T01390117 10156 20139 53005
