2022/11/19 15:53
KLAX 191553Z 01004KT 10SM CLR 16/01 A3007 RMK AO2 SLP183 T01610006 $
