2026/01/23 23:53
KLAX 232353Z 27010KT 10SM FEW022 FEW028 SCT140 SCT260 17/12 A2988 RMK AO2 SLP118 T01670122 10178 20161 55009 $
