2025/01/20 19:53
KLAX 201953Z 28008KT 10SM FEW250 18/05 A3019 RMK AO2 SLP222 T01830050 $
