2025/05/25 05:53
KLAX 250553Z 22005KT 10SM FEW014 FEW270 17/12 A3000 RMK AO2 SLP158 T01670122 10194 20167 51008
