2023/02/21 19:53
KLAX 211953Z 21008KT 9SM SCT015 BKN020 BKN160 17/12 A2982 RMK AO2 SLP097 T01670117 $
