2023/01/17 19:53
KLAX 171953Z 24008KT 10SM FEW008 FEW025 SCT070 14/03 A2993 RMK AO2 SLP134 T01440033 $
