2024/01/10 19:53
KLAX 101953Z 00000KT 10SM FEW011 FEW050 SCT160 15/05 A3000 RMK AO2 SLP157 T01500050
