2024/12/29 09:53
KLAX 290953Z 00000KT 5SM BR FEW005 11/10 A3012 RMK AO2 VIS 1/2 RWY24 SLP199 VIS W 1 T01110100
