2025/10/15 07:53
KLAX 150753Z 04007KT 10SM FEW014 SCT035 BKN050 BKN200 14/11 A2999 RMK AO2 RAE38 SLP155 P0003 T01390111 401780128 $
