2025/07/18 09:53
KLAX 180953Z 32004KT 10SM BKN012 18/15 A2995 RMK AO2 SLP138 T01780150 $
