2024/09/10 09:53
KLAX 100953Z 21005KT 10SM FEW040 22/16 A2981 RMK AO2 SLP091 FU FEW040 T02170161
