2025/02/22 03:53
KLAX 220353Z 24003KT 10SM FEW005 SCT250 14/11 A3011 RMK AO2 SLP194 T01390111
