2026/03/12 13:53
KLAX 121353Z 04005KT 10SM CLR 16/11 A3017 RMK AO2 SLP216 T01560106 $
