2024/09/20 13:53
KLAX 201353Z 26009KT 9SM BKN015 BKN020 OVC045 18/14 A2989 RMK AO2 SLP119 T01780144 $
