2023/05/21 15:53
KLAX 211553Z 27003KT 5SM BR OVC007 16/14 A3003 RMK AO2 SLP167 T01610139
