2025/01/19 17:53
KLAX 191753Z 00000KT 5SM HZ OVC020 12/07 A3025 RMK AO2 SLP242 T01220072 10122 20072 50004 $
