2023/10/12 15:53
KLAX 121553Z 11006KT 10SM FEW018 FEW027 19/14 A2978 RMK AO2 SLP081 T01890139
