2025/01/20 07:53
KLAX 200753Z 14004KT 10SM OVC018 12/08 A3014 RMK AO2 SLP204 T01220078 401500072 $
