2022/12/01 15:53
KLAX 011553Z 10004KT 8SM FEW017 BKN033 OVC060 14/08 A3005 RMK AO2 SLP175 T01390083 $
