2024/03/21 07:53
KLAX 210753Z 00000KT 10SM FEW008 OVC010 14/12 A3005 RMK AO2 SLP174 T01390117 401830122 $
