2025/08/11 13:53
KLAX 111353Z 22004KT 9SM FEW006 18/16 A2995 RMK AO2 SLP139 T01830161 $
