2025/12/22 09:53
KLAX 220953Z 08004KT 2 1/2SM BR FEW001 FEW003 SCT250 12/12 A3004 RMK AO2 SLP171 VIS 2V3 T01170117 $
