2023/04/01 15:53
KLAX 011553Z 00000KT 10SM FEW200 14/08 A3015 RMK AO2 SLP207 T01440078 $
