2023/02/06 19:53
KLAX 061953Z 29013G21KT 10SM CLR 19/M02 A3021 RMK AO2 SLP229 T01941022 $
