2023/02/25 01:53
KLAX 250153Z 15017G26KT 2 1/2SM -RA BR BKN010 BKN015 OVC020 12/11 A2985 RMK AO2 PK WND 14032/0108 SLP107 P0004 T01220111 $
