2026/05/11 17:53
KLAX 111753Z 23010KT 4SM HZ FEW003 BKN007 18/14 A2999 RMK AO2 SLP153 VIS S-SW 2 T01830139 10183 20156 53012
