2025/05/31 17:53
KLAX 311753Z 09004KT 4SM HZ SCT013 22/16 A2998 RMK AO2 SLP151 T02170161 10217 20161 55006 $
