2023/08/03 17:53
KLAX 031753Z 25007KT 10SM FEW011 22/17 A3001 RMK AO2 SLP160 T02220167 10233 20172 53003 $
