2022/10/04 17:53
KLAX 041753Z 26005KT 10SM FEW010 24/17 A2995 RMK AO2 SLP140 T02390172 10239 20178 50002
