2025/05/17 21:53
KLAX 172153Z 25008KT 10SM SCT012 BKN024 BKN031 17/12 A2996 RMK AO2 SLP145 T01670122
