2025/04/03 05:53
KLAX 030553Z 27007KT 10SM FEW065 FEW180 12/07 A2986 RMK AO2 SLP108 T01220072 10150 20117 50014
