2024/08/09 07:53
KLAX 090753Z 25004KT 4SM BR OVC004 17/16 A2991 RMK AO2 SLP124 VIS SW-W 2 T01720161 402500172 $
