2024/10/06 19:53
KLAX 061953Z 27009KT 7SM FEW002 SCT009 SCT050 20/16 A2994 RMK AO2 SLP136 T02000161
