2025/09/16 03:53
KLAX 160353Z 27007KT 6SM BR BKN005 19/18 A2987 RMK AO2 SLP112 T01940178
