2025/08/09 01:53
KLAX 090153Z 26010KT 10SM FEW015 21/16 A2987 RMK AO2 SLP113 T02110161 $
