2024/10/21 03:53
KLAX 210353Z 24004KT 10SM FEW080 19/10 A3006 RMK AO2 SLP177 FU FEW080 T01890100 $
