2026/03/05 09:53
KLAX 050953Z 00000KT 8SM SCT011 13/12 A2992 RMK AO2 SLP128 T01330117
