2025/06/26 11:53
KLAX 261153Z 29003KT 5SM HZ FEW007 OVC011 18/15 A2993 RMK AO2 SLP134 T01780150 10178 20167 55003
