2025/09/12 23:53
KLAX 122353Z 26012KT 10SM FEW015 23/16 A2989 RMK AO2 SLP118 T02280161 10250 20228 56009 $
