2025/01/12 01:53
KLAX 120153Z 12003KT 10SM FEW040 14/09 A2995 RMK AO2 SLP142 FU FEW040 T01390094 $
