2023/02/21 03:53
KLAX 210353Z 26005KT 10SM SCT200 BKN250 14/09 A2999 RMK AO2 SLP156 T01390089 $
