2023/07/26 07:53
KLAX 260753Z 24004KT 10SM FEW006 21/18 A2994 RMK AO2 SLP137 T02060183 402500178 $
