2025/04/19 17:53
KLAX 191753Z 25010KT 10SM FEW019 17/09 A3013 RMK AO2 SLP202 T01720089 10178 20111 51002 $
