2024/04/26 07:53
KLAX 260753Z 26009KT 10SM FEW009 FEW014 SCT045 SCT200 14/11 A3001 RMK AO2 SLP162 T01390111 401830122
