2024/01/15 09:53
KLAX 150953Z 00000KT 10SM FEW012 FEW250 10/09 A3007 RMK AO2 SLP179 T01000089 $
