2026/05/03 11:53
KLAX 031153Z 25008KT 10SM FEW011 FEW016 BKN024 16/12 A2990 RMK AO2 SLP124 T01560122 10161 20150 56008
