2025/03/21 13:53
KLAX 211353Z 32003KT 10SM FEW010 SCT160 BKN250 12/09 A3004 RMK AO2 SLP172 T01170089 $
