2025/01/09 09:53
KLAX 090953Z 12004KT 10SM FEW010 FEW150 SCT250 12/M07 A3009 RMK AO2 SLP185 FU FEW010 T01221072
