2024/08/03 03:53
KLAX 030353Z 26010KT 10SM FEW100 19/14 A2997 RMK AO2 SLP148 T01890144 $
