2025/01/18 21:53
KLAX 182153Z 25010KT 10SM FEW019 FEW038 16/07 A3019 RMK AO2 SLP224 T01560067
