2025/10/16 01:53
KLAX 160153Z 27010KT 10SM CLR 17/10 A2997 RMK AO2 SLP150 T01670100 $
