2023/02/03 13:53
KLAX 031353Z 03004KT 10SM SCT180 BKN210 BKN280 13/02 A3022 RMK AO2 SLP231 T01280017 $
