2026/04/09 17:53
KLAX 091753Z VRB03KT 10SM FEW009 SCT018 BKN250 22/14 A2996 RMK AO2 SLP146 T02170139 10222 20161 51006 $
