2023/01/08 15:53
KLAX 081553Z 07003KT 10SM SCT085 BKN110 10/06 A3019 RMK AO2 SLP223 T01000061 $
