2026/01/17 11:53
KLAX 171153Z 12004KT 10SM FEW280 12/02 A3002 RMK AO2 SLP163 T01220022 10194 20122 58002
