2023/08/10 07:53
KLAX 100753Z 23004KT 10SM FEW010 BKN018 BKN150 19/17 A2995 RMK AO2 SLP139 T01890167 402390189 $
