2025/07/10 09:53
KLAX 100953Z 00000KT 10SM FEW008 FEW250 17/15 A2993 RMK AO2 SLP131 T01670150 $
