2026/01/06 09:53
KLAX 060953Z 08003KT 10SM FEW014 SCT022 OVC050 13/12 A3008 RMK AO2 RAE10 SLP185 P0002 T01330117 $
