2023/10/22 13:53
KLAX 221353Z 07003KT 10SM BKN009 OVC013 16/14 A2984 RMK AO2 SLP103 T01560139 $
