2023/07/04 21:53
KLAX 042153Z 24010KT 10SM FEW020 19/14 A2994 RMK AO2 SLP138 T01940139
