2024/09/09 15:53
KLAX 091553Z 23004KT 9SM FEW160 28/19 A2982 RMK AO2 SLP097 T02780189
