2024/11/27 19:53
KLAX 271953Z 27010KT 7SM BCFG FEW004 SCT027 BKN150 BKN180 18/14 A3003 RMK AO2 SLP167 VIS W 3/4 T01780144
