2025/07/24 09:53
KLAX 240953Z 00000KT 10SM FEW011 17/15 A3005 RMK AO2 SLP174 T01720150 $
