2023/05/24 01:53
KLAX 240153Z 24005KT 10SM OVC019 16/12 A2992 RMK AO2 SLP132 T01560122 $
