2025/08/25 13:53
KLAX 251353Z 22004KT 9SM FEW017 FEW160 SCT250 20/18 A2988 RMK AO2 SLP115 T02000178
