2025/05/11 19:53
KLAX 111953Z 26009KT 10SM VCFG FEW000 SCT280 24/13 A2989 RMK AO2 SLP122 VIS SW 2 1/2 FG FEW000 T02440133
