2023/03/21 07:53
KLAX 210753Z 14009KT 6SM -RA BR FEW008 BKN028 OVC045 12/11 A2988 RMK AO2 SLP115 P0006 T01170106 401610117
