2026/05/14 19:53
KLAX 141953Z 24007KT 10SM FEW014 BKN026 19/12 A3003 RMK AO2 SLP169 T01940117
