2025/01/19 19:53
KLAX 191953Z 24007KT 10SM BKN023 14/07 A3019 RMK AO2 SLP223 T01390072 $
