2023/11/19 15:53
KLAX 191553Z 26010KT 10SM FEW010 FEW025 17/14 A3012 RMK AO2 SLP198 T01670144
