2023/03/01 01:53
KLAX 010153Z 23010KT 10SM FEW026 SCT038 OVC095 12/07 A2999 RMK AO2 SLP154 T01170067
