2024/07/04 10:53
KLAX 041053Z 26004KT 8SM SCT006 BKN008 17/16 A2993 RMK AO2 SLP134 T01720156
