2025/06/13 19:53
KLAX 131953Z 25010KT 9SM FEW010 FEW016 SCT220 SCT270 22/14 A2989 RMK AO2 SLP121 T02170144
