2022/09/29 19:53
KLAX 291953Z 26009KT 6SM HZ SCT004 SCT008 23/19 A2997 RMK AO2 SLP147 T02330189
