2025/10/26 11:53
KLAX 261153Z 00000KT 5SM BR OVC009 16/13 A3000 RMK AO2 SLP157 T01560133 10161 20144 55001 $
