2022/12/12 07:53
KLAX 120753Z VRB06KT 10SM FEW018 FEW045 12/04 A2991 RMK AO2 SLP127 T01170044 401500111 $
