2023/07/20 21:53
KLAX 202153Z 25012KT 10SM FEW008 FEW250 24/17 A2995 RMK AO2 SLP142 T02390172 $
