2024/06/22 11:53
KLAX 221153Z 24005KT 8SM FEW006 16/15 A2979 RMK AO2 SLP086 T01610150 10178 20161 55002
