2022/08/31 07:53
KLAX 310753Z 00000KT 10SM CLR 21/17 A2989 RMK AO2 SLP118 T02110167 402500189
