2023/03/18 17:53
KLAX 181753Z 08007KT 10SM FEW250 22/02 A3005 RMK AO2 SLP176 T02170017 10217 20100 53002
