2026/06/29 08:53
KLAX 290853Z 25004KT 10SM FEW015 17/13 A2986 RMK AO2 SLP109 T01720128 58001
