2024/07/07 07:53
KLAX 070753Z 18004KT 8SM FEW006 BKN009 19/18 A2989 RMK AO2 SLP120 T01940178 402670189
