2023/11/09 09:53
KLAX 090953Z 36005KT 10SM CLR 17/M06 A3004 RMK AO2 SLP172 T01721061
