2025/01/09 19:53
KLAX 091953Z 36005KT 6SM HZ FEW010 SCT070 19/01 A3011 RMK AO2 SLP194 FU FEW010 FU SCT070 T01940006
