2022/09/10 15:53
KLAX 101553Z 00000KT 10SM BKN060 OVC120 24/21 A2983 RMK AO2 SLP098 T02440206 $
