2024/05/15 15:53
KLAX 151553Z 25005KT 10SM SCT016 OVC022 15/12 A2994 RMK AO2 SLP138 T01500117
