2023/11/13 07:53
KLAX 130753Z 10005KT 10SM SCT250 16/07 A3001 RMK AO2 SLP159 T01560067 402890128
