2024/01/22 01:53
KLAX 220153Z 13007KT 10SM FEW021 FEW200 SCT250 15/12 A2990 RMK AO2 SLP123 T01500122 $
