2024/06/29 07:53
KLAX 290753Z 25006KT 10SM CLR 17/14 A2986 RMK AO2 SLP109 T01670144 402330161
