2024/12/25 15:53
KLAX 251553Z VRB04KT 8SM FEW015 FEW100 SCT150 12/09 A3009 RMK AO2 SLP186 T01170089 $
