2025/08/13 15:53
KLAX 131553Z 33003KT 6SM HZ FEW009 OVC016 21/17 A2995 RMK AO2 SLP139 T02060167
