2024/07/10 01:53
KLAX 100153Z 26009KT 10SM OVC006 18/16 A2981 RMK AO2 SLP092 T01830161
