2024/09/23 23:53
KLAX 232353Z 26012KT 3SM BR OVC003 18/16 A2977 RMK AO2 SLP080 VIS SW-NW 1 T01780156 10200 20172 56019 $
