2022/09/22 05:53
KLAX 220553Z 24006KT 10SM CLR 21/16 A2993 RMK AO2 SLP134 T02060156 10233 20206 51013
