2023/05/02 15:53
KLAX 021553Z 24007KT 9SM FEW015 BKN026 BKN034 14/08 A2993 RMK AO2 SLP133 BKN026 V SCT T01390078
