2026/01/28 23:53
KLAX 282353Z 26009KT 10SM FEW200 BKN250 18/04 A3016 RMK AO2 SLP213 T01830044 10206 20167 56008
