2025/05/05 17:53
KLAX 051753Z 23008KT 8SM BKN028 BKN035 17/11 A2984 RMK AO2 SLP105 T01720111 10183 20144 53005
