2025/01/05 17:53
KLAX 051753Z VRB03KT 10SM SCT190 SCT280 20/01 A3016 RMK AO2 SLP212 CCSL DSNT NE T02000006 10206 20072 51015
