2023/08/16 13:53
KLAX 161353Z 26007KT 7SM FEW005 SCT065 BKN140 BKN180 19/18 A2993 RMK AO2 SLP133 T01890178 $
