2026/01/23 13:53
KLAX 231353Z 08003KT 4SM BR FEW004 SCT007 SCT011 BKN180 13/12 A2992 RMK AO2 SLP132 VIS SE 2 1/2 SCT011 V BKN T01280122 $
