2025/09/24 03:53
KLAX 240353Z 23004KT 10SM FEW008 SCT150 20/18 A2989 RMK AO2 SLP119 T02000183 $
