2025/11/13 17:53
KLAX 131753Z 23005KT 6SM HZ SCT055 BKN070 19/16 A3007 RMK AO2 SLP180 T01940161 10200 20161
