2024/10/28 17:53
KLAX 281753Z 24010KT 8SM FEW015 BKN025 19/14 A2995 RMK AO2 SLP140 T01890144 10189 20167 50004
