2024/06/04 01:53
KLAX 040153Z 26008KT 10SM FEW011 BKN200 17/14 A2986 RMK AO2 SLP108 T01670139 $
