2025/03/06 06:15
KLAX 060615Z 26014KT 10SM FEW005 SCT012 BKN028 BKN140 12/10 A2987 RMK AO2 T01170100
