2024/05/09 21:53
KLAX 092153Z 25013G19KT 10SM FEW100 20/12 A2992 RMK AO2 SLP131 T02000117 $
