2026/03/19 11:53
KLAX 191153Z 09005KT 10SM FEW004 FEW010 17/16 A3001 RMK AO2 SLP160 T01720156 10211 20167 56007 $
