2025/06/28 11:53
KLAX 281153Z 11003KT 6SM BR OVC010 18/16 A2998 RMK AO2 SLP151 T01780156 10178 20167 53006 $
