2025/03/24 09:53
KLAX 240953Z 00000KT 10SM FEW008 13/12 A3004 RMK AO2 SLP170 T01330122 $
