2024/05/05 17:53
KLAX 051753Z 26010KT 10SM SCT037 17/08 A2992 RMK AO2 SLP131 T01670083 10167 20117 50007
