2023/12/18 19:53
KLAX 181953Z 09005KT 10SM SCT060 BKN110 BKN170 21/08 A2997 RMK AO2 SLP148 T02060083 $
