2024/12/02 15:53
KLAX 021553Z 08004KT 10SM FEW009 FEW016 SCT160 SCT250 12/02 A3013 RMK AO2 RAB02E14 SLP201 P0000 T01220022 $
