2023/05/20 01:53
KLAX 200153Z 25010KT 10SM FEW010 OVC016 17/14 A3003 RMK AO2 SLP166 T01670139
