2025/02/28 05:53
KLAX 280553Z 09003KT 10SM CLR 18/07 A2997 RMK AO2 SLP144 T01780067 10239 20172 50003
