2024/01/05 09:53
KLAX 050953Z 05005KT 10SM FEW250 09/02 A3015 RMK AO2 SLP208 T00890022
