2024/08/03 17:53
KLAX 031753Z 26007KT 10SM FEW005 23/16 A2997 RMK AO2 SLP145 T02280161 10233 20172 58004 $
