2023/01/29 19:53
KLAX 291953Z 25016KT 10SM FEW019 BKN034 BKN049 13/08 A2992 RMK AO2 SLP129 T01330078 $
