2022/08/25 05:53
KLAX 250553Z 15005KT 10SM SCT016 22/18 A2990 RMK AO2 SLP122 T02220183 10250 20217 51013 $
