2025/08/02 21:53
KLAX 022153Z 26009KT 220V290 10SM SCT018 22/15 A3007 RMK AO2 SLP182 T02220150 $
