2022/08/30 03:53
KLAX 300353Z 25009KT 10SM CLR 19/16 A2990 RMK AO2 SLP122 T01940156 $
