2022/12/03 05:53
KLAX 030553Z 31003KT 10SM SCT023 BKN090 OVC110 15/12 A3011 RMK AO2 SLP194 60005 T01500122 10161 20144 50002
