2024/12/08 07:53
KLAX 080753Z 10004KT 10SM SCT250 13/06 A3007 RMK AO2 SLP180 T01330061 402670094
