2022/09/10 11:53
KLAX 101153Z 00000KT 10SM SCT026 OVC070 23/20 A2978 RMK AO2 SLP081 60004 70013 T02280200 10228 20217 51009 $
