2022/09/08 17:53
KLAX 081753Z 11003KT 10SM FEW080 SCT120 BKN150 BKN190 28/19 A2985 RMK AO2 SLP105 60000 T02830189 10289 20228 56005
