2023/05/05 17:53
KLAX 051753Z 22009KT 9SM FEW010 SCT060 BKN070 BKN140 17/09 A3009 RMK AO2 SLP188 60000 T01670094 10167 20128 51013
