2023/04/30 07:53
KLAX 300753Z 00000KT 3/4SM R25L/P6000FT BR OVC004 13/12 A2998 RMK AO2 SLP151 VIS S-SW 2 T01330122 401720122
