2024/03/14 21:53
KLAX 142153Z 03015G27KT 10SM FEW080 21/M06 A2977 RMK AO2 PK WND 02028/2100 SLP082 T02061056 $
