2023/12/14 01:53
KLAX 140153Z 23006KT 10SM FEW015 15/12 A3003 RMK AO2 SLP167 T01500122
