2023/03/14 13:53
KLAX 141353Z 25009KT 7SM FEW005 BKN011 BKN110 13/12 A3003 RMK AO2 SLP168 T01330122 $
