2023/02/21 01:53
KLAX 210153Z 26008KT 10SM FEW200 FEW250 14/10 A3000 RMK AO2 SLP160 T01440100 $
