2024/01/15 15:53
KLAX 151553Z 03003KT 7SM FEW005 BKN180 BKN220 11/09 A3007 RMK AO2 SLP181 T01110089 $
