2022/10/15 09:53
KLAX 150953Z 29004KT 7SM -DZ BKN007 OVC011 18/17 A2986 RMK AO2 SLP108 P0000 T01780167 $
