2025/02/19 15:53
KLAX 191553Z 11007KT 5SM BR FEW005 BKN250 12/11 A3011 RMK AO2 SLP194 T01170106 $
