2022/09/11 17:53
KLAX 111753Z 26009KT 10SM FEW038 BKN043 27/21 A3002 RMK AO2 SLP163 T02720206 10289 20239 53008 $
