2026/04/02 11:53
KLAX 021153Z 27009KT 10SM FEW012 FEW021 SCT042 BKN250 16/12 A2996 RMK AO2 SLP142 T01560122 10167 20150 56015 $
