2022/10/29 03:53
KLAX 290353Z 23006KT 10SM FEW230 17/13 A3011 RMK AO2 SLP193 T01720133 VISNO RWY24 $
