2023/02/28 01:53
KLAX 280153Z 24009KT 10SM FEW016 BKN044 11/08 A3009 RMK AO2 SLP190 T01110078 $
