2025/04/25 03:53
KLAX 250353Z 27003KT 10SM SCT250 14/09 A2992 RMK AO2 SLP131 T01390089
