2025/10/21 09:53
KLAX 210953Z 00000KT 9SM FEW004 16/15 A3004 RMK AO2 SLP171 T01610150
