2022/10/20 05:53
KLAX 200553Z 02003KT 10SM FEW200 SCT250 26/12 A2997 RMK AO2 SLP143 T02560122 10300 20250 50005 $
