2023/06/05 23:53
KLAX 052353Z 22010KT 10SM FEW015 BKN037 18/11 A2989 RMK AO2 SLP119 60000 T01780111 10189 20150 58010
