2026/01/06 21:53
KLAX 062153Z 00000KT 10SM FEW010 SCT050 BKN075 BKN180 18/11 A3000 RMK AO2 SLP159 T01830106 $
