2023/01/31 03:53
KLAX 310353Z 27006KT 10SM BKN150 12/08 A2996 RMK AO2 SLP147 T01170083
