2026/07/05 14:53
KLAX 051453Z 27004KT 10SM SCT011 BKN160 BKN210 BKN260 19/16 A3000 RMK AO2 SLP156 T01940161 53004 $
