2023/01/18 07:53
KLAX 180753Z VRB03KT 10SM FEW018 09/02 A3005 RMK AO2 SLP174 T00940017 401440083 $
