2023/11/24 17:53
KLAX 241753Z 11005KT 10SM FEW015 FEW032 SCT060 18/11 A2993 RMK AO2 SLP133 T01830111 10189 20139 51016
