2024/03/26 17:53
KLAX 261753Z 14008KT 10SM FEW034 SCT042 17/09 A3006 RMK AO2 SLP180 T01670089 10172 20111 51016
