2024/04/22 03:53
KLAX 220353Z 25006KT 5SM BR OVC004 14/13 A2994 RMK AO2 SLP139 T01390128 $
