2025/11/14 11:53
KLAX 141153Z 14005KT 10SM -RA FEW016 SCT035 BKN070 OVC150 18/11 A2996 RMK AO2 RAB44 SLP144 P0000 60000 70001 T01780111 10189 20178 56008
