2025/12/26 01:53
KLAX 260153Z 13008KT 10SM FEW055 SCT095 SCT150 BKN250 17/14 A3008 RMK AO2 SLP183 T01720139 $
