2024/09/01 05:53
KLAX 010553Z 26006KT 10SM FEW010 19/17 A2993 RMK AO2 SLP131 T01940172 10217 20194 51007 $
