2024/09/30 09:53
KLAX 300953Z 26003KT 8SM FEW003 BKN006 17/16 A2985 RMK AO2 SLP106 T01670156 $
