2026/04/07 07:53
KLAX 070753Z 00000KT 10SM FEW011 16/13 A3003 RMK AO2 SLP165 T01610133 402560161 $
