2023/11/07 07:53
KLAX 070753Z 22004KT 10SM FEW008 FEW014 17/14 A2996 RMK AO2 SLP144 T01670139 402170144
