2025/09/06 17:53
KLAX 061753Z 16003KT 10SM FEW016 26/15 A2998 RMK AO2 SLP150 T02610150 10261 20194 51008
