2024/05/17 15:53
KLAX 171553Z VRB05KT 10SM OVC012 16/13 A2999 RMK AO2 SLP154 T01560128 $
