2024/06/10 03:53
KLAX 100353Z 24009KT 10SM FEW250 16/13 A2995 RMK AO2 SLP140 T01610133 $
