2025/11/09 17:53
KLAX 091753Z 26007KT 4SM HZ FEW003 18/14 A3009 RMK AO2 SLP187 VIS SW-NW 1 3/4 T01830144 10183 20150 50012 $
