2024/06/30 07:53
KLAX 300753Z 27003KT 7SM OVC003 15/14 A2991 RMK AO2 SLP125 T01500144 402220144
