2025/12/22 17:53
KLAX 221753Z 26007KT 1/2SM R25L/2000V6000FT FG VV002 14/14 A3006 RMK AO2 SLP177 T01390139 10139 20100 53017 $
