2023/10/03 09:53
KLAX 030953Z 03004KT 10SM FEW008 FEW012 16/14 A2996 RMK AO2 SLP144 T01560144 $
