2024/02/10 13:53
KLAX 101353Z 03004KT 10SM CLR 11/01 A2999 RMK AO2 SLP156 T01060011 $
