2025/07/31 05:53
KLAX 310553Z 23006KT 10SM FEW014 18/15 A2995 RMK AO2 SLP140 T01830150 10222 20183 53003 $
