2025/07/24 19:53
KLAX 241953Z 27014KT 10SM FEW011 SCT220 SCT270 22/16 A3010 RMK AO2 SLP191 T02170156 $
