2026/03/18 17:53
KLAX 181753Z 25007KT 10SM FEW250 25/15 A3003 RMK AO2 SLP167 T02500150 10272 20172 51015 $
