2024/08/22 05:53
KLAX 220553Z 19005KT 10SM FEW010 21/17 A2993 RMK AO2 SLP133 T02060167 10250 20206 51011
