2024/01/26 03:53
KLAX 260353Z 00000KT 10SM FEW015 13/12 A3013 RMK AO2 SLP201 T01330117 $
