2025/09/21 17:53
KLAX 211753Z 20003KT 9SM SCT012 SCT140 BKN220 23/18 A2995 RMK AO2 SLP141 T02280178 10228 20183 53008
