2023/01/14 23:53
KLAX 142353Z 10006KT 3SM -RA BR BKN017 OVC026 12/11 A2987 RMK AO2 SLP115 P0009 60122 T01170106 10128 20111 55008
