2023/02/07 09:53
KLAX 070953Z 06004KT 10SM CLR 10/01 A3022 RMK AO2 SLP231 T01000006 $
