2023/07/08 11:53
KLAX 081153Z 00000KT 9SM OVC012 17/14 A2984 RMK AO2 SLP103 T01670139 10167 20156 55000
