2026/01/16 01:53
KLAX 160153Z 29003KT 10SM CLR 21/04 A2995 RMK AO2 SLP141 T02110044 $
