2025/06/10 12:09
KLAX 101209Z 08006KT 5SM BR SCT008 OVC010 17/14 A2993 RMK AO2 T01720144 $
