2025/05/13 12:13
KLAX 131213Z 00000KT 10SM FEW016 SCT022 13/09 A2994 RMK AO2 T01330089 $
