2026/01/05 07:53
KLAX 050753Z 11004KT 10SM FEW014 SCT028 BKN035 14/12 A3002 RMK AO2 SLP166 T01440122 401670133
