2022/09/30 02:53
KLAX 300253Z 25005KT 10SM FEW010 21/19 A2990 RMK AO2 SLP121 T02060189 55002
