2025/12/21 11:59
KLAX 211159Z 00000KT 2 1/2SM BR BKN013 13/12 A3008 RMK AO2 VIS 1 1/4 RWY24 CIG 008 RWY24 T01280117 $
