2023/04/29 13:53
KLAX 291353Z VRB03KT 1 1/2SM BR OVC005 13/12 A3003 RMK AO2 SLP168 VIS SW 1 T01280117
