2023/01/23 01:53
KLAX 230153Z 22003KT 10SM FEW250 12/06 A2988 RMK AO2 SLP120 T01220056 $
