2025/04/07 23:53
KLAX 072353Z 26012KT 10SM FEW250 19/09 A3003 RMK AO2 SLP170 T01890089 10194 20178 56016 $
