2024/10/13 07:53
KLAX 130753Z 00000KT 10SM OVC008 17/16 A3001 RMK AO2 SLP161 T01720156 402110156
