2026/03/12 15:53
KLAX 121553Z VRB03KT 10SM CLR 21/09 A3019 RMK AO2 SLP221 T02060089 $
