2026/03/23 04:18
KLAX 230418Z VRB04KT 4SM BR SCT007 16/14 A2991 RMK AO2 T01610144
