2023/08/30 01:53
KLAX 300153Z 25008KT 10SM CLR 23/17 A2978 RMK AO2 SLP084 T02330167
