2023/01/04 17:53
KLAX 041753Z 09010KT 1 3/4SM R25L/5000VP6000FT RA BR SCT003 OVC005 15/14 A3012 RMK AO2 SLP199 VIS 3/4V2 VIS SW-NW 1 P0009 60016 T01500144 10150 20139 51017 $
