2026/07/22 19:00
KLAX 221900Z 24008KT 9SM FEW006 SCT010 BKN017 24/19 A2999 RMK AO2 T02390189
