2022/10/31 21:53
KLAX 312153Z 28003KT 10SM FEW025 BKN150 BKN200 23/14 A2984 RMK AO2 SLP102 T02280139 VISNO RWY24 $
