2025/01/21 09:53
KLAX 210953Z 00000KT 10SM CLR 08/M09 A3043 RMK AO2 SLP302 T00781094 VISNO RWY24 $
