2026/01/05 15:53
KLAX 051553Z VRB03KT 7SM FEW006 SCT025 SCT140 12/12 A3005 RMK AO2 SLP175 T01220117 $
