2025/08/15 11:53
KLAX 151153Z 11006KT 10SM OVC015 19/16 A2990 RMK AO2 SLP121 T01940156 10200 20189 53002 $
