2023/06/01 21:53
KLAX 012153Z 25009KT 10SM FEW017 OVC026 18/13 A2995 RMK AO2 SLP139 T01780133
