2026/02/16 21:53
KLAX 162153Z 00000KT 7SM -RA SCT009 BKN060 OVC075 12/11 A2975 RMK AO2 SLP074 P0006 T01220106 $
