2025/01/25 03:53
KLAX 250353Z 00000KT 10SM FEW250 14/05 A2991 RMK AO2 SLP127 T01440050
