2025/08/23 07:53
KLAX 230753Z 24003KT 9SM FEW190 FEW240 22/19 A2988 RMK AO2 SLP115 T02170189 402890217
