2024/11/03 13:53
KLAX 031353Z 35004KT 10SM FEW020 15/06 A2984 RMK AO2 SLP105 T01500061 $
