2025/07/28 09:53
KLAX 280953Z 26005KT 10SM BKN011 17/15 A3001 RMK AO2 SLP159 T01720150
