2025/07/16 06:53
KLAX 160653Z 23004KT 10SM OVC015 18/15 A2995 RMK AO2 SLP138 T01780150
