2023/07/22 13:53
KLAX 221353Z 00000KT 4SM BR BKN007 18/17 A2987 RMK AO2 SLP114 T01830167
