2025/02/19 17:53
KLAX 191753Z 00000KT 5SM HZ FEW009 SCT180 BKN250 16/11 A3013 RMK AO2 SLP203 T01610111 10161 20100 53013 $
