2025/01/26 19:53
KLAX 261953Z 13008KT 10SM SCT022 BKN045 OVC060 13/09 A3005 RMK AO2 RAB07E17 SLP174 P0000 T01280089 $
