2023/10/20 21:53
KLAX 202153Z 26011KT 10SM FEW023 FEW040 SCT100 22/16 A2984 RMK AO2 SLP104 T02220161
