2024/05/25 11:53
KLAX 251153Z 28004KT 10SM SCT016 OVC025 13/11 A2995 RMK AO2 SLP141 T01330106 10144 20128 50002
