2024/10/22 23:53
KLAX 222353Z 27014KT 10SM FEW250 21/13 A2998 RMK AO2 SLP149 T02060133 10250 20206 56010
