2024/06/13 05:53
KLAX 130553Z 27011G18KT 10SM OVC008 16/14 A2996 RMK AO2 SLP143 T01610139 10200 20156 53010
