2025/02/18 05:53
KLAX 180553Z 15004KT 10SM FEW010 14/11 A2998 RMK AO2 SLP152 T01390111 10156 20133 53007
