2024/07/19 00:02
KLAX 190002Z 26015G23KT 6SM HZ BKN007 BKN100 22/17 A2995 RMK AO2 CB DSNT SE T02170172
