2025/01/12 05:53
KLAX 120553Z 06004KT 10SM FEW040 13/07 A3001 RMK AO2 SLP161 FU FEW040 T01280072 10150 20122 50017 $
