2023/06/10 21:53
KLAX 102153Z 24011KT 10SM SCT014 BKN020 OVC029 18/14 A2991 RMK AO2 SLP127 T01830139
