2023/07/14 03:53
KLAX 140353Z 23006KT 10SM SCT008 18/17 A2991 RMK AO2 SLP128 T01830167 $
