2022/11/04 13:53
KLAX 041353Z 05004KT 10SM FEW007 FEW250 BKN300 10/01 A3025 RMK AO2 SLP243 FU FEW007 T01000011 VISNO RWY24 $
