2024/08/16 01:53
KLAX 160153Z 26009KT 10SM CLR 23/17 A2984 RMK AO2 SLP101 T02280172 $
