2025/05/01 15:53
KLAX 011553Z 21004KT 8SM FEW016 OVC021 16/10 A2998 RMK AO2 SLP150 T01560100
