2026/04/11 17:53
KLAX 111753Z 26008KT 10SM FEW032 SCT055 19/12 A3004 RMK AO2 SLP172 T01940122 10194 20150 53013 $
