2024/10/07 14:53
KLAX 071453Z 08003KT 1/4SM R25L/P6000FT FG VV002 17/16 A2990 RMK AO2 SLP124 T01670161 51004
