2022/08/25 01:53
KLAX 250153Z 27008KT 10SM FEW010 FEW150 23/19 A2984 RMK AO2 SLP104 T02280189 $
