2025/03/04 11:53
KLAX 041153Z 09005KT 10SM BKN012 12/09 A3019 RMK AO2 SLP220 T01170089 10150 20100 50008 $
