2026/02/25 21:53
KLAX 252153Z 26010KT 10SM FEW090 SCT180 SCT250 19/14 A3001 RMK AO2 SLP160 T01890139
