2022/09/06 17:53
KLAX 061753Z 25008KT 10SM FEW017 FEW150 28/21 A2985 RMK AO2 SLP105 FU FEW150 T02780211 10289 20233 51008 $
