2023/04/26 11:53
KLAX 261153Z 31004KT 8SM SCT008 OVC012 14/12 A2996 RMK AO2 SLP142 T01440117 10144 20133 58003 $
