2023/01/18 19:53
KLAX 181953Z 00000KT 10SM FEW010 FEW029 SCT140 BKN180 14/07 A3017 RMK AO2 SLP218 T01440067 $
