2022/12/16 15:53
KLAX 161553Z 01005KT 10SM FEW140 SCT180 BKN250 13/01 A3012 RMK AO2 SLP198 T01280006
