2025/02/24 05:53
KLAX 240553Z 00000KT 10SM CLR 16/11 A3015 RMK AO2 SLP207 T01560111 10189 20150 56006 $
