2025/11/07 17:53
KLAX 071753Z 00000KT 5SM HZ CLR 19/13 A2997 RMK AO2 SLP148 T01890133 10189 20144 58000 $
