2025/06/10 19:53
KLAX 101953Z 25010KT 9SM FEW011 SCT020 21/14 A2995 RMK AO2 SLP139 T02110139 $
