2022/11/28 09:53
KLAX 280953Z 06004KT 5SM BR FEW008 BKN018 14/12 A2997 RMK AO2 SLP148 T01390122 $
