2023/09/12 01:53
KLAX 120153Z 00000KT 10SM FEW110 BKN150 22/18 A2988 RMK AO2 SLP116 VIRGA SW T02220178
