2025/04/21 01:53
KLAX 210153Z 25014KT 10SM FEW010 FEW250 16/12 A3000 RMK AO2 SLP157 T01560117 $
