2026/05/24 13:53
KLAX 241353Z 26007KT 10SM FEW014 OVC017 16/12 A3001 RMK AO2 SLP161 T01560117 $
