2025/06/23 09:53
KLAX 230953Z 08005KT 10SM FEW012 FEW018 17/14 A2990 RMK AO2 SLP123 T01670144
