2025/04/16 11:53
KLAX 161153Z 26007KT 10SM FEW018 OVC034 13/09 A2997 RMK AO2 SLP146 T01330094 10139 20133 56006
