2023/06/08 19:53
KLAX 081953Z 25011KT 10SM FEW014 FEW028 SCT120 20/13 A3004 RMK AO2 SLP173 T02000133
