2026/05/16 15:53
KLAX 161553Z 27008KT 10SM FEW024 BKN030 18/13 A2993 RMK AO2 SLP134 T01780133
