2025/05/27 21:53
KLAX 272153Z 26015G20KT 10SM FEW020 20/13 A2997 RMK AO2 SLP146 T02000133 $
