2024/09/24 19:53
KLAX 241953Z 28006KT 6SM HZ BKN009 20/16 A2984 RMK AO2 SLP103 T02000156 $
