2025/12/17 16:03
KLAX 171603Z 00000KT 1SM R25L/P6000FT BCFG BR OVC004 14/13 A3008 RMK AO2 VIS 1/2V1 1/2 T01390133 $
