2023/02/09 21:53
KLAX 092153Z 26007KT 10SM CLR 24/01 A3016 RMK AO2 SLP213 T02440011 $
