2023/01/09 11:53
KLAX 091153Z 10007KT 10SM FEW007 BKN024 OVC200 13/09 A3011 RMK AO2 RAE05B25E48 SLP195 P0000 60000 T01330094 10156 20133 58007 $
