2023/11/20 21:53
KLAX 202153Z 25010KT 10SM CLR 21/02 A3010 RMK AO2 SLP192 T02110022 $
