2025/01/10 07:53
KLAX 100753Z 28005KT 10SM FEW010 FEW040 15/M01 A3023 RMK AO2 SLP234 FU FEW010 FU FEW040 T01501011 402000078
