2024/02/13 13:53
KLAX 131353Z 06003KT 10SM FEW014 FEW200 08/04 A3001 RMK AO2 SLP159 T00830039 $
