2023/10/19 05:53
KLAX 190553Z 35003KT 3SM BR FEW002 OVC004 18/17 A2994 RMK AO2 SLP137 VIS 2V4 T01780172 10194 20178 51010 $
