2024/09/14 11:53
KLAX 141153Z 32005KT 10SM FEW010 OVC015 19/16 A2985 RMK AO2 SLP104 T01890161 10189 20183 55004
