2024/09/18 17:53
KLAX 181753Z 15007KT 100V170 10SM SCT029 22/13 A2989 RMK AO2 SLP120 T02220133 10222 20161 50004 $
