2024/11/10 13:53
KLAX 101353Z 00000KT 9SM BKN250 10/04 A3000 RMK AO2 SLP155 T01000044
