2022/12/05 11:53
KLAX 051153Z 00000KT 10SM FEW006 BKN009 14/13 A3005 RMK AO2 SLP173 60000 70013 T01390133 10156 20133 58003 $
