2026/05/30 02:53
KLAX 300253Z 25008KT 10SM FEW019 FEW050 17/13 A3001 RMK AO2 SLP160 T01670133 53003 $
