2023/07/22 03:53
KLAX 220353Z 27006KT 6SM BR OVC005 18/17 A2986 RMK AO2 SLP110 T01830167
