2022/12/03 03:53
KLAX 030353Z 30004KT 10SM -RA SCT025 BKN095 OVC110 14/12 A3010 RMK AO2 SLP193 P0004 T01440122
