2023/01/08 01:53
KLAX 080153Z 00000KT 10SM FEW050 BKN150 14/10 A3012 RMK AO2 SLP198 T01440100 $
