2023/12/18 21:53
KLAX 182153Z 12005KT 10SM SCT055 BKN070 BKN100 22/04 A2992 RMK AO2 SLP130 T02170044 $
