2026/03/20 05:53
KLAX 200553Z 19005KT 10SM CLR 19/16 A2998 RMK AO2 SLP148 T01940156 10244 20194 53012
