2026/01/02 11:53
KLAX 021153Z 05005KT 10SM FEW008 BKN050 BKN200 13/12 A3006 RMK AO2 SLP177 70066 T01280117 10156 20117 58006 $
