2025/03/17 11:53
KLAX 171153Z 00000KT 7SM FEW007 FEW011 BKN160 BKN250 12/11 A3006 RMK AO2 SLP179 T01170106 10128 20106 56015 $
