2022/09/02 23:53
KLAX 022353Z 25010KT 10SM FEW090 SCT200 26/18 A2974 RMK AO2 SLP069 T02560178 10311 20250 56013
