2023/01/19 15:53
KLAX 191553Z 08003KT 10SM FEW012 SCT110 08/04 A3015 RMK AO2 SLP210 T00830039
