2024/04/27 17:53
KLAX 271753Z 25008KT 10SM SCT025 19/12 A3000 RMK AO2 SLP159 T01890122 10189 20117 51013
