2026/02/20 11:53
KLAX 201153Z 31004KT 10SM CLR 07/02 A2997 RMK AO2 SLP147 70057 T00720017 10111 20061 53009
