2024/12/04 15:53
KLAX 041553Z 00000KT 3SM BR SCT003 OVC011 13/10 A3020 RMK AO2 SLP224 T01330100
