2022/11/05 05:53
KLAX 050553Z 00000KT 10SM SCT250 14/09 A3020 RMK AO2 SLP224 T01440089 10172 20144 58001
