2025/08/24 23:53
KLAX 242353Z 26013KT 10SM FEW010 FEW100 SCT150 24/19 A2983 RMK AO2 SLP100 T02390189 10256 20239 56020
