2024/09/13 19:53
KLAX 131953Z 25012KT 10SM FEW020 23/15 A2982 RMK AO2 SLP095 T02330150
