2024/11/28 11:53
KLAX 281153Z 07003KT 2SM BR BKN002 13/12 A3002 RMK AO2 SLP165 VIS 1V2 1/2 T01330122 10139 20133 58005 $
