2025/08/19 03:53
KLAX 190353Z 27003KT 10SM BKN008 20/18 A2995 RMK AO2 SLP140 T02000178 $
