2025/05/31 11:53
KLAX 311153Z 26005KT 4SM BR BKN006 17/16 A2993 RMK AO2 SLP133 VIS SW-NW 1 T01670156 10172 20167 55005 $
