2024/06/29 19:53
KLAX 291953Z 26009KT 10SM CLR 22/15 A2992 RMK AO2 SLP131 T02170150
