2024/09/28 01:53
KLAX 280153Z 27008KT 10SM BKN008 16/14 A2982 RMK AO2 SLP096 T01610139
