2026/01/22 01:53
KLAX 220153Z 29005KT 8SM BKN160 OVC250 16/13 A3003 RMK AO2 SLP168 T01560128 $
