2025/12/20 07:53
KLAX 200753Z 08004KT 3SM BR SCT003 OVC005 14/14 A3004 RMK AO2 SLP172 T01440139 402170100
