2026/04/23 15:53
KLAX 231553Z VRB06KT 10SM FEW018 FEW190 SCT240 SCT280 17/09 A3002 RMK AO2 SLP163 T01720094 $
