2024/11/01 23:53
KLAX 012353Z 26012KT 10SM FEW019 SCT025 SCT150 17/12 A2990 RMK AO2 SLP126 T01670122 10189 20167 56005 $
