2025/05/14 15:53
KLAX 141553Z 00000KT 8SM FEW010 FEW021 SCT045 17/11 A3004 RMK AO2 SLP171 T01670111 $
