2022/10/24 03:53
KLAX 240353Z VRB04KT 10SM CLR 18/09 A2994 RMK AO2 SLP137 T01830089
