2025/02/17 01:53
KLAX 170153Z 26007KT 10SM FEW180 SCT280 14/11 A2997 RMK AO2 SLP149 T01440111 $
