2025/06/03 05:53
KLAX 030553Z 24005KT 10SM BKN011 16/13 A3000 RMK AO2 SLP157 T01610133 10189 20161 51014 $
