2022/09/21 03:53
KLAX 210353Z 26015KT 10SM CLR 21/16 A2989 RMK AO2 SLP119 T02110156 $
