2024/12/06 07:53
KLAX 060753Z VRB03KT 2 1/2SM BR FEW003 12/10 A3008 RMK AO2 SLP185 VIS NW-N 1 1/4 T01170100 401720106 $
