2025/07/14 06:53
KLAX 140653Z 25008KT 4SM BR FEW002 OVC003 16/14 A2998 RMK AO2 SLP148 VIS SW-W 2 1/2 T01610144
