2025/08/14 19:53
KLAX 141953Z 25009KT 7SM FEW009 BKN012 22/17 A2993 RMK AO2 SLP133 T02220172 $
