2024/05/26 19:53
KLAX 261953Z 26011KT 10SM FEW023 BKN027 OVC032 18/12 A3004 RMK AO2 SLP172 T01830117
