2022/11/11 23:53
KLAX 112353Z 27008KT 10SM FEW080 SCT100 SCT220 19/02 A3002 RMK AO2 SLP164 T01890022 10217 20183 56008
