2024/01/11 19:53
KLAX 111953Z 29008KT 10SM FEW010 16/M07 A3002 RMK AO2 SLP165 T01561067
