2022/09/25 13:53
KLAX 251353Z 31003KT 9SM FEW230 21/18 A3000 RMK AO2 SLP155 T02060183
