2023/04/15 05:53
KLAX 150553Z 24005KT 10SM BKN039 13/11 A3003 RMK AO2 SLP168 T01280106 10156 20128 51018
