2024/04/24 07:53
KLAX 240753Z 00000KT 10SM FEW015 BKN032 14/11 A3005 RMK AO2 SLP173 T01440106 401830133
