2025/08/09 15:53
KLAX 091553Z 25005KT 7SM BKN012 21/17 A2994 RMK AO2 SLP135 T02060167 $
