2025/06/18 11:53
KLAX 181153Z 09004KT 10SM CLR 17/16 A2981 RMK AO2 SLP090 T01720156 10200 20172 55000 $
