2025/10/11 13:53
KLAX 111353Z VRB03KT 10SM FEW005 FEW090 16/15 A2978 RMK AO2 SLP081 T01610150 $
