2024/08/22 19:53
KLAX 221953Z 26011G17KT 10SM FEW010 24/18 A2995 RMK AO2 SLP141 T02390178
