2024/08/04 03:53
KLAX 040353Z 25008KT 10SM CLR 18/14 A2989 RMK AO2 SLP119 T01830144 $
