2023/10/16 15:53
KLAX 161553Z 11004KT 7SM BCFG FEW000 SCT005 19/17 A3001 RMK AO2 SLP162 VIS SE 3 FG FEW000 T01940167
