2023/05/10 13:53
KLAX 101353Z 12004KT 10SM FEW015 FEW040 SCT080 13/11 A3000 RMK AO2 SLP159 T01280106
