2025/01/17 11:53
KLAX 171153Z 08005KT 10SM FEW010 SCT018 09/06 A3019 RMK AO2 SLP223 T00890056 10128 20089 50002 $
