2025/12/29 11:53
KLAX 291153Z 00000KT 10SM FEW250 09/03 A3013 RMK AO2 SLP201 T00940033 10161 20078 58006 $
