2026/04/07 15:53
KLAX 071553Z VRB03KT 6SM HZ SCT010 SCT140 17/14 A3001 RMK AO2 SLP162 T01720139 $
