2026/02/12 03:53
KLAX 120353Z 31005KT 10SM CLR 15/11 A3014 RMK AO2 SLP204 T01500106
