2024/04/21 09:53
KLAX 210953Z VRB04KT 10SM OVC009 13/12 A3001 RMK AO2 SLP159 T01330117 $
