2026/02/21 11:53
KLAX 211153Z VRB04KT 10SM CLR 08/02 A3012 RMK AO2 SLP198 T00780022 10117 20072 55002 $
