2026/02/23 05:53
KLAX 230553Z 00000KT 10SM FEW250 13/10 A3019 RMK AO2 SLP219 T01330100 10178 20133 53006 $
