2023/01/17 07:53
KLAX 170753Z 27010KT 10SM FEW022 FEW040 SCT100 11/06 A2984 RMK AO2 SLP104 T01110056 401500100 $
