2024/11/18 09:53
KLAX 180953Z 09003KT 10SM FEW160 10/06 A2995 RMK AO2 SLP139 T01000061 $
