2023/03/17 11:53
KLAX 171153Z 07003KT 10SM FEW008 SCT028 BKN200 09/08 A3004 RMK AO2 SLP171 T00940083 10128 20089 56008 $
