2025/02/05 17:53
KLAX 051753Z 09010KT 2SM BR BKN006 OVC023 14/13 A3012 RMK AO2 RAE51 SLP199 P0003 60007 T01390128 10139 20117 51015 $
