2024/10/03 17:53
KLAX 031753Z VRB04KT 7SM FEW008 FEW130 23/17 A2982 RMK AO2 SLP094 T02280167 10228 20167 50004
