2024/04/27 11:53
KLAX 271153Z 10003KT 10SM CLR 12/09 A2991 RMK AO2 SLP128 T01170094 10144 20117 53003
