2024/11/27 15:53
KLAX 271553Z 24003KT 3/4SM R25L/P6000FT BR SCT005 BKN018 OVC120 16/15 A3007 RMK AO2 SLP181 VIS 1/4V1 VIS E 5 T01560150
