2022/08/28 03:53
KLAX 280353Z 27009KT 10SM OVC011 20/17 A2982 RMK AO2 SLP096 T02000172 $
