2024/09/20 15:53
KLAX 201553Z 27005KT 10SM SCT017 BKN050 19/14 A2991 RMK AO2 SLP127 T01890144
