2025/02/01 01:53
KLAX 010153Z 27012KT 10SM FEW024 SCT120 SCT200 13/09 A3021 RMK AO2 SLP229 T01280094
