2024/08/24 19:53
KLAX 241953Z 26010KT 10SM FEW009 23/15 A3003 RMK AO2 SLP167 T02330150 $
