2025/11/08 21:53
KLAX 082153Z 27010KT 6SM HZ FEW005 21/16 A2992 RMK AO2 SLP130 T02060156
