2024/12/09 11:53
KLAX 091153Z 05004KT 9SM BKN012 13/09 A3008 RMK AO2 SLP185 T01280089 10139 20122 50002
