2024/04/09 07:53
KLAX 090753Z 33003KT 10SM CLR 17/02 A3001 RMK AO2 SLP161 T01720017 402000083 $
