2026/02/04 07:53
KLAX 040753Z 00000KT 10SM CLR 16/11 A3016 RMK AO2 SLP209 T01610106 402390117 $
