2022/10/09 23:53
KLAX 092353Z 27010KT 10SM SCT013 SCT050 BKN200 21/17 A2996 RMK AO2 SLP144 CB DSNT E T02060167 10222 20206 56015 $
