2024/06/02 01:53
KLAX 020153Z 26011KT 10SM SCT011 SCT019 16/12 A2990 RMK AO2 SLP124 T01610122
