2025/03/19 01:53
KLAX 190153Z 27016KT 10SM CLR 14/08 A3022 RMK AO2 SLPNO T01390083 $
