2026/04/16 14:34
KLAX 161434Z 00000KT 10SM FEW009 SCT012 BKN140 BKN180 16/13 A2993 RMK AO2 T01560128
