2024/04/06 11:53
KLAX 061153Z 05006KT 10SM CLR 07/02 A3017 RMK AO2 SLP214 70007 T00720022 10106 20072 53013 $
