2023/05/10 15:53
KLAX 101553Z 17006KT 9SM FEW019 FEW045 SCT100 16/10 A3003 RMK AO2 SLP169 T01560100
