2025/08/29 03:53
KLAX 290353Z 27009KT 10SM FEW170 SCT260 22/15 A2999 RMK AO2 SLP155 T02220150 $
