2023/01/24 11:53
KLAX 241153Z 00000KT 10SM CLR 09/M01 A3022 RMK AO2 SLP231 T00891011 10122 20072 51012 $
