2022/11/18 21:53
KLAX 182153Z 26009KT 10SM FEW140 FEW200 18/12 A2991 RMK AO2 SLP129 ACSL DSNT N T01830122
