2025/12/21 09:53
KLAX 210953Z 00000KT 3SM BR CLR 13/12 A3009 RMK AO2 SLP188 T01330117 $
