2022/09/16 07:53
KLAX 160753Z 05004KT 10SM CLR 21/17 A2991 RMK AO2 SLP127 T02060172 402560189 $
