2023/01/30 03:53
KLAX 300353Z 11005KT 10SM SCT028 BKN035 BKN049 10/08 A2990 RMK AO2 RAB0258E17 SLP124 SHRA N-NE P0002 T01000078 $
