2022/12/10 09:53
KLAX 100953Z 09005KT 10SM BKN030 10/07 A3013 RMK AO2 SLP199 T01000072 $
