2024/03/20 07:53
KLAX 200753Z 31004KT 8SM FEW002 FEW008 13/12 A3002 RMK AO2 SLP163 T01330122 402000122 $
