2026/02/23 17:53
KLAX 231753Z 36008KT 10SM FEW120 SCT160 BKN180 BKN250 21/03 A3017 RMK AO2 SLP217 T02110028 10211 20111 53005 $
