2025/01/25 16:53
KLAX 251653Z 09008KT 10SM FEW018 FEW190 SCT210 13/M01 A2990 RMK AO2 SLP123 T01331006
