2024/09/08 15:53
KLAX 081553Z 23005KT 9SM FEW050 FEW100 SCT120 BKN190 28/19 A2978 RMK AO2 SLP080 T02780194
