2024/10/27 21:53
KLAX 272153Z 24011KT 7SM BKN150 BKN200 19/16 A2997 RMK AO2 SLP216 T01940161 $
