2025/03/24 19:53
KLAX 241953Z 25012KT 8SM FEW006 17/13 A3003 RMK AO2 SLP169 VIS SW-NW 2 1/2 T01720128 $
