2025/08/26 18:01
KLAX 261801Z 24006KT 9SM FEW010 SCT020 SCT045 23/18 A3000 RMK AO2 T02280178 $
