2024/12/07 03:53
KLAX 070353Z 09005KT 10SM FEW005 14/11 A3004 RMK AO2 SLP174 T01390106
