2025/09/19 07:53
KLAX 190753Z 25006KT 10SM FEW007 FEW070 SCT100 BKN160 21/19 A2987 RMK AO2 SLP111 T02060189 402560206
