2023/04/30 05:53
KLAX 300553Z VRB03KT 3/4SM R25L/P6000FT BR OVC005 13/12 A3000 RMK AO2 SLP158 T01330122 10150 20128 50002
