2024/01/23 17:53
KLAX 231753Z 00000KT 7SM FEW004 SCT070 15/13 A2993 RMK AO2 SLP135 T01500128 10150 20106 53019
