2022/09/15 19:53
KLAX 151953Z 25011KT 10SM FEW039 25/16 A2995 RMK AO2 SLP141 T02500161 $
