2023/05/05 19:53
KLAX 051953Z 25010KT 10SM FEW010 SCT060 SCT090 18/08 A3009 RMK AO2 SLP187 T01780078
