2025/07/03 17:53
KLAX 031753Z 25010KT 10SM FEW025 22/14 A2992 RMK AO2 SLP131 T02220139 10222 20178 51003 $
