2025/12/11 03:53
KLAX 110353Z VRB03KT 10SM CLR 19/09 A3001 RMK AO2 SLP163 T01890094 $
