2025/09/28 15:53
KLAX 281553Z 09006KT 10SM SCT038 OVC044 22/15 A3001 RMK AO2 SLP162 T02170150 $
