2025/12/22 01:53
KLAX 220153Z 26006KT 8SM FEW009 15/14 A3004 RMK AO2 SLP172 T01500139 $
