2022/10/25 05:53
KLAX 250553Z VRB03KT 10SM CLR 18/06 A3016 RMK AO2 SLP211 T01830061 10217 20172 53004
