2025/07/07 07:53
KLAX 070753Z 24004KT 10SM FEW009 17/15 A2994 RMK AO2 SLP135 T01670150 402170161
