2023/04/02 09:53
KLAX 020953Z 07003KT 10SM FEW015 11/09 A3011 RMK AO2 SLP194 T01060089 $
