2022/09/01 19:53
KLAX 011953Z 27007KT 9SM FEW090 FEW160 SCT250 28/18 A2975 RMK AO2 SLP073 T02780178
