2024/10/27 19:53
KLAX 271953Z 25006KT 10SM FEW190 BKN240 BKN280 22/16 A2999 RMK AO2 SLP154 T02220156 $
