2026/06/11 16:53
KLAX 111653Z VRB03KT 10SM FEW009 SCT017 22/16 A2986 RMK AO2 SLP110 SCT V BKN T02220161
