2024/01/18 19:53
KLAX 181953Z VRB03KT 10SM FEW009 FEW050 SCT140 BKN180 18/09 A3008 RMK AO2 SLP184 T01830094 $
