2025/04/03 15:53
KLAX 031553Z VRB05KT 8SM FEW030 FEW080 13/07 A2994 RMK AO2 SLP137 T01330072
