2024/07/11 01:53
KLAX 110153Z 26010KT 10SM FEW120 21/17 A2983 RMK AO2 SLP099 T02060167
