2023/02/23 13:53
KLAX 231353Z 09006KT 10SM FEW009 FEW016 BKN025 OVC150 08/04 A2996 RMK AO2 RAB1254E06B46E50 SLP145 FU FEW009 P0000 T00830044
