2025/01/23 19:53
KLAX 231953Z 23008KT 10SM CLR 26/06 A3026 RMK AO2 SLP245 T02610056
