2024/12/05 11:53
KLAX 051153Z 00000KT 3SM BR OVC006 12/11 A3013 RMK AO2 SLP200 VIS NW-N 2 T01220106 10128 20106 56002
