2025/01/20 13:53
KLAX 201353Z 06004KT 10SM SCT019 11/06 A3010 RMK AO2 SLP191 T01060056 $
