2023/04/14 15:53
KLAX 141553Z 23003KT 8SM -RA BKN017 BKN025 BKN033 13/10 A2994 RMK AO2 RAB44 SLP139 P0000 T01280100
