2024/04/14 17:53
KLAX 141753Z 03008KT 1 1/2SM R25L/3000VP6000FT -RA BR BKN014 OVC022 11/09 A3017 RMK AO2 SLP217 P0012 60014 T01110094 10111 20089 53009 $
