2024/11/27 03:53
KLAX 270353Z 26004KT 9SM BKN007 OVC027 16/15 A3010 RMK AO2 SLP190 T01610150
