2025/11/20 03:53
KLAX 200353Z 26008KT 10SM FEW060 14/09 A3003 RMK AO2 SLP168 T01440089 $
