2024/10/18 18:53
KLAX 181853Z 23011KT 10SM CLR 23/08 A2994 RMK AO2 SLP138 T02330083
