2025/11/06 03:53
KLAX 060353Z 26009KT 10SM FEW250 17/12 A3018 RMK AO2 SLP220 T01720122 $
