2023/03/16 17:53
KLAX 161753Z 16005KT 10SM SCT017 SCT025 OVC030 14/09 A3008 RMK AO2 SLP186 SCT025 V BKN T01390094 10139 20117 53015 $
