2023/01/31 19:53
KLAX 311953Z 24008KT 10SM CLR 16/04 A3008 RMK AO2 SLP187 T01610044 $
