2023/09/30 23:53
KLAX 302353Z 23014KT 10SM FEW017 BKN023 BKN035 18/14 A2983 RMK AO2 SLP098 60000 T01830144 10206 20183 55003 $
