2022/10/05 15:53
KLAX 051553Z 18003KT 4SM HZ SCT009 BKN012 21/18 A2999 RMK AO2 SLP154 T02110178
