2023/01/01 13:53
KLAX 011353Z 28009KT 9SM FEW025 SCT075 13/09 A2975 RMK AO2 SLP071 T01280094
