2022/12/21 13:53
KLAX 211353Z 00000KT 10SM CLR 09/05 A3014 RMK AO2 SLP204 T00890050
