2024/09/07 05:53
KLAX 070553Z 11007G15KT 10SM FEW120 BKN180 24/18 A2983 RMK AO2 SLP096 T02440183 10278 20239 51019
