2026/01/09 17:53
KLAX 091753Z 14006KT 10SM FEW160 FEW200 SCT250 14/M08 A3034 RMK AO2 SLP273 ACSL E T01391078 10139 20050 51016 $
