2022/11/08 03:53
KLAX 080353Z 27003KT 10SM SCT016 SCT070 15/12 A2997 RMK AO2 SLP147 T01500122
