2026/07/17 01:53
KLAX 170153Z 25010KT 10SM CLR 23/18 A2979 RMK AO2 SLP087 T02330183 $
