2023/10/24 15:53
KLAX 241553Z 09006KT 9SM FEW010 BKN025 18/15 A2985 RMK AO2 SLP106 T01780150 $
