2026/05/25 19:53
KLAX 251953Z 24011KT 10SM FEW018 20/11 A2996 RMK AO2 SLP142 T02000111 $
