2024/01/18 03:53
KLAX 180353Z VRB03KT 10SM BKN008 OVC032 14/12 A3006 RMK AO2 SLP179 T01390122
