2022/11/26 17:53
KLAX 261753Z 12004KT 10SM FEW200 18/01 A3014 RMK AO2 SLP206 T01780006 10178 20083 50001 $
