2025/06/02 17:53
KLAX 021753Z 26009KT 9SM SCT013 SCT022 21/16 A2999 RMK AO2 SLP153 T02060156 10211 20161 51009 $
