2023/08/21 21:53
KLAX 212153Z 23012KT 10SM FEW040 FEW070 SCT150 23/16 A2999 RMK AO2 SLP153 T02330161 $
