2026/03/03 15:53
KLAX 031553Z 00000KT 10SM FEW011 BKN017 BKN028 15/11 A3004 RMK AO2 SLP171 T01500111
