2023/09/02 07:53
KLAX 020753Z 12008KT 5SM BR FEW010 BKN012 OVC019 21/19 A2995 RMK AO2 SLP138 T02060189 402720194
