2025/03/25 09:53
KLAX 250953Z 00000KT 6SM BR FEW003 FEW006 13/12 A2997 RMK AO2 SLP146 T01280117 $
