2024/04/22 11:53
KLAX 221153Z 21003KT 3SM BR OVC005 14/13 A2987 RMK AO2 SLP115 T01390128 10150 20139 56012 $
