2023/11/14 05:53
KLAX 140553Z 22004KT 10SM CLR 16/12 A3002 RMK AO2 SLP162 T01560117 10189 20150 53014
