2026/03/26 16:15
KLAX 261615Z 01005KT 4SM HZ SCT012 BKN120 18/13 A2997 RMK AO2 SCT V BKN T01780133 $
