2025/09/02 13:53
KLAX 021353Z 26006KT 4SM BR FEW004 SCT160 SCT250 21/19 A2992 RMK AO2 SLP129 VIS S-W 2 FG BANK NR SHORE SW-NW T02060194 $
