2023/11/29 15:53
KLAX 291553Z 10004KT 10SM FEW027 SCT070 BKN120 13/03 A3003 RMK AO2 SLP168 T01280033
