2023/08/17 19:53
KLAX 171953Z 26011KT 1/2SM R25L/P6000FT FG OVC005 21/17 A2988 RMK AO2 SLP117 VIS 1/4V2 1/2 T02060172 $
