2025/03/01 02:08
KLAX 010208Z 26009KT 10SM BKN009 OVC170 14/12 A2995 RMK AO2 T01390117
