2025/08/05 14:00
KLAX 051400Z 13005KT 5SM HZ SCT006 BKN011 BKN250 19/16 A2996 RMK AO2 BKN011 V SCT T01890161
