2024/03/23 17:59
KLAX 231759Z 17009KT 3SM BR SCT008 BKN012 BKN018 14/13 A2990 RMK AO2 T01440128 $
