2025/02/03 01:53
KLAX 030153Z 26010KT 1/2SM R25L/1600V5000FT FG OVC001 12/12 A3003 RMK AO2 SLP167 T01220122 $
