2025/06/05 07:53
KLAX 050753Z 26005KT 10SM FEW006 FEW009 OVC012 17/14 A2991 RMK AO2 SLP127 T01670139 402060156
