2025/06/16 13:53
KLAX 161353Z 13003KT 8SM FEW008 18/16 A2991 RMK AO2 SLP126 T01780156 $
