2025/09/14 15:53
KLAX 141553Z 11004KT 6SM HZ FEW012 OVC015 21/17 A2990 RMK AO2 SLP123 T02060167 $
