2023/07/02 13:53
KLAX 021353Z 26004KT 2SM BR OVC004 17/16 A2991 RMK AO2 SLP125 T01670156 $
