2024/02/15 13:53
KLAX 151353Z 04004KT 10SM FEW012 FEW150 SCT220 BKN280 10/08 A3021 RMK AO2 SLP228 T01000078 $
