2025/03/02 23:53
KLAX 022353Z 25021G31KT 10SM FEW022 SCT026 SCT046 15/09 A3005 RMK AO2 PK WND 25031/2347 SLP174 T01500089 10172 20150 58018 $
