2022/09/24 19:53
KLAX 241953Z 26011KT 10SM FEW100 FEW220 26/16 A3001 RMK AO2 SLP161 T02610156
