2023/06/08 03:53
KLAX 080353Z 25011KT 10SM FEW050 16/13 A2998 RMK AO2 SLP152 T01610128
