2026/01/21 15:53
KLAX 211553Z 07006KT 2 1/2SM BR SCT009 OVC120 14/12 A3009 RMK AO2 SLP189 VIS 2V4 T01390117 $
