2023/06/10 19:53
KLAX 101953Z 24011KT 10SM SCT011 SCT016 OVC028 18/14 A2993 RMK AO2 SLP133 T01780144
