2025/02/24 21:53
KLAX 242153Z 25007KT 10SM FEW010 FEW050 20/09 A3005 RMK AO2 SLP176 T02000094 $
