2026/03/21 15:53
KLAX 211553Z 00000KT 7SM FEW002 SCT220 SCT300 19/16 A2995 RMK AO2 SLP141 VIS W 2 1/2 T01940161
