2022/10/03 17:53
KLAX 031753Z 24007KT 10SM FEW018 FEW030 22/17 A3000 RMK AO2 SLP156 T02220167 10222 20172 50002
