2023/02/26 21:53
KLAX 262153Z 25008G18KT 10SM SCT037 SCT055 12/05 A3015 RMK AO2 SLP211 T01220050 $
