2026/03/10 14:02
KLAX 101402Z 18005KT 10SM SCT009 OVC015 14/11 A3002 RMK AO2 T01440111 $
