2025/07/04 21:53
KLAX 042153Z 26013G20KT 10SM CLR 23/16 A3002 RMK AO2 SLP165 T02280156 $
