2026/06/07 04:53
KLAX 070453Z 27009KT 10SM FEW011 BKN024 17/14 A2986 RMK AO2 SLP108 T01720144 $
