2024/03/24 11:53
KLAX 241153Z 33003KT 10SM FEW015 11/04 A2977 RMK AO2 SLP079 70018 T01110044 10128 20106 55001 $
