2023/09/24 15:53
KLAX 241553Z 05007KT 6SM HZ BKN021 19/14 A3002 RMK AO2 SLP164 T01940144 $
