2026/03/23 02:53
KLAX 230253Z 27008KT 4SM BR OVC007 16/15 A2988 RMK AO2 SLP117 T01610150 53004
