2022/09/18 05:53
KLAX 180553Z 00000KT 10SM FEW018 SCT029 21/17 A2978 RMK AO2 SLP081 T02060167 10233 20206 50005 $
