2025/08/21 23:53
KLAX 212353Z 25011KT 10SM FEW100 FEW150 SCT200 SCT250 27/18 A2980 RMK AO2 SLP088 T02670183 10294 20261 56017
