2023/03/18 19:53
KLAX 181953Z 24011KT 10SM FEW250 22/06 A3003 RMK AO2 SLP169 T02170061
