2025/02/15 07:53
KLAX 150753Z 33011G14KT 10SM CLR 14/04 A3016 RMK AO2 SLP213 T01440039 401610117
