2024/06/24 15:53
KLAX 241553Z 11004KT 10SM FEW070 FEW160 25/16 A2993 RMK AO2 SLP133 T02500156
