2024/05/16 13:53
KLAX 161353Z 22003KT 10SM FEW011 OVC019 15/12 A2996 RMK AO2 SLP145 T01500117 
