2024/08/01 15:53
KLAX 011553Z 32004KT 6SM HZ SCT007 SCT160 BKN250 19/16 A3000 RMK AO2 SLP156 T01940156 $
