2026/04/04 09:53
KLAX 040953Z 06003KT 10SM FEW240 SCT290 16/14 A3002 RMK AO2 SLP162 T01610144 $
