2022/12/24 23:53
KLAX 242353Z 26006KT 10SM CLR 19/09 A3018 RMK AO2 SLP219 T01890089 10244 20183 58008 $
