2025/05/16 02:22
KLAX 160222Z 25012KT 10SM FEW012 16/13 A2995 RMK AO2 T01610128 $
