2025/01/18 07:53
KLAX 180753Z VRB03KT 10SM BKN019 11/07 A3022 RMK AO2 SLP231 T01110067 401560072
