2025/04/28 21:53
KLAX 282153Z 26012KT 10SM FEW040 17/10 A3006 RMK AO2 SLP178 T01720100 $
