2026/05/01 13:53
KLAX 011353Z VRB05KT 10SM FEW011 OVC018 17/12 A2995 RMK AO2 SLP141 T01670122
