2023/01/12 23:53
KLAX 122353Z 34006KT 10SM FEW250 OVC300 21/05 A3013 RMK AO2 SLP203 T02060050 10222 20178 58008 $
