2025/06/29 21:53
KLAX 292153Z 25013KT 10SM FEW007 22/14 A2994 RMK AO2 SLP139 T02170144
