2024/01/11 11:53
KLAX 111153Z 28022G33KT 10SM FEW012 FEW020 SCT040 12/09 A2989 RMK AO2 PK WND 28036/1143 SLP119 T01220089 10122 20106 58013
