2026/06/21 14:40
KLAX 211440Z 16006G19KT 10SM FEW008 BKN015 17/14 A2992 RMK AO2 T01720139
