2024/10/19 23:53
KLAX 192353Z 27009KT 10SM FEW250 23/03 A3002 RMK AO2 SLP164 T02330028 10261 20228 57003
