2023/06/30 21:53
KLAX 302153Z 25012KT 10SM FEW010 20/14 A2986 RMK AO2 SLP112 T02000144 $
