2023/07/15 01:53
KLAX 150153Z 26010KT 10SM FEW009 FEW100 21/15 A2982 RMK AO2 SLP096 T02110150
