2024/08/21 03:53
KLAX 210353Z 25007KT 10SM CLR 21/17 A2991 RMK AO2 SLP126 T02110167
