2024/07/16 17:53
KLAX 161753Z 24007KT 9SM FEW025 FEW070 23/17 A3001 RMK AO2 SLP159 T02280167 10239 20178 50001
