2026/01/15 03:53
KLAX 150353Z 11004KT 10SM CLR 18/11 A3006 RMK AO2 SLP179 T01780106 $
