2025/10/23 05:53
KLAX 230553Z 28012G21KT 10SM CLR 17/14 A3004 RMK AO2 SLP169 T01720144 10194 20172 53008
