2025/12/05 17:53
KLAX 051753Z VRB04KT 10SM CLR 18/M02 A3011 RMK AO2 SLP194 T01781017 10178 20094 50007 $
