2024/02/06 11:53
KLAX 061153Z 00000KT 3SM -RA BR FEW004 SCT006 OVC010 12/12 A2971 RMK AO2 SLP059 VIS S 2 1/2 P0001 60007 70167 T01170117 10122 20117 56016
