2026/07/16 14:53
KLAX 161453Z 11006KT 9SM FEW010 FEW250 23/19 A2983 RMK AO2 SLP098 T02280189 52009 $
