2026/01/18 19:53
KLAX 181953Z 26005KT 10SM FEW190 SCT230 SCT300 24/01 A3009 RMK AO2 SLP187 T02440006 $
