2024/03/14 07:53
KLAX 140753Z 09006KT 10SM FEW200 12/10 A2989 RMK AO2 SLP120 T01220100 401890122 $
