2026/06/30 10:53
KLAX 301053Z 30004KT 10SM FEW020 OVC032 18/14 A2990 RMK AO2 SLP124 T01830144 $
