2023/08/09 13:53
KLAX 091353Z 24005KT 7SM FEW009 BKN012 OVC019 20/18 A2996 RMK AO2 SLP142 T02000183 $
