2024/06/05 05:53
KLAX 050553Z 24003KT 10SM FEW010 SCT014 17/14 A2989 RMK AO2 SLP119 T01670144 10194 20161 51015 $
