2023/04/10 07:53
KLAX 100753Z 00000KT 1SM R25L/P6000FT BR VV003 13/12 A3006 RMK AO2 SLP178 VIS SW 1/2 T01280117 401670111
