2025/02/28 19:53
KLAX 281953Z 25014KT 10SM SCT009 BKN012 BKN160 16/12 A2998 RMK AO2 SLP150 T01560117
