2025/02/16 21:53
KLAX 162153Z 26010KT 10SM FEW240 BKN280 18/07 A3000 RMK AO2 SLP159 T01830072 $
