2022/10/17 02:53
KLAX 170253Z 26010KT 10SM CLR 19/15 A3005 RMK AO2 SLP172 T01890150 53011 $
