2024/11/29 07:53
KLAX 290753Z 01006KT 10SM BKN200 BKN280 17/M06 A3004 RMK AO2 SLP170 T01671056 402390128 $
