2023/05/12 15:53
KLAX 121553Z 33003KT 9SM FEW009 BKN017 16/12 A3000 RMK AO2 SLP156 T01560122
