2023/11/23 07:53
KLAX 230753Z VRB04KT 10SM FEW200 BKN280 19/03 A2991 RMK AO2 SLP125 T01890028 402830128
