2025/12/18 09:53
KLAX 180953Z 00000KT 3SM BR FEW001 FEW004 13/12 A2995 RMK AO2 SLP139 VIS N AND S 2 1/2 T01330122 $
