2025/03/11 01:53
KLAX 110153Z 26008KT 10SM FEW160 BKN230 BKN260 14/08 A2988 RMK AO2 SLP119 T01390078
