2025/11/05 09:53
KLAX 050953Z 36003KT 10SM BKN016 16/13 A3015 RMK AO2 SLP209 T01610133 $
