2023/03/25 07:53
KLAX 250753Z 35011G17KT 10SM CLR 13/M02 A3016 RMK AO2 SLP211 T01281017 401720117
