2024/08/17 19:53
KLAX 171953Z 25011KT 10SM FEW025 FEW150 24/17 A2995 RMK AO2 SLP141 T02440172 $
