2026/01/11 16:10
KLAX 111610Z 02003KT 10SM FEW009 FEW012 SCT240 SCT300 13/M03 A3025 RMK AO2 FU FEW009 FU FEW012 T01331028 $
