2025/05/31 19:53
KLAX 311953Z 24009KT 4SM R25L/2800VP6000FT HZ FEW015 BKN250 23/16 A2994 RMK AO2 SLP139 T02280161 $
