2025/01/28 03:53
KLAX 280353Z 23010KT 10SM CLR 12/08 A3010 RMK AO2 SLP191 T01220078
