2025/07/22 17:53
KLAX 221753Z 27008KT 9SM FEW016 OVC036 21/16 A3001 RMK AO2 SLP162 T02110156 10211 20178 51008 $
