2026/06/03 00:53
KLAX 030053Z 26016KT 10SM FEW011 SCT250 18/14 A2996 RMK AO2 SLP144 T01830139 $
