2024/04/30 19:53
KLAX 301953Z 25012G20KT 10SM CLR 20/13 A2987 RMK AO2 SLP114 T02000128 $
