2023/04/28 11:53
KLAX 281153Z 26003KT 1/2SM R25L/P6000FT FG BKN002 OVC005 12/11 A2994 RMK AO2 SLP136 VIS W 1/4 60000 T01220111 10128 20122 55001 $
