2024/08/24 21:53
KLAX 242153Z 26012KT 10SM FEW015 FEW037 23/17 A3001 RMK AO2 SLP162 T02330167 $
