2024/10/23 13:53
KLAX 231353Z 00000KT 10SM FEW009 FEW070 16/11 A3001 RMK AO2 SLP160 T01560106
