2025/03/03 13:53
KLAX 031353Z 33005KT 10SM FEW020 FEW070 SCT200 10/02 A3002 RMK AO2 SLP166 T01000022 $
