2025/04/10 13:53
KLAX 101353Z 00000KT 10SM FEW002 FEW280 14/13 A3013 RMK AO2 SLP200 T01440128 $
