2023/03/31 13:53
KLAX 311353Z 04005KT 10SM FEW018 FEW080 SCT250 08/04 A3017 RMK AO2 SLP217 T00830044 $
