2022/09/22 02:53
KLAX 220253Z 27018KT 10SM CLR 21/15 A2990 RMK AO2 SLP121 T02110150 530