2023/08/01 19:53
KLAX 011953Z 25012KT 10SM FEW047 FEW100 SCT140 BKN180 25/19 A3000 RMK AO2 SLP156 T02500194 $
