2024/04/03 01:53
KLAX 030153Z 26010KT 10SM CLR 16/12 A3023 RMK AO2 SLP236 T01610117
