2023/07/31 11:53
KLAX 311153Z 09003KT 8SM FEW006 FEW009 SCT200 SCT250 21/19 A2987 RMK AO2 SLP113 T02060189 10211 20206 55004 $
