2024/10/16 03:53
KLAX 160353Z 24005KT 10SM OVC016 18/14 A3000 RMK AO2 SLP156 T01780144 $
