2024/02/07 21:53
KLAX 072153Z 27021KT 10SM SCT029 BKN041 14/08 A2992 RMK AO2 PK WND 27026/2122 SLP133 T01440078
