2025/07/14 00:53
KLAX 140053Z 27012KT 10SM OVC008 18/15 A2995 RMK AO2 SLP139 T01830150
