2024/01/01 21:53
KLAX 012153Z 26007KT 10SM FEW050 FEW180 19/04 A3006 RMK AO2 SLP178 T01890044
