2025/06/29 03:53
KLAX 290353Z 25009KT 10SM FEW015 FEW200 18/16 A2993 RMK AO2 SLP133 T01830161 $
