2023/03/15 13:53
KLAX 151353Z 08004KT 3SM BR OVC003 14/14 A2990 RMK AO2 DZB02E28 SLP124 VIS SW-NW 2 P0000 T01440139 $
