2024/09/30 11:53
KLAX 301153Z 00000KT 4SM BR FEW003 OVC006 16/15 A2985 RMK AO2 SLP105 VIS W-NW 2 T01610150 10172 20161 56007 $
