2024/06/09 21:53
KLAX 092153Z 26011KT 10SM FEW015 FEW032 SCT200 21/14 A2997 RMK AO2 SLP146 T02060139 $
