2022/12/10 13:53
KLAX 101353Z VRB04KT 8SM BKN026 11/06 A3013 RMK AO2 SLP201 T01110056 $
