2025/06/22 21:53
KLAX 222153Z 24013KT 10SM FEW011 22/15 A2992 RMK AO2 PK WND 25027/2132 SLP129 T02220150
