2024/09/15 17:53
KLAX 151753Z 24005KT 8SM SCT018 OVC035 21/14 A2992 RMK AO2 SLP131 T02110144 10211 20183 51007
