2025/07/15 01:53
KLAX 150153Z 24009KT 10SM OVC009 17/14 A2990 RMK AO2 SLP125 T01720144
