2024/01/17 07:53
KLAX 170753Z 00000KT 10SM BKN008 13/12 A3006 RMK AO2 SLP177 T01330122 401670089
