2024/07/16 21:53
KLAX 162153Z 26013KT 10SM FEW045 FEW100 23/17 A2997 RMK AO2 SLP148 T02330167
