2023/01/02 11:53
KLAX 021153Z 28005KT 10SM FEW220 BKN280 11/02 A2990 RMK AO2 SLP122 70010 T01110017 10133 20094 53008
