2024/10/17 07:53
KLAX 170753Z 32004KT 10SM BKN014 BKN019 OVC029 18/15 A2989 RMK AO2 SLP118 T01780150 401940178 $
