2024/11/16 09:53
KLAX 160953Z 01004KT 10SM CLR 12/01 A2990 RMK AO2 SLP123 T01170006
