2025/01/17 19:53
KLAX 171953Z 26008KT 10SM SCT029 BKN032 14/06 A3022 RMK AO2 SLP234 T01440056
