2025/09/21 19:53
KLAX 211953Z 25007KT 10SM FEW010 SCT130 BKN190 BKN240 22/18 A2994 RMK AO2 SLP138 T02170178
