2026/01/05 11:53
KLAX 051153Z 06003KT 9SM FEW008 FEW025 SCT040 12/12 A3001 RMK AO2 SLP161 70024 T01220117 10150 20117 58000 $
