2025/09/13 23:53
KLAX 132353Z 26015KT 10SM BKN015 BKN023 22/17 A2987 RMK AO2 SLP114 T02170167 10239 20217 56009 $
