2024/04/03 19:53
KLAX 031953Z 24010KT 10SM CLR 18/13 A3015 RMK AO2 SLP208 T01830128
