2023/07/03 05:53
KLAX 030553Z 22004KT 1/8SM R25L/2800VP6000FT FG VV002 15/15 A2991 RMK AO2 SLP128 T01500150 10183 20144 51010 $
