2024/06/02 11:53
KLAX 021153Z 26006KT 10SM OVC021 15/12 A2991 RMK AO2 SLP125 T01500122 10156 20144 57005
