2023/11/27 05:53
KLAX 270553Z 05004KT 10SM BKN200 BKN250 15/00 A3004 RMK AO2 SLP171 T01500000 10183 20150 53003 $
