2023/10/14 19:53
KLAX 141953Z 26008KT 10SM CLR 23/16 A3004 RMK AO2 SLP172 T02280161
