2025/12/05 09:53
KLAX 050953Z 00000KT 10SM FEW250 12/M02 A3012 RMK AO2 SLP198 T01221017 $
