2026/02/28 03:53
KLAX 280353Z 21003KT 10SM SCT220 21/13 A2989 RMK AO2 SLP119 T02060128
