2023/10/14 13:53
KLAX 141353Z 34003KT 7SM SCT012 SCT100 16/15 A3001 RMK AO2 SLP161 T01610150
