2025/01/10 01:53
KLAX 100153Z 27006KT 10SM FEW070 14/06 A3011 RMK AO2 SLP195 FU FEW070 T01390061
