2026/03/01 07:53
KLAX 010753Z 00000KT 10SM CLR 17/13 A2994 RMK AO2 SLP135 T01720128 402610161
