2025/03/26 23:53
KLAX 262353Z 27006KT 10SM OVC031 16/09 A3005 RMK AO2 SLP175 T01610089 10161 20139 56009 $
