2026/07/08 05:53
KLAX 080553Z 22008KT 10SM CLR 19/14 A2992 RMK AO2 SLP129 T01890139 10233 20189 53006 $
