2023/03/06 21:53
KLAX 062153Z 24012KT 10SM FEW020 FEW070 SCT140 BKN180 13/07 A3014 RMK AO2 SLP205 T01330072 $
