2025/12/23 05:53
KLAX 230553Z 27006KT 8SM BKN009 OVC200 16/14 A2994 RMK AO2 SLP137 T01560144 10167 20156 53004 $
