2023/08/24 01:53
KLAX 240153Z 22011KT 10SM CLR 21/18 A2984 RMK AO2 SLP103 T02060178 $
