2024/06/30 11:53
KLAX 301153Z 13003KT 3SM BR OVC004 16/14 A2991 RMK AO2 SLP126 T01560144 10156 20144 53004
