2023/02/19 09:53
KLAX 190953Z 10003KT 10SM FEW200 09/03 A3001 RMK AO2 SLP161 T00890028 $
