2023/05/30 11:53
KLAX 301153Z 28008KT 10SM FEW016 FEW022 OVC035 16/12 A2996 RMK AO2 SLP142 T01560122 10167 20156 55002 $
