2025/03/31 07:53
KLAX 310753Z 10007KT 5SM -DZ BR FEW008 BKN011 OVC016 13/12 A3011 RMK AO2 SLP196 P0002 T01280117 401720117 $
