2024/12/05 13:53
KLAX 051353Z 00000KT 3SM BR OVC006 12/11 A3014 RMK AO2 SLP205 VIS 2 1/2V4 VIS NW-N 2 T01220106
