2024/03/01 19:53
KLAX 011953Z 26010KT 9SM SCT028 BKN040 BKN050 15/10 A3015 RMK AO2 SLP210 T01500100 $
