2022/10/22 09:53
KLAX 220953Z 14003KT 10SM FEW018 OVC023 19/16 A2986 RMK AO2 SLP110 T01940156
