2024/03/15 05:53
KLAX 150553Z 35007KT 10SM FEW060 SCT110 17/02 A2978 RMK AO2 SLP082 T01670017 10206 20150 51005 $
