2024/08/17 17:53
KLAX 171753Z VRB06KT 10SM BKN024 24/18 A2996 RMK AO2 SLP143 T02390178 10239 20206 51009 $
