2024/03/07 13:53
KLAX 071353Z 28010KT 10SM FEW010 FEW028 SCT070 SCT200 11/08 A2986 RMK AO2 SLP109 T01060078
