2024/07/25 17:53
KLAX 251753Z 26010KT 10SM FEW002 22/18 A3003 RMK AO2 SLP168 VIS W 2 T02220178 10228 20172 58004
