2024/05/12 15:53
KLAX 121553Z 11005KT 10SM OVC014 16/12 A2997 RMK AO2 SLP150 T01610122 $
