2022/11/03 05:53
KLAX 030553Z 28015G23KT 10SM FEW025 FEW100 SCT150 16/08 A3000 RMK AO2 SLP158 T01610078 10172 20156 50003 VISNO RWY24 $
