2026/05/31 06:53
KLAX 310653Z 00000KT 10SM CLR 17/14 A2994 RMK AO2 SLP135 T01720144 $
