2022/09/10 13:53
KLAX 101353Z 36004KT 10SM FEW015 BKN055 OVC110 23/19 A2980 RMK AO2 SLP089 T02280194 $
