2022/10/01 09:53
KLAX 010953Z 15005KT 10SM BKN026 20/14 A2986 RMK AO2 SLP107 T02000144
