2024/06/22 17:53
KLAX 221753Z 26008KT 10SM FEW008 21/16 A2984 RMK AO2 SLP104 T02110161 10217 20161 51005
