2024/12/24 21:53
KLAX 242153Z 13004KT 4SM BR SCT005 OVC008 14/13 A3004 RMK AO2 RAB2059E09 SLP172 P0001 T01440133 $
