2024/10/06 07:53
KLAX 060753Z VRB03KT 2SM BR OVC003 17/17 A2996 RMK AO2 SLP141 VIS SW-NW 1/2 T01670167 402110167
