2025/02/23 11:53
KLAX 231153Z 00000KT 6SM HZ CLR 12/09 A3022 RMK AO2 SLP231 T01220094 10144 20100 58002 $
