2023/02/20 03:53
KLAX 200353Z 01004KT 10SM FEW150 13/09 A3010 RMK AO2 SLP193 T01330089 $
