2023/07/19 11:53
KLAX 191153Z 26007KT 10SM FEW004 FEW008 18/17 A2996 RMK AO2 SLP141 T01830172 10194 20183 55001 $
