2026/06/29 17:53
KLAX 291753Z 26009KT 10SM SCT019 OVC028 19/13 A2993 RMK AO2 SLP133 T01940133 10200 20167 51009 $
