2025/02/24 19:53
KLAX 241953Z 25006KT 10SM FEW015 19/10 A3011 RMK AO2 SLP194 T01940100 $
