2025/08/20 11:53
KLAX 201153Z 02003KT 10SM CLR 19/17 A2995 RMK AO2 SLP140 T01940167 10211 20194 58004
