2023/07/25 21:53
KLAX 252153Z 26011KT 10SM FEW009 FEW075 SCT150 24/18 A2994 RMK AO2 SLP137 FG BNK S-NW T02440178 $
