2025/06/15 01:53
KLAX 150153Z 25012KT 10SM BKN010 BKN200 18/15 A2988 RMK AO2 SLP116 T01830150 $
