2025/03/16 21:53
KLAX 162153Z 26012KT 10SM SCT200 SCT250 17/07 A3014 RMK AO2 SLP205 T01670072 $
