2024/01/16 09:53
KLAX 160953Z 36003KT 5SM BR FEW006 SCT200 SCT250 11/11 A3007 RMK AO2 SLP182 T01110106 $
