2024/03/15 21:53
KLAX 152153Z 23012G19KT 10SM FEW025 SCT055 BKN080 BKN130 18/10 A2983 RMK AO2 SLP100 T01830100 $
