2023/08/04 09:53
KLAX 040953Z VRB03KT 10SM FEW012 18/17 A2994 RMK SLP136 T01830167 
