2024/09/16 05:53
KLAX 160553Z 27006KT 10SM FEW015 BKN022 19/14 A2986 RMK AO2 SLP109 T01890144 10211 20183 51004 $
