2023/12/03 11:53
KLAX 031153Z 35003KT 9SM CLR 09/07 A3019 
