2024/01/04 03:53
KLAX 040353Z 33006KT 10SM FEW080 13/03 A3003 RMK AO2 SLP169 T01330033
