2024/07/02 01:53
KLAX 020153Z 25010KT 8SM VCFG FEW002 19/15 A2982 RMK AO2 SLP095 FG BANK ALG SHORE S-SW T01890150
