2025/07/02 21:53
KLAX 022153Z 26013KT 10SM FEW015 21/13 A2988 RMK AO2 SLP115 T02060133 $
