2024/08/12 05:53
KLAX 120553Z 25007KT 10SM FEW280 20/17 A2995 RMK AO2 SLP139 T02000167 10233 20200 50003
