2026/04/19 23:53
KLAX 192353Z 24010KT 10SM FEW250 20/13 A2989 RMK AO2 SLP119 T02000128 10222 20200 56013 $
