2024/05/09 07:53
KLAX 090753Z 00000KT 10SM SCT016 15/12 A2990 RMK AO2 SLP122 T01500117 401940128 $
