2025/10/20 19:53
KLAX 201953Z 25008KT 10SM CLR 24/14 A3003 RMK AO2 SLP167 T02390144 $
