2025/08/02 13:53
KLAX 021353Z 00000KT 5SM HZ OVC012 18/15 A3011 RMK AO2 SLP193 T01830150 $
