2024/06/21 01:53
KLAX 210153Z 25012KT 10SM CLR 18/13 A2977 RMK AO2 SLP080 T01830128
