2025/04/21 09:53
KLAX 210953Z 00000KT 10SM FEW250 BKN300 13/12 A2999 RMK AO2 SLP154 T01330117 $
