2024/05/14 11:53
KLAX 141153Z 16005KT 10SM FEW009 OVC016 15/12 A2992 RMK AO2 SLP130 T01500117 10156 20144 56005
