2023/09/18 01:53
KLAX 180153Z 26011KT 10SM FEW010 OVC030 20/17 A2996 RMK AO2 SLP142 T02000167 $
