2023/02/08 17:53
KLAX 081753Z 00000KT 10SM CLR 19/01 A3028 RMK AO2 SLP251 T01890011 10189 20089 51014
