2025/02/21 09:53
KLAX 210953Z 08006KT 3SM BR BKN004 OVC006 13/13 A3002 RMK AO2 SLP164 VIS 2V4 T01330128
