2023/03/14 17:53
KLAX 141753Z 09004KT 2SM -RA BR OVC009 14/13 A3009 RMK AO2 CIG 007V011 SLP187 VIS 1 1/2V3 P0003 60003 T01440133 10150 20133 53013 $
