2024/01/07 17:53
KLAX 071753Z 34018G28KT 10SM FEW050 FEW075 SCT220 12/M02 A2999 RMK AO2 PK WND 35040/1659 SLP155 T01221017 10122 20100 51016
