2025/08/20 14:53
KLAX 201453Z 10004KT 10SM FEW240 SCT280 21/17 A2997 RMK AO2 SLP145 T02110172 53005
