2024/09/27 15:53
KLAX 271553Z 00000KT 2SM BR OVC008 17/14 A2990 RMK AO2 SLP123 T01670144
