2023/01/30 07:53
KLAX 300753Z 09005KT 3SM RA BR FEW006 BKN015 OVC038 09/09 A2992 RMK AO2 SLP130 VIS SW 2 P0022 T00940089 401390094 $
