2025/03/29 13:53
KLAX 291353Z 03004KT 10SM FEW025 SCT150 12/10 A2996 RMK AO2 SLP144 T01220100 $
