2026/01/07 19:53
KLAX 071953Z 23009KT 10SM FEW010 FEW047 SCT140 18/12 A2992 RMK AO2 SLP131 T01780122 $
