2024/12/04 23:53
KLAX 042353Z 27009KT 7SM FEW010 14/10 A3013 RMK AO2 SLP203 T01390100 10167 20139 58003
