2023/08/15 03:53
KLAX 150353Z 24008KT 2 1/2SM BR OVC003 19/18 A2994 RMK AO2 SLP135 VIS W 1/2 T01890183 $
