2024/05/03 17:53
KLAX 031753Z 25009KT 10SM BKN025 18/13 A2992 RMK AO2 SLP132 T01780128 10178 20156 53011
