2024/05/27 21:53
KLAX 272153Z 25010G18KT 10SM FEW022 18/13 A3004 RMK AO2 SLP171 T01830128
