2025/05/13 13:53
KLAX 131353Z 14005KT 10SM FEW018 FEW025 14/09 A2996 RMK AO2 SLP145 T01390089 $
