2025/03/24 15:53
KLAX 241553Z 25004KT 8SM CLR 16/12 A3006 RMK AO2 SLP179 T01610122 $
