2024/09/07 07:53
KLAX 070753Z 08006KT 10SM BKN170 24/19 A2984 RMK AO2 SLP099 T02390194 403890228
