2022/11/21 17:53
KLAX 211753Z 05006KT 10SM FEW100 SCT180 BKN250 21/M07 A3014 RMK AO2 SLP206 T02111072 10211 20111 51009 $
