2025/12/02 13:53
KLAX 021353Z 04004KT 10SM FEW005 FEW250 11/01 A3004 RMK AO2 SLP170 T01110011 $
