2023/01/03 21:53
KLAX 032153Z 08011KT 8SM SCT008 OVC014 14/12 A3001 RMK AO2 SLP163 T01440122
