2025/05/17 17:53
KLAX 171753Z 12010KT 10SM BKN027 OVC033 17/11 A2999 RMK AO2 SLP153 T01670106 10167 20156 58002
