2026/03/08 03:53
KLAX 080353Z 02007KT 10SM CLR 21/M09 A2999 RMK AO2 SLP153 T02111089 $
