2024/04/13 13:53
KLAX 131353Z 11009KT 10SM FEW014 OVC050 14/08 A3002 RMK AO2 SLP164 T01440083 $
