2024/03/17 03:53
KLAX 170353Z 27009KT 10SM FEW025 SCT150 14/09 A3005 RMK AO2 SLP175 T01390094 $
