2025/11/27 17:53
KLAX 271753Z 01004KT 10SM FEW100 FEW180 BKN250 24/02 A3005 RMK AO2 SLP175 T02440017 10244 20133 53002 $
