2025/03/14 11:53
KLAX 141153Z 32005KT 10SM FEW022 FEW090 SCT250 09/03 A3001 RMK AO2 SLP161 7//// T00940033 10117 20094 55001 $
