2025/02/04 05:53
KLAX 040553Z 23010KT 10SM FEW200 SCT250 13/11 A2992 RMK AO2 SLP131 T01330106 10139 20122 53006 $
