2023/05/28 15:53
KLAX 281553Z 00000KT 10SM FEW015 OVC020 16/13 A2996 RMK AO2 SLP144 T01610128
