2023/04/03 03:53
KLAX 030353Z 25008KT 10SM FEW015 14/11 A2999 RMK AO2 SLP154 T01390106 $
