2023/02/25 19:53
KLAX 251953Z 09011KT 10SM FEW017 BKN030 OVC047 09/07 A2994 RMK AO2 SLP137 T00940067 $
