2022/10/15 17:53
KLAX 151753Z 26007KT 10SM FEW008 SCT017 OVC021 18/17 A2994 RMK AO2 RAE03 SLP136 P0000 60003 T01830167 10189 20172 51014 $
