2025/06/06 07:53
KLAX 060753Z 26007KT 10SM FEW012 BKN015 17/13 A2992 RMK AO2 SLP129 T01670133 402110161
