2024/12/12 13:53
KLAX 121353Z 09004KT 10SM FEW200 BKN250 08/M08 A2993 RMK AO2 SLP134 T00831078 VISNO RWY24 $
