2023/04/25 21:53
KLAX 252153Z 26013KT 10SM FEW016 FEW250 18/13 A2990 RMK AO2 SLP125 T01830133 $
