2025/08/31 19:53
KLAX 311953Z 26010KT 10SM FEW006 FEW120 SCT170 24/17 A2991 RMK AO2 SLP128 T02440167 $
