2023/02/10 11:53
KLAX 101153Z 04007KT 10SM CLR 14/M03 A3013 RMK AO2 SLP201 T01391033 10189 20111 58017 $
