2025/02/02 17:53
KLAX 021753Z 12003KT 2 1/2SM BR BKN005 13/12 A3014 RMK AO2 SLP204 T01330122 10133 20128 50006
