2022/11/11 01:53
KLAX 110153Z 27009KT 10SM CLR 15/09 A3007 RMK AO2 SLP183 T01500094
