2025/03/18 03:53
KLAX 180353Z 25026G34KT 10SM CLR 13/08 A3009 RMK AO2 PK WND 26036/0327 SLP189 T01280078 $
