2025/10/29 07:53
KLAX 290753Z 09004KT 10SM FEW003 17/16 A3002 RMK AO2 SLP163 T01720161 402720150 $
