2026/04/28 15:53
KLAX 281553Z VRB03KT 10SM FEW120 FEW160 SCT200 17/08 A3008 RMK AO2 SLP184 T01670083 $
