2023/09/30 09:53
KLAX 300953Z 21005KT 10SM FEW015 OVC026 18/16 A2984 RMK AO2 SLP104 T01830161 $
