2024/02/13 11:53
KLAX 131153Z 01003KT 10SM FEW200 08/04 A3000 RMK AO2 SLP156 T00830044 10128 20078 55009 $
