2022/11/06 01:53
KLAX 060153Z 26006KT 10SM FEW300 16/10 A2994 RMK AO2 SLP138 T01560100
