2023/02/14 19:53
KLAX 141953Z 22006KT 10SM SCT027 SCT035 14/06 A2988 RMK AO2 SLP116 T01390056 $
