2025/07/11 17:53
KLAX 111753Z 08004KT 10SM SCT017 22/16 A2995 RMK AO2 SLP139 T02220161 10228 20178 53002 $
