2024/07/24 13:53
KLAX 241353Z 26006KT 10SM FEW003 FEW160 SCT220 18/16 A3003 RMK AO2 SLP167 T01780156 $
