2024/11/12 03:53
KLAX 120353Z 29007KT 270V330 10SM FEW024 FEW029 16/13 A3001 RMK AO2 SLP160 T01610133
