2024/11/14 07:53
KLAX 140753Z 00000KT 10SM CLR 14/11 A3004 RMK AO2 SLP169 T01390106 402560122
