2022/09/04 05:53
KLAX 040553Z 00000KT 10SM CLR 25/17 A2985 RMK AO2 SLP104 T02500167 10278 20244 50016
