2025/03/26 15:53
KLAX 261553Z 24004KT 7SM FEW009 OVC021 14/11 A3006 RMK AO2 SLP179 T01390106 $
