2025/11/16 17:53
KLAX 161753Z 08008KT 10SM BKN027 BKN038 OVC120 16/13 A3001 RMK AO2 SLP161 60010 T01610133 10161 20133 51012 $
