2025/08/27 21:53
KLAX 272153Z 27014G21KT 10SM FEW120 SCT220 SCT300 24/17 A3000 RMK AO2 SLP158 TCU DSNT N AND SE T02440172 $
