2023/03/02 01:53
KLAX 020153Z VRB04KT 10SM FEW075 11/M04 A2982 RMK AO2 SLP097 T01111039
