2025/06/24 17:53
KLAX 241753Z 26009KT 9SM FEW010 OVC022 18/14 A3003 RMK AO2 SLP167 T01830144 10189 20172 51009
