2023/08/18 07:53
KLAX 180753Z 00000KT 10SM FEW005 BKN008 18/17 A2988 RMK AO2 SLP115 T01830167 402170172 $
