2025/09/01 03:42
KLAX 010342Z 26008KT 10SM BKN007 22/19 A2988 RMK AO2 T02170194 $
