2022/12/08 17:53
KLAX 081753Z 00000KT 10SM FEW018 FEW027 14/05 A3032 RMK AO2 SLP268 T01390050 10139 20067 51009
