2024/11/25 07:53
KLAX 250753Z 25005KT 10SM SCT010 SCT150 BKN250 13/11 A3014 RMK AO2 SLP205 T01280111 401610117
