2025/04/27 21:53
KLAX 272153Z 26011G20KT 10SM FEW022 SCT030 SCT075 17/09 A3008 RMK AO2 SLP186 T01670094 $
