2024/09/16 13:53
KLAX 161353Z 25004KT 10SM FEW015 BKN019 BKN027 18/14 A2986 RMK AO2 SLP108 T01780144 $
