2024/03/20 17:53
KLAX 201753Z 21003KT 4SM HZ OVC012 15/12 A3005 RMK AO2 SLP174 T01500122 10156 20122 51010 $
