2026/01/16 21:53
KLAX 162153Z 25009KT 10SM FEW250 FEW300 22/10 A2995 RMK AO2 SLP140 T02220100
