2024/07/08 19:53
KLAX 081953Z 27011KT 7SM BKN009 21/17 A2985 RMK AO2 SLP108 T02110167 $
