2022/09/18 19:53
KLAX 181953Z 26012KT 10SM FEW021 BKN027 BKN033 22/16 A2984 RMK AO2 SLP102 T02220156
