2023/03/25 17:53
KLAX 251753Z 00000KT 10SM FEW030 16/02 A3012 RMK AO2 SLP200 T01560017 10156 20094 50000
