2022/09/15 15:53
KLAX 151553Z 13006KT 10SM SCT027 BKN035 22/17 A2997 RMK AO2 SLP146 T02220167 $
