2024/01/12 05:53
KLAX 120553Z 23005KT 10SM FEW200 FEW250 12/M10 A3015 RMK AO2 SLP206 T01171100 10167 20111 53015
