2025/05/16 15:53
KLAX 161553Z 11005KT 7SM FEW010 OVC019 17/12 A2997 RMK AO2 SLP149 T01670117
