2025/08/04 00:53
KLAX 040053Z 25013KT 10SM FEW012 21/16 A2993 RMK AO2 SLP135 T02060161 $
