2025/02/03 10:01
KLAX 031001Z 26006KT 1/16SM R25L/1400V2000FT FG VV001 12/12 A3001 RMK AO2 T01170117 $
