2024/12/05 21:53
KLAX 052153Z 25010KT 3SM HZ SCT009 14/11 A3008 RMK AO2 SLP185 T01440111 $
