2022/12/12 01:53
KLAX 120153Z 26018KT 10SM FEW035 12/06 A2989 RMK AO2 SLP121 T01220056 $
