2025/06/27 17:53
KLAX 271753Z 24009KT 6SM HZ FEW010 FEW018 22/16 A2995 RMK AO2 SLP142 T02170156 10222 20178 53004 $
