2025/10/15 09:53
KLAX 150953Z 00000KT 10SM FEW014 SCT038 BKN050 14/12 A2999 RMK AO2 RAB11E48 SLP153 P0000 T01390117 $
