2025/12/13 13:53
KLAX 131353Z 26004KT 1 1/2SM BR OVC005 13/12 A3004 RMK AO2 SLP170 VIS W 1 T01330122 $
