2025/10/30 13:53
KLAX 301353Z 10005KT 10SM CLR 16/13 A2994 RMK AO2 SLP134 T01610128 $
