2024/09/22 15:53
KLAX 221553Z 27004KT 5SM HZ OVC012 19/16 A2994 RMK AO2 SLP136 T01890156 $
