2026/06/25 17:53
KLAX 251753Z 24007KT 9SM FEW009 OVC020 20/14 A2996 RMK AO2 SLP145 T02000144 10200 20172 51007
