2025/05/18 17:53
KLAX 181753Z 24011KT 10SM FEW024 SCT032 19/12 A2999 RMK AO2 SLP155 T01890122 10189 20133 53002
