2024/08/22 15:53
KLAX 221553Z 08003KT 10SM SCT016 23/18 A2995 RMK AO2 SLP140 T02280178
