2023/04/26 13:53
KLAX 261353Z 29005KT 8SM FEW008 OVC012 15/12 A2997 RMK AO2 SLP148 T01500122 $
