2022/11/11 15:53
KLAX 111553Z VRB03KT 10SM FEW110 SCT160 BKN190 13/01 A3009 RMK AO2 SLP189 T01330006
