2023/02/11 15:53
KLAX 111553Z 11004KT 9SM FEW007 SCT015 SCT040 12/10 A2991 RMK AO2 SLP127 T01220100 $
