2022/12/19 03:53
KLAX 190353Z 29007KT 10SM CLR 13/05 A3007 RMK AO2 SLP184 T01330050 $
