2023/08/15 19:53
KLAX 151953Z 26013KT 8SM BKN009 BKN040 22/17 A2998 RMK AO2 SLP148 BKN009 V SCT T02220172 $
