2025/06/14 05:53
KLAX 140553Z 26005KT 10SM OVC009 17/15 A2989 RMK AO2 SLP120 T01720150 10200 20172 53009 $
