2024/04/30 21:53
KLAX 302153Z 26012KT 10SM FEW010 19/13 A2985 RMK AO2 SLP108 T01890133 $
