2026/05/28 17:53
KLAX 281753Z 00000KT 10SM FEW010 BKN041 BKN055 17/09 A2996 RMK AO2 SLP144 6//// T01720089 10178 20133 50006 $
