2022/12/04 19:53
KLAX 041953Z 00000KT 10SM FEW009 BKN034 OVC060 17/14 A3011 RMK AO2 SLP194 T01720139 $
