2025/03/14 03:53
KLAX 140353Z 27026G35KT 10SM FEW050 FEW250 11/06 A2994 RMK AO2 PK WND 27037/0321 SLP137 T01110056
