2023/07/04 17:53
KLAX 041753Z 24008KT 8SM FEW010 FEW016 19/14 A2996 RMK AO2 SLP144 T01940139 10200 20144 51009
