2026/06/09 14:53
KLAX 091453Z 26003KT 9SM BKN014 18/14 A2990 RMK AO2 SLP125 BKN V SCT T01830144 51007 $
