2022/12/20 15:53
KLAX 201553Z 00000KT 10SM SCT140 BKN180 BKN250 10/01 A3027 RMK AO2 SLP247 T01000006
