2025/10/28 13:53
KLAX 281353Z VRB03KT 10SM FEW010 16/13 A2995 RMK AO2 SLP141 T01610133 $
