2022/09/07 09:53
KLAX 070953Z 30007KT 10SM FEW007 FEW050 23/19 A2989 RMK AO2 PRESFR SLP117 FU FEW050 T02280194 $
