2024/10/23 07:53
KLAX 230753Z VRB03KT 10SM CLR 17/13 A3001 RMK AO2 SLP158 T01720128 402500150
