2023/02/04 09:53
KLAX 040953Z 10003KT 10SM CLR 11/08 A3015 RMK AO2 SLP208 T01060078 $
