2025/03/01 05:53
KLAX 010553Z 24006KT 10SM FEW011 BKN016 BKN130 14/11 A2997 RMK AO2 SLP147 T01390111 10167 20133 53004
