2025/05/10 07:53
KLAX 100753Z 31003KT 10SM CLR 19/13 A2994 RMK AO2 SLP135 T01890133 402170144
