2023/12/24 11:53
KLAX 241153Z 00000KT 8SM FEW024 FEW038 BKN047 13/12 A3011 RMK AO2 RAB1055E14 SLP194 P0000 60000 T01280117 10144 20122 51010 $
