2023/07/21 05:53
KLAX 210553Z 24004KT 10SM FEW014 19/16 A2992 RMK AO2 SLP128 T01940161 10228 20189 51001 $
