2022/09/09 11:53
KLAX 091153Z 00000KT 10SM FEW150 FEW200 SCT280 27/18 A2952 RMK AO2 SLP992 T02720183 10289 20267 58003 $
