2025/03/12 01:53
KLAX 120153Z 08006KT 10SM FEW031 FEW044 SCT050 14/10 A2983 RMK AO2 SLP099 T01440100
