2025/11/20 13:53
KLAX 201353Z 00000KT 10SM FEW015 FEW040 SCT110 SCT250 11/08 A3004 RMK AO2 SLP169 T01110078 $
