2022/09/18 03:53
KLAX 180353Z 27007KT 9SM SCT017 21/17 A2978 RMK AO2 SLP081 T02060167 $
