2026/06/24 19:53
KLAX 241953Z 27012KT 10SM FEW009 FEW018 SCT060 21/14 A3001 RMK AO2 SLP160 T02060144 $
