2024/09/15 13:53
KLAX 151353Z 29003KT 8SM FEW009 SCT016 OVC029 19/16 A2989 RMK AO2 SLP120 T01890156
