2025/06/11 05:53
KLAX 110553Z VRB03KT 8SM OVC006 16/14 A2995 RMK AO2 SLP140 T01610144 10200 20161 50009 $
