2025/01/14 13:53
KLAX 141353Z 00000KT 10SM CLR 07/M08 A3029 RMK AO2 SLP256 T00671083 VISNO RWY24 $
