2024/05/06 03:53
KLAX 060353Z 35007KT 10SM CLR 17/01 A2996 RMK AO2 SLP143 T01720011
