2024/11/02 05:53
KLAX 020553Z 00000KT 10SM CLR 15/12 A2993 RMK AO2 SLP133 T01500122 10167 20150 53003 $
