2025/11/06 19:53
KLAX 061953Z 22011KT 10SM FEW014 20/13 A3010 RMK AO2 SLP192 T02000133 $
