2022/10/09 07:53
KLAX 090753Z 24006KT 8SM BKN009 19/17 A3003 RMK AO2 SLP168 T01890167 402330189 $
