2024/10/25 13:59
KLAX 251359Z 34003KT 1/4SM R25L/2600VP6000FT FG VV002 13/13 A2997 RMK AO2 T01330133 $
