2025/01/23 11:53
KLAX 231153Z 00000KT 10SM CLR 11/M08 A3025 RMK AO2 SLP240 T01061083 10172 20106 58000
