2024/10/19 09:53
KLAX 190953Z 00000KT 10SM CLR 15/09 A2999 RMK AO2 SLP151 T01500089
