2024/10/27 11:53
KLAX 271153Z 06003KT 4SM BR SCT200 16/14 A3000 RMK AO2 VIS 1 1/2 RWY24 SLP155 T01560144 10172 20150 55007 $
