2023/03/01 11:53
KLAX 011153Z 24023G28KT 5SM RA BR FEW008 BKN016 OVC034 11/09 A2975 RMK AO2 PK WND 23030/1138 SLP072 PRESFR P0005 60005 70022 T01110094 10117 20106 56039
