2025/09/28 09:53
KLAX 280953Z 16004KT 10SM FEW010 OVC039 20/16 A2994 RMK AO2 SLP137 T02000161 $
