2025/05/29 13:53
KLAX 291353Z 22004KT 10SM SCT016 OVC020 17/13 A2994 RMK AO2 SLP138 T01670133
