2023/08/10 09:53
KLAX 100953Z VRB03KT 10SM SCT010 OVC014 19/17 A2993 RMK AO2 SLP133 T01940167 $
