2023/09/06 09:53
KLAX 060953Z 31006KT 10SM FEW015 OVC028 20/17 A2993 RMK AO2 SLP132 T02000167 $
