2023/04/05 13:53
KLAX 051353Z 08004KT 10SM FEW180 08/02 A3013 RMK AO2 SLP201 T00830022 $
