2026/06/16 16:53
KLAX 161653Z 25006KT 10SM BKN011 19/15 A3000 RMK AO2 SLP157 T01890150 $
