2025/05/25 13:53
KLAX 251353Z VRB03KT 10SM SCT016 OVC027 17/13 A3000 RMK AO2 SLP159 T01670128
