2022/10/26 09:53
KLAX 260953Z 06003KT 10SM CLR 16/11 A2998 RMK AO2 SLP150 T01560111
