2023/01/18 17:53
KLAX 181753Z 05004KT 10SM FEW010 SCT025 BKN160 13/04 A3020 RMK AO2 SLP227 T01280044 10128 20072 51023 $
