2026/01/12 13:53
KLAX 121353Z 00000KT 10SM FEW250 10/01 A3020 RMK AO2 SLP225 T01000006 $
