2026/01/15 15:53
KLAX 151553Z VRB03KT 10SM FEW300 17/02 A3005 RMK AO2 SLP173 T01670022
