2023/03/04 19:53
KLAX 041953Z 19006KT 10SM BKN031 OVC041 13/08 A3001 RMK AO2 SLP161 T01330083 $
