2023/11/21 01:53
KLAX 210153Z 25009KT 10SM CLR 19/03 A3014 RMK AO2 SLP208 T01890033 $
