2025/03/29 19:53
KLAX 291953Z 23013KT 10SM SCT035 BKN150 16/11 A2999 RMK AO2 SLP156 T01610106 $
