2024/07/19 11:53
KLAX 191153Z 00000KT 3SM BR FEW002 SCT005 OVC007 18/17 A2997 RMK AO2 SLP146 VIS SW-N 2 1/2 T01830167 10183 20178 56002
