2024/11/08 21:53
KLAX 082153Z 27007KT 10SM CLR 19/08 A3005 RMK AO2 SLP175 T01890078
