2026/05/08 15:53
KLAX 081553Z 00000KT 9SM OVC013 17/14 A3002 RMK AO2 SLP163 T01720139
