2022/11/14 03:53
KLAX 140353Z 25008KT 10SM CLR 15/09 A3004 RMK AO2 SLP171 T01500094 $
