2025/06/28 17:53
KLAX 281753Z 26008KT 5SM HZ FEW015 23/16 A3001 RMK AO2 SLP162 T02280156 10233 20172 55000 $
