2024/12/20 21:53
KLAX 202153Z 27008KT 5SM BCFG BR FEW000 SCT007 14/10 A3013 RMK AO2 SLP204 VIS SW-NW 1 FG FEW000 T01390100
