2022/12/11 07:53
KLAX 110753Z 15007KT 7SM -RA FEW028 BKN033 OVC055 15/11 A3003 RMK AO2 RAB40 SLP165 P0000 T01500111 401720089 $
