2025/11/23 03:53
KLAX 230353Z 35005KT 10SM FEW055 SCT100 19/05 A2993 RMK AO2 SLP136 T01940050
