2025/10/31 07:53
KLAX 310753Z 00000KT 10SM FEW007 FEW012 18/14 A2994 RMK AO2 SLP137 T01780144 402890150 $
