2025/01/26 09:53
KLAX 260953Z 27013KT 10SM SCT034 OVC070 12/07 A2998 RMK AO2 RAE02 SLP151 P0000 T01170072
