2025/10/20 15:53
KLAX 201553Z 11005KT 10SM FEW009 FEW025 18/11 A3007 RMK AO2 SLP181 T01830106 $
