2025/12/27 03:53
KLAX 270353Z 29009KT 10SM FEW019 SCT075 OVC100 15/12 A3000 RMK AO2 SLP158 P0002 T01500117 $
