2025/05/03 12:53
KLAX 031253Z 11003KT 10SM OVC014 15/12 A2993 RMK AO2 SLP136 T01500117 $
