2023/03/10 03:53
KLAX 100353Z 27006KT 10SM SCT070 BKN100 13/09 A3010 RMK AO2 SLP193 T01330094 $
