2023/11/10 23:53
KLAX 102353Z 27009KT 10SM FEW100 SCT180 SCT250 19/11 A2999 RMK AO2 SLP156 T01890106 10233 20189 55002
