2024/01/04 01:53
KLAX 040153Z 00000KT 10SM FEW080 15/07 A3001 RMK AO2 SLP162 T01500067
