2024/05/04 09:53
KLAX 040953Z 30005KT 10SM BKN011 OVC021 14/12 A2988 RMK AO2 SLP117 T01440122
