2025/10/31 11:53
KLAX 311153Z 10004KT 4SM BR FEW004 OVC006 17/16 A2995 RMK AO2 SLP141 T01720156 10183 20161 53006 $
