2024/06/07 12:53
KLAX 071253Z 00000KT 5SM BR FEW005 OVC007 16/14 A2989 RMK AO2 SLP120 T01560144 $
