2025/04/01 19:53
KLAX 011953Z 26024KT 10SM FEW010 FEW080 SCT140 SCT180 17/06 A2995 RMK AO2 PK WND 25031/1943 SLP143 T01670061
