2024/01/03 23:53
KLAX 032353Z 27022KT 10SM FEW050 FEW100 16/09 A3000 RMK AO2 PK WND 27029/2342 SLP158 SHRA N T01560089 10161 20144 56007
