2024/07/13 11:53
KLAX 131153Z 27004KT 9SM OVC007 18/17 A2991 RMK AO2 SLP127 T01830167 10194 20183 52012 $
