2024/06/06 21:53
KLAX 062153Z 27011KT 8SM OVC006 18/16 A2989 RMK AO2 SLP121 VIS S-W 1 T01830156
