2025/08/09 13:53
KLAX 091353Z 26004KT 6SM BR BKN008 19/17 A2992 RMK AO2 SLP130 T01890167 $
