2023/11/25 01:53
KLAX 250153Z 25006KT 10SM FEW019 FEW030 SCT060 16/13 A2993 RMK AO2 SLP136 T01610128 $
