2024/04/17 07:53
KLAX 170753Z 19004KT 10SM FEW200 14/12 A3002 RMK AO2 SLP164 T01390117 402220106
