2022/09/08 11:53
KLAX 081153Z 21003KT 10SM FEW100 FEW120 SCT150 23/21 A2983 RMK AO2 SLP100 FU FEW120 T02330206 10244 20228 56016 $
