2025/09/16 23:53
KLAX 162353Z 25011KT 10SM FEW060 FEW120 25/16 A2988 RMK AO2 SLP116 T02500161 10256 20233 56015
