2025/06/09 17:53
KLAX 091753Z 13005KT 7SM OVC013 18/14 A2996 RMK AO2 SLP145 T01780144 10178 20161 51003 $
