2023/07/21 15:53
KLAX 211553Z 26007KT 8SM FEW008 FEW230 21/18 A2992 RMK AO2 SLP131 T02110178 $
