2023/07/08 19:53
KLAX 081953Z 24011KT 10SM CLR 22/14 A2986 RMK AO2 SLP110 T02170144
