2024/03/21 19:53
KLAX 211953Z 25007KT 10SM CLR 18/12 A3011 RMK AO2 SLP195 T01780117 $
