2024/12/09 09:53
KLAX 090953Z VRB05KT 9SM FEW010 BKN012 13/09 A3008 RMK AO2 SLP183 T01280094
