2023/04/10 17:53
KLAX 101753Z VRB05KT 3SM HZ FEW005 BKN008 16/12 A3006 RMK AO2 SLP180 VIS S 2 SW-W 1 1/2 T01560122 10156 20117 50001
