2022/11/07 11:53
KLAX 071153Z 07007KT 3SM BR FEW004 BKN007 OVC014 15/14 A2994 RMK AO2 SLP137 60005 70005 T01500139 10167 20150 56007
