2025/10/16 05:53
KLAX 160553Z VRB04KT 10SM CLR 16/12 A2999 RMK AO2 SLP155 T01560117 10183 20150 53004 $
