2025/04/10 11:53
KLAX 101153Z 00000KT 10SM FEW010 FEW250 14/13 A3009 RMK AO2 SLP189 T01440128 10161 20139 56004 $
