2023/07/14 13:53
KLAX 141353Z 00000KT 10SM FEW002 SCT250 18/17 A2988 RMK AO2 SLP116 T01830167 $
