2025/04/19 19:53
KLAX 191953Z 25012KT 10SM CLR 18/09 A3011 RMK AO2 SLP197 T01830089 $
