2023/09/12 23:53
KLAX 122353Z 25013KT 10SM FEW015 FEW150 22/17 A2989 RMK AO2 SLP118 T02220172 10244 20222 56012 $
