2024/06/20 05:53
KLAX 200553Z 24005KT 10SM FEW010 FEW016 17/14 A2985 RMK AO2 SLP104 T01670139 10206 20167 50006 $
