2023/02/10 21:53
KLAX 102153Z 22005KT 10SM FEW001 FEW140 SCT180 24/M05 A3006 RMK AO2 SLP177 FU FEW001 T02441050 $
