2026/01/18 15:53
KLAX 181553Z 08004KT 10SM FEW180 SCT240 SCT280 16/M01 A3011 RMK AO2 SLP195 T01561006 $
