2026/04/12 14:10
KLAX 121410Z 23012G21KT 2SM RA BR FEW009 BKN020 OVC027 14/13 A2996 RMK AO2 WSHFT 1354 VIS SW-NW 1 1/4 P0005 T01440133 $
