2026/06/05 00:43
KLAX 050043Z 28010KT 10SM SCT012 19/14 A2987 RMK AO2 T01940144 $
