2024/06/15 07:53
KLAX 150753Z VRB04KT 9SM CLR 17/15 A2986 RMK AO2 SLP108 T01670150 402220156
