2025/07/23 13:53
KLAX 231353Z 30004KT 8SM FEW010 OVC020 18/14 A3004 RMK AO2 SLP169 T01780144 $
