2025/10/12 15:53
KLAX 121553Z VRB03KT 4SM BR FEW003 BKN006 16/14 A2978 RMK AO2 SLP083 VIS W 2 T01610144 $
