2024/09/06 07:53
KLAX 060753Z 10003KT 10SM SCT150 23/18 A2983 RMK AO2 SLP099 T02280178 403060206 $
