2023/04/18 05:53
KLAX 180553Z 24005KT 10SM FEW012 SCT020 BKN034 13/10 A2995 RMK AO2 SLP142 T01330100 10161 20128 53007
