2024/03/27 09:53
KLAX 270953Z 00000KT 10SM FEW015 12/09 A3013 RMK AO2 SLP200 T01170089 $
