2022/10/31 23:53
KLAX 312353Z 25006KT 10SM BKN150 BKN200 19/16 A2984 RMK AO2 SLP103 T01940161 10239 20194 56009 VISNO RWY24 $
