2023/01/16 00:05
KLAX 160005Z 20008KT 10SM BKN018 OVC100 14/11 A2981 RMK AO2 T01390106 $
