2024/10/15 18:53
KLAX 151853Z 25006KT 6SM HZ OVC020 19/14 A3004 RMK AO2 SLP171 T01890144 $
