2026/04/03 05:53
KLAX 030553Z 00000KT 10SM FEW020 SCT050 16/13 A2995 RMK AO2 SLP141 T01610128 10189 20161 51011 $
