2022/11/29 15:53
KLAX 291553Z 06004KT 7SM FEW006 BKN020 BKN032 13/09 A2996 RMK AO2 SLP145 T01280094
