2024/08/02 01:53
KLAX 020153Z 23008KT 10SM FEW007 SCT110 SCT160 BKN230 18/16 A2998 RMK AO2 SLP152 T01830156 $
