2026/07/05 06:53
KLAX 050653Z 24008KT 10SM FEW015 BKN250 18/16 A2999 RMK AO2 SLP152 T01830156
