2025/06/27 23:53
KLAX 272353Z 25010KT 10SM FEW011 21/16 A2992 RMK AO2 SLP130 T02110156 10228 20211 58009 $
