2023/07/19 02:53
KLAX 190253Z 24009KT 10SM FEW010 20/17 A2993 RMK AO2 SLP134 T02000172 55002 $
