2022/10/11 07:53
KLAX 110753Z 33005KT 10SM BKN011 OVC014 19/16 A2996 RMK AO2 SLP143 T01890161 402390178 $
