2026/07/07 20:53
KLAX 072053Z 26014KT 10SM CLR 23/15 A2995 RMK AO2 SLP140 T02330150 58006
