2024/11/05 15:53
KLAX 051553Z 00000KT 10SM FEW250 17/03 A3003 RMK AO2 SLP167 T01670033 $
