2025/09/22 13:53
KLAX 221353Z 00000KT 7SM FEW004 BKN006 19/17 A2986 RMK AO2 SLP110 T01890172 $
