2022/10/18 23:53
KLAX 182353Z 26013KT 10SM CLR 23/16 A2992 RMK AO2 SLP131 T02330156 10278 20233 56007 $
