2023/10/06 03:53
KLAX 060353Z 22003KT 10SM CLR 22/15 A2991 RMK AO2 SLP124 T02170150 $
