2025/07/27 09:53
KLAX 270953Z 19004KT 10SM FEW010 17/14 A2997 RMK AO2 SLP148 T01670144
