2025/03/09 15:53
KLAX 091553Z 02004KT 10SM FEW009 12/03 A3022 RMK AO2 SLP234 T01220033
