2022/09/01 03:53
KLAX 010353Z 23005KT 10SM FEW150 23/15 A2974 RMK AO2 SLP069 T02330150
