2024/12/21 13:53
KLAX 211353Z 06003KT 1/4SM R25L/1000V1800FT FG VV001 11/10 A3018 RMK AO2 SLP217 T01060100 $
