2025/07/05 21:53
KLAX 052153Z 26012G21KT 10SM FEW010 22/16 A3003 RMK AO2 SLP168 T02220156
