2025/06/01 09:53
KLAX 010953Z 28010KT 6SM BR BKN005 17/16 A2993 RMK AO2 SLP132 T01670156 $
