2023/07/23 21:53
KLAX 232153Z 26016KT 10SM FEW150 BKN200 23/18 A2990 RMK AO2 SLP125 T02280178
