2023/11/27 15:53
KLAX 271553Z 05006KT 10SM FEW150 FEW220 14/M03 A3006 RMK AO2 SLP180 T01441028 $
