2023/12/20 21:53
KLAX 202153Z 15012KT 8SM SCT009 SCT046 BKN060 17/14 A2984 RMK AO2 DZB43E49 SLP103 P0000 T01720144
