2023/07/30 09:53
KLAX 300953Z 00000KT 8SM CLR 21/19 A2988 RMK AO2 SLP115 T02060189 $
