2022/11/03 01:53
KLAX 030153Z 26022KT 10SM CLR 16/10 A2999 RMK AO2 PK WND 27030/0059 SLP153 T01610100 CHINO RWY24 VISNO RWY24 $
