2023/07/02 00:11
KLAX 020011Z 26011KT 10SM BKN008 18/15 A2989 RMK AO2 VIS SW 3 T01780150 $
