2024/03/20 09:53
KLAX 200953Z 26006KT 1/2SM R25L/P6000FT FG VV002 13/12 A3001 RMK AO2 SLP160 1/4V1 1/4 T01280122 $
