2025/05/29 05:53
KLAX 290553Z VRB03KT 10SM OVC017 17/13 A2999 RMK AO2 SLP154 T01670128 10178 20161 53008 $
