2024/02/11 21:53
KLAX 112153Z 23008KT 10SM FEW250 17/02 A3015 RMK AO2 SLP210 T01670022 $
