2025/08/22 11:53
KLAX 221153Z 00000KT 10SM FEW250 22/17 A2983 RMK AO2 SLP097 T02170172 10233 20217 58001
