2025/09/24 15:53
KLAX 241553Z VRB03KT 7SM FEW007 SCT110 BKN160 22/19 A2996 RMK AO2 SLP145 T02220189 $
