2025/03/10 21:53
KLAX 102153Z 27009KT 10SM FEW075 SCT190 BKN270 17/05 A2989 RMK AO2 SLP121 T01720050
