2025/05/25 11:53
KLAX 251153Z 27005KT 10SM FEW015 OVC027 16/13 A2998 RMK AO2 SLP152 T01610128 10167 20161 56001
