2026/07/18 10:53
KLAX 181053Z 10006KT 10SM FEW015 SCT150 21/18 A2998 RMK AO2 SLP150 T02110178 $
