2024/01/01 17:53
KLAX 011753Z VRB06KT 10SM FEW100 SCT140 SCT160 16/07 A3011 RMK AO2 SLP196 T01560067 10156 20106 53020
