2026/03/12 17:53
KLAX 121753Z 00000KT 10SM CLR 27/06 A3018 RMK AO2 SLP219 T02720061 10272 20139 50003 $
