2024/07/13 17:53
KLAX 131753Z 24006KT 5SM HZ BKN018 BKN150 21/17 A2999 RMK AO2 SLP155 T02110172 10222 20178 53014 $
