2024/08/08 09:53
KLAX 080953Z 36004KT 7SM OVC010 20/17 A2996 RMK AO2 SLP142 T02000172 $
