2023/03/20 21:53
KLAX 202153Z 26011KT 10SM SCT016 BKN025 BKN150 14/11 A2994 RMK AO2 SLP137 T01440111
