2025/06/19 19:53
KLAX 191953Z 24009KT 10SM FEW016 22/14 A2986 RMK AO2 SLP109 T02170144 $
