2026/07/18 21:53
KLAX 182153Z 26012KT 10SM FEW120 FEW180 SCT220 25/19 A2996 RMK AO2 SLP142 ACSL DSNT NE T02500189 $
