2024/11/14 09:53
KLAX 140953Z 08003KT 10SM CLR 12/06 A3001 RMK AO2 SLP160 T01170061
