2026/04/06 19:53
KLAX 061953Z 24014KT 10SM FEW028 FEW140 SCT180 22/14 A3002 RMK AO2 SLP165 T02170139 $
