2023/04/09 09:53
KLAX 090953Z 27003KT 3/4SM R25L/P6000FT BR OVC002 12/11 A3009 RMK AO2 SLP189 T01170111
