2023/09/02 15:53
KLAX 021553Z 10004KT 1 1/2SM BR SCT005 OVC010 21/20 A3000 RMK AO2 SLP157 T02060200 $
