2024/02/23 17:53
KLAX 231753Z VRB03KT 10SM FEW120 SCT160 BKN220 21/07 A3009 RMK AO2 SLP188 T02060067 10206 20111 58001
