2023/09/03 21:53
KLAX 032153Z 26015KT 10SM FEW019 FEW065 24/15 A2999 RMK AO2 SLP155 T02390150 $
