2023/05/23 13:53
KLAX 231353Z 19003KT 9SM FEW006 BKN012 OVC020 16/14 A2993 RMK AO2 SLP135 T01560144 $
