2023/10/08 19:53
KLAX 081953Z 27010KT 10SM FEW004 FEW120 SCT230 21/17 A2988 RMK AO2 SLP118 T02110167
