2024/11/20 11:53
KLAX 201153Z 00000KT 10SM FEW250 11/00 A3012 RMK AO2 SLP198 T01110000 10156 20106 50001 $
