2023/07/16 07:53
KLAX 160753Z 24004KT 8SM FEW006 18/17 A2987 RMK AO2 SLP113 T01830167 402280167
