2022/12/30 09:53
KLAX 300953Z 14004KT 10SM FEW015 OVC022 14/11 A3007 RMK AO2 SLP181 T01390111 $
