2026/07/09 09:53
KLAX 090953Z 00000KT 10SM FEW015 18/16 A2988 RMK AO2 SLP116 T01830161
