2025/05/12 15:53
KLAX 121553Z 10007KT 7SM FEW014 BKN024 18/12 A2993 RMK AO2 SLP133 T01830122 $
