2024/10/31 07:53
KLAX 310753Z 11003KT 10SM CLR 13/12 A3008 RMK AO2 SLP184 T01330117 402330122 $
