2025/09/09 17:53
KLAX 091753Z 15005KT 10SM FEW009 FEW025 23/16 A2995 RMK AO2 SLP140 T02330156 10233 20189 50002 $
