2024/08/01 07:53
KLAX 010753Z 26007KT 3SM BR FEW002 OVC004 16/15 A2993 RMK AO2 SLP134 VIS 3/4V4 T01610150 402170156 $
