2024/11/06 19:53
KLAX 061953Z 02005KT 10SM FEW090 SCT140 BKN180 BKN250 24/M02 A2990 RMK AO2 SLP124 FU FEW090 T02391017 $ 
