2023/02/26 02:53
KLAX 260253Z 06008KT 10SM BKN029 BKN049 BKN065 07/06 A2993 RMK AO2 RAE14B35E45 SLP137 P0000 60013 T00720056 52006 $
