2026/02/21 13:53
KLAX 211353Z 03004KT 10SM CLR 08/01 A3013 RMK AO2 SLP201 T00780011 $
