2025/10/01 05:53
KLAX 010553Z 26011KT 10SM FEW012 19/17 A3001 RMK AO2 SLP160 T01940172 10217 20194 53007 $
