2023/07/01 03:53
KLAX 010353Z 24005KT 4SM BR OVC003 16/15 A2985 RMK AO2 CIG 003V006 SLP108 VIS SW-NW 1 1/2 T01610150 $
