2023/02/15 05:53
KLAX 150553Z 34007KT 10SM FEW100 11/M05 A2991 RMK AO2 SLP128 T01061050 10150 20106 51027 $
