2023/08/26 11:53
KLAX 261153Z 00000KT 7SM SCT008 18/17 A2993 RMK AO2 SLP133 T01780172 10194 20178 56003
