2025/04/25 09:53
KLAX 250953Z 00000KT 10SM FEW015 BKN024 OVC036 14/10 A2994 RMK AO2 SLP137 T01390100
