2026/02/15 02:53
KLAX 150253Z 23006KT 10SM FEW016 SCT190 SCT270 14/11 A3006 RMK AO2 SLP178 T01440111 53002 $
