2026/05/30 21:53
KLAX 302153Z 26012KT 10SM FEW013 FEW100 20/13 A2998 RMK AO2 SLP152 T02000133 $
