2025/06/26 02:10
KLAX 260210Z 26012KT 10SM BKN010 18/15 A2991 RMK AO2 T01830150
