2022/11/20 21:53
KLAX 202153Z 26010KT 10SM FEW300 22/01 A3010 RMK AO2 SLP190 T02220006 $
