2025/11/10 12:10
KLAX 101210Z 26006KT 1/16SM R25L/4000VP6000FT FG VV002 15/15 A3012 RMK AO2 T01500150 $
