2024/09/22 05:53
KLAX 220553Z 26007KT 10SM FEW010 FEW022 18/16 A2993 RMK AO2 SLP132 T01780156 10206 20178 51007 $
