2024/01/31 13:53
KLAX 311353Z 10003KT 10SM FEW020 BKN140 BKN220 12/10 A2996 RMK AO2 SLP145 T01170100 $
