2024/04/11 15:53
KLAX 111553Z 00000KT 3SM BR FEW002 SCT004 15/13 A2994 RMK AO2 SLP137 VIS S-NW 1 1/2 T01500128 $
