2022/12/18 09:53
KLAX 180953Z 08003KT 10SM SCT250 10/M03 A2996 RMK AO2 SLP143 T01001033 $
