2023/01/06 05:53
KLAX 060553Z 27010KT 10SM FEW030 13/09 A3021 RMK AO2 SLP229 T01330094 10156 20128 53018 $
