2023/11/02 09:53
KLAX 020953Z 09004KT 10SM FEW250 15/M02 A3002 RMK AO2 SLP163 T01501017 $
