2024/04/01 13:53
KLAX 011353Z 00000KT 10SM FEW012 FEW060 SCT160 12/08 A2990 RMK AO2 SLP122 T01170083
