2023/06/06 02:26
KLAX 060226Z 25006KT 10SM BKN019 BKN035 16/12 A2989 RMK AO2 T01560117
