2024/03/17 19:53
KLAX 171953Z 24008KT 10SM FEW090 FEW180 SCT220 BKN270 18/11 A3006 RMK AO2 SLP179 T01780111 $
