2023/01/10 15:53
KLAX 101553Z 20017G25KT 2SM R25L/6000VP6000FT -RA BR BKN008 OVC032 16/15 A3000 RMK AO2 RAB35 SLP157 VIS S-W 1 1/4 P0002 T01610150 $
