2024/08/31 17:53
KLAX 311753Z VRB06KT 6SM HZ FEW011 22/17 A3000 RMK AO2 SLP159 T02220172 10222 20172 51003 $
