2023/02/19 23:53
KLAX 192353Z 23008KT 10SM FEW150 FEW200 16/04 A3003 RMK AO2 SLP168 T01610039 10189 20150 56005 $
