2025/11/14 03:53
KLAX 140353Z 00000KT 10SM BKN100 BKN120 OVC250 19/16 A3003 RMK AO2 SLP167 T01890156
