2022/11/09 09:53
KLAX 090953Z 00000KT 10SM FEW009 SCT060 BKN110 12/09 A2993 RMK AO2 SLP135 T01220094
