2024/07/27 03:53
KLAX 270353Z 24007KT 10SM FEW003 18/14 A2985 RMK AO2 SLP106 T01780139
