2026/06/12 23:53
KLAX 122353Z 25015KT 10SM BKN010 BKN040 21/17 A2983 RMK AO2 SLP099 T02060167 10233 20206 57006 $
