2025/11/09 19:53
KLAX 091953Z 26007KT 5SM HZ FEW002 FEW006 19/14 A3006 RMK AO2 SLP176 VIS W 2 T01940144 $
