2026/03/14 13:53
KLAX 141353Z 08003KT 10SM FEW180 SCT280 16/13 A2991 RMK AO2 SLP124 ACSL DSNT NE T01560133
