2023/02/24 19:53
KLAX 241953Z 15013G18KT 2 1/2SM RA BR SCT007 BKN012 OVC038 12/11 A2999 RMK AO2 SLP156 P0027 T01170106
