2025/03/29 07:53
KLAX 290753Z 10006KT 10SM SCT150 13/09 A2994 RMK AO2 SLP136 T01280094 401890128 $
