2024/12/15 19:53
KLAX 151953Z 30004KT 10SM CLR 17/08 A3016 RMK AO2 SLP214 T01670083 $
