2026/05/08 07:53
KLAX 080753Z 24005KT 10SM FEW007 SCT010 16/14 A3001 RMK AO2 SLP161 T01560139 402000144
