2024/03/14 19:53
KLAX 141953Z 03012G25KT 10SM FEW070 20/M07 A2983 RMK AO2 PK WND 02028/1921 SLP101 T02001072 $
