2023/03/11 11:53
KLAX 111153Z 09006KT 4SM -DZ BR OVC004 14/14 A3001 RMK AO2 SLP162 VIS W 2 P0001 60017 70108 T01390139 10144 20139 58004
