2023/09/01 15:53
KLAX 011553Z VRB05KT 7SM FEW017 SCT160 BKN220 22/18 A2986 RMK AO2 SLP109 T02220178
