2023/06/29 19:53
KLAX 291953Z 23010KT 10SM CLR 21/13 A2992 RMK AO2 SLP130 T02110133
