2023/06/27 01:53
KLAX 270153Z 25010KT 10SM FEW010 18/13 A2988 RMK AO2 SLP116 T01780133
