2023/01/14 03:53
KLAX 140353Z 23004KT 10SM SCT070 SCT120 14/11 A3009 RMK AO2 SLP187 T01390111
