2022/08/27 17:53
KLAX 271753Z 27006KT 10SM FEW019 24/17 A2989 RMK AO2 SLP120 T02390172 10239 20189 53001 $
