2024/09/29 03:53
KLAX 290353Z 28010KT 10SM OVC008 17/14 A2990 RMK AO2 SLP123 T01670144 $
