2026/04/07 05:53
KLAX 070553Z 23008KT 10SM FEW011 17/13 A3002 RMK AO2 SLP163 T01670128 10206 20167 51015 $
