2025/02/26 03:53
KLAX 260353Z 11004KT 10SM CLR 16/12 A2989 RMK AO2 SLP122 T01560117 $
