2022/09/14 07:53
KLAX 140753Z VRB03KT 10SM FEW009 22/17 A2985 RMK AO2 SLP105 T02170172 402670211 $
