2023/12/02 19:53
KLAX 021953Z 00000KT 10SM FEW021 FEW250 18/09 A3019 RMK AO2 SLP222 T01830094
