2025/09/26 17:53
KLAX 261753Z 11007KT 10SM FEW009 SCT019 OVC023 22/17 A2990 RMK AO2 SLP124 60000 T02170167 10217 20189 55002 $
