2025/02/04 01:53
KLAX 040153Z 24008KT 10SM SCT006 SCT250 13/11 A2991 RMK AO2 SLP129 T01280111 $
