2024/06/29 03:53
KLAX 290353Z 24009KT 8SM SCT012 17/14 A2982 RMK AO2 SLP096 T01670144
