2023/07/21 03:53
KLAX 210353Z 25010KT 10SM FEW010 19/17 A2991 RMK AO2 SLP127 T01940172 $
