2023/04/19 21:53
KLAX 192153Z 25015KT 10SM FEW120 FEW250 18/08 A3005 RMK AO2 SLP176 T01780083
