2024/09/18 07:53
KLAX 180753Z 15005KT 10SM CLR 17/14 A2989 RMK AO2 SLP120 T01720139 402390144 $
