2022/11/09 11:53
KLAX 091153Z 23003KT 10SM -RA FEW009 SCT035 SCT060 BKN140 12/08 A2996 RMK AO2 RAB18 SLP142 P0000 60012 70141 T01220083 10133 20117 52009
