2022/10/23 07:53
KLAX 230753Z 26010KT 10SM BKN024 17/13 A2978 RMK AO2 SLP081 T01720133 402060172
