2024/09/12 07:53
KLAX 120753Z 09004KT 10SM FEW009 BKN012 18/16 A2973 RMK AO2 SLP063 T01830161 402390161
