2022/10/09 21:53
KLAX 092153Z 27009KT 10SM FEW010 FEW100 SCT250 22/17 A2998 RMK AO2 SLP151 CB DSNT E TCU DSNT E T02220167 $
