2023/11/28 03:53
KLAX 280353Z 25007KT 10SM FEW150 FEW200 SCT250 16/10 A3009 RMK AO2 SLP188 T01560100 $
