2023/09/18 05:53
KLAX 180553Z 26013KT 10SM OVC030 19/16 A2998 RMK AO2 SLP149 T01940161 10206 20194 51004 $
