2025/03/08 17:53
KLAX 081753Z 00000KT 10SM FEW019 15/07 A3032 RMK AO2 SLP266 T01500072 51017 $
