2024/11/06 17:53
KLAX 061753Z 17005KT 10SM FEW012 FEW120 BKN160 BKN250 21/04 A2992 RMK AO2 SLP130 T02110044 10217 20128 51020 $
