2025/04/14 23:53
KLAX 142353Z 26012G19KT 10SM FEW018 FEW200 SCT250 16/09 A3001 RMK AO2 SLP161 T01560094 10183 20156 58001 $
