2022/12/09 15:53
KLAX 091553Z 09005KT 10SM FEW015 FEW280 09/04 A3018 RMK AO2 SLP219 T00940044 $
