2025/07/17 00:53
KLAX 170053Z 27013KT 10SM FEW015 FEW090 21/15 A2991 RMK AO2 SLP127 T02060150 $
