2023/06/24 19:53
KLAX 241953Z 26004KT 10SM FEW020 BKN220 21/13 A3003 RMK AO2 SLP168 T02060133
