2024/01/17 01:53
KLAX 170153Z 26009KT 8SM OVC005 14/13 A3005 RMK AO2 SLP176 T01390128
