2025/01/05 13:53
KLAX 051353Z 14003KT 9SM CLR 08/04 A3010 RMK AO2 SLP193 T00830044
