2022/11/19 13:53
KLAX 191353Z 00000KT 10SM CLR 11/07 A3002 RMK AO2 SLP164 T01110072 $
