2024/06/03 19:53
KLAX 031953Z 24008KT 10SM BKN026 BKN120 19/14 A2990 RMK AO2 SLP125 T01940139 $
