2024/08/29 05:53
KLAX 290553Z 25006KT 10SM BKN010 18/16 A2996 RMK AO2 SLP143 T01780156 10211 20172 51009
