2025/02/22 21:53
KLAX 222153Z 27009KT 8SM FEW002 BKN200 16/12 A3019 RMK AO2 SLP222 T01610117 $
