2026/02/13 05:53
KLAX 130553Z 25004KT 10SM BKN250 15/09 A3004 RMK AO2 SLP172 T01500089 10161 20144 55001
