2026/05/28 08:53
KLAX 280853Z 01003KT 10SM FEW018 FEW022 SCT055 14/08 A2991 RMK AO2 SLP126 T01440083 58010 $
