2024/01/01 23:53
KLAX 012353Z 20006KT 10SM FEW050 FEW250 18/07 A3008 RMK AO2 SLP184 T01780072 10194 20161 53006
