2024/09/11 01:53
KLAX 110153Z 23008KT 10SM FEW045 20/14 A2979 RMK AO2 SLP085 FU FEW045 T02000139
