2023/01/13 15:53
KLAX 131553Z 08006KT 10SM SCT160 BKN250 BKN280 13/04 A3014 RMK AO2 SLP206 T01280044
