2024/03/22 09:53
KLAX 220953Z 25003KT 10SM BKN009 14/12 A3009 RMK AO2 SLP188 T01390122 $
