2025/04/19 03:53
KLAX 190353Z 26008KT 10SM FEW025 SCT045 13/09 A3003 RMK AO2 SLP169 T01330094 $
