2025/10/29 19:53
KLAX 291953Z 26009KT 10SM CLR 26/14 A2997 RMK AO2 SLP148 T02560139 $
