2025/09/04 19:53
KLAX 041953Z 25009KT 10SM FEW009 SCT040 24/18 A2988 RMK AO2 SLP115 T02440183 $
