2023/01/29 05:53
KLAX 290553Z 09004KT 10SM SCT036 SCT046 12/08 A2998 RMK AO2 SLP150 T01220078 10156 20122 50003 $
