2022/11/22 17:53
KLAX 221753Z 08005KT 10SM FEW080 FEW140 SCT170 21/M07 A3010 RMK AO2 SLP191 T02061067 10206 20106 51007 $
