2025/04/16 01:53
KLAX 160153Z 23008KT 10SM BKN200 BKN250 14/07 A2998 RMK AO2 SLP152 T01440072
