2025/07/05 13:53
KLAX 051353Z VRB04KT 2SM BR OVC008 17/16 A3007 RMK AO2 SLP179 T01720156 $
