2026/05/17 23:53
KLAX 172353Z 27012G23KT 9SM FEW018 19/13 A2974 RMK AO2 SLP070 T01940128 10217 20189 56013
