2024/08/07 19:53
KLAX 071953Z 28008KT 250V310 9SM FEW017 SCT140 SCT160 BKN250 26/19 A3001 RMK AO2 SLP161 T02610189 $
