2025/07/09 05:53
KLAX 090553Z 17005KT 10SM FEW200 18/14 A3001 RMK AO2 SLP161 T01780144 10211 20178 50001 $
