2024/08/31 05:53
KLAX 310553Z 24005KT 10SM SCT008 BKN011 18/16 A3000 RMK AO2 SLP157 T01780161 10211 20178 50003 $
