2025/08/26 19:53
KLAX 261953Z 25009KT 10SM FEW011TCU SCT025 BKN045 23/17 A2999 RMK AO2 SLP153 TCU S T02280172 $
