2023/09/06 13:53
KLAX 061353Z 22004KT 9SM BKN022 OVC027 20/16 A2996 RMK AO2 SLP141 T02000161 $
