2023/02/09 19:53
KLAX 091953Z VRB04KT 10SM CLR 24/04 A3019 RMK AO2 SLP224 T02390044 $
