2025/04/30 21:53
KLAX 302153Z 25010KT 10SM SCT014 17/12 A2998 RMK AO2 SLP151 T01720117
