2024/08/17 21:53
KLAX 172153Z 26013KT 10SM FEW012 FEW150 23/17 A2993 RMK AO2 SLP134 T02330172 $
