2024/04/10 15:53
KLAX 101553Z 10007KT 10SM CLR 18/07 A3007 RMK AO2 SLP180 T01830067 $
