2024/01/12 17:53
KLAX 121753Z 12004KT 10SM FEW180 FEW220 13/01 A3022 RMK AO2 SLP234 T01280011 10128 20050 53012 $
