2023/02/21 21:53
KLAX 212153Z 19012KT 9SM FEW025 SCT140 BKN190 16/11 A2976 RMK AO2 SLP076 T01560106 $
