2023/12/14 07:53
KLAX 140753Z 00000KT 10SM FEW007 FEW011 SCT280 14/12 A3009 RMK AO2 SLP187 T01440122 401830122
