2024/04/02 09:53
KLAX 020953Z 09004KT 10SM FEW014 12/09 A3016 RMK AO2 SLP211 T01220089
