2023/04/21 23:53
KLAX 212353Z 26015KT 10SM CLR 23/07 A2999 RMK AO2 SLP154 T02280072 10278 20228 56026
