2022/10/04 03:53
KLAX 040353Z 22005KT 10SM CLR 21/16 A2993 RMK AO2 SLP133 T02060161
