2024/11/04 21:53
KLAX 042153Z 22009KT 10SM CLR 20/07 A3003 RMK AO2 SLP168 T02000072 $
