2026/06/13 08:53
KLAX 130853Z 27004KT 10SM OVC005 17/16 A2987 RMK AO2 SLP114 T01720156 58013 $
