2022/10/27 19:53
KLAX 271953Z 11005KT 10SM FEW035 22/11 A3002 RMK AO2 SLP165 T02220106
