2025/03/27 13:53
KLAX 271353Z 27009KT 8SM FEW015 OVC033 14/11 A3006 RMK AO2 SLP179 T01390111 $
