2023/01/31 07:53
KLAX 310753Z 32006KT 10SM CLR 11/02 A2997 RMK AO2 SLP149 T01110017 401500089
