2025/08/17 09:53
KLAX 170953Z 00000KT 10SM FEW012 BKN017 19/16 A2999 RMK AO2 SLP154 T01890161 $
