2024/06/19 21:53
KLAX 192153Z 26012KT 10SM FEW016 21/15 A2986 RMK AO2 SLP110 T02110150 $
