2026/04/13 04:53
KLAX 130453Z 27011KT 10SM FEW020 FEW080 16/09 A3004 RMK AO2 SLP169 T01560094 $
