2023/04/17 09:53
KLAX 170953Z 00000KT 10SM FEW008 OVC012 13/11 A2999 RMK AO2 SLP155 T01330106
