2023/08/07 19:53
KLAX 071953Z 25008KT 10SM CLR 25/18 A3004 RMK AO2 SLP171 T02500178 
