2023/03/11 15:53
KLAX 111553Z 11005KT 1SM R25L/4500V5000FT BR OVC004 14/14 A3006 RMK AO2 SLP178 T01440144
