2023/02/05 23:53
KLAX 052353Z 26023KT 10SM FEW060 16/09 A3013 RMK AO2 PK WND 26027/2348 SLP201 T01610094 10172 20150 56017 $
