2024/02/26 01:53
KLAX 260153Z 27009KT 10SM FEW011 BKN250 14/12 A3004 RMK AO2 SLP170 T01440117 $
