2025/12/12 13:53
KLAX 121353Z VRB03KT 9SM BCFG FEW000 FEW002 13/11 A3001 RMK AO2 SLP160 VIS S-SW 2 FG FEW000 FG BANK SE-SW T01330111 $
