2026/01/24 09:53
KLAX 240953Z 33004KT 10SM BKN028 14/11 A2988 RMK AO2 SLP118 T01440111 $
