2026/03/28 11:53
KLAX 281153Z 32004KT 5SM BR SCT005 14/13 A2997 RMK AO2 SLP147 T01440133 10156 20144 56005 $
