2023/11/23 21:53
KLAX 232153Z 11009KT 10SM FEW006 SCT250 21/13 A2978 RMK AO2 SLP084 T02060128
