2025/01/05 05:53
KLAX 050553Z 33004KT 10SM BKN250 13/08 A3012 RMK AO2 SLP197 T01330078 10150 20122 50005
