2023/09/23 19:53
KLAX 231953Z 26009KT 10SM FEW025 22/14 A3003 RMK AO2 SLP166 T02170144 $
