2023/05/20 15:53
KLAX 201553Z 25007KT 6SM BR OVC013 17/14 A3008 RMK AO2 SLP184 T01720144
