2025/06/06 13:53
KLAX 061353Z 24005KT 10SM FEW010 OVC014 17/13 A2993 RMK AO2 SLP134 T01670133
