2024/03/13 17:53
KLAX 131753Z 28010G19KT 250V320 10SM FEW019 SCT140 BKN200 19/06 A3002 RMK AO2 SLP166 T01890056 10189 20122 50004
