2022/11/11 13:53
KLAX 111353Z 05005KT 10SM FEW220 FEW280 11/00 A3008 RMK AO2 SLP183 T01110000
