2024/09/30 23:53
KLAX 302353Z 26010KT 10SM CLR 20/16 A2984 RMK AO2 SLP101 T02000156 10222 20189 56005 $
