2024/08/04 11:53
KLAX 041153Z 26005KT 7SM FEW000 SCT004 17/16 A2988 RMK AO2 SLP117 VIS SW-W 2 1/2 FG FEW000 T01720161 10183 20172 56002 $
