2024/09/23 13:53
KLAX 231353Z 24006KT 1/8SM R25L/4000VP6000FT FG VV002 17/16 A2988 RMK AO2 SLP115 VIS N 1/4 T01670161 $
