2025/06/27 11:53
KLAX 271153Z 06003KT 5SM HZ FEW007 OVC012 18/15 A2990 RMK AO2 SLP123 T01830150 10183 20172 53001 $
