2026/03/21 02:53
KLAX 210253Z 25007KT 10SM FEW270 19/17 A2991 RMK AO2 SLP127 T01890167 53001
