2024/03/17 11:53
KLAX 171153Z 05003KT 10SM FEW150 11/07 A3006 RMK AO2 SLP179 T01110067 10139 20100 56006 $
