2023/04/17 07:53
KLAX 170753Z 25006KT 10SM FEW010 13/11 A3001 RMK AO2 SLP162 T01280106 401610111
