2025/06/03 07:53
KLAX 030753Z 25005KT 10SM BKN011 16/13 A3001 RMK AO2 SLP160 T01610133 402110156 $
