2026/04/24 04:53
KLAX 240453Z 22006KT 10SM CLR 17/13 A2993 RMK AO2 SLP134 T01670128 $
