2024/07/01 05:53
KLAX 010553Z 22003KT 1 1/4SM BR SCT002 BKN003 16/15 A2990 RMK AO2 SLP124 VIS 1/2V2 1/2 T01560150 10183 20156 53007
