2023/01/31 01:53
KLAX 310153Z 24004KT 10SM SCT110 12/09 A2994 RMK AO2 SLP138 T01170089
