2024/01/18 11:53
KLAX 181153Z 09004KT 7SM FEW008 BKN020 BKN035 12/12 A3007 RMK AO2 SLP180 T01220117 10144 20122 58004
