2022/10/30 15:53
KLAX 301553Z 10004KT 10SM FEW005 SCT250 18/10 A3001 RMK AO2 SLP163 T01780100 VISNO RWY24 $
