2026/05/13 08:53
KLAX 130853Z 28005KT 10SM BKN019 OVC028 16/12 A3006 RMK AO2 SLP178 T01610117 51002
