2024/08/18 21:53
KLAX 182153Z 25013KT 10SM FEW019 23/17 A2994 RMK AO2 SLP135 T02330172 $
