2025/02/19 01:53
KLAX 190153Z 26010KT 10SM FEW200 SCT250 14/12 A3003 RMK AO2 SLP169 T01390117 $
