2023/10/07 17:53
KLAX 071753Z 24006KT 10SM FEW003 FEW060 23/18 A2991 RMK AO2 SLP128 T02330178 10233 20167 51009
