2024/10/04 05:53
KLAX 040553Z 15006KT 4SM BR FEW005 OVC008 19/17 A2985 RMK AO2 SLP105 T01890167 10194 20178 51021
