2022/12/07 13:53
KLAX 071353Z 09003KT 10SM FEW011 FEW020 SCT065 09/07 A3014 RMK AO2 SLP206 T00940072 $
