2023/01/28 13:53
KLAX 281353Z 06006KT 8SM BKN015 BKN019 11/07 A2999 RMK AO2 SLP154 T01110067 $
