2023/06/18 15:53
KLAX 181553Z 22006KT 5SM BR FEW007 OVC011 17/15 A2994 RMK AO2 SLP138 T01670150
