2026/05/07 06:53
KLAX 070653Z 26005KT 10SM FEW008 FEW011 15/13 A3004 RMK AO2 SLP172 T01500133
