2024/11/29 21:53
KLAX 292153Z 34005KT 10SM FEW100 SCT160 BKN180 BKN250 23/M06 A2999 RMK AO2 SLP153 T02281056 $
