2025/05/07 23:53
KLAX 072353Z 25018KT 10SM FEW015 18/12 A3000 RMK AO2 PK WND 27027/2309 SLP158 T01780122 10200 20178 56013 $
