2024/03/23 05:53
KLAX 230553Z 24006KT 10SM SCT013 BKN050 14/11 A3001 RMK AO2 SLP160 T01440111 10172 20139 51004 $
