2023/11/26 01:53
KLAX 260153Z 26010KT 10SM FEW045 16/12 A3002 RMK AO2 SLP167 T01610122 $
