2026/04/04 17:53
KLAX 041753Z VRB03KT 10SM FEW260 FEW300 26/M07 A3003 RMK AO2 SLP169 T02611067 10261 20139 51005 $
