2023/03/28 03:53
KLAX 280353Z 26009KT 10SM CLR 14/07 A3011 RMK AO2 SLP196 T01440072 $
