2022/09/01 23:53
KLAX 012353Z 26009KT 10SM FEW100 FEW150 SCT250 27/18 A2970 RMK AO2 SLP056 T02670183 10311 20261 56015
