2026/04/06 11:53
KLAX 061153Z 22004KT 10SM FEW006 OVC150 17/15 A2997 RMK AO2 SLP148 T01720150 10183 20167 55004 $
