2022/11/17 05:53
KLAX 170553Z 00000KT 10SM CLR 15/M01 A3024 RMK AO2 SLP238 T01501006 10206 20139 53007
