2023/10/14 03:53
KLAX 140353Z 26006KT 10SM FEW010 18/17 A2995 RMK AO2 SLP139 T01830167
