2025/11/28 19:53
KLAX 281953Z 00000KT 10SM FEW100 FEW140 22/07 A3001 RMK AO2 SLP161 T02170067 $
