2024/10/24 05:53
KLAX 240553Z 00000KT 9SM BCFG FEW000 FEW004 18/16 A2999 RMK AO2 SLP153 VIS NW 2 FG FEW000 FG BANK S-W-NW T01780161 10217 20178 51007 $
