2024/05/13 09:53
KLAX 130953Z 26004KT 4SM BR FEW003 OVC006 14/13 A2996 RMK AO2 SLP143 T01390128 $
