2024/01/10 21:53
KLAX 102153Z 27012KT 10SM FEW008 FEW060 SCT160 15/06 A2996 RMK AO2 SLP146 T01500061
