2023/12/17 17:53
KLAX 171753Z 26007KT 10SM FEW170 SCT220 BKN280 22/02 A3006 RMK AO2 SLP179 T02220017 10228 20122 53021 $
