2025/03/13 23:53
KLAX 132353Z 26032G38KT 10SM FEW025 FEW085 SCT100 13/05 A2987 RMK AO2 PK WND 26044/2312 SLP114 T01280050 10144 20122 56012
