2024/08/09 13:53
KLAX 091353Z 00000KT 4SM BR OVC009 18/17 A2991 RMK AO2 SLP125 VIS SW-NW 2 1/2 T01830167 $
