2025/01/18 16:53
KLAX 181653Z 06005KT 8SM FEW023 SCT032 13/08 A3025 RMK AO2 SLP245 T01280078
