2022/12/28 01:53
KLAX 280153Z VRB03KT 8SM -RA OVC027 15/13 A2992 RMK AO2 RAB0056 SLP132 P0000 T01500133
