2025/04/19 13:53
KLAX 191353Z 00000KT 10SM FEW006 FEW050 12/09 A3011 RMK AO2 SLP195 T01220089 $
