2025/09/18 23:53
KLAX 182353Z 23007KT 10SM FEW050 FEW080 SCT150 23/18 A2980 RMK AO2 SLP091 T02330178 10250 20222 58005
