2025/01/22 21:53
KLAX 222153Z 26005KT 10SM SCT045 SCT120 BKN160 BKN250 22/03 A3016 RMK AO2 SLP212 FU SCT045 T02220028
