2026/01/05 05:53
KLAX 050553Z 03004KT 10SM BKN046 BKN060 14/13 A3002 RMK AO2 SLP164 60018 T01440128 10161 20133 53006
