2023/02/22 19:53
KLAX 221953Z 26028KT 10SM FEW040 FEW080 SCT200 13/01 A2986 RMK AO2 PK WND 26031/1953 SLP112 T01280006
