2025/01/22 01:53
KLAX 220153Z 24005KT 10SM SCT250 16/03 A3030 RMK AO2 SLP260 T01560033
