2026/02/05 17:53
KLAX 051753Z 04009KT 10SM FEW100 SCT160 BKN220 24/M02 A3007 RMK AO2 SLP180 T02391017 10239 20161 51012
