2023/08/28 19:53
KLAX 281953Z 24009KT 10SM CLR 27/18 A2986 RMK AO2 SLP109 T02670178 $
