2022/11/28 03:53
KLAX 280353Z 00000KT 8SM BKN200 15/13 A3001 RMK AO2 SLP161 T01500133 $
