2022/09/18 09:53
KLAX 180953Z 11007KT 10SM OVC035 20/16 A2976 RMK AO2 SLP076 T02000161 $
