2023/10/24 14:01
KLAX 241401Z 08005KT 10SM BKN009 BKN025 BKN160 16/14 A2981 RMK AO2 BKN009 V SCT T01560139 $
