2025/11/24 15:53
KLAX 241553Z VRB03KT 5SM BR OVC009 14/12 A3018 RMK AO2 SLP218 T01440122
