2025/03/16 05:53
KLAX 160553Z 22006KT 10SM CLR 12/09 A3016 RMK AO2 SLP210 T01220089 10156 20122 53016 $
