2024/08/14 13:53
KLAX 141353Z 10003KT 9SM FEW010 19/17 A2996 RMK AO2 SLP143 T01940172 $
