2023/10/05 17:53
KLAX 051753Z 00000KT 10SM CLR 32/09 A2997 RMK AO2 SLP145 T03170094 10317 20167 50004 $
