2026/03/25 11:53
KLAX 251153Z VRB03KT 6SM HZ FEW008 OVC012 17/14 A2999 RMK AO2 SLP152 T01670139 10172 20161 56008
