2025/02/11 23:53
KLAX 112353Z 26018KT 10SM FEW055 FEW180 SCT250 15/07 A2989 RMK AO2 SLP120 T01500067 10156 20139 58017 $
