2023/04/12 01:53
KLAX 120153Z 27009KT 2 1/2SM BR OVC004 13/11 A2995 RMK AO2 SLP142 T01280111
