2023/11/11 05:53
KLAX 110553Z 13004KT 10SM CLR 16/11 A3004 RMK AO2 SLP172 T01560106 10189 20156 53011
