2023/02/04 07:53
KLAX 040753Z 12003KT 10SM CLR 13/09 A3017 RMK AO2 SLP213 T01280089 401940100 $
