2022/12/15 17:53
KLAX 151753Z 00000KT 10SM FEW160 SCT200 BKN280 15/03 A3016 RMK AO2 SLP212 T01500033 10150 20083 53014 $
