2025/11/19 01:53
KLAX 190153Z 28003KT 10SM FEW080 FEW250 14/08 A2996 RMK AO2 SLP143 T01390083
