2025/04/13 13:53
KLAX 131353Z 00000KT 4SM BR OVC012 14/12 A2994 RMK AO2 SLP137 T01390117 $
