2023/07/11 07:53
KLAX 110753Z VRB04KT 10SM FEW014 18/14 A2994 RMK AO2 SLP138 T01780144 402280156
