2024/09/14 19:53
KLAX 141953Z 27012KT 10SM FEW019 FEW030 24/15 A2989 RMK AO2 SLP119 T02390150
