2026/05/23 04:53
KLAX 230453Z 24006KT 10SM BKN013 16/12 A2991 RMK AO2 SLP126 T01560122
