2025/12/27 21:53
KLAX 272153Z 24006KT 10SM FEW026 SCT038 16/08 A3002 RMK AO2 SLP166 T01610078 $
