2024/12/24 07:53
KLAX 240753Z 13003KT 1/2SM R25L/P6000FT FG SCT001 SCT003 12/11 A3010 RMK AO2 SLP191 VIS 1/4V1 T01220111 401830117 $
