2024/02/17 01:53
KLAX 170153Z 27011KT 10SM FEW013 BKN200 13/12 A3007 RMK AO2 SLP183 T01330117
