2025/01/25 12:53
KLAX 251253Z 08004KT 10SM SCT200 09/03 A2986 RMK AO2 SLP107 T00890033
