2026/03/12 05:53
KLAX 120553Z 19003KT 10SM CLR 16/13 A3021 RMK AO2 SLP230 T01560133 10183 20150 53009 $
