2025/11/13 11:53
KLAX 131153Z 00000KT 8SM BKN050 BKN070 17/15 A3002 RMK AO2 SLP163 T01720150 10178 20156 58005 $
