2024/05/15 03:53
KLAX 150353Z 27008KT 10SM OVC012 14/12 A2993 RMK AO2 SLP135 T01440117 $
