2024/07/06 13:53
KLAX 061353Z 15005KT 5SM BR OVC007 19/18 A2983 RMK AO2 SLP097 T01940178
