2024/12/21 03:53
KLAX 210353Z 27007KT 10SM BKN006 BKN180 12/11 A3018 RMK AO2 SLP218 T01220106 $
