2023/12/22 15:53
KLAX 221553Z 06005KT 9SM FEW029 SCT060 BKN085 14/12 A2991 RMK AO2 SLP127 T01440117
