2025/10/25 03:53
KLAX 250353Z 26007KT 6SM BR OVC005 16/15 A2999 RMK AO2 SLP152 T01610150
