2023/12/08 07:53
KLAX 080753Z VRB05KT 10SM CLR 16/M04 A3004 RMK AO2 SLP169 T01611039 401890117
