2024/09/20 07:53
KLAX 200753Z 21005KT 10SM FEW011 BKN042 18/16 A2988 RMK AO2 SLP117 T01780156 402170172 $
