2024/04/10 01:53
KLAX 100153Z 28013KT 10SM CLR 19/05 A3002 RMK AO2 PK WND 27027/0107 SLP165 T01940050 $
