2023/07/25 15:53
KLAX 251553Z 26007KT 1/2SM R25L/P6000FT FG OVC003 19/18 A2999 RMK AO2 SLP153 VIS 1/4V1 T01890178 $
