2025/05/25 19:53
KLAX 251953Z 25010KT 10SM FEW022 SCT033 20/13 A3003 RMK AO2 SLP168 T02000128
