2022/08/26 00:53
KLAX 260053Z 27012KT 9SM BKN008 BKN110 BKN280 22/18 A2993 RMK AO2 SLP133 T02170183 $
