2025/06/12 05:53
KLAX 120553Z 23005KT 9SM OVC008 17/14 A2989 RMK AO2 SLP121 T01670144 10183 20167 50004 $
