2024/03/20 11:53
KLAX 201153Z VRB03KT 1/2SM R25L/P6000FT FG VV002 13/12 A2999 RMK AO2 SLP153 VIS 1/4V1 1/2 T01280122 10144 20122 58006 $
