2023/01/10 05:53
KLAX 100553Z 16010G18KT 2SM R25L/6000VP6000FT +RA BR OVC006 15/14 A3004 RMK AO2 VIS 1 1/4V4 RAE23B45 SLP172 P0012 60049 T01500144 10156 20150 51006 $
