2025/03/30 09:53
KLAX 300953Z 24008KT 10SM SCT020 BKN028 BKN095 13/10 A3001 RMK AO2 SLP161 T01330100 $
