2025/06/04 17:53
KLAX 041753Z 26007KT 6SM HZ SCT009 OVC013 17/14 A2992 RMK AO2 SLP131 SCT V BKN 60000 T01720139 10172 20156 50001
