2024/01/08 05:53
KLAX 080553Z 34012G28KT 10SM CLR 11/M05 A3004 RMK AO2 PK WND 02030/0509 SLP171 T01061050 10133 20100 50009
