2024/02/26 03:53
KLAX 260353Z 27010KT 10SM FEW011 SCT200 BKN250 14/12 A3006 RMK AO2 SLP177 T01390117 $
