2025/03/06 07:53
KLAX 060753Z 26021G29KT 10SM FEW008 FEW020 SCT028 SCT150 11/09 A2986 RMK AO2 PK WND 27029/0748 SLP110 T01110094 401440100
