2023/08/05 11:53
KLAX 051153Z 08003KT 9SM FEW010 18/17 A2987 RMK SLP111 T01830167 
