2026/05/17 11:53
KLAX 171153Z 07003KT 9SM CLR 15/12 A2980 RMK AO2 SLP089 T01500117 10172 20150 58010
