2024/02/02 19:53
KLAX 021953Z 27017KT 10SM FEW010 SCT030 BKN040 15/09 A2994 RMK AO2 SLP137 T01500094 $
