2022/11/30 21:53
KLAX 302153Z 15009G15KT 9SM FEW018 SCT024 BKN040 17/09 A2996 RMK AO2 SLP146 T01720089
