2024/05/13 05:53
KLAX 130553Z 27004KT 10SM FEW004 OVC006 14/12 A2995 RMK AO2 SLP140 T01390122 10178 20139 51014 $
