2025/03/02 07:53
KLAX 020753Z 07005KT 10SM FEW015 SCT038 13/11 A3006 RMK AO2 SLP177 T01280106 401670128 $
