2023/09/16 03:53
KLAX 160353Z 28008KT 10SM OVC014 19/16 A2996 RMK AO2 SLP143 T01940161
