2022/11/06 17:53
KLAX 061753Z 00000KT 10SM FEW018 FEW036 18/11 A2995 RMK AO2 SLP141 T01830111 10183 20117 51008
