2026/06/13 15:53
KLAX 131553Z 22006KT 8SM SCT011 21/17 A2989 RMK AO2 SLP121 T02060167 $
