2024/04/02 03:53
KLAX 020353Z 27011KT 10SM CLR 14/10 A3009 RMK AO2 SLP189 T01440100
