2023/01/14 07:53
KLAX 140753Z 10006KT 8SM FEW020 FEW140 OVC170 13/12 A3007 RMK AO2 SLP181 T01330117 401780111
