2023/06/22 17:53
KLAX 221753Z 20008KT 10SM FEW010 FEW018 BKN026 19/12 A2998 RMK AO2 SLP150 T01940122 10194 20150 51003
