2025/12/28 19:53
KLAX 281953Z 00000KT 10SM FEW200 FEW230 SCT280 18/03 A3016 RMK AO2 SLP213 T01830028 $
