2023/06/02 09:53
KLAX 020953Z 26008KT 10SM FEW011 FEW022 OVC040 16/13 A2995 RMK AO2 SLP139 T01560133
