2023/02/05 13:53
KLAX 051353Z 01006KT 5SM BR BKN005 OVC010 12/12 A3018 RMK AO2 RAE22 SLP220 P0001 T01220117 $
