2022/12/06 03:53
KLAX 060353Z 00000KT 10SM FEW050 14/10 A3000 RMK AO2 SLP156 T01440100 $
