2025/10/02 07:53
KLAX 020753Z 21003KT 10SM FEW014 18/17 A2999 RMK AO2 SLP153 T01830167 402330172 $
