2024/01/25 05:53
KLAX 250553Z 24005KT 10SM FEW020 BKN027 OVC041 14/13 A3015 RMK AO2 SLP207 T01440128 10156 20139 53008
