2025/01/06 21:53
KLAX 062153Z 26008KT 10SM FEW230 SCT300 19/07 A2999 RMK AO2 SLP155 T01940072
