2024/01/26 19:53
KLAX 261953Z 24007KT 10SM FEW120 FEW180 SCT250 19/09 A3021 RMK AO2 SLP230 T01890089 $
