2024/04/13 19:53
KLAX 131953Z 14012KT 10SM SCT030 OVC048 17/08 A3005 RMK AO2 PK WND 17035/1938 SLP174 T01720083 $
