2026/05/23 21:53
KLAX 232153Z 25012KT 10SM SCT024 19/13 A2996 RMK AO2 SLP144 T01940133
