2024/10/31 05:53
KLAX 310553Z 17003KT 10SM FEW200 16/12 A3009 RMK AO2 SLP188 T01560122 10189 20156 51006 $
