2023/04/03 19:53
KLAX 031953Z 27023KT 10SM FEW018 BKN070 BKN085 16/06 A2994 RMK AO2 PK WND 27027/1945 SLP137 T01560056
