2023/02/14 15:53
KLAX 141553Z 27011KT 10SM FEW018 SCT024 BKN043 12/07 A2995 RMK AO2 SLP139 T01170067 $
