2023/08/29 07:53
KLAX 290753Z 27004KT 10SM CLR 21/18 A2983 RMK AO2 SLP098 T02060183 402940189
