2025/05/08 05:53
KLAX 080553Z 22004KT 10SM FEW012 14/13 A3007 RMK AO2 SLP180 T01440128 10178 20144 51017 $
