2026/02/05 05:53
KLAX 050553Z 06005KT 10SM CLR 20/02 A3008 RMK AO2 SLP184 T02000017 10272 20200 50004 $
