2025/07/26 05:53
KLAX 260553Z 26011KT 10SM FEW015 17/14 A3001 RMK AO2 SLP159 T01720144 10211 20172 51016 $
