2025/08/10 07:53
KLAX 100753Z 27003KT 7SM FEW008 19/17 A2992 RMK AO2 SLP129 T01890167 402330178 $
