2025/09/10 11:53
KLAX 101153Z 07004KT 10SM FEW012 BKN018 BKN025 20/17 A2986 RMK AO2 SLP109 T02000167 10200 20194 55000 $
