2025/02/28 23:53
KLAX 282353Z 26009KT 10SM FEW007 SCT140 SCT200 16/11 A2993 RMK AO2 SLP135 T01610111 10183 20156 56010
