2023/03/20 13:53
KLAX 201353Z 26006KT 5SM BR FEW003 BKN008 OVC010 13/12 A2991 RMK AO2 SLP128 T01330122
