2024/03/07 19:53
KLAX 071953Z 25008KT 10SM FEW007 SCT045 16/11 A2991 RMK AO2 SLP129 T01610106
