2024/02/19 01:53
KLAX 190153Z 26006KT 10SM BKN080 OVC095 15/12 A3001 RMK AO2 SLP162 T01500122 $
