2026/05/17 15:53
KLAX 171553Z 17006KT 8SM SCT017 BKN033 BKN270 18/13 A2980 RMK AO2 SLP091 T01830128
