2024/05/28 09:53
KLAX 280953Z 28006KT 10SM FEW006 OVC008 14/12 A3002 RMK AO2 SLP164 T01390117
