2025/01/21 03:53
KLAX 210353Z 15007KT 10SM CLR 16/M03 A3031 RMK AO2 SLP261 T01561033 $
