2026/04/28 19:53
KLAX 281953Z 25014KT 10SM FEW250 19/07 A3004 RMK AO2 SLP173 T01940072 $
