2024/01/11 09:53
KLAX 110953Z 29008KT 10SM FEW014 SCT025 SCT040 11/07 A2993 RMK AO2 SLP132 T01110072
