2024/09/16 17:53
KLAX 161753Z 25006KT 10SM FEW027 SCT035 21/13 A2990 RMK AO2 SLP124 T02110128 10211 20178 51012 $
