2024/12/10 11:53
KLAX 101153Z 29004KT 9SM FEW010 FEW020 12/06 A3024 RMK AO2 SLP238 FU FEW010 FU FEW020 T01220056 10150 20089 51007 VISNO RWY24 $
