2024/07/08 15:53
KLAX 081553Z 23003KT 2SM BR OVC004 18/16 A2985 RMK AO2 SLP107 VIS 1 1/2V2 1/2 VIS SW-N 1/2 T01780161 $
