2023/01/23 09:53
KLAX 230953Z 03006KT 10SM FEW200 11/M10 A2996 RMK AO2 SLP145 T01111100 $
