2023/04/28 17:53
KLAX 281753Z 27009KT 7SM SCT004 OVC007 16/12 A3000 RMK AO2 SLP157 T01560117 10161 20122 52005
