2025/05/25 23:53
KLAX 252353Z 25010KT 10SM FEW020 19/12 A3001 RMK AO2 SLP161 T01890122 10206 20183 56005
