2024/09/29 17:53
KLAX 291753Z 25009KT 7SM FEW004 SCT009 17/13 A2993 RMK AO2 SLP135 T01720133 10178 20150 50005 $
