2023/01/27 17:53
KLAX 271753Z 05005KT 10SM CLR 16/M01 A3019 RMK AO2 SLP223 T01611006 10161 20072 58007 $
