2024/04/28 05:53
KLAX 280553Z 00000KT 10SM CLR 14/11 A3001 RMK AO2 SLP160 T01440111 10178 20139 50003
