2024/01/21 03:53
KLAX 210353Z 10008KT 5SM BR BKN006 OVC012 13/13 A2988 RMK AO2 SLP117 T01280128 $
