2023/01/20 05:53
KLAX 200553Z VRB03KT 10SM FEW020 12/01 A3009 RMK AO2 SLP187 60000 T01170011 10133 20111 51007
