2025/02/05 03:53
KLAX 050353Z VRB04KT 10SM BKN050 15/09 A3002 RMK AO2 SLP166 T01500089 $
