2026/07/03 18:53
KLAX 031853Z 26008KT 10SM FEW022 SCT160 22/14 A3002 RMK AO2 SLP163 T02170144 $
