2022/11/23 09:53
KLAX 230953Z 09004KT 10SM CLR 11/03 A3006 RMK AO2 SLP178 T01110028 $
