2025/02/08 13:53
KLAX 081353Z 00000KT 10SM FEW009 FEW015 SCT250 09/09 A3011 RMK AO2 T00890089 $
