2024/03/14 09:53
KLAX 140953Z 10003KT 10SM FEW010 FEW200 12/09 A2988 RMK AO2 SLP117 T01220094 $
