2025/11/02 01:53
KLAX 020153Z 25009KT 9SM OVC008 17/14 A3002 RMK AO2 SLP164 T01670144 $
