2024/06/06 23:56
KLAX 062356Z 27011KT 10SM BKN009 18/15 A2986 RMK AO2 T01830150 $
