2024/11/17 15:53
KLAX 171553Z 14003KT 10SM FEW220 11/M01 A3000 RMK AO2 SLP158 T01111006 $
