2026/03/27 05:53
KLAX 270553Z 24004KT 7SM FEW003 FEW005 SCT250 16/15 A2992 RMK AO2 SLP128 T01610150 10194 20161 50010
