2023/05/12 23:53
KLAX 122353Z 25014KT 10SM FEW014 17/13 A2991 RMK AO2 SLP129 T01720128 10200 20172 58016
