2024/02/22 11:53
KLAX 221153Z 08003KT 10SM SCT008 BKN011 13/12 A3019 RMK AO2 SLP221 70005 T01280117 10139 20117 53001 $
