2023/03/05 17:53
KLAX 051753Z 27006KT 6SM -RA SCT016 BKN029 OVC060 12/09 A3013 RMK AO2 SLP201 P0002 60006 T01170089 10117 20100 51011 $
