2023/04/27 01:53
KLAX 270153Z 24009KT 1/2SM R25L/2600VP6000FT FG OVC002 13/12 A2992 RMK AO2 SLP130 T01330122 $
