2023/09/12 21:53
KLAX 122153Z 25009KT 10SM FEW015 FEW090 SCT150 23/17 A2991 RMK AO2 SLP125 T02280167 $
