2023/10/27 09:53
KLAX 270953Z 00000KT 10SM FEW009 SCT014 BKN200 16/14 A3000 RMK AO2 SLP155 T01560139
