2025/01/05 15:53
KLAX 051553Z 09004KT 10SM FEW190 SCT230 BKN280 11/02 A3014 RMK AO2 SLP204 T01110022
