2025/01/24 15:53
KLAX 241553Z 07004KT 10SM FEW250 15/M04 A3012 RMK AO2 SLP196 T01501039
