2025/03/12 13:53
KLAX 121353Z 11006KT 9SM FEW007 SCT021 OVC036 13/11 A2992 RMK AO2 SLP131 T01280111 $
