2025/07/17 15:53
KLAX 171553Z 25006KT 9SM FEW009 SCT015 SCT140 BKN250 20/15 A2996 RMK AO2 SLP145 T02000150 $
