2024/02/23 19:53
KLAX 231953Z 02003KT 10SM FEW120 SCT210 BKN280 22/04 A3006 RMK AO2 SLP181 T02220039
