2023/04/17 02:12
KLAX 170212Z 24007KT 10SM SCT011 13/11 A3002 RMK AO2 T01280106
