2023/08/03 09:53
KLAX 030953Z 24006KT 10SM SCT008 18/16 A2997 RMK AO2 SLP145 T01780161 $
