2023/06/25 15:53
KLAX 251553Z 00000KT 10SM BKN021 17/12 A3007 RMK AO2 SLP181 T01720122
