2022/12/05 05:53
KLAX 050553Z 31005KT 9SM -DZ FEW003 FEW005 BKN009 16/14 A3008 RMK AO2 RAE21B46E48DZB48 SLP183 P0003 60013 T01560144 10161 20150 50000 $
