2022/09/13 21:53
KLAX 132153Z 25010KT 10SM FEW020 FEW090 26/19 A2983 RMK AO2 SLP100 T02560194 $
