2025/07/31 03:53
KLAX 310353Z 24005KT 10SM CLR 19/16 A2994 RMK AO2 SLP137 T01890156 $
