2024/09/27 03:53
KLAX 270353Z 24005KT 10SM SCT009 17/15 A2988 RMK AO2 SLP115 T01670150
