2026/05/20 08:53
KLAX 200853Z 07004KT 10SM CLR 17/09 A2992 RMK AO2 SLP130 T01720094 55001
