2024/10/20 13:53
KLAX 201353Z 08005KT 10SM FEW070 15/01 A3009 RMK AO2 SLP185 T01500011
