2026/04/06 04:53
KLAX 060453Z 23005KT 10SM BKN250 18/14 A2998 RMK AO2 SLP148 T01780139 $
