2024/02/18 09:53
KLAX 180953Z 26003KT 10SM SCT014 BKN039 OVC100 14/12 A3008 RMK AO2 SLP183 T01390117
