2025/12/10 19:53
KLAX 101953Z 26009KT 10SM CLR 23/04 A3000 RMK AO2 SLP157 T02330044 $
