2023/01/27 19:53
KLAX 271953Z 27006KT 10SM CLR 19/02 A3011 RMK AO2 SLP195 T01890017 $
