2025/11/26 23:53
KLAX 262353Z 28006KT 10SM FEW250 23/07 A3002 RMK AO2 SLP164 T02330067 10278 20228 56005 $
