2023/02/27 05:53
KLAX 270553Z 15003KT 10SM -RA OVC046 11/06 A3019 RMK AO2 RAB40 SLP223 P0000 60000 T01060056 10122 20100 53014 $
