2025/03/07 21:53
KLAX 072153Z 25017KT 10SM FEW055 FEW080 SCT180 16/07 A3001 RMK AO2 SLP163 CB DSNT SE TCU DSNT NE T01560072 $
