2025/11/09 15:53
KLAX 091553Z 25004KT 3/4SM R25L/P6000FT BR OVC002 15/15 A3008 RMK AO2 SLP183 VIS SW-W 1/4 T01500150 $
