2024/04/20 15:53
KLAX 201553Z 24005KT 10SM OVC018 15/11 A3005 RMK AO2 SLP174 T01500111 $
