2023/05/12 09:53
KLAX 120953Z 04003KT 10SM SCT009 SCT012 13/12 A2996 RMK AO2 SLP144 T01330117
