2026/07/22 15:53
KLAX 221553Z 20004KT 8SM FEW004 OVC007 21/19 A3001 RMK AO2 SLP159 T02110189
