2026/01/03 09:53
KLAX 030953Z 00000KT 7SM FEW008 BKN020 15/14 A3006 RMK AO2 SLP176 T01500144
