2022/09/12 12:53
KLAX 121253Z 00000KT 10SM FEW014 FEW050 SCT110 SCT220 23/20 A2995 RMK AO2 SLP140 T02330200 $
