2025/02/28 11:53
KLAX 281153Z 27008KT 10SM FEW004 FEW008 BKN220 BKN280 14/13 A2993 RMK AO2 SLP131 T01390128 10189 20133 58006
