2025/06/30 21:53
KLAX 302153Z 25014KT 10SM FEW012 21/14 A2989 RMK AO2 SLP119 T02110144
