2023/09/19 17:53
KLAX 191753Z VRB03KT 9SM FEW010 BKN025 21/15 A2996 RMK AO2 SLP144 T02110150 10217 20167 51006 $
