2024/01/19 15:53
KLAX 191553Z 11006KT 5SM BR FEW009 BKN140 BKN180 12/11 A3003 RMK AO2 SLP168 T01170106 $
