2024/04/27 05:53
KLAX 270553Z 11006KT 10SM FEW014 FEW050 14/10 A2989 RMK AO2 SLP119 T01390100 10172 20139 51016
