2023/03/21 09:53
KLAX 210953Z 11007KT 7SM -RA FEW008 SCT025 OVC050 11/10 A2982 RMK AO2 SLP096 P0004 T01110100
