2025/07/13 15:53
KLAX 131553Z 22004KT 5SM BR FEW003 OVC006 17/16 A3002 RMK AO2 DZE32 SLP165 P0000 T01720156
