2023/08/18 01:53
KLAX 180153Z 26013KT 4SM BR OVC005 18/17 A2982 RMK AO2 SLP097 T01830167 $
