2022/09/25 05:53
KLAX 250553Z 21006KT 10SM CLR 22/17 A3001 RMK AO2 SLP159 T02170172 10244 20217 51009
