2025/04/04 11:53
KLAX 041153Z 05003KT 10SM FEW009 10/07 A3003 RMK AO2 SLP168 T01000067 10122 20089 53004
