2026/03/21 11:53
KLAX 211153Z 27003KT 8SM FEW002 17/16 A2990 RMK AO2 SLP123 T01720161 10183 20167 56007
