2023/07/18 03:53
KLAX 180353Z 24008KT 10SM FEW009 19/17 A2992 RMK AO2 SLP131 T01940172 $
