2023/04/14 07:53
KLAX 140753Z 24005KT 9SM FEW009 SCT012 OVC016 13/11 A2988 RMK AO2 SLP118 T01280106 401560117 $
