2024/11/23 07:53
KLAX 230753Z 08005KT 9SM SCT008 13/12 A3002 RMK AO2 SLP164 T01330117 402110083
