2022/10/15 15:53
KLAX 151553Z 20004KT 2SM BR OVC005 18/17 A2992 RMK AO2 RAB1459E28 SLP129 VIS W-NW 1 P0001 T01780172 $
