2025/03/02 01:53
KLAX 020153Z 00000KT 10SM FEW017 SCT030 BKN150 14/10 A3000 RMK AO2 SLP159 T01440100 $
