2022/12/26 21:53
KLAX 262153Z 25006KT 10SM SCT150 BKN200 BKN250 23/06 A3003 RMK AO2 SLP167 T02280056 $
