2023/12/15 15:53
KLAX 151553Z 06004KT 10SM FEW140 FEW160 SCT250 14/M02 A3016 RMK AO2 SLP211 T01441017 $
