2023/11/21 15:53
KLAX 211553Z 08003KT 10SM FEW250 16/M01 A3029 RMK AO2 SLP257 T01561006
