2024/08/17 13:53
KLAX 171353Z 14003KT 10SM OVC017 21/18 A2992 RMK AO2 SLP128 T02110178 $
