2023/01/21 17:53
KLAX 211753Z 05004KT 10SM CLR 14/02 A3033 RMK AO2 SLP270 T01390017 10139 20050 52015
