2024/06/01 05:53
KLAX 010553Z 26005KT 9SM FEW008 OVC013 16/13 A2994 RMK AO2 SLP135 T01560128 10167 20150 50009
