2024/02/05 21:53
KLAX 052153Z 10003KT 4SM -RA BR FEW007 SCT026 OVC050 13/13 A2985 RMK AO2 SLP106 P0012 T01330133 $
