2024/02/04 13:53
KLAX 041353Z 10005KT 10SM FEW023 SCT037 BKN095 11/08 A2997 RMK AO2 SLP147 T01060078 $
