2023/09/09 17:53
KLAX 091753Z 25008KT 10SM FEW100 FEW180 27/19 A2999 RMK AO2 SLP153 T02670194 10272 20200 50002
