2025/08/08 07:53
KLAX 080753Z 18003KT 10SM FEW008 21/18 A2988 RMK AO2 SLP116 T02060178 402560178 $
