2024/01/02 11:53
KLAX 021153Z 08003KT 10SM CLR 09/05 A3018 RMK AO2 SLP216 T00890050 10139 20089 51004
