2022/10/06 05:53
KLAX 060553Z 21003KT 7SM BKN008 OVC015 19/17 A3001 RMK AO2 SLP160 T01940172 10206 20189 53019
