2024/06/03 23:53
KLAX 032353Z 27010KT 10SM SCT014 BKN200 18/14 A2985 RMK AO2 SLP108 T01830139 10200 20172 56013 $
