2025/04/02 15:53
KLAX 021553Z 30007KT 10SM FEW025 FEW090 13/03 A2985 RMK AO2 SLP106 T01280028
