2024/07/19 09:53
KLAX 190953Z 32003KT 6SM BR FEW004 OVC007 18/16 A2997 RMK AO2 SLP145 T01830161
