2024/09/02 01:53
KLAX 020153Z 25008KT 10SM FEW010 21/17 A2985 RMK AO2 SLP107 T02110172 $
