2023/12/21 17:53
KLAX 211753Z 16007KT 7SM -RA SCT008 OVC034 16/14 A3000 RMK AO2 LTG DSNT W DZB32E45RAB45 SLP157 P0001 60002 T01610139 10172 20150 53016
