2024/04/09 19:53
KLAX 091953Z 22010G19KT 180V240 10SM CLR 25/M01 A3006 RMK AO2 SLP179 T02501011 $
