2023/02/23 19:53
KLAX 231953Z 27004KT 10SM FEW012 FEW030 BKN055 BKN150 10/05 A3002 RMK AO2 PK WND 25030/1854 LTG DSNT E RAE28 SLP164 P0023 T01000050 $
