2023/07/26 01:53
KLAX 260153Z 26010KT 10SM FEW008 FEW050 SCT150 22/19 A2990 RMK AO2 SLP125 T02220189 $
