2024/06/20 19:53
KLAX 201953Z 26010KT 8SM FEW014 21/15 A2984 RMK AO2 SLP103 T02110150 $
