2024/06/24 17:53
KLAX 241753Z 27009KT 10SM FEW075 FEW160 SCT220 26/16 A2991 RMK AO2 SLP127 T02610161 10272 20194 58005
