2024/04/26 19:53
KLAX 261953Z 26016KT 10SM FEW020 FEW032 SCT045 17/11 A2994 RMK AO2 SLP139 T01720111
