2023/07/22 19:53
KLAX 221953Z 23007KT 5SM HZ SCT012 23/17 A2989 RMK AO2 SLP121 T02280172
