2023/04/29 09:53
KLAX 290953Z 29003KT 2SM BR OVC005 13/12 A3002 RMK AO2 SLP165 VIS W-NW 1 T01330117
