2024/01/21 07:53
KLAX 210753Z 10009KT 5SM -RA BR FEW004 SCT006 BKN013 13/13 A2986 RMK AO2 PRESFR SLP111 P0022 T01330128 401500128 $
