2022/12/10 15:53
KLAX 101553Z 10005KT 10SM BKN033 BKN200 11/06 A3015 RMK AO2 SLP209 T01110056 $
