2023/10/21 07:53
KLAX 210753Z 00000KT 10SM CLR 18/16 A2983 RMK AO2 SLP098 T01830156 402390172
