2025/02/11 19:53
KLAX 111953Z 24012KT 10SM SCT036 SCT055 BKN220 14/08 A2997 RMK AO2 SLP147 T01440083 $
