2024/10/11 03:53
KLAX 110353Z 25007KT 10SM FEW008 SCT220 SCT280 18/16 A2998 RMK AO2 SLP151 T01780161 $
