2026/02/14 21:53
KLAX 142153Z 22008KT 10SM SCT029 BKN250 19/11 A3007 RMK AO2 SLP183 T01890111 $
