2026/02/09 17:53
KLAX 091753Z 09004KT 10SM FEW080 FEW120 SCT150 BKN180 BKN250 19/06 A3004 RMK AO2 SLP171 T01890061 10189 20117 56004 $
