2025/04/09 17:53
KLAX 091753Z 28003KT 10SM CLR 21/13 A3009 RMK AO2 SLP188 T02060128 10222 20122 52011 $
