2026/02/21 17:53
KLAX 211753Z 02005KT 10SM FEW280 15/01 A3017 RMK AO2 SLP215 T01500011 10150 20067 51008 $
