2025/08/30 09:53
KLAX 300953Z 25005KT 10SM CLR 21/18 A2993 RMK AO2 SLP133 T02110178 $
