2023/11/08 03:53
KLAX 080353Z VRB06G17KT 10SM CLR 19/04 A2997 RMK AO2 SLP148 T01890039
