2023/10/25 01:53
KLAX 250153Z 25009KT 10SM FEW014 18/16 A2986 RMK AO2 SLP109 T01830156 $
