2023/06/04 15:53
KLAX 041553Z 27005KT 4SM -DZ OVC008 16/14 A2991 RMK AO2 DZB19 SLP125 VIS SW-NW 2 P0000 T01560139
