2025/04/09 15:53
KLAX 091553Z VRB03KT 7SM FEW010 18/12 A3007 RMK AO2 SLP182 T01830122 $
