2024/04/19 15:53
KLAX 191553Z 11003KT 9SM FEW016 OVC021 15/10 A2998 RMK AO2 SLP153 T01500100 $
