2025/12/29 15:53
KLAX 291553Z 02004KT 10SM FEW180 FEW250 11/02 A3017 RMK AO2 SLP213 T01060017 $
