2023/10/26 17:53
KLAX 261753Z 22005KT 10SM FEW010 SCT045 SCT160 20/14 A3002 RMK AO2 SLP164 T02000144 10200 20167 50008
