2025/11/29 17:53
KLAX 291753Z 14004KT 7SM FEW210 FEW240 BKN280 16/11 A3005 RMK AO2 SLP175 T01610111 10161 20106 51011 $
