2024/08/02 17:53
KLAX 021753Z 27007KT 9SM VCFG FEW000 FEW110 SCT190 SCT250 21/17 A3005 RMK AO2 SLP175 VIS SW-W 2 FG FEW000 FG BANK ALG SHORE S-W-NW T02060167 10206 20178 53003
