2023/05/03 09:53
KLAX 030953Z 32004KT 10SM FEW016 FEW040 12/07 A2991 RMK AO2 SLP128 T01170067
