2023/11/01 19:53
KLAX 011953Z 13007KT 10SM FEW280 29/M09 A3001 RMK AO2 SLP160 T02891089 $
