2024/07/20 11:53
KLAX 201153Z 27005KT 3/4SM R25L/3000VP6000FT BR VV002 17/16 A2992 RMK AO2 SLP128 VIS SW-NW 1/4 T01670161 10172 20167 56003
