2025/10/17 17:53
KLAX 171753Z 00000KT 10SM CLR 23/07 A2994 RMK AO2 SLP138 T02330067 10233 20139 50007 $
