2025/08/26 13:53
KLAX 261353Z 18003KT 5SM BR OVC009 20/18 A2995 RMK AO2 SLP138 T02000178 $
