2024/10/18 07:53
KLAX 180753Z 21004KT 10SM FEW015 SCT028 17/13 A2983 RMK AO2 SLP099 T01670133 402110167
