2023/11/24 13:53
KLAX 241353Z 04006KT 10SM FEW018 FEW035 SCT050 14/11 A2986 RMK AO2 SLP112 T01440106
