2024/01/20 09:53
KLAX 200953Z 27004KT 10SM BKN040 BKN049 OVC100 14/13 A2995 RMK AO2 SLP141 T01390128 $
