2024/10/02 07:53
KLAX 020753Z 19003KT 10SM FEW005 18/16 A2988 RMK AO2 SLP114 T01780161 402170156
