2024/01/26 13:53
KLAX 261353Z 00000KT 10SM FEW008 FEW200 SCT250 10/09 A3017 RMK AO2 SLP215 T01000089 $
