2023/11/21 07:53
KLAX 210753Z 02004KT 10SM CLR 15/02 A3020 RMK AO2 SLP224 T01500017 402280100 $
