2025/12/12 03:53
KLAX 120353Z 22004KT 10SM FEW006 17/16 A2999 RMK AO2 SLP156 T01720161 $
