2024/01/06 19:53
KLAX 061953Z 00000KT 10SM FEW015 SCT250 16/05 A3014 RMK AO2 SLP205 T01610050
