2026/04/04 03:53
KLAX 040353Z 00000KT 10SM FEW190 SCT240 SCT290 19/11 A3000 RMK AO2 SLP157 T01940111 $
