2025/09/05 07:53
KLAX 050753Z 01005KT 10SM BKN012 20/17 A2985 RMK AO2 SLP105 T02000172 402440200
