2025/04/06 15:53
KLAX 061553Z 11004KT 10SM CLR 18/01 A3022 RMK AO2 SLP232 T01780006 $
