2025/05/17 11:53
KLAX 171153Z 11006KT 9SM BKN022 OVC028 16/11 A2996 RMK AO2 SLP145 T01560111 10161 20150 58004
