2023/09/01 11:53
KLAX 011153Z 08006KT 9SM FEW008 BKN015 20/17 A2981 RMK AO2 SLP091 T02000172 10206 20200 57005 $
