2025/10/19 01:53
KLAX 190153Z 23007KT 10SM CLR 20/18 A2996 RMK AO2 SLP146 T02000178 $
