2023/08/29 03:53
KLAX 290353Z 24007KT 10SM CLR 22/18 A2983 RMK AO2 SLP100 T02170178
