2024/02/15 15:53
KLAX 151553Z 08004KT 9SM FEW010 SCT140 BKN250 11/08 A3021 RMK AO2 SLP229 T01110083 $
