2024/10/09 11:53
KLAX 091153Z VRB03KT 2 1/2SM BR FEW002 OVC006 17/16 A2991 RMK AO2 SLP126 VIS W 1 1/2 T01720156 10172 20167 55002 $
