2022/11/13 11:53
KLAX 131153Z 10003KT 10SM SCT015 10/05 A2999 RMK AO2 SLP153 T01000050 10139 20100 56008 $
