2026/04/01 02:53
KLAX 010253Z 25004KT 10SM SCT037 OVC095 18/14 A2993 RMK AO2 SLP134 T01780139 56006 $
