2025/01/26 17:53
KLAX 261753Z 11009KT 7SM -RA FEW026 BKN048 OVC060 12/08 A3007 RMK AO2 RAE19B43 SLP181 P0000 60000 T01220078 10122 20094 51018
