2024/11/23 11:53
KLAX 231153Z 02006KT 6SM BR BKN011 11/10 A3002 RMK AO2 SLP163 T01110100 10144 20111 50002
