2025/07/31 17:53
KLAX 311753Z 26008KT 9SM FEW009 FEW018 21/16 A3002 RMK AO2 SLP164 T02110161 10217 20172 51011 $
