2025/08/11 15:53
KLAX 111553Z 26005KT 9SM CLR 22/17 A2996 RMK AO2 SLP146 T02170167 $
