2023/10/24 11:53
KLAX 241153Z 07004KT 10SM FEW009 FEW020 SCT200 16/14 A2980 RMK AO2 SLP087 T01610144 10183 20156 55001 $
