2025/11/16 07:53
KLAX 160753Z 23009KT 10SM BKN019 OVC060 16/12 A2992 RMK AO2 SLP131 T01560122 401780144 $
