2025/05/06 05:53
KLAX 060553Z 00000KT 10SM FEW011 SCT024 BKN040 16/12 A2992 RMK AO2 SLP129 T01560117 10167 20150 51014 $
