2023/08/29 19:53
KLAX 291953Z 27009KT 10SM CLR 27/18 A2985 RMK AO2 SLP105 T02670178
