2024/08/14 21:53
KLAX 142153Z 27012KT 10SM FEW010 24/19 A2996 RMK AO2 SLP145 T02440189 $
