2024/02/25 01:53
KLAX 250153Z 25008KT 10SM FEW120 SCT200 16/11 A3003 RMK AO2 SLP168 T01560106 $
