2024/04/29 05:53
KLAX 290553Z 24004KT 10SM CLR 14/12 A2996 RMK AO2 SLP143 T01440117 10183 20144 51008
