2025/06/14 09:53
KLAX 140953Z 25005KT 8SM BKN009 OVC011 17/15 A2987 RMK AO2 SLP112 T01720150 $
