2024/10/06 11:53
KLAX 061153Z 00000KT 1/2SM R25L/1800V5500FT FG VV002 17/16 A2995 RMK AO2 SLP141 T01670161 10172 20161 55000
