2023/02/18 19:53
KLAX 181953Z 13005KT 10SM SCT120 BKN180 BKN250 18/M06 A3003 RMK AO2 SLP169 T01831056 $
