2026/03/23 21:53
KLAX 232153Z 26010KT 3SM HZ FEW010 FEW250 19/15 A2992 RMK AO2 SLP131 T01940150
