2024/02/21 23:53
KLAX 212353Z 27009KT 10SM FEW080 FEW200 16/12 A3011 RMK AO2 SLP197 T01560122 10167 20150 58014 $
