2024/02/04 21:53
KLAX 042153Z 12018G30KT 8SM -RA BKN022 BKN030 OVC038 14/11 A2989 RMK AO2 PK WND 09031/2142 RAB08 SLP123 P0001 T01390106 $
