2024/12/22 07:53
KLAX 220753Z VRB04KT 10SM SCT250 13/11 A3014 RMK AO2 SLP204 T01330111 401670094
