2026/07/04 16:53
KLAX 041653Z VRB03KT 10SM FEW010 SCT150 BKN230 BKN300 21/16 A3003 RMK AO2 SLP167 ACSL DSNT NE T02060156 $
