2024/04/01 09:53
KLAX 010953Z 32003KT 10SM FEW012 FEW050 BKN120 12/07 A2984 RMK AO2 SLP102 T01220072
