2026/04/23 19:53
KLAX 231953Z 25010KT 10SM FEW220 FEW280 22/11 A2997 RMK AO2 SLP148 T02170106 $
