2022/10/21 21:53
KLAX 212153Z 25010KT 10SM SCT010 SCT085 22/18 A2986 RMK AO2 SLP109 T02220178
