2023/12/11 19:53
KLAX 111953Z VRB05KT 10SM FEW120 SCT160 SCT180 BKN250 21/02 A2993 RMK AO2 SLP134 T02060022 $
