2026/06/11 02:53
KLAX 110253Z 26007KT 10SM FEW012 20/17 A2979 RMK AO2 SLP087 T02000167 53000
