2023/11/20 01:53
KLAX 200153Z 29007KT 230V320 10SM CLR 18/01 A2999 RMK AO2 SLP154 T01830006
