2024/05/13 03:53
KLAX 130353Z 25007KT 9SM OVC006 14/12 A2993 RMK AO2 SLP133 T01390122 $
