2022/09/03 01:53
KLAX 030153Z 26010KT 10SM FEW080 SCT150 24/17 A2974 RMK AO2 SLP067 T02390172
