2023/08/23 11:53
KLAX 231153Z 00000KT 10SM FEW004 19/18 A2990 RMK AO2 SLP122 T01940178 10206 20189 56004 $
