2026/03/21 19:53
KLAX 211953Z 25013KT 10SM FEW002 SCT240 SCT300 22/16 A2995 RMK AO2 SLP141 VIS W-NW 1 1/2 T02220161
