2024/10/04 14:53
KLAX 041453Z 00000KT 2 1/2SM BR BKN009 BKN160 BKN190 18/17 A2992 RMK AO2 SLP131 VIS S-W 2 T01830167 53018
