2022/09/12 13:53
KLAX 121353Z 10004KT 10SM FEW017 FEW050 SCT120 SCT250 23/20 A2997 RMK AO2 SLP144 T02330200 $
