2026/05/26 21:53
KLAX 262153Z 26013KT 10SM FEW025 BKN043 19/11 A2983 RMK AO2 SLP101 T01940111 $
