2025/09/22 11:53
KLAX 221153Z 24003KT 4SM BR FEW002 OVC005 18/18 A2986 RMK AO2 SLP109 VIS S-W 2 1/2 T01830178 10189 20183 55000 $
