2023/05/22 21:53
KLAX 222153Z 23008KT 10SM OVC010 17/14 A2993 RMK AO2 SLP135 T01720144
