2025/08/09 03:53
KLAX 090353Z 24007KT 10SM CLR 19/16 A2989 RMK AO2 SLP117 T01940156 $
