2026/07/20 17:53
KLAX 201753Z 00000KT 10SM FEW009 SCT025 BKN160 BKN250 27/16 A2994 RMK AO2 SLP136 T02720161 10272 20200 58002 $
