2024/05/02 15:53
KLAX 021553Z VRB05KT 9SM BKN018 BKN022 16/13 A2993 RMK AO2 SLP134 T01610128 $
