2023/06/12 17:53
KLAX 121753Z 22010KT 10SM SCT030 BKN045 19/12 A3004 RMK AO2 SLP171 T01940117 10200 20161 53004
