2023/10/31 03:53
KLAX 310353Z 36004KT 10SM CLR 21/M08 A3001 RMK AO2 SLP160 T02061083
