2023/02/02 07:53
KLAX 020753Z 09005KT 10SM CLR 09/03 A3023 RMK AO2 SLP234 T00890028 401830050 $
