2023/02/06 13:53
KLAX 061353Z 33012G21KT 10SM FEW090 12/M01 A3020 RMK AO2 SLP225 T01221006 $
