2022/11/28 11:53
KLAX 281153Z 06005KT 7SM FEW008 FEW016 BKN140 13/12 A2995 RMK AO2 SLP141 T01330117 10150 20128 57011 $
