2023/08/11 17:53
KLAX 111753Z VRB06KT 10SM SCT013 OVC019 22/18 A3001 RMK AO2 SLP161 T02170178 10217 20194 51005
