2024/03/24 21:53
KLAX 242153Z 27028G36KT 10SM FEW015 SCT200 BKN250 15/09 A2978 RMK AO2 PK WND 26037/2131 LTG DSNT N AND NW SLP085 CB DSNT NW T01500089 $
