2022/11/18 23:53
KLAX 182353Z 27009KT 10SM FEW120 SCT150 17/12 A2993 RMK AO2 SLP134 T01670122 10206 20167 53002
