2024/11/18 17:53
KLAX 181753Z 12007KT 10SM FEW019 SCT180 16/08 A3003 RMK AO2 SLP169 T01610083 10161 20083 51014 $
