2023/07/06 19:53
KLAX 061953Z 23010KT 10SM FEW027 20/14 A2994 RMK AO2 SLP138 T02000139 $
