2023/10/03 11:53
KLAX 031153Z 00000KT 10SM FEW008 15/14 A2994 RMK AO2 SLP137 T01500139 10172 20144 58010 $
