2024/09/12 13:53
KLAX 121353Z 16006KT 8SM FEW009 SCT013 OVC019 18/14 A2974 RMK AO2 SLP069 T01830144
