2023/09/19 05:53
KLAX 190553Z 24006KT 10SM CLR 18/17 A2995 RMK AO2 SLP141 T01830167 10211 20183 50003 $
