2023/12/16 11:53
KLAX 161153Z 03004KT 10SM BKN300 15/M03 A3005 RMK AO2 SLP172 T01501033 10189 20133 58003 $
