2026/07/21 05:53
KLAX 210553Z 25004KT 10SM BKN200 22/18 A2992 RMK AO2 SLP129 T02220183 10261 20217 53014 $
