2023/03/30 07:59
KLAX 300759Z 08005KT 10SM -RA SCT026 OVC049 09/07 A2991 RMK AO2 CIG 025 RWY24 P0000 T00940072
