2024/05/16 15:53
KLAX 161553Z 25008KT 10SM FEW012 BKN023 OVC035 16/12 A2997 RMK AO2 SLP149 T01560117 
