2023/11/24 09:53
KLAX 240953Z 04006KT 10SM BKN018 BKN035 15/12 A2984 RMK AO2 SLP101 T01500117
