2023/12/16 19:53
KLAX 161953Z 05003KT 10SM FEW220 FEW270 SCT300 25/M05 A3004 RMK AO2 SLP170 T02501050 $
