2022/09/11 23:53
KLAX 112353Z 26017KT 10SM FEW100 FEW150 27/20 A2994 RMK AO2 SLP134 CB DSNT NE T02720200 10294 20272 56015 $
