2023/09/26 11:53
KLAX 261153Z 00000KT 10SM FEW008 FEW015 16/15 A3000 RMK AO2 SLP156 T01560150 10183 20156 55008 $
