2025/07/17 07:53
KLAX 170753Z 28007KT 10SM FEW012 FEW150 18/15 A2993 RMK AO2 SLP133 T01780150 402330178 $
