2023/04/07 01:53
KLAX 070153Z 24009KT 10SM FEW250 15/05 A3001 RMK AO2 SLP163 T01500050 $
