2025/04/26 05:53
KLAX 260553Z 26013KT 10SM FEW033 SCT049 SCT060 13/07 A2997 RMK AO2 SLP147 T01330067 10161 20133 51006
