2023/09/30 21:53
KLAX 302153Z 23014KT 10SM SCT015 BKN026 BKN033 19/14 A2984 RMK AO2 SLP104 T01940144 $
