2025/02/13 19:53
KLAX 131953Z 19012G22KT 2SM R25L/4000VP6000FT -RA BR BKN010 OVC015 14/14 A3000 RMK AO2 SLP159 VIS W-NW 1 1/4 P0011 T01440139
