2023/03/06 05:53
KLAX 060553Z 24009KT 10SM FEW011 SCT024 BKN070 12/07 A3013 RMK AO2 SLP203 T01220072 10139 20122 51010 $
