2025/01/18 19:53
KLAX 181953Z 00000KT 10SM FEW037 15/06 A3023 RMK AO2 SLP237 T01500061
