2025/01/04 07:53
KLAX 040753Z 16003KT 10SM BKN016 13/10 A3008 RMK AO2 SLP185 T01280100 401610094
