2026/03/13 21:53
KLAX 132153Z 26010KT 10SM SCT130 BKN180 BKN250 26/09 A2993 RMK AO2 SLP132 T02560094
