2024/05/27 15:53
KLAX 271553Z VRB03KT 8SM FEW009 OVC012 16/12 A3006 RMK AO2 SLP178 T01560117
