2026/02/18 02:53
KLAX 180253Z 20019G29KT 10SM FEW028 BKN065 14/08 A3000 RMK AO2 PK WND 18031/0212 RAB0156E05 SLP158 P0000 60000 T01390078 58012
