2025/10/07 19:53
KLAX 071953Z 27009KT 10SM BKN019 21/14 A2989 RMK AO2 SLP120 T02110144 $
