2025/06/17 07:53
KLAX 170753Z VRB03KT 10SM CLR 18/14 A2985 RMK AO2 SLP106 T01780144 402390161 $
