2026/03/23 05:53
KLAX 230553Z 24004KT 2 1/2SM BR FEW002 SCT003 BKN005 16/15 A2991 RMK AO2 SLP127 T01560150 10189 20156 50010
