2024/10/04 03:53
KLAX 040353Z 18004KT 6SM BR OVC005 18/17 A2981 RMK AO2 VIS 2 1/2 RWY24 SLP093 T01830172
