2023/12/04 19:53
KLAX 041953Z 26009KT 10SM FEW140 SCT180 BKN250 20/10 A3009 RMK AO2 SLP190 T02000100
