2024/07/14 01:53
KLAX 140153Z 27008KT 10SM OVC009 19/16 A2996 RMK AO2 SLP144 T01940161 $
