2023/02/06 21:53
KLAX 062153Z 26015KT 10SM FEW040 19/02 A3015 RMK AO2 SLP209 T01890022 $
