2026/05/27 16:53
KLAX 271653Z 25010KT 10SM BKN024 BKN037 BKN044 18/10 A2985 RMK AO2 SLP107 T01780100 $
