2025/08/19 21:53
KLAX 192153Z 26013KT 10SM CLR 24/18 A2999 RMK AO2 SLP155 T02440178
