2025/01/04 23:53
KLAX 042353Z 26008KT 10SM SCT180 BKN250 15/09 A3008 RMK AO2 SLP185 T01500089 10167 20139 55004
