2024/10/06 00:08
KLAX 060008Z 24010KT 2SM BR OVC002 18/16 A2992 RMK AO2 VIS SW-W 1 1/4 T01780161
