2022/12/17 15:53
KLAX 171553Z 02008KT 10SM SCT250 12/M06 A3008 RMK AO2 SLP185 T01171056 $
