2025/12/27 01:53
KLAX 270153Z 29004KT 7SM -RA FEW009 SCT014 OVC055 14/11 A2999 RMK AO2 RAB00 SLP153 P0005 T01440111 $
