2023/01/31 21:53
KLAX 312153Z 00000KT 10SM CLR 17/01 A3003 RMK AO2 SLP169 T01720006 $
