2025/02/20 07:53
KLAX 200753Z 09005KT 10SM FEW002 FEW009 SCT250 13/12 A3002 RMK AO2 SLP164 T01280122 401830100 $
