2025/06/19 03:53
KLAX 190353Z 26007KT 10SM CLR 19/17 A2982 RMK AO2 SLP094 T01940167 $
