2026/03/29 14:08
KLAX 291408Z 33005KT 1SM R25L/P6000FT BR OVC003 15/14 A2990 RMK AO2 VIS SW-W 1/2 T01500144
