2025/10/10 13:53
KLAX 101353Z 20006KT 9SM FEW090 SCT160 SCT250 18/14 A2988 RMK AO2 SLP118 T01830144 $
