2024/01/27 19:53
KLAX 271953Z 14004KT 10SM SCT250 22/02 A3017 RMK AO2 SLP214 T02220022 $
