2026/01/26 01:53
KLAX 260153Z 25008KT 10SM FEW150 SCT200 SCT250 15/12 A3018 RMK AO2 SLP220 T01500117 $
