2023/09/14 19:53
KLAX 141953Z 24011KT 10SM SCT026 22/16 A2996 RMK AO2 SLP142 T02220161 $
