2023/04/16 19:53
KLAX 161953Z 26007KT 10SM BKN013 BKN017 OVC280 15/11 A3011 RMK AO2 SLP196 T01500106
