2023/01/24 21:53
KLAX 242153Z 27008KT 10SM CLR 17/03 A3026 RMK AO2 SLP246 T01670028 $
