2026/02/17 07:53
KLAX 170753Z 26007KT 6SM -RA BR FEW010 BKN019CB BKN035 OVC200 09/08 A2995 RMK AO2 RAB26 SLP141 CB S-W MOV NE P0033 T00940078 401440089 $
