2026/07/20 09:53
KLAX 200953Z 08003KT 10SM FEW008 FEW011 20/18 A2990 RMK AO2 SLP121 T02000178 $
