2025/02/11 13:53
KLAX 111353Z 07004KT 10SM FEW015 SCT028 BKN040 BKN250 11/06 A2996 RMK AO2 SLP146 T01060061 $
