2024/09/20 09:53
KLAX 200953Z 28008KT 10SM FEW012 OVC042 17/15 A2988 RMK AO2 SLP114 T01720150 $
