2023/08/26 05:53
KLAX 260553Z 12003KT 10SM CLR 19/17 A2994 RMK AO2 SLP136 T01940167 10222 20194 51013
