2024/06/29 17:53
KLAX 291753Z 25007KT 7SM FEW014 21/16 A2993 RMK AO2 SLP133 T02110156 10211 20172 51011
