2023/04/21 11:53
KLAX 211153Z 10003KT 10SM CLR 14/06 A3011 RMK AO2 SLP196 T01390056 10189 20139 53001 $
