2026/02/02 02:53
KLAX 020253Z 24008KT 10SM FEW150 18/09 A3000 RMK AO2 SLP157 T01830089 53003
