2025/07/05 11:53
KLAX 051153Z 00000KT 4SM BR OVC009 17/15 A3004 RMK AO2 SLP171 T01720150 10178 20172 55000 $
