2023/06/20 09:53
KLAX 200953Z 00000KT 10SM FEW014 FEW020 SCT250 16/13 A2997 RMK AO2 SLP146 T01560128
