2025/01/16 11:53
KLAX 161153Z 04004KT 10SM CLR 12/M08 A3016 RMK AO2 SLP210 T01171078 10150 20100 58007 VISNO RWY24 $
