2025/07/15 21:53
KLAX 152153Z 26008KT 10SM FEW017 22/15 A2995 RMK AO2 SLP141 T02170150
