2024/10/09 07:59
KLAX 090759Z VRB03KT 4SM BR OVC006 17/16 A2991 RMK AO2 VIS 2 RWY24 T01720156 $
