2025/03/11 13:53
KLAX 111353Z 12008KT 10SM FEW004 OVC050 13/03 A2983 RMK AO2 SLP098 T01330033
