2025/11/15 19:53
KLAX 151953Z 05006KT 6SM -RA BR FEW008 FEW027 OVC055 15/14 A2984 RMK AO2 SLP102 P0012 T01500139 $
