2023/04/17 17:53
KLAX 171753Z 27007KT 7SM FEW010 OVC022 16/10 A3000 RMK AO2 SLP157 T01560100 10161 20128 51001
