2025/07/04 09:53
KLAX 040953Z 00000KT 10SM OVC015 19/16 A2997 RMK AO2 SLP146 T01890156 $
