2025/08/07 19:53
KLAX 071953Z 26010KT 10SM FEW180 24/17 A2996 RMK AO2 SLP144 T02440167
