2026/07/12 19:53
KLAX 121953Z 20007KT 10SM FEW010 BKN120 BKN180 OVC250 22/18 A2994 RMK AO2 SLP136 T02220178 $
