2025/04/05 11:53
KLAX 051153Z 10005KT 10SM CLR 11/07 A3016 RMK AO2 SLP212 T01060067 10156 20106 51003
