2024/03/24 13:53
KLAX 241353Z 36005KT 10SM FEW022 FEW055 SCT090 SCT170 11/05 A2981 RMK AO2 SLP094 T01060050 $
