2024/06/03 11:53
KLAX 031153Z 00000KT 10SM FEW006 BKN020 15/13 A2990 RMK AO2 SLP123 T01500128 10156 20144 56001
