2022/10/13 11:53
KLAX 131153Z 26004KT 9SM FEW009 OVC011 19/17 A3001 RMK AO2 SLP160 70019 T01890167 10194 20189 56008
