2025/02/15 03:53
KLAX 150353Z 21005KT 10SM FEW060 SCT200 13/11 A3012 RMK AO2 PRESRR SLP197 ACSL DSNT N T01330106
