2024/08/26 09:53
KLAX 260953Z 23003KT 10SM CLR 19/17 A3004 RMK AO2 SLP171 T01890167 $
