2024/02/12 05:53
KLAX 120553Z 00000KT 10SM FEW280 13/02 A3019 RMK AO2 SLP220 T01280022 10150 20117 51003 $
