2026/05/15 10:36
KLAX 151036Z 00000KT 10SM FEW009 BKN014 OVC018 16/13 A2996 RMK AO2 T01610133
