2023/07/24 15:53
KLAX 241553Z 26008KT 8SM FEW009 SCT160 BKN250 22/18 A3000 RMK AO2 SLP156 T02170183
