2025/10/22 19:53
KLAX 221953Z 23016KT 10SM FEW029 19/13 A3004 RMK AO2 SLP171 T01940128
