2025/08/14 11:53
KLAX 141153Z 00000KT 7SM FEW008 OVC010 19/17 A2990 RMK AO2 SLP123 T01940167 10194 20189 56002 $
