2025/06/05 21:53
KLAX 052153Z 26015G21KT 10SM SCT013 20/14 A2990 RMK AO2 SLP124 T02000139
