2025/06/16 23:53
KLAX 162353Z 25009KT 10SM CLR 22/16 A2987 RMK AO2 SLP114 T02170161 10239 20217 57010 $
