2025/10/16 13:53
KLAX 161353Z 06004KT 10SM CLR 13/07 A2993 RMK AO2 SLP135 T01330072 $
