2022/08/26 15:53
KLAX 261553Z VRB03KT 5SM HZ OVC007 21/18 A2997 RMK AO2 SLP146 T02110183 $
