2026/06/04 10:53
KLAX 041053Z VRB05KT 9SM FEW005 FEW008 OVC011 17/14 A2987 RMK AO2 SLP112 T01720144 $
