2026/06/26 14:53
KLAX 261453Z 31003KT 10SM FEW009 BKN014 OVC020 18/14 A2994 RMK AO2 SLP137 BKN V SCT T01780139 53012
