2023/03/08 21:53
KLAX 082153Z 25014KT 10SM FEW010 FEW035 SCT160 BKN220 14/07 A3015 RMK AO2 SLP208 T01390067 $
