2025/07/12 17:53
KLAX 121753Z 13004KT 10SM OVC016 20/16 A3003 RMK AO2 SLP166 T02000156 10200 20183 51008
