2025/06/11 21:53
KLAX 112153Z 25012KT 10SM BKN011 20/15 A2991 RMK AO2 SLP128 T02000150 $
