2024/03/06 17:53
KLAX 061753Z 10006KT 10SM FEW010 SCT026 BKN060 BKN140 15/09 A2995 RMK AO2 SLP142 T01500094 10150 20100 58005
