2023/01/22 17:53
KLAX 221753Z 07004KT 10SM FEW016 SCT220 SCT250 BKN290 12/03 A3005 RMK AO2 SLP175 CCSL N T01170033 10117 20050 58012 $
