2026/05/02 17:53
KLAX 021753Z 00000KT 6SM HZ OVC013 17/13 A2996 RMK AO2 SLP145 T01670133 10172 20150 58000
