2025/02/13 03:53
KLAX 130353Z 09007KT 10SM OVC020 13/11 A2993 RMK AO2 SLP135 T01280106 $
