2023/04/21 13:53
KLAX 211353Z 00000KT 10SM FEW250 16/04 A3012 RMK AO2 SLP199 T01610044 $
