2025/08/25 07:53
KLAX 250753Z 00000KT 10SM FEW015 FEW200 21/18 A2988 RMK AO2 SLP116 T02110183 402560200
