2026/02/15 17:53
KLAX 151753Z 13005KT 10SM FEW018 SCT060 SCT100 BKN200 BKN240 16/10 A3005 RMK AO2 SLP174 T01560100 10156 20111 51010 $
