2023/05/17 11:53
KLAX 171153Z 00000KT 6SM BR OVC005 13/13 A2995 RMK AO2 SLP139 T01330128 10139 20133 57004
