2026/07/01 12:53
KLAX 011253Z 00000KT 10SM FEW010 BKN022 OVC034 18/14 A2991 RMK AO2 SLP126 T01780144 $
