2023/12/20 11:53
KLAX 201153Z 09005KT 9SM FEW008 SCT011 BKN024 16/15 A2985 RMK AO2 SLP107 60001 70010 T01560150 10156 20150 58006
