2025/01/15 23:53
KLAX 152353Z 26008KT 10SM CLR 19/M01 A3015 RMK AO2 SLP210 T01941006 10222 20156 55007 $
