2025/08/26 23:53
KLAX 262353Z 27010KT 10SM FEW010 SCT120 SCT180 BKN270 22/18 A2994 RMK AO2 SLP135 CB DSNT NE T02220178 10244 20222 56015 $
