2022/09/03 05:53
KLAX 030553Z 00000KT 10SM FEW070 24/18 A2981 RMK AO2 SLP092 T02440178 10256 20228 51021
