2025/01/04 17:53
KLAX 041753Z 12006KT 4SM HZ FEW010 SCT250 14/08 A3014 RMK AO2 SLP205 T01390083 10139 20089 53013
