2022/09/28 03:53
KLAX 280353Z 18004KT 10SM CLR 22/18 A2986 RMK AO2 SLP107 T02220178
