2025/04/25 11:53
KLAX 251153Z 27004KT 10SM FEW014 BKN018 BKN038 13/10 A2994 RMK AO2 SLP137 T01330100 10144 20133 56002
