2023/08/05 23:53
KLAX 052353Z 25011KT 10SM FEW011 23/18 A2986 RMK SLP109 T0220178 10244 20228 58010 
