2024/05/26 17:53
KLAX 261753Z 25006KT 10SM FEW019 OVC026 17/12 A3004 RMK AO2 SLP171 T01720117 10172 20144 51006
