2023/06/08 07:53
KLAX 080753Z 24006KT 10SM FEW012 FEW050 SCT250 16/13 A2999 RMK AO2 SLP155 T01560133 401940150
