2022/11/22 13:53
KLAX 221353Z 00000KT 10SM FEW200 BKN280 12/M07 A3007 RMK AO2 SLP181 T01221067 $
