2025/08/10 15:53
KLAX 101553Z 19003KT 7SM BKN012 20/17 A2999 RMK AO2 SLP153 T02000167 $
