2026/04/03 08:53
KLAX 030853Z 08003KT 10SM FEW050 FEW200 15/12 A2996 RMK AO2 SLP144 402000150 T01500122 50003 $
