2025/02/21 11:53
KLAX 211153Z 08006KT 2 1/2SM BR VV003 13/12 A3002 RMK AO2 SLP163 T01280122 10156 20122 55002
