2025/11/22 11:53
KLAX 221153Z 00000KT 10SM FEW050 FEW120 11/08 A2993 RMK AO2 SLP133 70003 T01060083 10167 20106 58015 $
