2024/09/07 13:53
KLAX 071353Z 00000KT 10SM BKN180 23/18 A2980 RMK AO2 SLP090 T02330183
