2022/10/28 21:53
KLAX 282153Z 27009KT 10SM FEW250 BKN300 21/15 A3009 RMK AO2 SLP189 T02060150 VISNO RWY24 $
