2022/08/31 05:53
KLAX 310553Z 14004KT 10SM CLR 22/15 A2989 RMK AO2 SLP120 T02170150 10239 20217 53008
