2022/11/27 17:53
KLAX 271753Z 13003KT 10SM FEW300 18/05 A3010 RMK AO2 SLP193 T01780050 10183 20094 53010 $
