2025/03/17 19:53
KLAX 171953Z 26011G20KT 8SM FEW150 SCT200 SCT280 16/10 A3011 RMK AO2 SLP195 T01560100 $
