2023/10/16 07:53
KLAX 160753Z 00000KT 10SM CLR 19/13 A2999 RMK AO2 SLP154 T01940128 402610150
