2025/01/31 23:53
KLAX 312353Z 27013KT 10SM FEW055 SCT150 BKN250 14/09 A3021 RMK AO2 SLP229 T01440094 10156 20133 55013
