2024/11/04 01:53
KLAX 040153Z 31009KT 10SM CLR 21/02 A2986 RMK AO2 SLP110 T02060017
