2025/01/12 09:53
KLAX 120953Z 20003KT 10SM CLR 13/M07 A3003 RMK AO2 SLP168 T01331072 $
