2025/05/24 05:53
KLAX 240553Z 26005KT 10SM SCT045 17/09 A2994 RMK AO2 SLP136 T01720094 10194 20167 51006
