2022/11/23 01:53
KLAX 230153Z 26008KT 10SM FEW250 16/08 A3003 RMK AO2 SLP170 T01610083 $
