2024/07/09 07:53
KLAX 090753Z 22004KT 4SM BR SCT002 OVC005 17/16 A2984 RMK AO2 SLP101 VIS W-N 1 T01720161 402220161 $
