2025/11/23 13:53
KLAX 231353Z 00000KT 10SM CLR 12/07 A3002 RMK AO2 SLP162 T01170072
