2024/08/30 01:53
KLAX 300153Z 25013KT 10SM BKN011 19/16 A2997 RMK AO2 SLP145 T01890156
