2024/02/03 11:53
KLAX 031153Z 00000KT 10SM FEW030 SCT170 09/07 A3000 RMK AO2 SLP157 T00890072 10128 20089 56003 $
