2025/04/16 09:53
KLAX 160953Z 27008KT 10SM FEW018 BKN034 BKN180 OVC250 13/09 A2997 RMK AO2 SLP149 T01330094
