2024/04/19 21:53
KLAX 192153Z 26009KT 10SM FEW011 SCT044 BKN150 18/12 A2996 RMK AO2 SLP145 T01780117 $
