2025/10/30 21:53
KLAX 302153Z 26008KT 10SM CLR 24/16 A2990 RMK AO2 SLP122 T02390156 $
