2023/02/10 01:53
KLAX 100153Z 30006KT 10SM CLR 19/00 A3015 RMK AO2 SLP211 T01940000 $
