2026/03/23 19:53
KLAX 231953Z 26009KT 3SM HZ FEW010 SCT015 20/15 A2995 RMK AO2 SLP141 T02000150
