2023/04/08 13:53
KLAX 081353Z 00000KT 10SM SCT011 SCT250 12/11 A3006 RMK AO2 SLP176 T01170106
