2025/02/02 11:53
KLAX 021153Z 11003KT 5SM BR FEW003 BKN008 13/12 A3011 RMK AO2 SLP194 VIS W 2 T01280117 10144 20128 51002 $
