2023/01/19 13:53
KLAX 191353Z 00000KT 10SM FEW010 08/04 A3015 RMK AO2 SLP209 T00830044
