2023/03/17 19:53
KLAX 171953Z 26006KT 10SM FEW027 SCT055 BKN140 16/09 A3004 RMK AO2 SLP171 T01560094
