2024/01/24 13:53
KLAX 241353Z 10008KT 10SM FEW012 FEW024 SCT200 BKN280 13/11 A3008 RMK AO2 SLP186 T01280111
