2023/12/22 05:53
KLAX 220553Z 07005KT 10SM FEW016 SCT050 BKN090 15/14 A2990 RMK AO2 SLP123 60014 T01500139 10178 20150 56022
