2024/05/25 23:53
KLAX 252353Z 26012KT 10SM FEW017 FEW026 17/11 A2999 RMK AO2 SLP154 T01720111 10189 20172 56010
