2025/08/03 03:53
KLAX 030353Z 25006KT 6SM BR OVC006 17/16 A3003 RMK AO2 SLP167 T01720156 $
