2023/11/19 05:53
KLAX 190553Z 10006KT 10SM -RA BKN016 BKN023 OVC060 18/16 A3009 RMK AO2 RAB43 SLP187 P0000 60000 T01780156 10189 20178 51013
