2023/03/19 17:53
KLAX 191753Z 22005KT 10SM -RA FEW018 SCT065 OVC075 16/12 A2999 RMK AO2 RAE03B51 SLP155 P0000 60000 T01560117 10156 20144 51003
