2022/10/31 11:53
KLAX 311153Z 09006KT 10SM FEW002 FEW007 SCT220 13/10 A2991 RMK AO2 SLP127 T01330100 10189 20133 58007 VISNO RWY24 $
