2023/02/24 13:53
KLAX 241353Z 14010KT 10SM FEW014 FEW034 BKN050 OVC200 11/07 A3000 RMK AO2 RAB1256E34 SLP157 SHRA N AND NE P0000 T01060072
