2022/09/24 07:53
KLAX 240753Z 25006KT 10SM CLR 21/17 A2996 RMK AO2 SLP143 T02110167 402720172
