2023/09/04 19:53
KLAX 041953Z 24007KT 10SM FEW025 FEW035 23/17 A2991 RMK AO2 SLP128 T02280167 $
