2023/03/18 03:53
KLAX 180353Z 25003KT 10SM SCT100 SCT200 14/12 A3000 RMK AO2 SLP157 T01390117
