2025/11/20 01:53
KLAX 200153Z 26011KT 10SM FEW030 FEW060 SCT250 15/11 A3003 RMK AO2 SLP168 T01500106 $
