2025/08/01 15:53
KLAX 011553Z 09006KT 7SM FEW009 OVC013 19/16 A3008 RMK AO2 SLP186 T01940156 $
