2023/01/09 01:53
KLAX 090153Z 28007KT 10SM BKN046 BKN060 BKN075 15/10 A3014 RMK AO2 SLP204 T01500100 $
