2025/04/23 07:53
KLAX 230753Z 00000KT 10SM OVC018 14/09 A2996 RMK AO2 SLP145 T01390094 401780128
