2022/10/30 05:53
KLAX 300553Z 12005KT 10SM CLR 17/12 A3003 RMK AO2 SLP168 T01720117 10206 20167 53005 CHINO RWY24 VISNO RWY24 $
