2023/09/09 11:53
KLAX 091153Z 00000KT 10SM CLR 21/18 A2997 RMK AO2 SLP145 T02060183 10211 20200 56014
