2025/04/12 05:53
KLAX 120553Z 22004KT 10SM FEW010 FEW230 16/13 A2997 RMK AO2 SLP145 T01610128 10222 20156 51011
