2026/01/12 11:53
KLAX 121153Z 07003KT 10SM FEW250 11/M01 A3020 RMK AO2 SLP225 T01111006 10189 20106 58004 $
