2024/11/17 19:53
KLAX 171953Z 26009KT 10SM FEW220 19/M01 A2997 RMK AO2 SLP147 T01891011 $
