2024/03/25 15:53
KLAX 251553Z 11007KT 10SM FEW120 SCT180 12/07 A2992 RMK AO2 SLP131 T01220067
