2025/05/11 01:53
KLAX 110153Z 25014KT 10SM FEW080 SCT220 21/14 A2983 RMK AO2 SLP101 T02060144
