2022/10/02 19:53
KLAX 021953Z 26009KT 10SM FEW018 FEW110 23/16 A2995 RMK AO2 SLP139 T02280156
