2025/06/06 11:53
KLAX 061153Z 25003KT 10SM FEW012 OVC014 16/13 A2991 RMK AO2 SLP126 T01610133 10167 20161 55002
