2024/11/15 23:53
KLAX 152353Z 27024G32KT 10SM SCT050 BKN070 15/08 A2984 RMK AO2 PK WND 28033/2339 SLP103 T01500078 10172 20150 55006
