2024/04/12 13:53
KLAX 121353Z 11005KT 7SM FEW008 OVC011 12/10 A2984 RMK AO2 SLP102 T01220100 $
