2023/09/16 09:53
KLAX 160953Z 27005KT 10SM OVC014 19/16 A2995 RMK AO2 SLP140 T01890161
