2026/04/30 04:53
KLAX 300453Z 25005KT 10SM CLR 16/13 A2999 RMK AO2 SLP155 T01610133
