2025/07/25 05:53
KLAX 250553Z 23010KT 10SM FEW015 18/15 A3003 RMK AO2 SLP167 T01780150 10211 20178 50003 $
