2025/10/13 23:53
KLAX 132353Z 15012KT 10SM SCT031 SCT150 19/12 A2973 RMK AO2 SLP067 T01940117 10222 20194 55002 $
