2023/04/14 09:53
KLAX 140953Z 24004KT 9SM FEW009 BKN016 OVC025 12/10 A2988 RMK AO2 SLP117 T01220100 $
