2023/07/02 21:53
KLAX 022153Z 25013KT 10SM OVC008 19/16 A2991 RMK AO2 SLP126 T01940156 $
