2024/09/12 03:53
KLAX 120353Z 22005KT 10SM CLR 18/16 A2974 RMK AO2 SLP070 T01830156
