2025/03/06 21:53
KLAX 062153Z 25017KT 10SM -RA SCT026 BKN075 OVC140 12/05 A2990 RMK AO2 RAB43 SLP125 P0000 T01170050
