2023/09/29 17:53
KLAX 291753Z 16006KT 10SM FEW019 OVC025 19/15 A2990 RMK AO2 SLP122 T01940150 10200 20189 51015
