2024/04/01 01:53
KLAX 010153Z 11008KT 10SM FEW040 FEW090 SCT250 14/07 A2976 RMK AO2 SLP079 T01390067
