2025/09/08 21:53
KLAX 082153Z 26013KT 10SM FEW006 FEW008 24/17 A2999 RMK AO2 SLP155 FU FEW006 T02390172 $
