2023/04/28 13:53
KLAX 281353Z 27003KT 3/4SM R25L/P6000FT BR SCT002 OVC004 12/11 A2997 RMK AO2 SLP145 VIS 1/4V1 T01220111 $
