2024/10/29 00:53
KLAX 290053Z 26012G19KT 10SM FEW020 SCT080 18/13 A2984 RMK AO2 SLP102 T01780128
