2023/08/13 15:53
KLAX 131553Z 00000KT 6SM HZ BKN013 BKN180 22/18 A2998 RMK AO2 SLP150 T02170183 $
