2023/05/09 07:53
KLAX 090753Z 25007KT 10SM FEW016 14/13 A3000 RMK AO2 SLP156 T01390128 401940139
