2022/11/27 23:53
KLAX 272353Z 26011KT 10SM FEW020 FEW180 SCT250 17/12 A3002 RMK AO2 SLP167 T01670122 10194 20167 55007 $
