2025/07/30 05:53
KLAX 300553Z 26005KT 10SM FEW008 18/16 A3000 RMK AO2 SLP155 T01780161 10211 20178 58002 $
