2025/11/17 07:53
KLAX 170753Z 08006KT 10SM FEW015 SCT030 BKN040 OVC150 14/12 A2999 RMK AO2 SLP152 SHRA DSNT N T01440122 401830133 $
