2023/01/06 03:53
KLAX 060353Z 23009KT 10SM CLR 14/11 A3017 RMK AO2 SLP215 T01390111 $
