2024/06/26 13:53
KLAX 261353Z 00000KT 8SM FEW008 19/16 A2997 RMK AO2 SLP148 T01890161
