2023/07/03 15:59
KLAX 031559Z 23005KT 1/2SM R25L/P6000FT FG OVC004 16/15 A2992 RMK AO2 T01610150 $
