2025/01/24 11:53
KLAX 241153Z 02009KT 10SM CLR 13/M06 A3013 RMK AO2 SLP200 T01281061 10172 20122 58014
