2023/03/29 07:53
KLAX 290753Z 00000KT 10SM FEW012 BKN037 BKN050 13/09 A3002 RMK AO2 SLP163 T01280094 402000111 $
