2023/01/21 09:53
KLAX 210953Z 00000KT 10SM CLR 09/04 A3028 RMK AO2 SLP253 T00890039
