2024/12/08 15:53
KLAX 081553Z 11003KT 10SM VCFG FEW000 SCT230 BKN280 12/02 A3010 RMK AO2 SLP191 VIS SW 2 1/2 FG FEW000 T01170022
