2026/06/10 06:53
KLAX 100653Z 24003KT 10SM CLR 18/17 A2985 RMK AO2 SLP106 T01830167
