2023/12/16 15:53
KLAX 161553Z 08003KT 10SM SCT220 BKN300 14/M03 A3007 RMK AO2 SLP181 T01441028 $
