2025/06/09 03:53
KLAX 090353Z 25007KT 10SM OVC007 16/14 A2993 RMK AO2 SLP133 T01560139 $
