2024/12/31 21:53
KLAX 312153Z 28006KT 5SM HZ FEW012 SCT025 BKN140 16/09 A3003 RMK AO2 SLP168 T01560089 $
