2024/03/03 03:53
KLAX 030353Z 25009KT 10SM SCT019 BKN029 OVC049 13/11 A3003 RMK AO2 SLP169 T01330106 $
