2024/05/14 07:53
KLAX 140753Z 00000KT 10SM FEW009 OVC014 15/12 A2995 RMK AO2 SLP138 T01500117 401830133
