2025/09/08 07:53
KLAX 080753Z 27003KT 10SM CLR 21/18 A3004 RMK AO2 SLP169 T02110178 402720183 $
