2023/11/29 03:53
KLAX 290353Z 25004KT 10SM FEW150 15/10 A3007 RMK AO2 SLP182 T01500100
