2023/11/06 15:53
KLAX 061553Z 06003KT 2SM BCFG BR FEW000 FEW002 16/16 A2997 RMK AO2 SLP147 VIS NE-SE 1 1/2 FG FEW000 T01560156
