2024/11/27 07:53
KLAX 270753Z VRB04KT 2SM -DZ BR VV003 16/16 A3007 RMK AO2 DZB53 SLP181 VIS 1 1/4V2 1/2 T01610156 401890133 PNO $
