2024/09/02 23:53
KLAX 022353Z 27015KT 8SM FEW009 FEW070 23/18 A2985 RMK AO2 SLP108 T02280183 10250 20222 58014 $
