2024/01/16 05:53
KLAX 160553Z 00000KT 7SM BKN200 12/11 A3008 RMK AO2 SLP183 T01220111 10144 20122 50002 $
