2026/04/14 05:53
KLAX 140553Z 25012KT 10SM CLR 15/11 A3007 RMK AO2 SLP179 T01500111 10189 20150 51014 $
