2022/08/21 19:53
KLAX 211953Z 26007KT 10SM FEW021 BKN024 24/18 A3005 RMK AO2 SLP173 T02390178
