2023/11/09 21:53
KLAX 092153Z 22008KT 10SM FEW250 FEW280 24/M06 A3002 RMK AO2 SLP163 T02441061
