2024/08/03 05:53
KLAX 030553Z 15003KT 10SM FEW160 19/14 A2999 RMK AO2 SLP152 T01890144 10228 20183 51008 $
