2026/03/03 21:53
KLAX 032153Z 26010KT 10SM FEW110 SCT180 BKN250 18/12 A3002 RMK AO2 SLP164 T01830122
