2023/01/28 09:53
KLAX 280953Z 07003KT 10SM CLR 09/07 A2998 RMK AO2 SLP148 T00940067 $
