2023/09/25 07:53
KLAX 250753Z 00000KT 10SM FEW015 17/16 A3001 RMK AO2 SLP160 T01720156 402280161 $
