2026/07/13 21:53
KLAX 132153Z 28011KT 10SM FEW011 FEW016 SCT110 BKN170 BKN250 23/18 A2996 RMK AO2 SLP142 T02330178 $
