2025/10/03 15:53
KLAX 031553Z 26008KT 7SM FEW005 SCT017 BKN022 19/17 A3001 RMK AO2 SLP159 T01940172 $
