2024/11/29 11:53
KLAX 291153Z 01008KT 10SM FEW170 SCT200 BKN280 16/M06 A3002 RMK AO2 SLP164 T01561061 10178 20150 50000 $
