2025/06/27 19:53
KLAX 271953Z 24007KT 8SM FEW017 22/15 A2995 RMK AO2 SLP141 T02220150 $
