2025/06/11 13:53
KLAX 111353Z 32004KT 3SM BR FEW002 OVC009 17/15 A2992 RMK AO2 SLP130 VIS 2 1/2V4 VIS SE 2 1/2 VIS NW-N 2 T01670150 $
