2025/07/17 19:53
KLAX 171953Z 24009KT 10SM FEW017 FEW035 SCT160 SCT250 22/15 A2996 RMK AO2 SLP144 T02220150 $
