2025/11/16 03:53
KLAX 160353Z 13007KT 10SM FEW008 BKN023 BKN042 16/13 A2985 RMK AO2 RAB01E19 SLP108 P0000 T01560133 $
