2023/02/10 17:53
KLAX 101753Z 01007KT 10SM SCT160 SCT250 21/M07 A3016 RMK AO2 SLP211 T02061067 10206 20122 51006 $
