2022/12/20 19:53
KLAX 201953Z 26007KT 10SM FEW180 FEW250 17/04 A3024 RMK AO2 SLP241 T01720039
