2025/02/10 12:53
KLAX 101253Z 00000KT 10SM FEW007 FEW200 BKN250 09/07 A3005 RMK AO2 SLP174 T00940072 $
