2026/05/12 21:53
KLAX 122153Z 26009KT 10SM SCT023 BKN030 19/12 A3003 RMK AO2 SLP169 T01890122
