2025/03/30 13:53
KLAX 301353Z 27004KT 10SM -RA SCT021 BKN055 OVC080 13/09 A3004 RMK AO2 RAE1256B15 SLP171 P0001 T01280094 $
