2026/03/22 00:06
KLAX 220006Z 28010KT 1/2SM R25L/5000VP6000FT FG OVC002 17/16 A2989 RMK AO2 T01720156
