2022/12/15 21:53
KLAX 152153Z 28008KT 10SM FEW110 SCT160 BKN180 BKN250 14/06 A3009 RMK AO2 SLP188 T01440056 $
