2023/10/29 21:53
KLAX 292153Z 23011KT 10SM CLR 24/00 A3000 RMK AO2 SLP159 T02390000
