2022/10/28 09:53
KLAX 280953Z 00000KT 10SM CLR 16/13 A3008 RMK AO2 SLP185 T01560133 VISNO RWY24 $
