2024/03/28 19:53
KLAX 281953Z 25014KT 10SM FEW013 FEW016 16/11 A3007 RMK AO2 SLP181 T01560106 $
