2023/01/03 01:53
KLAX 030153Z 24005KT 10SM -RA BKN022 BKN031 OVC070 12/09 A3004 RMK AO2 SLP171 P0001 T01220089
