2026/01/01 21:53
KLAX 012153Z 26008KT 10SM FEW010 FEW060 SCT065 BKN150 18/14 A3005 RMK AO2 SLP175 T01780144 $
