2023/02/27 17:53
KLAX 271753Z 12012KT 10SM SCT031 BKN040 OVC048 12/07 A3016 RMK AO2 SLP213 T01170067 10117 20078 50005 $
