2023/05/30 01:53
KLAX 300153Z 26012KT 10SM FEW014 SCT180 17/13 A2996 RMK AO2 SLP144 T01670133 $
