2023/10/10 11:53
KLAX 101153Z 03004KT 10SM SCT011 SCT250 16/14 A2977 RMK AO2 SLP079 T01610144 10178 20156 56004
