2024/07/10 13:53
KLAX 101353Z 21003KT 8SM FEW004 SCT011 18/17 A2984 RMK AO2 SLP104 T01780167
