2025/02/04 03:53
KLAX 040353Z 24007KT 10SM FEW010 BKN200 13/11 A2991 RMK AO2 SLP127 T01330111 $
