2022/08/24 00:09
KLAX 240009Z 26011KT 9SM SCT010 SCT110 22/18 A2976 RMK AO2 T02220178 $
