2026/04/15 15:53
KLAX 151553Z 00000KT 10SM FEW009 FEW200 17/11 A3004 RMK AO2 SLP172 T01670111
