2026/06/25 08:53
KLAX 250853Z 24005KT 10SM FEW009 OVC011 17/14 A2995 RMK AO2 SLP141 T01670144 56003 $
