2024/07/26 21:53
KLAX 262153Z 27012KT 10SM FEW006 FEW110 22/16 A2989 RMK AO2 SLP119 T02170161
