2024/11/26 21:53
KLAX 262153Z 25009KT 10SM FEW003 BKN024 OVC033 17/13 A3008 RMK AO2 SLP184 T01720133
