2023/11/10 11:53
KLAX 101153Z 07003KT 10SM FEW200 FEW250 12/M05 A3002 RMK AO2 SLP163 T01171050 10183 20117 55001
