2023/12/24 13:53
KLAX 241353Z 09003KT 9SM FEW010 BKN048 13/12 A3014 RMK AO2 SLP204 T01280117 $
