2023/07/24 01:53
KLAX 240153Z 24010KT 10SM BKN150 BKN250 21/18 A2990 RMK AO2 SLP124 T02060178
