2024/04/07 11:53
KLAX 071153Z 10003KT 10SM CLR 08/04 A3012 RMK AO2 SLP197 T00830044 10122 20083 56012 $
