2024/07/09 09:53
KLAX 090953Z 00000KT 2 1/2SM BR FEW002 OVC005 18/16 A2981 RMK AO2 SLP093 VIS W-NW 1 T01780161 $
