2023/05/25 05:53
KLAX 250553Z 11005KT 10SM OVC025 16/11 A2991 RMK AO2 SLP126 T01610106 10178 20161 50001 $
