2024/07/11 19:53
KLAX 111953Z 26006KT 7SM SCT130 SCT180 23/18 A2991 RMK AO2 SLP127 T02280178
