2026/05/05 08:07
KLAX 050807Z 30008KT 10SM SCT027 BKN034 OVC065 16/11 A2996 RMK AO2 T01560111
