2026/02/12 13:53
KLAX 121353Z 03005KT 10SM FEW150 SCT200 BKN250 11/08 A3016 RMK AO2 SLP211 T01110083
