2025/03/16 07:53
KLAX 160753Z 09005KT 9SM CLR 11/08 A3016 RMK AO2 SLP209 T01060078 401610067 $
