2023/03/04 15:53
KLAX 041553Z 06004KT 10SM FEW009 BKN019 BKN250 11/08 A3000 RMK AO2 SLP156 T01060078 $
