2023/02/10 07:53
KLAX 100753Z VRB04KT 10SM CLR 17/01 A3019 RMK AO2 SLP219 T01670006 402440089 $
