2023/07/30 23:53
KLAX 302353Z 26012KT 10SM FEW100 FEW180 SCT250 24/19 A2985 RMK AO2 SLP108 T02440194 10267 20233 56030 $
