2022/09/28 07:53
KLAX 280753Z 25004KT 10SM CLR 22/17 A2989 RMK AO2 SLP118 T02170172 402720200
