2025/11/06 07:53
KLAX 060753Z 00000KT 10SM CLR 17/11 A3018 RMK AO2 SLP218 T01720106 402060156 $
