2025/01/24 17:53
KLAX 241753Z 04007KT 10SM SCT180 SCT250 19/01 A3011 RMK AO2 SLP195 T01940006 10194 20128 50002
