2026/05/10 17:53
KLAX 101753Z 26008KT 7SM FEW010 FEW015 21/14 A2994 RMK AO2 SLP137 T02060139 10211 20161 53004
