2024/02/23 03:53
KLAX 230353Z 18004KT 10SM CLR 14/13 A3015 RMK AO2 SLP208 T01390128
