2023/05/09 15:53
KLAX 091553Z VRB04KT 7SM SCT009 BKN019 OVC024 16/12 A3002 RMK AO2 SLP165 T01560117
