2025/04/14 17:53
KLAX 141753Z VRB04KT 8SM FEW021 SCT240 BKN300 16/11 A3001 RMK AO2 SLP160 T01610106 10167 20133 50006 $
