2024/09/03 01:53
KLAX 030153Z 25009KT 7SM BKN007 19/18 A2986 RMK AO2 SLP109 T01940178 $
