2024/04/23 09:53
KLAX 230953Z 29003KT 10SM FEW003 FEW006 OVC015 14/13 A2995 RMK AO2 SLP139 T01390128
