2024/06/08 11:53
KLAX 081153Z 00000KT 7SM OVC008 17/15 A2989 RMK AO2 CIG 007V011 SLP121 T01670150 10172 20161 56004 $
