2023/12/13 19:53
KLAX 131953Z 24007KT 10SM CLR 18/10 A3002 RMK AO2 SLP164 T01830100
