2023/01/20 21:53
KLAX 202153Z 22009KT 10SM FEW030 FEW055 15/07 A3018 RMK AO2 SLP219 T01500072
