2022/09/12 15:53
KLAX 121553Z VRB03KT 10SM FEW020 FEW050 SCT140 BKN250 26/20 A2998 RMK AO2 SLP149 T02560200 $
