2022/10/16 13:53
KLAX 161353Z 23004KT 10SM FEW010 FEW022 SCT031 18/16 A2997 RMK AO2 SLP147 T01780161 $
