2025/07/10 07:53
KLAX 100753Z 25004KT 10SM FEW008 FEW014 SCT250 17/16 A2993 RMK AO2 SLP133 T01720156 402390172 $
