2026/04/29 07:53
KLAX 290753Z 00000KT 10SM FEW250 15/12 A3005 RMK AO2 SLP174 T01500117 402060117 $
