2025/02/26 01:53
KLAX 260153Z 25003KT 10SM FEW100 16/12 A2989 RMK AO2 SLP121 T01610122 $
