2024/06/02 19:53
KLAX 021953Z 26009KT 10SM SCT022 OVC028 18/13 A2994 RMK AO2 SLP139 T01830128
