2025/01/28 15:53
KLAX 281553Z 09006KT 10SM FEW018 SCT120 BKN250 09/05 A3008 RMK AO2 SLP187 T00890050
