2025/02/20 19:53
KLAX 201953Z 26008KT 6SM HZ FEW009 SCT190 16/12 A3000 RMK AO2 SLP159 T01560122
