2025/10/03 19:53
KLAX 031953Z 26012G20KT 9SM FEW010 FEW025 22/15 A2999 RMK AO2 SLP154 T02220150 $
