2025/01/31 17:53
KLAX 311753Z 00000KT 9SM FEW060 BKN200 BKN280 13/06 A3031 RMK AO2 SLP262 T01330061 10139 20067 53016
