2023/12/15 07:53
KLAX 150753Z VRB03KT 10SM SCT280 16/00 A3016 RMK AO2 SLP209 T01560000 402390083 $
