2023/08/26 07:53
KLAX 260753Z 26004KT 10SM FEW010 19/16 A2995 RMK AO2 SLP139 T01890161 402280172
