2023/10/23 05:53
KLAX 230553Z 27012KT 10SM FEW014 BKN024 BKN075 18/15 A2978 RMK AO2 SLP082 T01780150 10200 20178 52003 $
