2023/07/25 11:53
KLAX 251153Z 27006KT 1 1/4SM BR FEW001 BKN002 BKN200 18/18 A2994 RMK AO2 SLP137 VIS SE 2 1/2 VIS NW 1/4 T01830178 10194 20183 58007 $
