2023/11/03 23:53
KLAX 032353Z 26009KT 10SM FEW002 FEW200 18/14 A3000 RMK AO2 SLP156 T01830139 10250 20183 55003
