2023/09/26 09:53
KLAX 260953Z 00000KT 10SM CLR 16/15 A3001 RMK AO2 SLP160 T01560150 $
