2023/11/07 01:53
KLAX 070153Z 26009KT 10SM OVC008 18/16 A2992 RMK AO2 SLP132 T01780161
