2022/12/17 09:53
KLAX 170953Z 01005KT 10SM SCT250 12/M05 A3007 RMK AO2 SLP181 T01171050 $
