2026/04/29 19:53
KLAX 291953Z 24013KT 10SM FEW160 20/11 A3000 RMK AO2 SLP158 T02000111
