2023/07/09 21:53
KLAX 092153Z 26012KT 10SM FEW010 21/15 A2993 RMK AO2 SLP134 T02110150
