2024/01/06 21:53
KLAX 062153Z 23009KT 10SM FEW015 BKN250 16/11 A3007 RMK AO2 SLP182 T01560106
