2025/08/21 07:53
KLAX 210753Z 00000KT 10SM FEW250 22/18 A2988 RMK AO2 SLP113 T02170183 402670189
