2026/07/19 18:53
KLAX 191853Z 24010KT 10SM FEW011 FEW120 25/18 A2995 RMK AO2 SLP140 T02500178 $
