2026/06/27 04:53
KLAX 270453Z 29008KT 10SM SCT012 17/14 A2997 RMK AO2 SLP145 T01720144
