2025/09/02 09:53
KLAX 020953Z 13004KT 9SM BKN008 BKN120 BKN160 21/19 A2990 RMK AO2 SLP122 T02110194 $
