2024/12/12 19:53
KLAX 121953Z 24008KT 10SM FEW019 BKN045 BKN060 OVC130 16/07 A2997 RMK AO2 SLP149 T01560067 $
