2025/03/14 19:53
KLAX 141953Z 09014KT 7SM -RA BKN019 OVC027 09/06 A3004 RMK AO2 RAE1859B10 SLP174 P0000 T00940061 $
