2022/12/06 05:53
KLAX 060553Z 02004KT 10SM FEW050 13/09 A3002 RMK AO2 SLP163 T01280089 10156 20122 51012 $
