2025/09/23 01:53
KLAX 230153Z 26010KT 10SM FEW009 FEW150 20/18 A2980 RMK AO2 SLP089 T02000178 $
