2023/07/27 21:53
KLAX 272153Z 25012KT 10SM FEW045 FEW100 26/18 A2989 RMK AO2 SLP120 T02560178 $
