2026/04/30 15:53
KLAX 301553Z 00000KT 9SM FEW009 OVC020 17/12 A2992 RMK AO2 SLP132 T01720122
