2025/05/10 15:53
KLAX 101553Z 23005KT 8SM FEW250 22/15 A2990 RMK AO2 SLP123 T02220150
