2023/06/27 15:53
KLAX 271553Z 24004KT 7SM FEW009 BKN016 BKN029 18/14 A2989 RMK AO2 SLP121 T01830139
