2026/06/21 09:53
KLAX 210953Z 25007KT 10SM CLR 16/14 A2990 RMK AO2 SLP121 T01610139
