2025/03/30 03:53
KLAX 300353Z 26006KT 10SM FEW035 FEW150 13/09 A3001 RMK AO2 SLP162 T01330094 $
