2022/10/13 07:53
KLAX 130753Z 19003KT 10SM OVC011 19/17 A3004 RMK AO2 SLP171 T01940172 402330189
