2026/04/20 11:53
KLAX 201153Z 26003KT 10SM SCT013 14/12 A2996 RMK AO2 SLP144 T01440122 10156 20144 56001
