2026/01/17 23:53
KLAX 172353Z 27007KT 10SM FEW250 SCT300 22/04 A3004 RMK AO2 SLP173 T02220044 10244 20206 55000 $
