2025/12/09 13:53
KLAX 091353Z 00000KT 10SM CLR 17/02 A3006 RMK AO2 SLP176 T01670022 $
