2026/06/04 07:26
KLAX 040726Z 00000KT 9SM FEW005 SCT009 BKN012 17/14 A2991 RMK AO2 T01670144 $
