2023/05/23 05:53
KLAX 230553Z 24006KT 9SM OVC006 15/14 A2995 RMK AO2 SLP140 T01500139 10172 20150 53012
