2025/05/18 09:53
KLAX 180953Z 00000KT 9SM BKN022 15/12 A2994 RMK AO2 SLP136 T01500117
