2025/07/28 02:53
KLAX 280253Z 27011KT 10SM FEW008 FEW011 SCT250 18/15 A2997 RMK AO2 SLP146 T01830150 55000
