2024/01/12 13:53
KLAX 121353Z 09005KT 10SM FEW250 06/M04 A3018 RMK AO2 SLP218 T00561044 $
