2025/07/21 02:53
KLAX 210253Z 28010KT 10SM BKN012 19/16 A2994 RMK AO2 SLP137 T01940161 53002 $
