2024/10/19 01:53
KLAX 190153Z 29014G22KT 10SM FEW250 21/09 A2992 RMK AO2 SLP130 T02110089
