2023/09/12 15:53
KLAX 121553Z 16003KT 8SM FEW010 FEW140 SCT160 22/18 A2991 RMK AO2 SLP127 T02220183 $
