2023/09/09 19:53
KLAX 091953Z 27010KT 10SM FEW100 SCT150 26/18 A2997 RMK AO2 SLP147 T02560183
