2023/12/20 15:53
KLAX 201553Z 11007KT 6SM BR OVC006 16/15 A2988 RMK AO2 DZE18RAB18E38 CIG 004V010 SLP116 P0005 T01560150
