2025/05/15 15:53
KLAX 151553Z 00000KT 8SM FEW019 FEW180 17/11 A3001 RMK AO2 SLP160 T01670111 $
