2023/08/06 21:53
KLAX 062153Z 24012G18KT 9SM FEW009 23/18 A2994 RMK AO2 SLP138 T02330183 
