2024/03/29 11:53
KLAX 291153Z 08003KT 10SM FEW010 BKN020 11/08 A2995 RMK AO2 SLP140 T01060083 10128 20106 56009 $
