2024/04/07 09:53
KLAX 070953Z 00000KT 10SM CLR 09/05 A3013 RMK AO2 SLP201 T00940050 $
