2024/04/04 01:53
KLAX 040153Z 24011KT 10SM FEW010 FEW050 14/11 A3002 RMK AO2 SLP165 T01440111
