2025/03/29 15:53
KLAX 291553Z 12005KT 9SM SCT015 BKN055 14/11 A2998 RMK AO2 SLP150 T01440106 $
