2025/02/13 21:53
KLAX 132153Z 18010KT 2 1/2SM -RA BR BKN007 OVC014 14/14 A2994 RMK AO2 SLP137 VIS SW-W 1 3/4 P0010 T01440139
