2025/03/04 19:53
KLAX 041953Z VRB03KT 10SM FEW140 FEW180 17/07 A3017 RMK AO2 SLP217 T01720072 $
