2024/09/26 01:53
KLAX 260153Z 26010KT 10SM FEW015 17/14 A2981 RMK AO2 SLP092 T01720139 $
