2024/11/02 13:53
KLAX 021353Z 04005KT 10SM SCT014 BKN025 14/11 A2994 RMK AO2 SLP138 T01390106 $
