2023/12/27 15:53
KLAX 271553Z 09004KT 8SM FEW009 SCT180 BKN250 13/09 A3016 RMK AO2 SLP212 T01280094 $
