2023/07/30 19:53
KLAX 301953Z 14010G15KT 100V170 10SM FEW016 SCT180 BKN280 26/19 A2996 RMK AO2 SLP143 T02560189 $
