2026/02/15 15:53
KLAX 151553Z 09003KT 8SM FEW013 FEW100 SCT170 SCT240 BKN280 13/11 A3004 RMK AO2 SLP170 T01330111 $
