2025/08/21 19:53
KLAX 211953Z 26010KT 10SM SCT140 BKN180 BKN250 28/16 A2985 RMK AO2 SLP108 T02830161
