2024/03/31 15:53
KLAX 311553Z 08012G19KT 10SM FEW013 SCT029 BKN060 BKN170 11/09 A2980 RMK AO2 SLP090 T01110089
