2023/10/18 07:53
KLAX 180753Z 12004KT 7SM FEW004 SCT006 18/17 A2989 RMK AO2 SLP119 T01780172 402220167 $
