2024/01/27 21:53
KLAX 272153Z 29007KT 10SM SCT250 22/07 A3011 RMK AO2 SLP197 T02170072 $
