2023/05/08 17:53
KLAX 081753Z 20009G16KT 10SM SCT024 19/12 A3006 RMK AO2 SLP177 T01890122 10194 20144 51004
