2023/04/10 09:53
KLAX 100953Z 17003KT 1 1/2SM BCFG BR FEW000 SCT003 12/12 A3004 RMK AO2 SLP170 VIS W 3/4 FG FEW000 T01220117
