2024/11/20 17:53
KLAX 201753Z VRB03KT 10SM FEW014 FEW250 19/M03 A3022 RMK AO2 SLP233 T01941028 10194 20106 51017 $
