2024/10/05 19:53
KLAX 051953Z 27009KT 3SM HZ OVC007 20/17 A2996 RMK AO2 SLP145 VIS W-N 1 T02000167
