2023/10/23 13:53
KLAX 231353Z 06005KT 10SM FEW010 BKN020 BKN030 17/14 A2975 RMK AO2 SLP072 T01720144 $
