2025/03/22 11:53
KLAX 221153Z 07003KT 10SM CLR 12/11 A2998 RMK AO2 SLP149 T01170106 10144 20111 55013 $
