2024/10/17 12:53
KLAX 171253Z 00000KT 10SM FEW008 BKN018 OVC030 18/15 A2986 RMK AO2 SLP111 T01780150 $
