2024/12/11 23:53
KLAX 112353Z 27010KT 10SM BKN200 BKN250 17/06 A3000 RMK AO2 SLP159 T01670061 10222 20167 56017 $
