2025/10/13 15:53
KLAX 131553Z 10012KT 10SM SCT024 BKN030 BKN042 18/12 A2977 RMK AO2 SLP078 T01830117 $
