2023/10/02 13:53
KLAX 021353Z 09004KT 10SM FEW014 SCT160 13/11 A2997 RMK AO2 SLP147 T01280106 $
