2024/12/23 09:53
KLAX 230953Z 06006KT 3/4SM R25L/P6000FT BR VV002 13/12 A3013 RMK AO2 SLP200 VIS 1/4V1 1/4 T01280122
