2024/09/27 17:53
KLAX 271753Z 23007KT 4SM HZ FEW007 OVC011 18/14 A2990 RMK AO2 SLP124 T01780144 10183 20161 50005
