2024/10/18 09:53
KLAX 180953Z 28004KT 10SM FEW010 SCT028 17/14 A2984 RMK AO2 SLP101 T01670139
