2023/09/11 07:53
KLAX 110753Z 33004KT 10SM CLR 22/18 A2990 RMK AO2 SLP123 T02170178 403060206
