2022/11/08 11:53
KLAX 081153Z 07006KT 3SM BR FEW004 FEW008 OVC030 14/13 A2986 RMK AO2 RAE51 PRESFR SLP110 VIS N 2 1/2 P0002 60003 70005 T01390133 10150 20139 58026
