2023/04/17 19:53
KLAX 171953Z 24010KT 8SM FEW012 BKN028 17/11 A2999 RMK AO2 SLP154 T01670106
