2024/07/12 05:53
KLAX 120553Z 25004KT 2SM BR VV003 18/17 A2988 RMK AO2 SLP114 VIS 1/2V3 CIG 002V004 T01780167 10217 20178 51013 $
