2025/11/22 15:53
KLAX 221553Z 14003KT 10SM FEW065 SCT110 BKN130 BKN220 13/08 A2994 RMK AO2 SLP138 T01330083 $
