2026/04/21 19:53
KLAX 211953Z 23008KT 8SM FEW011 BKN030 BKN140 18/11 A3005 RMK AO2 SLP176 T01830111 $
