2026/06/13 20:13
KLAX 132013Z 26012G19KT 8SM FEW009 SCT011 22/16 A2993 RMK AO2 T02220161 $
