2025/03/27 09:53
KLAX 270953Z 25007KT 10SM FEW012 OVC032 14/12 A3006 RMK AO2 SLP177 T01390117 $
