2023/04/30 19:53
KLAX 301953Z 25008KT 4SM BR OVC007 15/13 A2993 RMK AO2 SLP134 T01500128
