2023/05/28 21:53
KLAX 282153Z 24010KT 10SM FEW009 OVC030 17/14 A2995 RMK AO2 CIG 008 RWY24 SLP140 T01720139
