2025/08/11 05:53
KLAX 110553Z 24005KT 10SM FEW008 18/16 A2996 RMK AO2 SLP143 T01780156 10211 20178 51008 $
