2023/10/23 03:53
KLAX 230353Z 23009KT 10SM SCT016 BKN023 BKN070 18/16 A2977 RMK AO2 SLP080 T01830161 $
