2023/05/11 15:53
KLAX 111553Z VRB03KT 9SM SCT014 BKN028 17/11 A3003 RMK AO2 SLP168 T01670106
