2025/03/19 17:53
KLAX 191753Z 06006KT 10SM FEW250 21/01 A3030 RMK AO2 SLP261 T02060011 10206 20083 50009
