2023/09/06 05:53
KLAX 060553Z 27005KT 10SM BKN028 20/17 A2993 RMK AO2 SLP134 T02000167 10217 20200 51006 $
