2023/07/13 07:53
KLAX 130753Z 25007KT 10SM FEW220 18/14 A2997 RMK AO2 SLP145 T01830139 402440150 $
