2023/02/21 13:53
KLAX 211353Z 00000KT 10SM FEW006 FEW014 SCT160 11/08 A2989 RMK AO2 SLP118 T01060078 $
