2023/09/28 01:53
KLAX 280153Z 26008KT 10SM FEW008 FEW250 19/18 A2985 RMK AO2 SLP107 T01940178 $
