2024/05/22 11:53
KLAX 221153Z 00000KT 8SM OVC010 14/12 A2995 RMK SLP140 T01390117 10144 20139 55002 
