2026/04/15 09:53
KLAX 150953Z 07003KT 10SM FEW008 14/12 A3002 RMK AO2 SLP165 T01440122
