2026/02/04 11:53
KLAX 041153Z 00000KT 10SM CLR 13/03 A3014 RMK AO2 SLP204 T01280028 10172 20128 56005 $
