2025/02/04 19:53
KLAX 041953Z 24009G18KT 10SM FEW015 SCT029 SCT140 17/09 A3002 RMK AO2 SLP164 T01670089
