2024/06/22 23:53
KLAX 222353Z 27009KT 10SM FEW008 FEW090 22/16 A2982 RMK AO2 SLP097 T02170161 10228 20211 56003
