2024/11/28 01:53
KLAX 280153Z 26007KT 3/4SM R25L/3000VP6000FT BR OVC002 14/13 A3000 RMK AO2 SLP158 T01390133 $
