2025/08/22 21:53
KLAX 222153Z 23011KT 10SM FEW110 FEW190 SCT220 SCT270 27/17 A2983 RMK AO2 SLP099 CCSL DSNT NE TCU DSNT NW T02720172
