2024/02/12 09:53
KLAX 120953Z 07003KT 10SM FEW010 08/03 A3017 RMK AO2 SLP213 T00780028 $
