2023/05/01 11:53
KLAX 011153Z 17004KT 5SM BR FEW002 BKN006 OVC010 14/13 A2984 RMK AO2 SLP102 VIS N 2 60004 70004 T01390128 10144 20133 56006
