2022/10/30 13:53
KLAX 301353Z 06004KT 10SM SCT005 SCT200 15/08 A3000 RMK AO2 SLP158 T01500083 CHINO RWY24 VISNO RWY24 $
