2026/06/28 12:30
KLAX 281230Z 25004KT 10SM SCT022 OVC032 18/14 A2991 RMK AO2 T01780139
