2024/04/02 11:53
KLAX 021153Z 00000KT 10SM FEW008 12/08 A3018 RMK AO2 SLP217 T01170083 10144 20100 53007
