2024/01/17 17:53
KLAX 171753Z VRB04KT 4SM HZ FEW009 BKN015 OVC022 14/11 A3007 RMK AO2 SLP181 T01390111 10139 20128 53015
