2025/12/29 23:53
KLAX 292353Z VRB04KT 10SM FEW250 23/M03 A3007 RMK AO2 SLP181 T02281028 10239 20172 56009 $
