2023/04/08 11:53
KLAX 081153Z 08003KT 8SM BKN008 11/10 A3004 RMK AO2 SLP170 T01110100 10133 20111 55004
