2026/06/30 02:53
KLAX 300253Z 26008KT 10SM FEW010 FEW030 18/14 A2989 RMK AO2 SLP119 T01830139 53003 $
