2023/03/25 21:53
KLAX 252153Z 25016KT 10SM FEW040 16/05 A3005 RMK AO2 SLP177 T01560050
