2024/11/07 07:53
KLAX 070753Z 00000KT 10SM CLR 15/M07 A3004 RMK AO2 SLP168 T01501072 402560128 $
