2023/04/05 11:53
KLAX 051153Z 00000KT 10SM FEW200 10/04 A3011 RMK AO2 SLP194 T01000039 10139 20089 55003 $
