2026/06/10 12:53
KLAX 101253Z 13003KT 10SM FEW008 FEW011 18/16 A2983 RMK AO2 SLP098 T01780161
