2022/11/20 17:53
KLAX 201753Z 04004KT 10SM FEW300 22/M08 A3020 RMK AO2 SLP225 T02171078 10217 20106 50010 $
