2022/09/09 05:53
KLAX 090553Z 13007KT 10SM BKN150 27/18 A2956 RMK AO2 SLP006 WSHFT 46 T02720183 10306 20261 58005
