2023/03/10 15:53
KLAX 101553Z 09008KT 2 1/2SM -RA BR SCT007 OVC012 11/10 A3009 RMK AO2 SLP187 P0002 T01060100 $
