2024/11/23 23:53
KLAX 232353Z 00000KT 10SM BKN013 OVC020 15/12 A2997 RMK AO2 SLP147 60000 T01500122 10161 20144 56010
