2024/04/28 07:53
KLAX 280753Z VRB04KT 10SM CLR 14/11 A3001 RMK AO2 SLP161 T01440106 401940117
