2023/02/07 19:53
KLAX 071953Z 24009KT 10SM CLR 19/M01 A3027 RMK AO2 SLP250 T01891006 $
