2023/07/26 15:53
KLAX 261553Z VRB03KT 7SM FEW009 SCT095 SCT140 BKN250 25/19 A2994 RMK AO2 SLP137 T02500189 $
