2024/12/24 09:53
KLAX 240953Z 10003KT 2SM BR FEW001 SCT220 BKN280 11/10 A3008 RMK AO2 SLP182 VIS 1V3 T01110100 $
