2025/12/03 23:53
KLAX 032353Z 25007KT 10SM FEW250 17/11 A3001 RMK AO2 SLP163 T01720111 10439 20172 55003
