2024/10/19 07:53
KLAX 190753Z 11006KT 10SM FEW270 17/09 A2999 RMK AO2 SLP154 T01670094 402890150
