2023/10/27 21:53
KLAX 272153Z 24012KT 10SM FEW034 21/14 A2997 RMK AO2 SLP147 T02060144
