2024/08/18 05:53
KLAX 180553Z 25007KT 10SM SCT012 20/17 A2992 RMK AO2 SLP130 T02000172 10233 20194 52008 $
