2026/06/07 03:08
KLAX 070308Z 27010KT 10SM FEW011 BKN022 BKN280 18/14 A2983 RMK AO2 T01830144 $
