2023/06/29 11:53
KLAX 291153Z 09005KT 10SM FEW008 OVC012 17/13 A2990 RMK AO2 SLP122 T01670133 10167 20156 50002
