2025/01/30 05:53
KLAX 300553Z 19003KT 10SM FEW020 12/08 A3017 RMK AO2 SLP286 T01220083 10144 20111 53010 $
