2025/03/27 07:53
KLAX 270753Z 22006KT 10SM FEW024 OVC032 14/11 A3007 RMK AO2 SLP180 T01390111 401610128 $
