2022/09/20 07:53
KLAX 200753Z 26007KT 10SM FEW016 21/17 A2989 RMK AO2 SLP118 T02060172 402500178 $
