2024/05/06 13:53
KLAX 061353Z 08005KT 10SM FEW015 FEW140 BKN180 13/09 A3003 RMK AO2 SLP166 T01280089 $
