2025/10/22 23:53
KLAX 222353Z 25016KT 10SM FEW015 FEW040 19/13 A3001 RMK AO2 SLP159 T01940128 10211 20194 56008
