2024/06/27 03:53
KLAX 270353Z 26008KT 10SM FEW008 18/15 A2991 RMK AO2 SLP127 T01780150
