2024/01/17 09:53
KLAX 170953Z 11004KT 8SM BKN008 OVC014 13/12 A3006 RMK AO2 SLP177 T01280117
