2023/02/14 17:53
KLAX 141753Z 22008KT 10SM SCT027 BKN036 BKN042 12/06 A2993 RMK AO2 SLP134 T01220061 10122 20111 58002 $
