2024/07/27 01:53
KLAX 270153Z 27012KT 9SM FEW005 FEW110 19/15 A2984 RMK AO2 SLP104 T01940150
