2024/11/09 07:53
KLAX 090753Z 09006KT 10SM CLR 13/08 A3001 RMK AO2 SLP161 T01280083 402280089
