2026/04/27 21:53
KLAX 272153Z 26012KT 10SM FEW030 FEW090 18/08 A3002 RMK AO2 SLP163 T01830078
