2023/09/12 13:53
KLAX 121353Z 00000KT 7SM SCT007 SCT100 BKN150 19/18 A2990 RMK AO2 SLP122 T01890183 $
