2023/03/15 02:04
KLAX 150204Z 10010KT 3SM RA BR BKN005 BKN014 OVC022 13/13 A2999 RMK AO2 VIS 2 RWY24 CIG 004V008 P0002 T01330128 $
