2026/05/23 09:53
KLAX 230953Z 10004KT 10SM OVC019 17/12 A2991 RMK AO2 SLP126 T01670122
