2023/04/03 01:53
KLAX 030153Z 23007KT 10SM FEW014 14/11 A2999 RMK AO2 SLP153 T01390111 $
