2023/03/29 17:53
KLAX 291753Z 28007KT 7SM FEW007 SCT016 BKN070 13/10 A2997 RMK AO2 RAE1656 SLP146 P0000 60061 T01280100 10128 20094 51013
