2025/06/10 02:14
KLAX 100214Z 27009KT 8SM BKN011 18/14 A2990 RMK AO2 T01780144 $
