2022/09/08 21:53
KLAX 082153Z 29013KT 10SM FEW090 SCT150 SCT250 36/16 A2969 RMK AO2 SLP053 T03560161
