2025/02/19 09:53
KLAX 190953Z 00000KT 8SM FEW200 SCT250 12/11 A3005 RMK AO2 SLP176 T01170106 $
