2023/04/11 03:53
KLAX 110353Z 25003KT 1 1/2SM BR OVC003 13/12 A3005 RMK AO2 SLP174 T01280117
