2022/08/26 21:53
KLAX 262153Z 27012G18KT 10SM FEW007 SCT019 SCT050 24/18 A2991 RMK AO2 SLP128 T02440183 $
