2026/05/06 06:53
KLAX 060653Z 19007KT 10SM FEW020 FEW050 SCT150 16/12 A3004 RMK AO2 SLP172 T01560122
