2023/10/26 01:53
KLAX 260153Z 27006KT 10SM BKN015 BKN022 18/15 A3000 RMK AO2 SLP157 T01830150 $
