2025/08/30 17:53
KLAX 301753Z 25007KT 10SM CLR 26/17 A2995 RMK AO2 SLP140 T02560172 10256 20200 50001 $
