2025/12/05 01:53
KLAX 050153Z 26009KT 10SM SCT250 17/08 A3012 RMK AO2 SLP199 T01670083 $
