2026/01/23 11:53
KLAX 231153Z 08004KT 9SM FEW012 BKN080 BKN180 13/12 A2993 RMK AO2 SLP133 T01280117 10150 20128 58006 $
