2023/05/20 13:53
KLAX 201353Z VRB04KT 6SM BR OVC010 16/14 A3007 RMK AO2 SLP182 T01610144
