2024/07/03 13:53
KLAX 031353Z 29004KT 1/2SM R25L/P6000FT FG OVC002 16/16 A2986 RMK AO2 SLP111 VIS SE 3/4 T01610156 $
