2024/12/23 19:53
KLAX 231953Z 17005KT 5SM HZ FEW009 FEW100 BKN140 16/12 A3012 RMK AO2 SLP199 T01610117
