2026/01/21 17:53
KLAX 211753Z 22003KT 2SM BR FEW009 SCT120 OVC140 15/12 A3013 RMK AO2 SLP201 T01500122 10150 20128 53017
