2024/12/24 11:53
KLAX 241153Z 28010KT 1/4SM R25L/1600VP6000FT FG BKN001 12/12 A3008 RMK AO2 SLP185 T01220117 10133 20106 53000 $
