2023/08/19 15:53
KLAX 191553Z 12003KT 10SM FEW011 SCT060 SCT180 21/16 A2985 RMK AO2 SLP108 T02060161 $
