2026/05/22 15:53
KLAX 221553Z 25006KT 9SM FEW010 OVC022 18/13 A2987 RMK AO2 SLP114 T01780128
