2022/11/13 01:53
KLAX 130153Z 26011KT 10SM CLR 16/07 A3002 RMK AO2 SLP164 T01560072 $
