2023/05/24 19:53
KLAX 241953Z 23009KT 9SM FEW009 SCT018 BKN027 18/12 A2996 RMK AO2 SLP145 T01830122 $
