2025/09/26 13:53
KLAX 261353Z 11011KT 7SM FEW006 SCT014 OVC029 19/17 A2990 RMK AO2 SLP122 T01940167 $
