2025/08/21 13:53
KLAX 211353Z 00000KT 9SM FEW140 FEW180 SCT200 21/18 A2987 RMK AO2 SLP112 T02110183
