2023/01/28 19:53
KLAX 281953Z VRB05KT 10SM FEW025 16/08 A2999 RMK AO2 SLP155 T01610078 $
