2025/01/18 01:53
KLAX 180153Z 25006KT 10SM FEW025 12/07 A3018 RMK AO2 SLP220 T01220072
