2025/06/28 15:53
KLAX 281553Z 00000KT 4SM HZ FEW013 19/14 A3002 RMK AO2 SLP164 T01940144 $
