2023/06/13 15:53
KLAX 131553Z 23006KT 10SM FEW009 FEW016 OVC036 18/13 A3005 RMK AO2 SLP175 T01780133
