2026/02/18 15:53
KLAX 181553Z 27020G26KT 10SM FEW055 FEW070 SCT095 SCT190 12/03 A2999 RMK AO2 PK WND 25035/1513 SLP152 T01170033
