2025/11/11 19:53
KLAX 111953Z 24008KT 3SM BR SCT005 BKN060 BKN160 18/15 A3007 RMK AO2 SLP181 VIS 1 1/2V4 VIS N-NE 5 VIS SW-NW 1/2 SCT V BKN T01780150 $
