2022/09/23 07:53
KLAX 230753Z 00000KT 10SM CLR 21/18 A2991 RMK AO2 SLP126 T02060178 402670167
