2025/06/06 21:53
KLAX 062153Z 27013KT 10SM FEW012 BKN018 20/13 A2992 RMK AO2 SLP130 T02000133
