2024/07/28 19:53
KLAX 281953Z 24010KT 10SM CLR 23/15 A2994 RMK AO2 SLP138 T02330150
