2026/02/21 05:53
KLAX 210553Z 36003KT 10SM CLR 12/02 A3010 RMK AO2 SLP192 T01170017 10133 20106 51011 $
