2025/02/04 11:53
KLAX 041153Z 09005KT 10SM FEW007 FEW015 SCT200 SCT250 11/09 A2994 RMK AO2 SLP137 T01060089 10139 20100 56004 $
