2025/12/24 18:02
KLAX 241802Z 24016G22KT 2SM RA BR BKN006 BKN013 OVC020 15/14 A2993 RMK AO2 P0004 T01500144 $
