2023/11/27 21:53
KLAX 272153Z 08004KT 10SM FEW220 BKN260 23/M05 A3003 RMK AO2 SLP168 T02281050 $
