2024/11/16 15:53
KLAX 161553Z 00000KT 10SM FEW080 FEW110 12/02 A2995 RMK AO2 SLP142 T01170017 $
