2025/02/11 03:53
KLAX 110353Z 26004KT 10SM FEW028 OVC035 13/09 A3002 RMK AO2 CIG 028 RWY24 SLP165 T01330094 $
