2024/02/15 11:53
KLAX 151153Z 07003KT 10SM FEW012 FEW160 BKN220 BKN280 10/08 A3019 RMK AO2 SLP222 T01000078 10128 20094 53003 $
