2026/04/27 07:53
KLAX 270753Z 27009KT 10SM FEW020 BKN060 16/09 A3000 RMK AO2 SLP156 T01560089 401890128 $
