2023/11/09 19:53
KLAX 091953Z 22008KT 10SM FEW280 25/M07 A3006 RMK AO2 SLP177 T02501067
