2025/04/26 07:53
KLAX 260753Z 27010KT 10SM FEW033 BKN060 13/08 A2996 RMK AO2 SLP144 T01330078 401780128
