2026/07/01 14:53
KLAX 011453Z 00000KT 10SM FEW010 SCT019 OVC030 18/14 A2992 RMK AO2 SLP131 T01830139 53007 $
