2026/02/26 21:53
KLAX 262153Z 26007KT 10SM FEW080 FEW140 SCT180 SCT250 20/14 A2999 RMK AO2 SLP155 T02000139
