2024/09/12 15:53
KLAX 121553Z VRB04KT 8SM FEW009 OVC022 20/14 A2976 RMK AO2 SLP076 T02000144
