2024/08/15 13:53
KLAX 151353Z VRB04KT 10SM FEW011 19/17 A2993 RMK AO2 SLP133 T01940172 $
