2025/12/11 01:53
KLAX 110153Z 25005KT 10SM CLR 19/09 A3000 RMK AO2 SLP157 T01890094 $
