2025/08/03 22:53
KLAX 032253Z 25013KT 10SM FEW250 23/16 A2996 RMK AO2 SLP142 T02280161 $
