2024/05/02 17:53
KLAX 021753Z 00000KT 9SM OVC018 17/13 A2994 RMK AO2 SLP137 T01670128 10167 20150 51006 $
