2024/11/27 11:53
KLAX 271153Z 26004KT 3/4SM R25L/P6000FT BR FEW001 BKN002 OVC006 15/15 A3004 RMK AO2 SLP170 VIS 1/2V1 1/2 6//// 7//// T01500150 10161 20144 58007 $
