2024/01/04 17:53
KLAX 041753Z 01010G20KT 10SM FEW065 SCT160 BKN180 BKN250 14/02 A3014 RMK AO2 PK WND 34026/1719 SLP206 T01390017 10144 20111 51007
