2022/10/01 11:53
KLAX 011153Z 06004KT 10SM OVC026 20/14 A2985 RMK AO2 SLP105 T02000139 10206 20194 58001
