2024/01/26 23:53
KLAX 262353Z 27007KT 10SM FEW220 SCT280 18/08 A3018 RMK AO2 SLP221 T01830078 10211 20161 53001 $
