2022/11/03 15:53
KLAX 031553Z 33006KT 10SM FEW040 SCT070 13/02 A3006 RMK AO2 SLP179 T01330022 VISNO RWY24 $
