2024/08/21 11:53
KLAX 211153Z 00000KT 10SM CLR 19/17 A2993 RMK AO2 SLP133 T01890172 10211 20183 50002
