2022/11/26 19:53
KLAX 261953Z 13003KT 10SM FEW200 21/01 A3009 RMK AO2 SLP188 T02060006 $
