2023/01/24 09:53
KLAX 240953Z 00000KT 10SM CLR 09/M01 A3020 RMK AO2 SLP225 T00891011 $
