2023/07/05 13:53
KLAX 051353Z 24004KT 7SM FEW008 OVC015 16/13 A2997 RMK AO2 SLP146 T01560128 $
