2025/12/19 13:53
KLAX 191353Z 06003KT 2SM R25L/1400V3500FT BCFG BR SCT000 SCT002 11/11 A3000 RMK AO2 SLP156 VIS 1V3 VIS E-SE 1/4 FG SCT000 FG BANK E-SW T01060106 $
