2025/07/21 05:53
KLAX 210553Z 26006KT 10SM OVC012 19/16 A2998 RMK AO2 SLP150 T01890161 10217 20189 51012 $
