2024/08/29 07:59
KLAX 290759Z 00000KT 9SM SCT012 18/16 A2996 RMK AO2 T01780156
