2026/04/29 04:53
KLAX 290453Z 24008KT 10SM CLR 16/10 A3004 RMK AO2 SLP172 T01610100 $
