2025/08/27 14:34
KLAX 271434Z 27007KT 7SM BKN006 BKN008 20/18 A3003 RMK AO2 T02000178 $
