2023/01/22 21:53
KLAX 222153Z 23005KT 10SM FEW026 SCT220 SCT280 16/05 A2990 RMK AO2 SLP126 T01560050 $
