2024/02/25 21:53
KLAX 252153Z 21006KT 10SM FEW200 SCT240 BKN270 17/11 A3003 RMK AO2 SLP169 T01720111 $
