2025/05/31 09:53
KLAX 310953Z 00000KT 7SM FEW007 OVC010 17/15 A2994 RMK AO2 SLP136 T01720150 $
