2023/12/22 23:53
KLAX 222353Z 26007KT 10SM FEW032 SCT046 BKN150 18/13 A2987 RMK AO2 SLP113 T01830128 10206 20167 55007
