2025/02/21 19:53
KLAX 211953Z 26011KT 6SM HZ FEW000 FEW240 SCT280 18/13 A3008 RMK AO2 SLP186 VIS W 2 FG FEW000 T01780133
