2023/10/20 17:53
KLAX 201753Z 22006KT 9SM FEW035 22/17 A2993 RMK AO2 SLP134 T02220167 10228 20172 50002
