2025/06/19 07:53
KLAX 190753Z 15005KT 10SM FEW011 19/16 A2983 RMK AO2 SLP097 T01890161 402440172 $
