2022/10/29 21:53
KLAX 292153Z 25011KT 10SM FEW300 21/12 A3004 RMK AO2 SLP171 T02110122 VISNO RWY24 $
