2023/05/04 03:53
KLAX 040353Z 18005KT 10SM FEW026 SCT040 BKN120 14/08 A2988 RMK AO2 SLP116 T01390078
