2025/02/14 02:09
KLAX 140209Z 24010G18KT 220V280 10SM -RA BKN008 OVC017 14/13 A2995 RMK AO2 WSHFT 0150 P0001 T01440133 $
