2025/10/11 15:53
KLAX 111553Z VRB03KT 10SM FEW007 18/16 A2981 RMK AO2 SLP093 T01830156 $
