2022/12/16 03:53
KLAX 160353Z 25004KT 10SM OVC200 13/08 A3010 RMK AO2 SLP193 T01330078
