2022/10/25 07:53
KLAX 250753Z VRB04KT 10SM CLR 16/07 A3015 RMK AO2 SLP207 T01560067 402390122
