2025/04/06 07:53
KLAX 060753Z 11005KT 10SM CLR 15/05 A3019 RMK AO2 SLP221 T01500050 402390094 $
