2023/09/19 07:53
KLAX 190753Z 00000KT 10SM FEW010 18/16 A2995 RMK AO2 SLP139 T01830161 402610167 $
