2025/06/03 15:53
KLAX 031553Z 26007KT 8SM SCT005 OVC009 17/14 A2999 RMK AO2 SLP153 T01670139 $
