2025/03/11 05:53
KLAX 110553Z 12004KT 10SM SCT160 BKN220 OVC250 13/04 A2990 RMK AO2 SLP123 T01330044 10167 20133 50004
