2023/09/17 01:53
KLAX 170153Z 27009KT 10SM OVC012 19/17 A2996 RMK AO2 SLP143 T01940172 $
