2025/10/20 11:53
KLAX 201153Z 12003KT 9SM FEW007 16/13 A3002 RMK AO2 SLP162 T01560133 10189 20150 55003
