2022/09/25 23:53
KLAX 252353Z 26015KT 10SM FEW110 FEW250 24/17 A2991 RMK AO2 SLP128 T02390167 10256 20239 56015
