2023/12/09 17:53
KLAX 091753Z 08003KT 10SM FEW100 FEW140 SCT160 SCT280 19/M03 A3024 RMK AO2 SLP240 T01891028 10189 20106 53025 $
