2025/06/24 19:53
KLAX 241953Z 24009KT 9SM BKN018 BKN025 19/14 A3002 RMK AO2 SLP163 T01940144
