2024/08/19 13:53
KLAX 191353Z 09003KT 10SM CLR 19/17 A2995 RMK AO2 SLP137 T01940172
