2024/02/29 01:53
KLAX 290153Z 23009KT 10SM FEW009 FEW070 14/13 A3002 RMK AO2 SLP167 T01440128
