2023/08/26 17:53
KLAX 261753Z 25007KT 9SM FEW006 22/17 A2996 RMK AO2 SLP143 T02170167 10217 20172 52002
