2023/04/26 17:53
KLAX 261753Z 24009KT 7SM FEW009 BKN014 18/13 A3000 RMK AO2 SLP159 T01780133 10183 20144 53007 $
