2026/06/13 17:53
KLAX 131753Z 25008KT 10SM SCT010 21/16 A2992 RMK AO2 SLP132 T02110161 10211 20178 53013 $
