2025/08/28 01:53
KLAX 280153Z 24007KT 10SM FEW110 FEW160 SCT190 SCT230 22/17 A3001 RMK AO2 SLP159 T02220172 $
