2024/12/12 21:53
KLAX 122153Z 24009KT 10SM FEW023 BKN034 OVC041 14/09 A2995 RMK AO2 SLP142 T01440094
