2022/09/14 09:53
KLAX 140953Z 09003KT 10SM FEW012 FEW120 SCT160 21/17 A2985 RMK AO2 SLP104 T02060172 $
