2024/06/26 02:00
KLAX 260200Z 26011KT 10SM FEW009 19/16 A2993 RMK AO2 T01890156
