2023/01/29 11:53
KLAX 291153Z 08005KT 10SM CLR 11/07 A2994 RMK AO2 SLP137 T01060072 10128 20106 57009 $
