2024/11/19 11:53
KLAX 191153Z 01003KT 10SM FEW007 FEW012 SCT200 11/01 A3004 RMK AO2 SLP172 T01060011 10144 20106 51005 $
