2022/10/24 11:53
KLAX 241153Z 00000KT 10SM CLR 14/10 A3004 RMK AO2 SLP170 T01440100 10172 20144 53006
