2026/03/05 21:53
KLAX 052153Z 33011G26KT 10SM CLR 24/M03 A2990 RMK AO2 PK WND 31029/2143 SLP124 T02391028
