2025/10/17 07:53
KLAX 170753Z 09003KT 10SM CLR 16/13 A2989 RMK AO2 SLP120 T01610133 402280122 $
