2023/03/24 11:53
KLAX 241153Z 33010KT 10SM FEW050 FEW250 12/02 A3020 RMK AO2 SLP224 T01220017 10139 20117 58007
