2024/11/08 13:53
KLAX 081353Z 08003KT 10SM CLR 11/M04 A3014 RMK AO2 SLP203 T01061044 $
