2025/04/25 05:53
KLAX 250553Z 27008KT 10SM SCT015 SCT038 BKN250 14/11 A2995 RMK AO2 SLP142 T01390106 10167 20139 53006
