2024/12/04 09:53
KLAX 040953Z 07003KT 1SM R25L/P6000FT BR VV003 13/12 A3017 RMK AO2 SLP214 VIS 1/4V1 1/2 T01280117
