2025/12/10 09:53
KLAX 100953Z 12004KT 10SM CLR 13/06 A3002 RMK AO2 SLP163 T01280061 $
