2025/09/07 21:53
KLAX 072153Z 27011KT 10SM FEW110 26/19 A3002 RMK AO2 SLP164 T02560189 $
