2023/04/13 03:53
KLAX 130353Z 26008KT 5SM -RA BR BKN006 OVC013 13/12 A2981 RMK AO2 SLP094 P0001 T01280122 $
