2025/06/12 11:53
KLAX 121153Z 07004KT 6SM BR FEW007 OVC010 17/15 A2985 RMK AO2 SLP107 T01720150 10172 20167 56005 $
