2025/09/15 01:53
KLAX 150153Z 23009KT 10SM FEW011 20/17 A2982 RMK AO2 SLP095 T02000172 $
