2024/05/23 23:53
KLAX 232353Z 25010KT 10SM FEW016 SCT039 18/12 A2993 RMK AO2 SLP132 T01780122 10183 20167 58008 
