2023/06/09 09:53
KLAX 090953Z 02004KT 10SM FEW009 FEW012 16/13 A3002 RMK AO2 SLP164 T01560133
