2025/12/12 15:53
KLAX 121553Z 00000KT 10SM BCFG FEW000 FEW002 13/11 A3004 RMK AO2 SLP170 FG FEW000 FG BANK SE-SW T01280106 $
