2025/04/27 19:53
KLAX 271953Z 24010KT 10SM SCT030 BKN044 BKN065 16/08 A3008 RMK AO2 SLP184 T01610083 $
