2024/03/23 15:53
KLAX 231553Z 11008KT 1 3/4SM -RA BR SCT009 BKN014 OVC022 13/13 A2992 RMK AO2 SLP132 VIS W-NW 3/4 P0013 T01330128 $
