2025/03/10 23:53
KLAX 102353Z 26007KT 10SM FEW190 BKN240 BKN270 16/06 A2987 RMK AO2 SLP114 T01610056 10183 20156 56018
