2022/11/13 03:53
KLAX 130353Z 25006KT 10SM CLR 14/10 A3002 RMK AO2 SLP164 T01440100 $
