2025/08/01 19:53
KLAX 011953Z 24010KT 9SM FEW011 23/16 A3009 RMK AO2 SLP188 T02280156 $
