2025/12/30 23:53
KLAX 302353Z 03008KT 10SM FEW038 SCT150 SCT250 22/04 A3001 RMK AO2 SLP162 60000 T02220044 10228 20172 56022 $
