2022/10/17 17:53
KLAX 171753Z 27007KT 10SM FEW090 FEW120 22/16 A3002 RMK AO2 SLP164 T02220156 10228 20156 58003 $
