2024/11/13 01:53
KLAX 130153Z 25004KT 10SM FEW200 SCT250 16/09 A3003 RMK AO2 SLP169 T01560094
