2023/11/23 19:53
KLAX 231953Z 16011KT 10SM FEW010 SCT250 21/12 A2981 RMK AO2 SLP093 T02110122
