2024/03/23 03:53
KLAX 230353Z 27011KT 10SM BKN013 15/12 A3000 RMK AO2 SLP158 T01500122 $
