2024/08/27 15:53
KLAX 271553Z 26005KT 8SM SCT008 19/17 A3000 RMK AO2 SLP159 T01940167 $
