2026/02/17 02:53
KLAX 170253Z 27018G23KT 10SM FEW030 FEW039 SCT060 13/07 A2982 RMK AO2 SLP096 60009 T01330072 53019 $
