2023/09/11 17:53
KLAX 111753Z 23004KT 10SM FEW130 SCT190 BKN270 24/18 A2994 RMK AO2 SLP138 T02390183 10244 20206 51009
