2025/01/06 01:53
KLAX 060153Z 00000KT 10SM FEW150 FEW250 16/04 A3010 RMK AO2 SLP193 T01610039
