2024/06/20 21:53
KLAX 202153Z 24011KT 10SM CLR 22/15 A2981 RMK AO2 SLP092 T02170150
