2024/06/13 13:53
KLAX 131353Z 28005KT 5SM -DZ BR OVC008 16/14 A2997 RMK AO2 SLP148 P0000 T01560139
