2024/06/24 22:53
KLAX 242253Z 27014KT 10SM FEW060 FEW150 24/17 A2988 RMK AO2 SLP115 T02390172
