2026/06/26 15:53
KLAX 261553Z 00000KT 10SM FEW009 OVC022 19/14 A2995 RMK AO2 SLP141 T01890139
