2024/08/09 11:53
KLAX 091153Z 16004KT 4SM BR OVC006 18/17 A2990 RMK AO2 SLP123 T01780167 10183 20172 58001 $
