2025/07/15 12:53
KLAX 151253Z 09006KT 7SM SCT010 OVC012 18/15 A2993 RMK AO2 SLP134 T01780150
