2025/10/06 07:53
KLAX 060753Z 00000KT 10SM FEW012 18/16 A2981 RMK AO2 SLP092 T01780156 402390156 $
