2023/05/30 15:53
KLAX 301553Z 25010KT 10SM FEW019 FEW029 OVC047 17/11 A2999 RMK AO2 SLP153 T01670111 $
