2025/05/22 21:53
KLAX 222153Z 24010G18KT 10SM FEW009 FEW180 SCT230 SCT280 21/14 A2993 RMK AO2 SLP135 T02110144 $
