2026/07/17 19:53
KLAX 171953Z 16009G17KT 130V190 10SM FEW110 FEW170 29/16 A2994 RMK AO2 SLP137 ACSL DSNT NE T02890156 $
