2026/06/29 16:53
KLAX 291653Z 26007KT 10SM SCT018 OVC024 19/14 A2993 RMK AO2 SLP132 T01890144 $
