2022/12/09 13:53
KLAX 091353Z 08004KT 10SM FEW011 FEW250 07/04 A3016 RMK AO2 SLP214 T00720044 $
