2023/02/27 11:53
KLAX 271153Z 11003KT 10SM FEW012 BKN029 BKN038 09/07 A3014 RMK AO2 SLP206 60009 70009 T00890067 10106 20089 56015 $
