2026/06/26 08:53
KLAX 260853Z 34004KT 10SM FEW009 OVC015 17/14 A2991 RMK AO2 SLP126 T01720139 58002
