2022/09/12 23:53
KLAX 122353Z 24014KT 10SM FEW100 FEW150 26/19 A2989 RMK AO2 SLP119 T02610194 10289 20256 56013 $
