2025/09/17 09:53
KLAX 170953Z VRB03KT 10SM FEW070 FEW110 SCT200 21/18 A2990 RMK AO2 SLP122 T02110183
