2023/11/18 17:53
KLAX 181753Z 11008KT 10SM SCT013 SCT025 BKN033 19/16 A3006 RMK AO2 SLP176 T01890156 10194 20156 51011
