2023/10/03 23:53
KLAX 032353Z 24010KT 10SM CLR 21/14 A2988 RMK AO2 SLP117 T02110144 10233 20211 56013
