2024/05/31 21:53
KLAX 312153Z 26011KT 10SM FEW018 SCT024 18/13 A2990 RMK AO2 SLP124 T01830133
