2023/05/05 11:53
KLAX 051153Z 00000KT 6SM -RA BR FEW009 BKN028 OVC045 13/11 A3000 RMK AO2 SLP158 P0008 60008 70011 T01280111 10144 20128 53001
