2022/11/12 01:53
KLAX 120153Z 27011KT 10SM FEW070 SCT200 17/05 A3003 RMK AO2 SLP167 T01670050
