2023/02/12 15:53
KLAX 121553Z 00000KT 10SM FEW020 FEW070 SCT170 SCT270 10/06 A2993 RMK AO2 SLP132 T01000056
