2022/09/28 05:53
KLAX 280553Z 00000KT 10SM CLR 22/17 A2989 RMK AO2 SLP117 T02220172 10244 20217 51016
