2024/03/31 19:53
KLAX 311953Z 10013KT 10SM SCT024 SCT055 BKN070 BKN150 BKN220 15/10 A2981 RMK AO2 PK WND 12031/1939 SLP092 T01500100
