2023/07/15 03:53
KLAX 150353Z 24006KT 10SM FEW010 19/15 A2983 RMK AO2 SLP099 T01890150
