2025/07/30 16:53
KLAX 301653Z 00000KT 8SM FEW009 FEW016 21/16 A3003 RMK AO2 SLP168 T02110161 $
