2024/12/18 23:53
KLAX 182353Z 31003KT 10SM FEW250 24/01 A3004 RMK AO2 SLP170 T02440011 10283 20233 56015
