2023/06/06 19:53
KLAX 061953Z 26008KT 10SM BKN024 BKN030 OVC041 17/12 A2993 RMK AO2 SLP133 T01670117
