2026/04/13 13:53
KLAX 131353Z 31005KT 10SM FEW015 FEW050 SCT100 14/08 A3002 RMK AO2 SLP166 T01390083 $
