2024/04/24 15:53
KLAX 241553Z 23007KT 10SM FEW018 SCT040 BKN060 16/11 A3007 RMK AO2 SLP183 T01560111
