2024/10/08 21:53
KLAX 082153Z 27009KT 10SM FEW006 FEW050 20/15 A2984 RMK AO2 SLP103 T02000150 $
