2025/05/24 13:53
KLAX 241353Z 23007KT 10SM BKN020 OVC032 17/13 A2996 RMK AO2 SLP145 T01720133
