2025/04/28 15:53
KLAX 281553Z 26007KT 7SM SCT016 BKN020 14/10 A3009 RMK AO2 SLP187 T01440100 $
