2024/02/27 11:53
KLAX 271153Z 27005KT 10SM FEW009 BKN018 BKN032 13/11 A2997 RMK AO2 SLP146 70005 T01330111 10133 20128 58002 $
