2024/02/06 23:53
KLAX 062353Z 04006KT 9SM -RA FEW019 FEW039 OVC050 11/09 A2967 RMK AO2 SLP046 P0008 60047 T01060094 10122 20100 53003
