2023/11/27 03:53
KLAX 270353Z 00000KT 10SM FEW150 SCT200 BKN250 16/00 A3003 RMK AO2 SLP170 T01610000 $
