2024/08/09 19:53
KLAX 091953Z 25010KT 5SM HZ CLR 24/17 A2988 RMK AO2 SLP118 T02390172 $
