2023/09/14 17:53
KLAX 141753Z 23010KT 9SM FEW020 BKN026 22/16 A2998 RMK AO2 SLP149 T02170161 10217 20189 52008 $
