2024/09/26 03:53
KLAX 260353Z 24005KT 10SM FEW011 17/14 A2984 RMK AO2 SLP104 T01670144 $
