2024/09/02 13:53
KLAX 021353Z 14004KT 5SM BR SCT009 19/18 A2990 RMK AO2 SLP121 SCT V BKN T01940178 $
