2023/09/12 05:53
KLAX 120553Z 00000KT 10SM FEW060 SCT150 21/18 A2991 RMK AO2 SLP126 T02060178 10244 20206 50006
