2022/09/18 07:53
KLAX 180753Z 16003KT 9SM BKN020 BKN027 21/17 A2977 RMK AO2 SLP078 T02060167 402500183 $
