2024/11/02 19:53
KLAX 021953Z 23009KT 10SM BKN032 BKN060 BKN200 19/12 A2994 RMK AO2 SLP138 T01890117 $
