2023/05/11 11:53
KLAX 111153Z 06003KT 10SM FEW011 FEW020 SCT026 13/11 A3000 RMK AO2 SLP159 T01280106 10144 20122 56004
