2024/09/05 07:53
KLAX 050753Z 10003KT 10SM CLR 22/17 A2990 RMK AO2 SLP120 T02220172 402670189
