2024/03/31 13:53
KLAX 311353Z 08008KT 10SM SCT018 SCT060 BKN180 09/08 A2977 RMK AO2 SLP080 T00940083
