2025/03/17 15:53
KLAX 171553Z VRB03KT 4SM BR FEW009 SCT120 BKN180 13/11 A3011 RMK AO2 RAB19E21 SLP194 P0000 T01280106 $
