2026/07/01 18:22
KLAX 011822Z 26009KT 10SM FEW018 SCT022 OVC036 20/15 A2995 RMK AO2 T02000150 $
