2024/08/18 09:53
KLAX 180953Z 00000KT 10SM BKN011 19/17 A2993 RMK AO2 SLP133 T01890167 $
