2024/03/20 21:53
KLAX 202153Z 26008KT 10SM FEW095 17/12 A2999 RMK AO2 SLP156 CB DSNT NE T01720122 $
