2023/03/19 21:53
KLAX 192153Z 10012KT 7SM SCT027 BKN036 OVC047 14/09 A2997 RMK AO2 RAE51 CIG 025 RWY24 SLP148 P0001 T01440089
