2024/09/23 09:59
KLAX 230959Z 26007KT 2 1/2SM BR OVC002 17/16 A2987 RMK AO2 VIS 1/2 RWY24 T01670156 $
