2024/10/30 15:53
KLAX 301553Z 06005KT 10SM FEW015 SCT025 BKN140 BKN180 16/08 A3013 RMK AO2 SLP202 T01610078 $
