2024/08/09 23:53
KLAX 092353Z 26014KT 10SM BKN010 21/17 A2984 RMK AO2 RAB50E53 SLP102 P0000 60000 T02110167 10239 20211 56011 $
