2025/02/18 17:53
KLAX 181753Z VRB04KT 10SM FEW028 SCT180 BKN250 16/09 A3007 RMK AO2 SLP180 T01560094 10156 20100 50012 $
