2024/04/19 13:53
KLAX 191353Z 08004KT 9SM FEW014 OVC020 14/10 A2997 RMK AO2 SLP147 T01390100 $
