2024/10/20 15:53
KLAX 201553Z 06005KT 10SM CLR 20/02 A3011 RMK AO2 SLP195 T02000022
