2025/09/07 15:53
KLAX 071553Z VRB03KT 10SM FEW010 FEW035 SCT100 23/18 A3005 RMK AO2 SLP173 FU FEW035 T02280178 $
