2023/04/11 13:53
KLAX 111353Z 00000KT 1/2SM R25L/6000VP6000FT FG VV002 12/12 A3001 RMK AO2 SLP162 VIS 1/4V1 T01170117
