2024/08/16 15:53
KLAX 161553Z 12006KT 6SM HZ FEW009 23/19 A2992 RMK AO2 SLP130 T02280189 $
