2024/04/20 13:53
KLAX 201353Z 32003KT 10SM OVC016 14/11 A3001 RMK AO2 SLP162 T01390106 $
