2022/10/04 21:53
KLAX 042153Z 25010KT 10SM FEW010 FEW100 24/18 A2990 RMK AO2 SLP122 T02390183
