2023/12/30 01:53
KLAX 300153Z 23005KT 9SM BKN013 BKN050 14/12 A3008 RMK AO2 SLP184 T01440122 $
