2023/05/23 11:53
KLAX 231153Z 12008KT 7SM FEW003 SCT007 OVC015 15/14 A2993 RMK AO2 RAB07E20DZB20E48 SLP133 P0000 60002 70002 T01500144 10156 20144 58011 $
