2025/12/30 15:53
KLAX 301553Z 00000KT 10SM FEW100 BKN120 OVC180 18/M02 A3012 RMK AO2 SLP198 T01781022 $
