2024/03/22 21:53
KLAX 222153Z 25012KT 9SM FEW017 BKN120 17/12 A3004 RMK AO2 SLP172 T01720117 $
