2025/03/04 17:53
KLAX 041753Z VRB05KT 8SM FEW029 SCT040 BKN140 15/08 A3024 RMK AO2 SLP238 T01500078 10156 20100 50003
