2023/07/16 15:53
KLAX 161553Z VRB03KT 9SM FEW005 FEW300 22/17 A2990 RMK AO2 SLP124 T02170172
