2025/09/10 09:53
KLAX 100953Z 26006KT 10SM FEW012 BKN015 19/17 A2986 RMK AO2 SLP109 T01940167 $
