2023/05/07 11:53
KLAX 071153Z 00000KT 10SM CLR 13/09 A3006 RMK AO2 SLP179 T01330094 10156 20128 58005
