2022/10/18 02:53
KLAX 180253Z 25007KT 10SM CLR 19/16 A2995 RMK AO2 SLP141 T01940161 53006 $
