2025/11/21 15:53
KLAX 211553Z 04012KT 10SM FEW008 BKN014 BKN020 13/11 A2990 RMK AO2 SLP124 T01330111 $
