2022/12/08 15:53
KLAX 081553Z VRB03KT 10SM FEW012 FEW025 10/05 A3031 RMK AO2 SLP263 T01000050
