2023/07/15 07:53
KLAX 150753Z 26005KT 10SM CLR 18/17 A2985 RMK AO2 SLP106 T01780167 402500167
