2025/04/05 09:53
KLAX 050953Z 09004KT 10SM CLR 12/07 A3016 RMK AO2 SLP210 T01220072
