2025/05/17 09:53
KLAX 170953Z 15008KT 8SM SCT015 OVC021 16/12 A2997 RMK AO2 SLP149 T01560117
