2022/09/08 19:53
KLAX 081953Z 32007KT 10SM FEW100 SCT120 BKN160 BKN220 33/19 A2978 RMK AO2 SLP082 T03330194
