2025/11/24 07:57
KLAX 240757Z 09005KT 2SM BR OVC004 16/15 A3014 RMK AO2 VIS 1V3 T01560150
