2023/04/12 15:53
KLAX 121553Z 11007KT 7SM SCT008 OVC014 14/11 A2990 RMK AO2 SLP124 T01390106 $
