2023/07/04 07:53
KLAX 040753Z 23006KT 4SM BR SCT002 OVC004 15/14 A2988 RMK AO2 SLP118 VIS N 1 1/2 T01500139 402060144
