2025/10/22 07:53
KLAX 220753Z 21006KT 10SM BKN011 BKN026 17/15 A3000 RMK AO2 SLP156 T01720150 402440150
