2024/09/18 09:53
KLAX 180953Z 04003KT 10SM FEW012 FEW022 16/13 A2988 RMK AO2 SLP115 T01560133 $
