2024/11/01 03:53
KLAX 010353Z 25004KT 10SM FEW013 15/12 A3001 RMK AO2 SLP162 T01500117 $
