2023/04/23 13:53
KLAX 231353Z 11008KT 6SM BR BKN007 15/13 A2981 RMK AO2 SLP092 T01500133
