2024/11/21 03:53
KLAX 210353Z 25006KT 10SM CLR 14/08 A3015 RMK AO2 SLP207 T01390083
