2025/02/12 15:53
KLAX 121553Z 24004KT 5SM BR SCT017 BKN022 OVC029 10/09 A2996 RMK AO2 RAE20 SLP143 P0001 T01000089 $
