2025/11/14 05:53
KLAX 140553Z 12008KT 10SM SCT037 BKN080 BKN100 19/16 A3003 RMK AO2 RAB28E52 SLP167 P0000 60001 T01890156 10206 20183 50003
