2025/06/30 11:53
KLAX 301153Z 25006KT 10SM BKN010 17/14 A2989 RMK AO2 SLP121 T01670144 10172 20167 55001
