2023/12/10 03:53
KLAX 100353Z 32003KT 10SM FEW180 17/M12 A3023 RMK AO2 SLP235 T01721117 $
