2024/11/19 07:53
KLAX 190753Z 02005KT 10SM FEW014 FEW200 13/M01 A3002 RMK AO2 SLP164 T01331011 401830083 $
