2025/07/11 01:53
KLAX 110153Z 26009KT 10SM FEW010 20/16 A2988 RMK AO2 SLP116 T02000161 $
