2025/02/20 15:57
KLAX 201557Z 13003KT 1/2SM R25L/1600V3500FT FG FEW000 SCT002 BKN160 12/12 A3002 RMK AO2 FG FEW000 T01170117
