2023/11/29 05:53
KLAX 290553Z 05004KT 10SM FEW150 14/09 A3007 RMK AO2 SLP179 T01390089 10172 20139 58002
