2023/06/18 17:53
KLAX 181753Z 26007KT 7SM FEW008 OVC011 17/15 A2995 RMK AO2 DZE19 SLP139 P0000 60000 T01720150 10172 20161 51003
