2025/05/24 11:53
KLAX 241153Z 27004KT 10SM SCT021 OVC029 17/13 A2994 RMK AO2 SLP137 T01670133 10178 20167 56001
