2022/10/12 03:53
KLAX 120353Z 30007KT 10SM FEW020 BKN150 21/17 A3003 RMK AO2 SLP166 T02060167
