2025/09/28 13:53
KLAX 281353Z 08004KT 10SM FEW013 OVC039 20/16 A2998 RMK AO2 SLP151 T02000161 $
