2025/11/21 03:53
KLAX 210353Z 07011KT 2SM RA BR BKN005 BKN009 OVC025 12/12 A2989 RMK AO2 SLP120 P0018 T01220117 $
