2023/10/04 09:53
KLAX 040953Z 00000KT 10SM FEW015 17/14 A2990 RMK AO2 SLP122 T01720139
