2024/10/10 12:53
KLAX 101253Z 14004KT 3SM BR SCT004 OVC008 17/15 A2999 RMK AO2 SLP154 VIS 2V4 VIS W-N 1 1/2 T01670150 $
