2025/08/31 22:53
KLAX 312253Z 25012KT 10SM FEW008 FEW120 24/17 A2987 RMK AO2 SLP113 FG BNK S-NW T02390172 $
