2022/12/02 09:53
KLAX 020953Z 09006KT 10SM BKN022 BKN028 OVC035 13/09 A3009 RMK AO2 RAB11E22 SLP187 P0000 T01330094 $
