2023/05/01 13:53
KLAX 011353Z 15003KT 8SM SCT006 OVC012 14/12 A2984 RMK AO2 SLP104 T01390122
