2022/11/02 13:53
KLAX 021353Z 09009KT 6SM BR SCT006 OVC013 16/14 A2997 RMK AO2 SLP145 T01560144 VISNO RWY24 $
