2024/04/15 05:53
KLAX 150553Z 26006KT 10SM FEW012 FEW025 SCT150 12/09 A3008 RMK AO2 SLP186 60001 T01170094 10144 20117 58001 $
