2025/02/26 19:53
KLAX 261953Z 26009KT 5SM BCFG BR SCT005 16/12 A3001 RMK AO2 SLP163 VIS S-NW 3/4 T01560122
