2024/10/18 14:53
KLAX 181453Z 11008KT 10SM FEW015 18/03 A2990 RMK AO2 SLP124 T01780033 51016
