2025/08/09 23:53
KLAX 092353Z 25013KT 10SM BKN008 21/16 A2987 RMK AO2 SLP114 T02060161 10233 20200 58016 $
