2024/07/15 15:53
KLAX 151553Z 00000KT 7SM OVC011 21/17 A3006 RMK AO2 SLP179 T02060167
