2023/11/14 13:53
KLAX 141353Z 00000KT 10SM FEW005 FEW200 SCT280 13/03 A3000 RMK AO2 SLP159 T01330033
