2023/08/21 13:53
KLAX 211353Z 09010KT 10SM FEW011 BKN024 OVC050 18/18 A3000 RMK AO2 SLP157 T01830178 $
