2024/07/27 17:53
KLAX 271753Z 27007KT 7SM FEW018 22/17 A2991 RMK AO2 SLP127 T02170167 10222 20167 50003
