2023/08/13 13:53
KLAX 131353Z 00000KT 8SM BKN011 BKN180 20/18 A2996 RMK AO2 SLP142 T02000183 $
