2023/02/10 15:53
KLAX 101553Z 01008KT 10SM FEW160 SCT250 16/M06 A3015 RMK AO2 SLP209 T01611061 $
