2024/07/10 17:53
KLAX 101753Z 24008KT 10SM FEW004 23/17 A2989 RMK AO2 SLP122 T02280172 10228 20172 53012
