2025/02/05 21:53
KLAX 052153Z 10006KT 1 1/2SM -RA BR BKN005 OVC016 15/14 A3004 RMK AO2 RAE2057B10 SLP173 VIS W 1 P0002 T01500144 $
