2023/11/04 10:00
KLAX 041000Z 08004KT 1/4SM R25L/1200V1800FT FG VV001 14/14 A3005 RMK AO2 T01440144
