2022/09/21 05:53
KLAX 210553Z 26012KT 10SM CLR 21/15 A2991 RMK AO2 SLP126 T02110150 10239 20211 51013 $
