2024/12/11 17:53
KLAX 111753Z 01006KT 10SM FEW060 SCT180 OVC250 18/M14 A3016 RMK AO2 SLP213 FU FEW060 T01831139 10183 20117 58007
