2024/09/23 05:53
KLAX 230553Z 26003KT 3/4SM R25L/P6000FT BR VV002 16/16 A2987 RMK AO2 SLP113 VIS 1/2V1 1/4 T01610156 10189 20161 50006 $
