2026/01/03 19:53
KLAX 031953Z 13009KT 10SM FEW008 SCT037 OVC050 17/13 A3002 RMK AO2 RAB00E09 SLP165 P0000 T01720133 $
