2022/11/07 09:53
KLAX 070953Z 13003KT 1 1/2SM -RA BR SCT006 OVC014 15/14 A2996 RMK AO2 SLP142 VIS E 1 P0003 T01500139
