2023/02/01 13:53
KLAX 011353Z 09003KT 10SM FEW200 05/M01 A3012 RMK AO2 SLP198 T00501011 $
