2023/04/25 17:53
KLAX 251753Z 25007KT 210V280 8SM FEW010 SCT018 BKN026 19/13 A2993 RMK AO2 SLP134 T01890128 10189 20150 52011 $
