2023/12/19 23:53
KLAX 192353Z 31004KT 10SM OVC039 17/14 A2987 RMK AO2 SLP112 T01670139 10194 20161 56002
