2024/06/16 07:53
KLAX 160753Z VRB03KT 9SM CLR 17/13 A2976 RMK AO2 SLP077 T01720128 402280156
