2024/07/20 15:53
KLAX 201553Z 27004KT 2SM BR OVC003 18/17 A2996 RMK AO2 SLP143 VIS SW-NW 1/2 T01830167
