2022/11/15 15:53
KLAX 151553Z 04005KT 10SM FEW160 FEW180 14/03 A3012 RMK AO2 SLP198 T01440028 $
