2026/05/20 10:53
KLAX 201053Z 08005KT 10SM CLR 17/07 A2991 RMK AO2 SLP125 T01670067 $
