2026/03/16 07:53
KLAX 160753Z 00000KT 10SM FEW006 SCT200 16/14 A3001 RMK AO2 SLP160 T01610144 402060139 $
