2025/02/08 05:53
KLAX 080553Z 31004KT 10SM SCT014 SCT030 BKN200 12/12 A3011 RMK AO2 SLPNO T01220122 10156 20122 $
