2024/12/23 15:53
KLAX 231553Z 00000KT 2 1/2SM BR FEW004 OVC007 13/11 A3013 RMK AO2 SLP201 VIS 2V3 VIS SW-N 3/4 T01280111
