2024/04/25 15:53
KLAX 251553Z 27007KT 10SM SCT015 SCT026 BKN034 14/10 A3008 RMK AO2 SLP184 T01440100
