2025/01/14 21:53
KLAX 142153Z 27009KT 10SM CLR 17/M02 A3021 RMK AO2 SLP231 T01721017
