2023/07/22 09:53
KLAX 220953Z 27005KT 6SM BR BKN005 17/17 A2985 RMK AO2 SLP106 VIS W 3 T01720167
