2026/06/29 14:53
KLAX 291453Z 18003KT 10SM FEW016 SCT025 OVC035 19/13 A2990 RMK AO2 SLP124 T01890133 53010 $
