2026/07/18 12:53
KLAX 181253Z 11004KT 10SM FEW012 FEW050 21/18 A3000 RMK AO2 SLP156 T02060178 $
