2024/01/14 09:53
KLAX 140953Z 05003KT 10SM FEW020 SCT250 09/07 A3005 RMK AO2 SLP175 T00940067 $
