2023/05/06 09:53
KLAX 060953Z 00000KT 10SM FEW020 FEW050 13/08 A3007 RMK AO2 SLP179 T01280083
