2026/05/31 08:53
KLAX 310853Z VRB04KT 9SM FEW010 17/14 A2992 RMK AO2 SLP128 T01670144 58010 $
