2026/01/24 05:53
KLAX 240553Z 24006KT 10SM BKN017 14/11 A2990 RMK AO2 SLP125 T01440111 10167 20139 51005 $
