2025/05/07 07:53
KLAX 070753Z 31005KT 10SM FEW015 BKN022 OVC044 16/12 A3003 RMK AO2 SLP166 T01560122 401720150 $
