2024/04/21 19:53
KLAX 211953Z 26011KT 8SM BKN009 16/12 A2997 RMK AO2 SLP150 T01560122
