2026/04/05 02:53
KLAX 050253Z 25010KT 10SM FEW200 SCT250 22/03 A2995 RMK AO2 SLP141 T02170033 52001 $
