2024/03/31 11:53
KLAX 311153Z 08008KT 10SM -RA FEW045 BKN065 10/09 A2974 RMK AO2 RAB46 SLP071 P0000 60014 70062 T01000089 10106 20094 55005
