2023/02/12 09:53
KLAX 120953Z 00000KT 10SM FEW015 SCT220 09/07 A2993 RMK AO2 SLP133 T00940067 $
