2026/04/14 04:53
KLAX 140453Z 26010KT 10SM CLR 16/11 A3006 RMK AO2 SLP178 T01560111 $
