2023/02/14 13:53
KLAX 141353Z 26015KT 10SM FEW018 FEW042 SCT180 12/08 A2993 RMK AO2 SLP133 T01170083 $
