2023/03/16 07:53
KLAX 160753Z 00000KT 10SM OVC017 13/10 A3001 RMK AO2 SLP161 T01280100 401500122 $
