2023/04/11 07:53
KLAX 110753Z 00000KT 3SM BR SCT002 OVC005 13/12 A3004 RMK AO2 SLP172 VIS SW-N 1 1/4 T01330117 401720117
