2025/08/25 19:53
KLAX 251953Z 25008KT 10SM FEW035 FEW160 SCT250 24/18 A2990 RMK AO2 SLP123 T02440178 $
