2024/06/17 01:53
KLAX 170153Z 26005KT 9SM SCT150 19/16 A2972 RMK AO2 SLP061 FU SCT150 T01940156
