2023/09/16 11:53
KLAX 161153Z 30005KT 10SM OVC012 19/16 A2995 RMK AO2 SLP139 T01890161 10194 20189 56006
