2024/05/20 11:53
KLAX 201153Z 27004KT 10SM FEW010 OVC016 14/11 A2997 RMK AO2 SLP146 T01440106 10156 20139 $
