2025/08/28 07:53
KLAX 280753Z 31005KT 10SM FEW014 FEW150 BKN220 BKN280 21/18 A3003 RMK AO2 SLP167 T02060183 402720189 $
