2022/10/16 07:53
KLAX 160753Z 30008KT 10SM FEW012 FEW025 BKN170 19/16 A2993 RMK AO2 SLP132 T01890161 402170172 $
