2025/08/24 06:53
KLAX 240653Z 00000KT 10SM FEW180 FEW240 22/18 A2989 RMK AO2 SLP117 T02220178
