2023/04/06 15:53
KLAX 061553Z VRB05KT 10SM SCT180 SCT250 17/01 A3007 RMK AO2 SLP183 T01670006 $
