2024/12/07 15:53
KLAX 071553Z 08003KT 10SM CLR 16/01 A3012 RMK AO2 SLP197 T01610006
