2024/05/09 09:53
KLAX 090953Z 16005KT 10SM BKN016 16/12 A2989 RMK AO2 SLP118 T01560122 $
