2023/11/05 05:53
KLAX 050553Z VRB03KT 1 1/4SM R25L/1600VP6000FT BR BKN001 16/16 A3000 RMK AO2 SLP158 T01560156 10178 20156 58002
