2025/07/03 03:53
KLAX 030353Z 24009KT 10SM FEW015 FEW100 17/14 A2987 RMK AO2 SLP112 FU FEW100 T01720144 $
