2023/03/03 00:53
KLAX 030053Z 25008KT 10SM FEW250 13/06 A3006 RMK AO2 SLP180 T01330056 $
