2025/05/28 13:53
KLAX 281353Z 26007KT 7SM OVC009 16/14 A2997 RMK AO2 SLP148 T01610144 $
