2024/10/08 01:53
KLAX 080153Z 25006KT 1/2SM R25L/2600VP6000FT FG VV002 16/16 A2983 RMK AO2 SLP100 T01610161
