2023/05/02 17:53
KLAX 021753Z 25009KT 10SM FEW021 SCT034 BKN055 16/08 A2994 RMK AO2 SLP138 T01560078 10156 20117 51008
