2024/02/05 19:53
KLAX 051953Z 13008KT 6SM -RA BR BKN007 BKN050 OVC070 14/13 A2987 RMK AO2 SLP115 P0007 T01390133 $
