2026/01/15 17:53
KLAX 151753Z 02008G15KT 10SM FEW300 23/01 A3007 RMK AO2 SLP179 T02330011 10233 20117 51010
