2024/01/18 17:53
KLAX 181753Z 12004KT 5SM HZ FEW009 FEW040 16/10 A3012 RMK AO2 SLP200 T01610100 10161 20117 53005
