2024/10/16 18:53
KLAX 161853Z 25008KT 7SM OVC018 18/14 A2999 RMK AO2 SLP153 T01830144 $
