2024/12/03 09:53
KLAX 030953Z 00000KT 10SM FEW005 FEW012 SCT250 12/09 A3009 RMK AO2 SLP187 T01170094
