2023/04/18 09:53
KLAX 180953Z 24003KT 10SM FEW012 BKN025 13/10 A2996 RMK AO2 SLP144 T01330100
