2025/12/04 03:53
KLAX 040353Z 00000KT 10SM SCT250 17/12 A3008 RMK AO2 SLP182 T01670117
