2022/09/29 17:53
KLAX 291753Z 25007KT 4SM HZ SCT004 BKN006 22/19 A3000 RMK AO2 SLP156 T02170189 10217 20194 50003
