2024/03/03 13:53
KLAX 031353Z 13007KT 10SM SCT023 BKN033 OVC049 11/09 A3003 RMK AO2 SLP169 T01060094 $
