2024/01/22 13:53
KLAX 221353Z 09007KT 4SM RA BR SCT005 BKN008 OVC010 13/13 A2980 RMK AO2 SLP091 P0017 T01330133 $
