2025/06/02 02:23
KLAX 020223Z 25015KT 10SM BKN008 BKN150 BKN200 18/15 A2989 RMK AO2 T01780150 $
