2023/12/04 21:53
KLAX 042153Z 26009KT 10SM FEW140 SCT180 SCT250 21/12 A3006 RMK AO2 SLP177 T02060117
