2023/08/31 19:53
KLAX 311953Z 24008KT 7SM FEW009 FEW200 24/18 A2984 RMK AO2 SLP103 T02390183 $
