2022/08/25 21:53
KLAX 252153Z 25009KT 10SM FEW006 FEW110 SCT270 27/19 A2993 RMK AO2 SLP134 CB DSNT E AND SE T02670194 $
