2023/09/17 11:53
KLAX 171153Z 00000KT 7SM SCT009 BKN014 OVC017 18/17 A2995 RMK AO2 SLP140 T01830172 10200 20183 58004 $
