2024/08/26 15:53
KLAX 261553Z 13004KT 10SM FEW300 22/16 A3005 RMK AO2 SLP175 T02220161 $
