2025/07/15 13:53
KLAX 151353Z 09004KT 7SM SCT010 OVC015 18/14 A2995 RMK AO2 SLP139 T01780144
