2023/03/02 03:53
KLAX 020353Z 36008KT 10SM CLR 10/M03 A2988 RMK AO2 SLP117 T01001033
