2023/07/22 11:53
KLAX 221153Z 00000KT 6SM BR OVC006 18/17 A2985 RMK AO2 SLP106 VIS W 2 T01780167 10183 20172 50001
