2024/02/13 03:53
KLAX 130353Z 26011KT 10SM CLR 13/08 A3003 RMK AO2 SLP169 T01330078 $
