2022/12/04 05:53
KLAX 040553Z 25007KT 10SM FEW012 16/14 A3011 RMK AO2 SLP193 T01560144 10172 20156 53006
