2022/10/22 19:53
KLAX 221953Z 26012KT 10SM SCT021 BKN035 BKN047 19/13 A2982 RMK AO2 SLP095 T01940133
