2024/07/31 21:53
KLAX 312153Z 28010KT 10SM FEW007 21/15 A2993 RMK AO2 SLP132 T02060150 $
