2026/07/09 17:19
KLAX 091719Z 28009KT 7SM FEW009 BKN012 22/17 A2991 RMK AO2 BKN V SCT T02170167 $
