2025/03/23 05:53
KLAX 230553Z 00000KT 10SM FEW250 14/11 A2997 RMK AO2 SLP148 T01440106 10167 20139 51009 $
