2025/06/07 17:53
KLAX 071753Z 25006KT 10SM OVC015 17/13 A3001 RMK AO2 SLP161 T01670128 10172 20156 51004
