2024/03/02 19:53
KLAX 021953Z 21017G24KT 8SM SCT016 BKN047 BKN060 15/12 A3003 RMK AO2 SLP167 T01500117 $
