2025/08/06 05:53
KLAX 060553Z 23004KT 10SM CLR 20/16 A3000 RMK AO2 SLP155 T02000156 10233 20200 51012
