2024/03/30 15:53
KLAX 301553Z 00000KT 7SM -RA FEW009 BKN025 OVC050 11/08 A2972 RMK AO2 SLP061 P0008 T01110078
