2026/01/13 09:53
KLAX 130953Z 00000KT 10SM CLR 12/03 A3017 RMK AO2 SLP215 T01220028 $
