2024/10/01 19:53
KLAX 011953Z 27013KT 10SM FEW005 FEW110 21/16 A2992 RMK AO2 SLP131 T02060156
