2023/06/29 07:53
KLAX 290753Z 23004KT 10SM FEW008 BKN011 16/14 A2989 RMK AO2 SLP120 T01560139 402110150
