2024/03/14 03:53
KLAX 140353Z 33010G20KT 10SM BKN150 17/01 A2989 RMK AO2 SLP121 T01720006 $
