2025/10/13 11:53
KLAX 131153Z 09005KT 10SM FEW010 BKN014 16/13 A2972 RMK AO2 SLP060 T01560133 10189 20156 55003 $
