2026/06/03 20:53
KLAX 032053Z 25011KT 10SM FEW032 SCT110 BKN160 20/13 A2996 RMK AO2 SLP145 T02000133 58010 $
