2024/03/30 21:53
KLAX 302153Z 08014G22KT 9SM -RA SCT013 BKN020 OVC027 11/08 A2975 RMK AO2 RAB51 SLP074 P0000 T01110083
