2023/03/23 03:53
KLAX 230353Z 25009KT 10SM FEW024 SCT060 12/07 A3012 RMK AO2 SLP197 T01170072
