2026/01/27 03:53
KLAX 270353Z 35005KT 10SM CLR 17/M04 A3022 RMK AO2 SLP235 T01671039 $
