2023/08/06 15:53
KLAX 061553Z 00000KT 4SM HZ FEW005 21/18 A2993 RMK AO2 SLP133 T02110183 
