2024/03/17 07:53
KLAX 170753Z 28004KT 10SM FEW200 13/09 A3008 RMK AO2 SLP183 T01280089 401890111 $
