2026/06/17 16:53
KLAX 171653Z 26008KT 10SM FEW016 SCT021 20/14 A2995 RMK AO2 SLP139 T02000144 $
