2026/03/15 11:53
KLAX 151153Z VRB03KT 7SM OVC010 15/13 A2995 RMK AO2 SLP140 T01500128 10161 20144 56003 $
