2024/05/16 03:53
KLAX 160353Z 27009KT 10SM FEW015 OVC030 15/12 A2994 RMK AO2 SLP138 T01500117
