2024/07/10 11:53
KLAX 101153Z 25003KT 10SM FEW006 17/16 A2982 RMK AO2 SLP096 T01720161 10178 20172 50000
