2024/09/22 23:53
KLAX 222353Z 27014KT 9SM OVC008 19/16 A2986 RMK AO2 SLP109 T01890156 10211 20189 55004 $
