2023/02/28 09:53
KLAX 280953Z 28011KT 9SM FEW014 SCT022 OVC035 11/08 A3008 RMK AO2 RAE06B24E35 SLP184 P0000 T01060083 $
