2023/12/17 19:53
KLAX 171953Z 24005KT 10SM SCT170 BKN240 BKN280 22/06 A3001 RMK AO2 SLP159 T02220061 $
