2024/09/27 21:53
KLAX 272153Z 27009KT 10SM FEW008 SCT011 18/14 A2984 RMK AO2 SLP103 T01830139
