2022/10/14 07:53
KLAX 140753Z 25003KT 8SM FEW008 OVC011 19/16 A2991 RMK AO2 SLP127 T01890161 402060183
