2024/11/03 01:53
KLAX 030153Z 00000KT 6SM BR BKN010 BKN029 16/14 A2989 RMK AO2 RAB0054E33 SLP122 P0001 T01560139 $
