2022/08/28 05:53
KLAX 280553Z 29006KT 10SM OVC012 19/17 A2984 RMK AO2 SLP102 T01940167 10233 20194 51013 $
