2023/08/04 04:53
KLAX 040453Z 23009KT 10SM CLR 19/16 A2996 RMK AO2 SLP142 T01940156 
