2023/12/09 09:53
KLAX 090953Z 00000KT 10SM CLR 12/04 A3008 RMK AO2 SLP183 T01220039 $
