2025/12/03 21:53
KLAX 032153Z 00000KT 10SM FEW035 FEW140 SCT200 19/08 A3000 RMK AO2 SLP159 T01940083
