2025/04/20 11:53
KLAX 201153Z 00000KT 8SM CLR 12/11 A3006 RMK AO2 SLP179 T01170106 10139 20117 55001 $
