2023/09/08 07:53
KLAX 080753Z 34004KT 10SM FEW006 19/18 A2997 RMK AO2 SLP145 T01940178 402390172
