2025/11/10 19:53
KLAX 101953Z 26007KT 10SM FEW005 19/14 A3010 RMK AO2 SLP192 T01940144 $
