2025/11/14 17:53
KLAX 141753Z 06007KT 7SM OVC028 16/14 A3002 RMK AO2 RAE50 SLP163 P0006 60014 T01610144 10178 20156 51013 $
