2025/02/23 19:53
KLAX 231953Z 24007KT 8SM R25L/3500VP6000FT CLR 21/10 A3020 RMK AO2 SLP227 T02110100 $
