2024/04/29 09:53
KLAX 290953Z 25003KT 10SM FEW004 14/12 A2994 RMK AO2 SLP137 T01390122
