2026/04/13 21:53
KLAX 132153Z 27016KT 10SM FEW040 FEW070 SCT085 18/07 A3003 RMK AO2 LTG DSNT NE SLP167 TCU DSNT NE T01830072
