2025/06/19 17:53
KLAX 191753Z 13005KT 9SM SCT022 22/14 A2987 RMK AO2 SLP113 T02170144 10222 20183 53005 $
