2024/08/05 19:53
KLAX 051953Z 25010KT 10SM FEW070 SCT170 BKN220 24/17 A2989 RMK AO2 SLP121 T02440167 $
