2024/02/18 01:53
KLAX 180153Z 24008KT 10SM FEW016 FEW030 SCT037 SCT180 BKN230 BKN280 14/11 A3005 RMK AO2 SLP176 T01390106
