2025/02/20 13:53
KLAX 201353Z 09005KT 1/16SM R25L/1200V2800FT FG VV001 11/11 A2999 RMK AO2 SLP152 T01110111 $
