2025/11/19 11:53
KLAX 191153Z 36005KT 10SM FEW020 FEW250 11/08 A3002 RMK AO2 SLP164 70002 T01060078 10133 20094 53003 $
