2024/02/18 07:53
KLAX 180753Z 00000KT 10SM SCT014 SCT026 OVC120 14/12 A3008 RMK AO2 RAB0658E53 SLP185 P0001 T01390117 401610122
