2024/09/29 15:53
KLAX 291553Z 00000KT 4SM HZ FEW004 SCT006 17/14 A2993 RMK AO2 SLP135 SCT V BKN T01670139 $
