2023/05/14 11:53
KLAX 141153Z 08006KT 7SM OVC007 14/14 A2988 RMK AO2 SLP117 T01440139 10156 20144 55001
