2025/01/06 03:53
KLAX 060353Z 12004KT 10SM CLR 15/05 A3011 RMK AO2 SLP194 T01500050
