2024/10/21 19:53
KLAX 211953Z 25011KT 10SM SCT095 SCT180 BKN250 23/09 A3005 RMK AO2 SLP173 T02280089 $
