2024/05/09 13:53
KLAX 091353Z 12006KT 10SM OVC020 16/12 A2992 RMK AO2 SLP129 T01560117 $
