2022/10/10 17:53
KLAX 101753Z 12005KT 6SM HZ FEW009 OVC018 21/16 A3001 RMK AO2 SLP161 T02060156 10211 20183 50003 $
