2023/06/20 11:53
KLAX 201153Z 00000KT 10SM FEW014 BKN020 17/13 A2997 RMK AO2 SLP148 T01670133 10167 20150 55001
