2024/03/30 05:53
KLAX 300553Z 13012KT 10SM SCT020 OVC042 14/08 A2983 RMK AO2 SLP099 T01390078 10161 20133 58006
