2024/06/09 13:53
KLAX 091353Z 31004KT 10SM FEW007 BKN011 OVC019 17/14 A2994 RMK AO2 SLP138 T01670139 $
