2024/12/13 05:53
KLAX 130553Z 04005KT 10SM BKN200 BKN250 12/09 A3005 RMK AO2 SLP173 T01220089 10139 20117 53010
