2023/05/15 17:53
KLAX 151753Z 26007KT 6SM BR OVC006 16/14 A3009 RMK AO2 SLP188 T01610144 10167 20156 51011
