2024/09/28 17:53
KLAX 281753Z 25004KT 4SM HZ SCT015 18/14 A2991 RMK AO2 SLP127 T01830139 10189 20144 51009
