2022/10/01 05:53
KLAX 010553Z 15005KT 9SM BKN016 21/17 A2985 RMK AO2 SLP104 T02060167 10217 20194 51012
