2025/10/18 03:53
KLAX 180353Z 27008KT 10SM CLR 20/13 A2991 RMK AO2 SLP126 T02000128
