2023/03/31 09:53
KLAX 310953Z 04004KT 10SM SCT015 SCT020 BKN250 09/06 A3014 RMK AO2 SLP206 T00890061 $
