2025/10/09 09:53
KLAX 090953Z 03003KT 10SM CLR 16/14 A2991 RMK AO2 SLP125 T01610139 $
