2025/05/08 13:53
KLAX 081353Z 27005KT 8SM FEW009 14/13 A3007 RMK AO2 SLP182 T01440128 $
