2024/01/07 07:53
KLAX 070753Z 27022G28KT 9SM BKN027 BKN033 OVC043 14/09 A2993 RMK AO2 PK WND 28032/0717 SLP133 T01390089 401670067
