2024/04/17 15:53
KLAX 171553Z 20003KT 7SM FEW002 SCT140 BKN190 16/13 A3002 RMK AO2 SLP166 T01560128
