2024/02/07 11:53
KLAX 071153Z 07005KT 10SM FEW006 FEW009 SCT024 SCT220 08/07 A2981 RMK AO2 SLP093 60001 70105 T00830072 10100 20078 51005
