2026/01/30 15:53
KLAX 301553Z 00000KT 10SM CLR 16/00 A3024 RMK AO2 SLP237 T01560000 $
