2025/06/02 23:53
KLAX 022353Z 24010KT 10SM FEW013 FEW025 19/13 A2995 RMK AO2 SLP142 T01890133 10211 20183 58012 $
