2023/02/27 03:53
KLAX 270353Z 18005KT 10SM FEW060 SCT100 10/05 A3016 RMK AO2 SLP214 T01000050 $
