2024/01/22 09:53
KLAX 220953Z 09011KT 4SM BR SCT004 BKN006 OVC011 13/13 A2985 RMK AO2 RAE0856B29E32 SLP107 P0001 T01330133 $
