2025/06/28 03:53
KLAX 280353Z 27008KT 10SM BKN009 18/16 A2994 RMK AO2 SLP135 T01780156 $
