2024/01/13 11:53
KLAX 131153Z 00000KT 10SM SCT250 07/01 A3007 RMK AO2 SLP183 T00720011 10117 20072 58007 $
