2023/05/04 05:53
KLAX 040553Z VRB03KT 10SM FEW015 FEW030 BKN100 14/08 A2988 RMK AO2 SLP118 T01390078 10150 20133 50006
