2022/11/03 03:53
KLAX 030353Z 29004KT 10SM CLR 16/07 A2999 RMK AO2 SLP155 T01560067 CHINO RWY24 VISNO RWY24 $
