2022/11/23 13:53
KLAX 231353Z 00000KT 10SM FEW200 FEW250 09/02 A3005 RMK AO2 SLP172 T00890017 $
