2025/04/18 03:53
KLAX 180353Z 25007KT 10SM FEW017 BKN055 BKN080 14/11 A2997 RMK AO2 SLP147 T01440106 $
