2025/08/16 03:32
KLAX 160332Z 25005KT 10SM OVC015 20/17 A2995 RMK AO2 T02000167 $
