2026/01/13 11:53
KLAX 131153Z 00000KT 10SM CLR 09/03 A3016 RMK AO2 SLP212 T00940028 10161 20083 58002 $
