2024/10/31 09:53
KLAX 310953Z 06003KT 10SM CLR 13/09 A3007 RMK AO2 SLP182 T01330094 $
