2023/05/14 01:53
KLAX 140153Z 25006KT 10SM OVC007 15/13 A2983 RMK AO2 SLP101 T01500133
