2023/06/10 16:53
KLAX 101653Z VRB04KT 10SM BKN013 OVC020 17/14 A2992 RMK AO2 SLP131 T01670144
