2023/04/20 15:53
KLAX 201553Z 03007KT 10SM FEW220 19/04 A3012 RMK AO2 SLP199 T01940039
