2025/04/03 17:53
KLAX 031753Z VRB03KT 10SM FEW041 BKN080 14/06 A2996 RMK AO2 SLP143 T01440056 10156 20089 51012
