2024/08/12 11:53
KLAX 121153Z 26004KT 10SM FEW006 19/17 A2994 RMK AO2 SLP135 T01940172 10206 20194 55002
