2023/06/24 11:53
KLAX 241153Z 00000KT 10SM FEW010 FEW030 14/12 A3001 RMK AO2 SLP159 T01390122 10156 20139 53005
