2023/05/05 05:53
KLAX 050553Z 24006KT 10SM FEW025 BKN034 BKN075 14/10 A3002 RMK AO2 SLP163 T01390100 10161 20139 51013
