2026/05/19 10:53
KLAX 191053Z 04004KT 9SM FEW012 FEW250 16/13 A2994 RMK AO2 SLP134 T01610133
