2022/12/07 07:53
KLAX 070753Z 00000KT 10SM FEW020 FEW090 13/07 A3010 RMK AO2 SLP190 T01280072 401610094 $
