2026/06/14 19:53
KLAX 141953Z 25012KT 10SM FEW007 FEW011 22/15 A3000 RMK AO2 SLP158 T02170150 $
