2025/01/23 05:53
KLAX 230553Z 10005KT 10SM CLR 15/M04 A3022 RMK AO2 SLP233 T01501039 10217 20150 53016
