2025/01/17 23:53
KLAX 172353Z 23009KT 10SM FEW010 SCT035 14/07 A3016 RMK AO2 SLP212 T01390067 10156 20139 56013
