2022/08/21 13:53
KLAX 211353Z VRB03KT 9SM OVC015 21/17 A3001 RMK AO2 SLP161 T02110172
