2026/03/01 11:53
KLAX 011153Z 10003KT 8SM FEW250 15/12 A2993 RMK AO2 SLP133 T01500122 10183 20144 55003
