2025/09/08 03:53
KLAX 080353Z 22007KT 10SM CLR 22/17 A3002 RMK AO2 SLP162 T02220167 $
