2025/10/10 05:53
KLAX 100553Z 15004KT 10SM BKN090 BKN200 19/16 A2992 RMK AO2 SLP130 T01890156 10217 20189 51009 $
