2023/08/06 07:53
KLAX 060753Z 24004KT 10SM CLR 19/17 A2990 RMK SLP121 T01890172 
