2024/11/28 17:53
KLAX 281753Z VRB04KT 10SM FEW006 SCT160 SCT250 21/01 A3007 RMK AO2 SLP183 T02060011 10206 20128 51008 $
