2023/06/06 11:53
KLAX 061153Z 08006KT 10SM FEW011 FEW020 BKN045 14/09 A2987 RMK AO2 SLP113 T01440094 10161 20144 56011
