2024/08/10 03:53
KLAX 100353Z 27008KT 10SM BKN008 18/16 A2987 RMK AO2 SLP113 T01830161 $
