2022/12/19 13:53
KLAX 191353Z 06003KT 10SM FEW250 07/01 A3019 RMK AO2 SLP221 T00670011 VISNO RWY24 $
