2023/02/27 07:53
KLAX 270753Z 03005KT 5SM -RA BR FEW014 BKN022 OVC032 09/07 A3019 RMK AO2 SLP224 P0007 T00890067 401280050 $
