2026/03/29 21:53
KLAX 292153Z 25009KT 10SM FEW002 FEW210 SCT250 22/13 A2992 RMK AO2 SLP130 FG BNK S-W T02170133 $
