2025/08/29 14:53
KLAX 291453Z 07005KT 10SM CLR 22/17 A3000 RMK AO2 SLP157 T02220172 52009 $
