2023/02/19 07:53
KLAX 190753Z 10005KT 10SM FEW200 10/05 A3003 RMK AO2 SLP168 T01000050 402000083 $
