2024/05/22 03:53
KLAX 220353Z 25010KT 10SM BKN012 14/11 A2995 RMK AO2 SLP141 T01440111 
