2025/03/20 11:53
KLAX 201153Z 00000KT 10SM FEW250 12/04 A3014 RMK AO2 SLP204 T01220044 10156 20106 56013 $
