2023/09/24 07:53
KLAX 240753Z 00000KT 7SM CLR 18/16 A2999 RMK AO2 SLP154 T01780161 402220167 $
