2022/10/13 17:53
KLAX 131753Z 24006KT 5SM HZ FEW010 OVC016 19/17 A3003 RMK AO2 SLP166 T01940167 10194 20189 50004
