2025/10/19 17:53
KLAX 191753Z VRB03KT 10SM FEW240 SCT290 24/09 A3005 RMK AO2 SLP175 T02390089 10239 20150 51011 $
