2023/12/02 15:53
KLAX 021553Z 05004KT 10SM FEW022 13/04 A3019 RMK AO2 SLP221 T01280044
