2023/04/28 19:53
KLAX 281953Z 24009KT 7SM SCT007 BKN010 17/12 A2999 RMK AO2 SLP155 T01670117
