2023/01/05 13:53
KLAX 051353Z 13012G21KT 3SM -RA BR SCT006 BKN009 OVC022 13/12 A3000 RMK AO2 SLP158 VIS NW-N 2 1/2 P0013 T01280122 $
