2024/09/19 21:53
KLAX 192153Z 26012KT 10SM FEW028 BKN048 21/14 A2987 RMK AO2 SLP114 T02110144 $
