2024/09/11 15:53
KLAX 111553Z 11005KT 9SM FEW010 BKN016 BKN040 19/14 A2983 RMK AO2 SLP101 FU BKN040 T01890144
