2022/10/26 17:53
KLAX 261753Z 00000KT 10SM FEW018 SCT140 BKN180 20/13 A2999 RMK AO2 SLP154 T02000128 10206 20144 50001
