2025/04/01 11:53
KLAX 011153Z 27010KT 10SM FEW011 FEW026 SCT060 SCT250 12/09 A2997 RMK AO2 SLP149 70004 T01220094 10139 20122 56010
