2025/07/16 00:53
KLAX 160053Z 25009KT 10SM FEW015 20/15 A2991 RMK AO2 SLP126 T02000150
