2023/09/22 11:53
KLAX 221153Z 35003KT 10SM CLR 16/13 A2995 RMK AO2 SLP139 T01610133 10183 20161 50002
