2022/10/29 15:53
KLAX 291553Z 00000KT 9SM FEW300 17/09 A3012 RMK AO2 SLP197 T01720094 VISNO RWY24 $
