2025/07/01 21:53
KLAX 012153Z 25013KT 10SM FEW011 FEW090 20/14 A2987 RMK AO2 SLP113 T02000139
