2022/11/02 03:53
KLAX 020353Z 27010KT 10SM BKN035 BKN150 17/13 A2996 RMK AO2 SLP144 T01720128 CHINO RWY24 VISNO RWY24 $
