2023/01/26 09:53
KLAX 260953Z 00000KT 10SM CLR 10/03 A3028 RMK AO2 SLP253 T01000028 $
