2022/11/05 01:53
KLAX 050153Z 25008KT 10SM SCT250 16/08 A3019 RMK AO2 SLP224 T01560083
