2023/04/27 17:53
KLAX 271753Z 26008KT 4SM HZ SCT004 BKN011 16/12 A2999 RMK AO2 SLP153 SCT V BKN T01560122 10156 20128 51005 $
