2023/02/05 19:53
KLAX 051953Z 27008KT 10SM FEW023 SCT034 17/11 A3020 RMK AO2 SLP225 T01670106 $
