2024/07/19 21:53
KLAX 192153Z 26013KT 10SM SCT006 BKN010 22/17 A2997 RMK AO2 SLP147 T02170172
