2025/03/07 17:53
KLAX 071753Z VRB05KT 10SM FEW070 14/04 A3002 RMK AO2 SLP164 T01390044 10139 20089 51018 $
