2025/08/03 07:53
KLAX 030753Z 20003KT 8SM FEW006 17/16 A3003 RMK AO2 SLP166 T01720156 402220167 $
