2023/10/20 03:53
KLAX 200353Z 25005KT 10SM SCT004 18/17 A2991 RMK AO2 SLP129 T01830172 $
