2025/03/08 05:53
KLAX 080553Z 07005KT 10SM CLR 12/08 A3017 RMK AO2 SLP213 T01220078 10156 20111 51028 $
