2023/06/11 13:53
KLAX 111353Z 09003KT 10SM BKN036 OVC044 16/13 A2987 RMK AO2 CIG 015 RWY24 SLP114 T01610133
