2023/08/15 17:53
KLAX 151753Z 27008KT 7SM BKN008 21/18 A3000 RMK AO2 SLP156 T02060178 10206 20183 50005 $
