2025/08/15 23:53
KLAX 152353Z 24009KT 10SM SCT020 22/16 A2995 RMK AO2 SLP138 T02220161 10244 20217 56008 $
