2023/06/03 13:53
KLAX 031353Z 24009KT 7SM SCT011 15/13 A2994 RMK AO2 SLP138 T01500133
