2024/09/07 19:53
KLAX 071953Z 26007KT 10SM FEW100 SCT180 32/19 A2979 RMK AO2 SLP086 T03170189
