2025/03/27 21:53
KLAX 272153Z 25012KT 10SM FEW040 FEW200 17/11 A3005 RMK AO2 SLP174 T01720106 $
