2023/11/22 21:53
KLAX 222153Z 26009KT 10SM FEW160 SCT180 BKN250 26/04 A2999 RMK AO2 SLP155 T02610044
