2023/10/03 07:53
KLAX 030753Z 14003KT 10SM FEW011 17/15 A2997 RMK AO2 SLP147 T01670150 402110122 $
