2025/05/05 21:53
KLAX 052153Z 21009KT 10SM OVC027 17/11 A2985 RMK AO2 SLP106 T01720106
