2024/07/10 03:53
KLAX 100353Z 26005KT 3SM BR OVC003 17/16 A2982 RMK AO2 SLP097 VIS SW-W 1/2 T01720161
