2023/07/14 05:53
KLAX 140553Z 23005KT 10SM FEW006 FEW009 SCT200 18/16 A2992 RMK AO2 SLP129 T01830161 10217 20178 50007 $
