2023/09/21 09:53
KLAX 210953Z 00000KT 10SM FEW012 SCT020 BKN042 19/16 A2988 RMK AO2 SLP117 T01890161
