2025/06/16 17:53
KLAX 161753Z 26010KT 8SM FEW010 22/16 A2993 RMK AO2 SLP133 T02170161 10222 20161 53004 $
