2026/01/10 13:53
KLAX 101353Z 12003KT 10SM CLR 08/M02 A3040 RMK AO2 SLP292 T00781017 $
