2026/05/03 21:53
KLAX 032153Z 26011G20KT 10SM FEW025 BKN050 19/10 A2994 RMK AO2 SLP139 T01890100
