2023/12/22 09:53
KLAX 220953Z 06008KT 6SM RA BR FEW012 BKN055 OVC065 14/13 A2988 RMK AO2 SLP116 P0024 T01390133
