2023/08/05 13:53
KLAX 051353Z 00000KT 10SM FEW010 18/17 A2989 RMK SLP118 T01830172 
