2026/04/23 02:53
KLAX 230253Z 26014KT 10SM FEW050 FEW250 17/11 A3002 RMK AO2 SLP165 T01670111 56010 $
