2026/01/01 03:53
KLAX 010353Z 06010KT 5SM -RA BR SCT014 OVC022 14/13 A3000 RMK AO2 RAB13 CIG 013 RWY24 SLP156 P0003 T01390128 $
