2025/11/01 07:53
KLAX 010753Z 00000KT 5SM BR BKN008 17/15 A3001 RMK AO2 SLP159 T01670150 402170161 $
