2024/04/07 01:53
KLAX 070153Z 26012KT 10SM FEW055 13/04 A3019 RMK AO2 SLP224 T01280044 $
