2025/04/12 21:53
KLAX 122153Z 25010KT 10SM SCT010 SCT220 BKN270 18/13 A2995 RMK AO2 SLP141 T01830128 $
