2024/04/06 09:53
KLAX 060953Z 33003KT 10SM FEW190 09/02 A3014 RMK AO2 SLP204 T00940017 $
