2025/07/17 06:53
KLAX 170653Z 29007KT 10SM FEW012 FEW150 18/15 A2993 RMK AO2 SLP135 T01830150 $
