2023/03/27 07:53
KLAX 270753Z 02008KT 320V050 10SM FEW250 12/M02 A3012 RMK AO2 SLP198 T01171022 401780106 $
