2023/08/15 09:53
KLAX 150953Z 00000KT 2SM BR VV003 18/18 A2995 RMK AO2 SLP139 T01830178 $
