2024/11/05 17:53
KLAX 051753Z 13006KT 10SM FEW230 BKN270 21/07 A3000 RMK AO2 SLP157 T02060067 10206 20111 58001 $
