2024/04/25 05:53
KLAX 250553Z 27014KT 10SM FEW024 SCT035 BKN050 BKN140 14/11 A3006 RMK AO2 SLP179 T01390106 10167 20139 50010
