2023/06/13 13:53
KLAX 131353Z 33004KT 10SM FEW009 FEW014 OVC035 17/13 A3004 RMK AO2 SLP170 T01670128
