2025/11/20 07:53
KLAX 200753Z 08004KT 10SM FEW016 FEW028 SCT250 12/09 A3004 RMK AO2 SLP169 T01220089 401670083 $
