2026/01/09 01:53
KLAX 090153Z 29011G21KT 10SM CLR 14/M02 A3007 RMK AO2 SLP184 T01391022 $
