2024/10/19 03:53
KLAX 190353Z 09007KT 10SM CLR 19/10 A2997 RMK AO2 SLP147 T01940100
