2024/10/11 19:53
KLAX 111953Z 26010G17KT 3SM HZ FEW004 SCT250 BKN300 20/15 A3004 RMK AO2 SLP172 VIS S 2 1/2 SW-W 2 T02000150 $
