2023/05/09 05:53
KLAX 090553Z 24014KT 10SM FEW018 FEW025 14/12 A3000 RMK AO2 SLP158 T01440122 10183 20144 51005
