2024/09/12 11:53
KLAX 121153Z 00000KT 10SM FEW009 BKN015 18/16 A2971 RMK AO2 SLP059 T01830156 10189 20172 55000
