2025/03/12 21:53
KLAX 122153Z 20009KT 9SM BKN021 BKN027 OVC032 14/12 A3001 RMK AO2 RAB43E53 SLP162 P0000 T01440117 $
