2024/08/28 17:53
KLAX 281753Z 24006KT 9SM OVC019 21/16 A3000 RMK AO2 SLP156 BKN V SCT T02110156 10217 20183 51003
