2022/09/25 02:53
KLAX 250253Z 24009KT 10SM CLR 22/17 A2998 RMK AO2 SLP151 T02170167 53006
