2024/10/30 17:53
KLAX 301753Z 03003KT 10SM FEW025 SCT100 BKN140 BKN180 19/08 A3015 RMK AO2 SLP208 T01940078 10194 20122 51015 $
