2025/04/28 19:53
KLAX 281953Z 24008KT 8SM FEW019 BKN038 BKN060 17/09 A3007 RMK AO2 SLP183 T01720094 $
