2024/05/14 17:53
KLAX 141753Z 27005KT 10SM OVC023 17/12 A2994 RMK AO2 SLP138 T01670117 10178 20150 53002 $
