2024/08/31 14:32
KLAX 311432Z 25004KT 6SM BR BKN010 19/17 A2999 RMK AO2 T01890167 $
