2024/04/25 01:53
KLAX 250153Z 27016KT 10SM FEW020 FEW050 SCT250 15/11 A3003 RMK AO2 SLP169 T01500106
