2025/08/10 17:53
KLAX 101753Z 26008KT 10SM FEW015 22/17 A3000 RMK AO2 SLP156 T02220167 10228 20178 53005 $
