2025/03/18 17:53
KLAX 181753Z 27019KT 10SM FEW010 14/07 A3029 RMK AO2 SLP256 T01440067
