2024/12/07 17:53
KLAX 071753Z 05003KT 10SM CLR 23/M02 A3013 RMK AO2 SLP202 T02331022 10233 20094 51011
