2022/10/11 05:53
KLAX 110553Z 30006KT 10SM OVC011 19/17 A2997 RMK AO2 LTG DSNT NE SLP145 T01940167 10211 20189 52014 $
