2024/08/12 13:53
KLAX 121353Z 26007KT 9SM FEW006 FEW080 19/17 A2994 RMK AO2 SLP137 T01940172
