2026/07/09 18:53
KLAX 091853Z 27008KT 8SM FEW009 SCT013 22/17 A2991 RMK AO2 SLP125 T02220167 $
