2023/11/06 07:53
KLAX 060753Z 00000KT 7SM FEW001 FEW004 SCT009 16/15 A2992 RMK AO2 SLP131 VIS N-NE 1/4 T01610150 402220117
