2024/10/04 17:53
KLAX 041753Z 19003KT 5SM HZ FEW180 SCT220 24/17 A2993 RMK AO2 SLP134 T02390172 10239 20178 50004
