2024/06/29 11:53
KLAX 291153Z VRB03KT 9SM OVC008 17/15 A2986 RMK AO2 SLP110 T01720150 10172 20161 52001
