2025/06/20 19:53
KLAX 201953Z 25010KT 9SM FEW015 BKN029 22/14 A2987 RMK AO2 SLP115 BKN V SCT T02220144 $
