2026/03/19 17:53
KLAX 191753Z 13004KT 10SM CLR 27/14 A3006 RMK AO2 SLP177 T02670139 10267 20167 50005 $
