2025/06/16 05:53
KLAX 160553Z 22005KT 10SM CLR 18/15 A2989 RMK AO2 SLP119 T01830150 10222 20178 50010 $
