2025/05/19 00:53
KLAX 190053Z 26010KT 10SM FEW014 FEW037 18/12 A2992 RMK AO2 SLP130 T01780122
