2024/05/29 09:53
KLAX 290953Z 14006KT 8SM OVC008 14/12 A3003 RMK AO2 SLP166 T01440122 $
