2024/04/20 09:53
KLAX 200953Z 34004KT 10SM OVC015 14/11 A2999 RMK AO2 SLP155 T01390111 $
