2024/11/16 21:53
KLAX 162153Z 25016KT 10SM FEW100 18/03 A2990 RMK AO2 SLP125 T01780033 $
