2022/12/31 09:53
KLAX 310953Z 09005KT 5SM BR BKN004 BKN022 OVC038 14/13 A3007 RMK AO2 RAE29 SLP182 P0000 T01390133
