2024/03/28 13:53
KLAX 281353Z 26003KT 10SM FEW008 BKN011 BKN140 12/10 A3011 RMK AO2 SLP194 BKN011 V SCT T01170100 $
