2025/04/13 23:53
KLAX 132353Z 25009KT 10SM FEW015 17/12 A2993 RMK AO2 SLP134 T01720117 10183 20156 56013 $
