2023/02/10 19:53
KLAX 101953Z VRB03KT 10SM FEW140 SCT180 BKN250 23/M07 A3012 RMK AO2 SLP199 T02331067 $
