2025/01/25 07:53
KLAX 250753Z 13004KT 10SM SCT250 12/07 A2991 RMK AO2 SLP126 T01220072 402220117
