2023/11/21 03:53
KLAX 210353Z 00000KT 10SM CLR 19/M02 A3018 RMK AO2 SLP219 T01891017 $
