2023/04/05 17:53
KLAX 051753Z 00000KT 10SM FEW070 17/01 A3014 RMK AO2 SLP206 T01720006 10172 20083 50003 $
