2025/01/12 13:53
KLAX 121353Z VRB03KT 10SM CLR 12/M08 A3006 RMK AO2 SLP176 T01221078 $
