2024/08/13 17:53
KLAX 131753Z 26005KT 7SM CLR 25/18 A2995 RMK AO2 SLP141 T02500178 10256 20183 51004
