2023/07/12 13:53
KLAX 121353Z 23005KT 3SM BR SCT002 SCT015 BKN100 16/16 A2999 RMK AO2 SLP153 VIS SW-NW 1/4 T01560156 $
