2023/05/24 03:53
KLAX 240353Z 23003KT 10SM OVC017 15/13 A2994 RMK AO2 SLP138 T01500128 $
