2024/01/15 01:53
KLAX 150153Z 27007KT 10SM FEW020 SCT200 BKN250 13/09 A3002 RMK AO2 SLP165 T01330094 $
