2022/11/30 03:53
KLAX 300353Z 12004KT 10SM CLR 15/11 A3000 RMK AO2 SLP157 T01500111
