2023/02/10 09:53
KLAX 100953Z 36007KT 10SM CLR 15/M03 A3017 RMK AO2 SLP212 T01501028 $
