2022/10/08 05:53
KLAX 080553Z 00000KT 7SM OVC009 20/17 A3006 RMK AO2 SLP177 T02000172 10211 20194 51016 $
