2026/05/23 06:53
KLAX 230653Z 00000KT 10SM BKN020 16/12 A2992 RMK AO2 SLP128 T01610122
