2022/09/06 11:53
KLAX 061153Z 05004KT 10SM CLR 24/21 A2977 RMK AO2 SLP078 T02390206 10239 20228 58003 $
