2025/01/14 11:53
KLAX 141153Z 11004KT 10SM FEW200 07/M08 A3028 RMK AO2 SLP253 T00721078 10139 20072 58002 VISNO RWY24 $
