2023/09/24 11:53
KLAX 241153Z 00000KT 5SM BR BKN016 OVC022 17/16 A2999 RMK AO2 SLP155 T01670156 10178 20161 50001 $
