2024/07/20 07:53
KLAX 200753Z 25005KT 3SM BR OVC003 17/16 A2994 RMK AO2 SLP134 VIS S-NW 1 T01670161 402390167
