2023/03/24 07:53
KLAX 240753Z 32005KT 10SM FEW022 FEW050 SCT140 13/05 A3022 RMK AO2 SLP233 T01280050 401560106
