2024/04/28 19:53
KLAX 281953Z 23011KT 10SM CLR 19/12 A3001 RMK AO2 SLP162 T01890122
