2023/09/26 13:53
KLAX 261353Z 09004KT 9SM FEW014 FEW025 16/14 A3001 RMK AO2 SLP162 T01560144 $
