2024/04/06 07:53
KLAX 060753Z 01004KT 10SM SCT190 10/02 A3011 RMK AO2 SLP195 T01000017 401440072 $
