2023/12/28 11:53
KLAX 281153Z VRB03KT 5SM BR FEW002 FEW009 SCT200 11/11 A3016 RMK AO2 SLP212 T01060106 10144 20100 58003 $
