2023/10/20 13:53
KLAX 201353Z 26008KT 2 1/2SM BCFG BR FEW000 BKN003 17/17 A2992 RMK AO2 SLP128 VIS 1/2V3 VIS S-NW 1 1/2 FG FEW000 T01720172 $
