2024/06/06 15:53
KLAX 061553Z 23003KT 5SM BR OVC008 17/15 A2991 RMK AO2 SLP126 T01720150
