2024/02/05 17:53
KLAX 051753Z 10007KT 4SM -RA BR SCT005 BKN016 OVC055 13/13 A2989 RMK AO2 RAE1657B08 SLP120 P0005 60061 T01330133 10139 20122 50003 $
