2025/08/06 07:53
KLAX 060753Z 34003KT 10SM CLR 20/15 A3000 RMK AO2 SLP156 T02000150 402440178
