2026/03/29 02:53
KLAX 290253Z 25009KT 10SM BKN007 BKN200 BKN250 17/14 A2994 RMK AO2 SLP138 T01670144 53004
