2023/02/23 11:53
KLAX 231153Z 25005KT 10SM FEW022 BKN050 BKN150 08/04 A2995 RMK AO2 SLP140 60000 T00780044 10100 20078 58005
