2024/03/24 15:53
KLAX 241553Z 02004KT 10SM FEW022 FEW034 SCT060 SCT170 13/06 A2984 RMK AO2 SLP104 ACSL DSNT N T01280056 $
