2026/01/01 12:05
KLAX 011205Z 08007KT 2 1/2SM -RA BR SCT004 OVC008 14/14 A2999 RMK AO2 VIS 2V3 VIS S 2 P0001 T01440139 $
