2024/02/15 09:53
KLAX 150953Z 06003KT 10SM FEW012 FEW150 SCT250 11/08 A3019 RMK AO2 SLP221 T01110078 $
