2023/08/28 09:53
KLAX 280953Z 00000KT 9SM CLR 20/18 A2984 RMK AO2 SLP100 T02000183 $
