2023/08/24 16:13
KLAX 241613Z 24007KT 4SM BR OVC005 18/17 A2997 RMK AO2 T01830172
