2022/08/25 07:53
KLAX 250753Z VRB03KT 10SM CLR 22/18 A2993 RMK AO2 SLP132 T02170178 402610200 $
