2022/12/12 23:53
KLAX 122353Z 00000KT 10SM FEW040 14/04 A2988 RMK AO2 SLP118 T01390039 10139 20094 53002
