2023/01/03 09:53
KLAX 030953Z 07006KT 10SM OVC045 11/09 A3002 RMK AO2 RAB27E47 SLP166 P0000 T01110089
