2023/03/20 18:01
KLAX 201801Z 25010KT 10SM FEW009 SCT012 BKN033 15/12 A2994 RMK AO2 T01500122
