2024/10/08 11:53
KLAX 081153Z 00000KT 1/8SM R25L/P6000FT FG VV002 15/15 A2985 RMK AO2 SLP105 T01500150 10167 20150 56004
