2023/07/01 21:53
KLAX 012153Z 24010KT 10SM FEW008 20/16 A2989 RMK AO2 SLP120 T02000156 $
