2023/05/17 01:53
KLAX 170153Z 25011KT 10SM OVC007 14/13 A2995 RMK AO2 SLP141 T01440128
