2026/06/15 17:08
KLAX 151708Z 24010KT 10SM FEW008 BKN010 20/16 A3003 RMK AO2 T02000156 $
