2025/05/20 15:53
KLAX 201553Z VRB03KT 8SM CLR 21/14 A2994 RMK AO2 SLP137 T02060144
