2024/10/26 05:53
KLAX 260553Z 24004KT 9SM FEW006 16/14 A3004 RMK AO2 SLP173 T01610144 10178 20156 51006 $
