2025/01/06 23:53
KLAX 062353Z 23007KT 10SM SCT200 SCT250 17/12 A2998 RMK AO2 SLP151 T01670122 10217 20167 56013
