2023/12/18 09:53
KLAX 180953Z 00000KT 10SM FEW010 SCT150 BKN200 16/13 A2997 RMK AO2 SLP144 T01610133 $
