2024/02/12 13:53
KLAX 121353Z 00000KT 10SM FEW012 09/02 A3013 RMK AO2 SLP203 T00890017 $
