2023/10/10 01:53
KLAX 100153Z 25009KT 10SM FEW010 FEW150 SCT250 18/16 A2979 RMK AO2 SLP086 T01780156
