2022/12/12 18:00
KLAX 121800Z 08007KT 8SM BKN015 BKN100 09/07 A2992 RMK AO2 T00940067
