2025/03/16 03:53
KLAX 160353Z 21007KT 10SM FEW200 13/09 A3012 RMK AO2 SLP198 T01280089 $
