2024/12/08 11:53
KLAX 081153Z 00000KT 10SM FEW250 11/05 A3007 RMK AO2 SLP179 T01110050 10156 20100 55002
