2024/11/19 21:53
KLAX 192153Z 26011KT 10SM FEW220 SCT270 17/10 A3005 RMK AO2 SLP174 T01720100 $
