2024/12/30 05:53
KLAX 300553Z 07005KT 6SM BR BKN009 12/11 A3012 RMK AO2 SLP199 T01220111 10139 20122 53006
