2022/10/26 21:53
KLAX 262153Z 26011KT 10SM FEW015 FEW150 20/14 A2992 RMK AO2 SLP130 T02000139
