2022/12/07 09:53
KLAX 070953Z 06003KT 10SM FEW018 FEW060 11/07 A3010 RMK AO2 SLP192 T01060072 $
