2022/12/14 15:53
KLAX 141553Z 07006KT 10SM FEW250 09/03 A3018 RMK AO2 SLP221 T00890028 VISNO RWY24 $
