2022/10/30 17:53
KLAX 301753Z 00000KT 10SM FEW250 22/11 A3001 RMK AO2 SLP161 T02170106 10217 20133 50002 VISNO RWY24 $
