2025/03/06 02:09
KLAX 060209Z VRB04KT 2SM -RA BR BKN004 OVC009 11/11 A2989 RMK AO2 P0002 T01110106
