2025/02/22 19:53
KLAX 221953Z 25009KT 9SM FEW002 BKN200 18/12 A3023 RMK AO2 SLP237 T01780117 $
