2023/10/31 11:53
KLAX 311153Z VRB05KT 10SM CLR 16/M08 A3003 RMK AO2 SLP168 T01611078 10189 20139 55000
