2024/02/14 01:53
KLAX 140153Z 27009KT 10SM FEW015 FEW250 13/11 A3000 RMK AO2 SLP159 T01330106 $
