2023/09/09 23:53
KLAX 092353Z 24012KT 10SM SCT050 SCT110 BKN150 24/17 A2992 RMK AO2 SLP131 T02390167 10278 20239 56012
