2023/03/22 13:53
KLAX 221353Z 11007KT 9SM SCT030 BKN042 BKN060 09/08 A2996 RMK AO2 RAE11 SLP145 P0001 T00940078
