2023/11/08 05:53
KLAX 080553Z 36013G21KT 10SM CLR 18/04 A2999 RMK AO2 SLP153 T01830044 10194 20183 53005
