2026/05/16 19:53
KLAX 161953Z 25012KT 10SM FEW022 FEW038 20/13 A2991 RMK AO2 SLP127 T02000133
