2024/06/25 19:53
KLAX 251953Z 24012G22KT 10SM FEW035 23/15 A2995 RMK AO2 SLP140 T02280150
