2022/12/05 01:53
KLAX 050153Z VRB03KT 5SM BR OVC021 16/14 A3007 RMK AO2 SLP181 T01560144 $
