2023/11/01 15:53
KLAX 011553Z 02008KT 10SM FEW140 SCT160 BKN280 20/M07 A3006 RMK AO2 SLP178 T02001072 $
