2022/09/24 03:53
KLAX 240353Z 26006KT 10SM CLR 22/19 A2995 RMK AO2 SLP139 T02220189
