2023/10/19 13:53
KLAX 191353Z 28007KT 1/4SM R25L/4000VP6000FT FG VV001 16/16 A2993 RMK AO2 SLP133 T01610161 $
