2024/01/31 11:53
KLAX 311153Z 07004KT 10SM BKN220 BKN280 11/10 A2997 RMK AO2 SLP147 T01110100 10150 20111 58013 $
