2025/09/08 17:53
KLAX 081753Z 25008KT 10SM FEW010 23/18 A3006 RMK AO2 SLP179 T02330183 10239 20194 50005 $
