2023/01/03 23:53
KLAX 032353Z 07012G18KT 10SM BKN014 OVC021 14/12 A3003 RMK AO2 SLP168 T01440122 10144 20122 53004
