2023/01/17 15:53
KLAX 171553Z 33003KT 10SM FEW100 FEW180 11/03 A2990 RMK AO2 SLP123 T01060028 $
