2026/06/11 21:53
KLAX 112153Z 25011KT 10SM FEW015 FEW250 23/17 A2985 RMK AO2 SLP107 T02280167
