2023/05/29 07:53
KLAX 290753Z 26007KT 10SM FEW008 OVC027 16/14 A2996 RMK AO2 SLP143 T01610139 401780150
