2024/06/18 19:53
KLAX 181953Z 24010G17KT 9SM FEW015 SCT029 22/15 A2979 RMK AO2 SLP087 T02170150
