2024/03/30 09:53
KLAX 300953Z 10011KT 3SM +RA BR OVC006 10/09 A2972 RMK AO2 SLP061 VIS W 1 P0023 T01000094
