2023/06/29 03:53
KLAX 290353Z 24009KT 10SM FEW010 16/14 A2989 RMK AO2 SLP118 T01560139
