2023/08/23 01:53
KLAX 230153Z 25011KT 10SM FEW060 21/17 A2988 RMK AO2 SLP118 T02110172 $
