2022/11/26 09:53
KLAX 260953Z 09005KT 10SM CLR 11/01 A3015 RMK AO2 SLP206 T01110011 $
