2024/11/30 09:53
KLAX 300953Z 01006KT 10SM BKN200 16/M07 A3005 RMK AO2 SLP173 T01611072 $
