2023/11/20 09:53
KLAX 200953Z 01003KT 10SM FEW200 SCT250 14/05 A3005 RMK AO2 SLP172 T01440050
