2025/04/08 19:53
KLAX 081953Z 25010KT 9SM FEW010 FEW160 18/12 A3003 RMK AO2 SLP169 T01830122 $
