2022/12/27 23:53
KLAX 272353Z 00000KT 6SM -RA BR FEW008 SCT045 OVC050 15/14 A2996 RMK AO2 SLP143 P0004 60006 T01500139 10178 20150 56015
