2023/12/30 09:53
KLAX 300953Z 16004KT 8SM BKN023 OVC031 13/13 A3009 RMK AO2 RAB20E30 SLP189 P0001 T01330128 $
