2025/05/26 19:53
KLAX 261953Z 24008KT 10SM SCT026 BKN160 20/13 A3000 RMK AO2 SLP157 T02000133 $
