2026/07/11 12:53
KLAX 111253Z 12006KT 6SM HZ FEW007 SCT010 OVC015 20/16 A2992 RMK AO2 SLP127 T02000161 $
