2026/05/19 19:53
KLAX 191953Z 25012KT 8SM FEW031 FEW055 SCT240 22/13 A2996 RMK AO2 SLP145 FU FEW031 FU FEW055 T02220128
