2025/07/28 15:53
KLAX 281553Z VRB03KT 8SM OVC018 19/14 A3006 RMK AO2 SLP176 T01940144
