2025/01/06 11:53
KLAX 061153Z 00000KT 10SM FEW200 11/01 A3010 RMK AO2 SLP190 T01110006 10161 20094 55005
