2025/12/23 11:53
KLAX 231153Z 08003KT 3SM BR SCT008 OVC010 16/13 A2993 RMK AO2 SLP135 VIS 2V4 T01560133 10161 20150 50003 $
