2024/09/17 23:53
KLAX 172353Z 27013G21KT 10SM FEW040 20/13 A2992 RMK AO2 SLP129 T02000133 10222 20200 56011 $
