2025/12/21 01:53
KLAX 210153Z 26006KT 10SM FEW011 SCT220 16/13 A3005 RMK AO2 SLP174 T01560128 $
