2025/10/08 15:53
KLAX 081553Z VRB04KT 7SM FEW009 OVC014 18/14 A2993 RMK AO2 SLP134 T01830139 $
