2022/11/13 15:53
KLAX 131553Z 35008G17KT 10SM FEW023 FEW046 SCT065 15/02 A3002 RMK AO2 SLP164 T01500022 $
