2024/01/21 19:53
KLAX 211953Z 00000KT 10SM FEW009 BKN029 BKN042 16/12 A2991 RMK AO2 RAB07E33 SLP127 P0004 T01560122 $
