2025/03/26 07:53
KLAX 260753Z 24004KT 5SM BR FEW003 OVC006 13/12 A3001 RMK AO2 SLP161 T01280117 401830122 $
