2022/12/15 19:53
KLAX 151953Z 25008KT 10SM FEW090 SCT160 BKN180 BKN250 15/05 A3012 RMK AO2 SLP198 T01500050 $
