2026/06/06 11:53
KLAX 061153Z 16006KT 10SM OVC018 18/14 A2983 RMK AO2 SLP100 T01830139 10189 20183 58003 $
