2024/09/20 21:53
KLAX 202153Z 23015G19KT 10SM FEW017 21/14 A2990 RMK AO2 SLP123 T02060144 $
