2024/06/24 03:53
KLAX 240353Z 26004KT 10SM SCT150 20/15 A2988 RMK AO2 SLP114 T02000150
