2025/03/13 05:53
KLAX 130553Z 14011G17KT 10SM SCT015 BKN021 BKN085 14/12 A2994 RMK AO2 SLP139 60000 T01390117 10156 20139 58012 $
