2023/08/21 01:53
KLAX 210153Z 00000KT 1 1/4SM R25L/5000VP6000FT +RA BR FEW004 BKN008 OVC022 23/22 A2948 RMK AO2 SLP980 P0017 T02280222 $
