2023/04/22 23:53
KLAX 222353Z 26011KT 10SM FEW200 SCT250 21/11 A2980 RMK AO2 SLP091 T02060106 10272 20206 56018
