2025/06/22 23:53
KLAX 222353Z 26014KT 10SM CLR 23/13 A2988 RMK AO2 SLP118 T02280128 10233 20211 58012
