2024/07/16 09:53
KLAX 160953Z 26004KT 10SM FEW011 18/16 A2996 RMK AO2 SLP144 T01830156
