2023/06/21 09:53
KLAX 210953Z 34003KT 10SM FEW011 FEW220 16/14 A2997 RMK AO2 SLP146 T01610139
