2025/10/31 09:58
KLAX 310958Z 04003KT 7SM SCT005 BKN011 16/14 A2995 RMK AO2 T01610144 $
