2022/09/01 11:53
KLAX 011153Z 26006KT 10SM FEW004 BKN150 22/17 A2972 RMK AO2 SLP060 T02170172 10261 20211 56008
