2022/11/02 09:53
KLAX 020953Z 15005KT 3SM BR SCT006 BKN012 OVC020 15/14 A2998 RMK AO2 RAE45 SLP151 P0005 T01500139 VISNO RWY24 $
