2026/03/23 09:53
KLAX 230953Z 27004KT 2SM BR FEW002 OVC005 16/15 A2991 RMK AO2 SLP124 T01610150
