2024/11/26 19:53
KLAX 261953Z 23006KT 9SM FEW005 BKN021 BKN140 19/14 A3011 RMK AO2 SLP197 T01890139
