2026/05/16 07:53
KLAX 160753Z 25005KT 10SM FEW010 OVC027 16/13 A2994 RMK AO2 SLP137 T01610133 402000156
