2023/07/27 09:53
KLAX 270953Z 25004KT 10SM FEW007 20/18 A2989 RMK AO2 SLP118 T02000183 $
