2025/11/19 19:53
KLAX 191953Z 26010KT 10SM FEW026 SCT045 SCT180 17/08 A3005 RMK AO2 SLP177 T01670083 $
