2023/07/09 15:53
KLAX 091553Z 08005KT 10SM OVC016 19/14 A2993 RMK AO2 SLP135 T01890144
