2025/05/08 15:53
KLAX 081553Z 24005KT 10SM FEW009 17/13 A3009 RMK AO2 SLP189 T01720133 $
