2025/03/07 07:53
KLAX 070753Z 28010KT 10SM FEW011 FEW025 SCT050 SCT150 10/05 A2991 RMK AO2 SLP127 T01000050 401330089 $
