2025/08/28 11:53
KLAX 281153Z 28004KT 10SM FEW008 FEW012 SCT160 BKN250 21/18 A3003 RMK AO2 SLP167 T02060183 10206 20206 53001 $
