2023/06/25 19:53
KLAX 251953Z 24009KT 10SM FEW017 21/12 A3005 RMK AO2 SLP175 T02060122
