2026/02/12 15:53
KLAX 121553Z 36004KT 10SM FEW047 FEW170 SCT250 13/08 A3017 RMK AO2 SLP214 T01330083
