2026/03/01 03:53
KLAX 010353Z 24005KT 10SM FEW200 18/13 A2991 RMK AO2 SLP125 T01830133
