2025/05/13 05:53
KLAX 130553Z 26016KT 10SM FEW014 FEW040 SCT200 15/11 A2995 RMK AO2 SLP139 T01500106 10189 20150 51014 $
