2022/10/09 15:53
KLAX 091553Z 25005KT 4SM BR OVC008 19/17 A3006 RMK AO2 SLP176 VIS W-NW 2 T01940172 $
