2025/05/23 21:53
KLAX 232153Z 23011KT 10SM FEW031 21/13 A2994 RMK AO2 SLP135 T02060128
