2022/12/17 07:53
KLAX 170753Z 02003KT 10SM FEW250 13/M04 A3009 RMK AO2 SLP188 T01281044 402060100 $
