2024/11/16 19:53
KLAX 161953Z VRB05KT 10SM FEW110 19/M02 A2993 RMK AO2 SLP133 T01941022 $
