2023/08/19 05:53
KLAX 190553Z 26007KT 10SM CLR 19/16 A2985 RMK AO2 SLP106 T01890161 10222 20183 51017 $
