2024/11/30 17:53
KLAX 301753Z VRB03KT 10SM FEW150 BKN250 22/M07 A3008 RMK AO2 SLP184 T02171067 10217 20122 51015 $
