2025/02/26 21:53
KLAX 262153Z 26009KT 6SM HZ SCT005 16/13 A2996 RMK AO2 SLP146 T01610128
