2026/01/24 01:53
KLAX 240153Z 28010KT 10SM FEW011 SCT029 SCT130 15/13 A2988 RMK AO2 SLP119 T01500128 $
