2025/08/09 21:53
KLAX 092153Z 25012G20KT 10SM BKN009 21/17 A2990 RMK AO2 SLP125 T02110167 $
