2026/05/12 17:53
KLAX 121753Z 24008KT 10SM FEW009 OVC016 17/12 A3003 RMK AO2 SLP168 T01720122 10172 20139 52020
