2025/08/16 09:53
KLAX 160953Z 10008KT 10SM OVC018 20/16 A2998 RMK AO2 SLP151 T02000156 $
