2025/02/17 09:53
KLAX 170953Z 06003KT 10SM FEW250 12/11 A2997 RMK AO2 SLP148 T01170106 $
