2026/06/21 02:53
KLAX 210253Z 26011KT 10SM FEW016 FEW035 18/13 A2993 RMK AO2 SLP133 FU FEW035 T01780133 56006
