2023/01/28 03:53
KLAX 280353Z 22003KT 10SM CLR 12/10 A2999 RMK AO2 SLP156 T01220100 $
