2025/04/06 19:53
KLAX 061953Z 26011KT 10SM CLR 21/06 A3019 RMK AO2 SLP223 T02060056 $
