2026/06/30 15:53
KLAX 301553Z 26008KT 10SM FEW009 BKN016 BKN032 19/14 A2996 RMK AO2 SLP143 T01940139 $
