2026/04/06 13:53
KLAX 061353Z 08003KT 10SM FEW008 FEW120 BKN140 OVC160 17/15 A2999 RMK AO2 SLP152 T01720150 $
