2025/03/19 03:53
KLAX 190353Z 33005KT 10SM CLR 14/09 A3026 RMK AO2 SLP248 T01390089 $
