2025/08/19 23:53
KLAX 192353Z 25014KT 10SM FEW010 FEW250 24/18 A2997 RMK AO2 SLP147 T02390178 10250 20239 56012
