2026/05/31 11:53
KLAX 311153Z 00000KT 9SM FEW010 16/13 A2990 RMK AO2 SLP125 T01560133 10172 20156 56004 $
