2023/02/16 11:53
KLAX 161153Z 00000KT 10SM CLR 07/M05 A3024 RMK AO2 SLP239 T00671050 10117 20050 58006 $
