2026/03/10 15:53
KLAX 101553Z 00000KT 10SM FEW009 OVC019 15/11 A3007 RMK AO2 SLP183 T01500111 $
