2026/01/12 01:53
KLAX 120153Z 00000KT 10SM FEW250 18/03 A3017 RMK AO2 SLP217 T01780033 $
