2023/06/20 15:53
KLAX 201553Z 36004KT 10SM FEW010 FEW019 SCT032 20/13 A3001 RMK AO2 SLP161 T02000128
