2025/07/10 11:53
KLAX 101153Z 00000KT 10SM FEW008 FEW250 17/15 A2993 RMK AO2 SLP133 T01720150 10178 20167 55000 $
