2025/04/07 15:53
KLAX 071553Z 11006KT 10SM FEW017 FEW070 SCT250 16/09 A3010 RMK AO2 SLP191 T01610094 $
