2024/09/13 05:53
KLAX 130553Z 20003KT 10SM FEW012 19/16 A2975 RMK AO2 SLP072 T01890161 10217 20183 51009 $
