2025/08/15 15:53
KLAX 151553Z 11006KT 8SM OVC018 20/16 A2995 RMK AO2 SLP140 T02000156 $
