2026/06/12 21:53
KLAX 122153Z 26014KT 10SM FEW011 SCT046 23/17 A2984 RMK AO2 SLP102 T02280167
