2025/11/19 23:53
KLAX 192353Z 26013KT 10SM FEW035 FEW150 16/09 A3001 RMK AO2 SLP162 T01560089 10167 20150 55007 $
