2023/04/13 09:53
KLAX 130953Z 26009KT 6SM BR FEW006 SCT010 OVC018 12/11 A2980 RMK AO2 SLP088 T01220106 $
