2026/04/08 05:53
KLAX 080553Z 23004KT 10SM FEW007 FEW015 17/15 A2993 RMK AO2 SLP134 T01670150 10194 20167 51008 $
