2022/11/17 13:53
KLAX 171353Z VRB03KT 10SM FEW250 13/M06 A3020 RMK AO2 SLP225 T01281061
