2024/11/22 19:53
KLAX 221953Z 25009KT 10SM FEW250 19/09 A3003 RMK AO2 SLP167 T01940094
