2023/10/09 01:53
KLAX 090153Z 25009KT 6SM BR OVC004 17/17 A2982 RMK AO2 SLP098 T01720167
