2023/04/08 23:59
KLAX 082359Z 25012KT 10SM BKN008 14/12 A3005 RMK AO2 CIG 006V012 T01440117
