2025/10/29 17:53
KLAX 291753Z VRB05KT 10SM CLR 31/M02 A3001 RMK AO2 SLP160 T03111022 10311 20161 50004 $
