2025/05/28 19:53
KLAX 281953Z 25010KT 10SM FEW018 SCT022 BKN160 19/13 A2997 RMK AO2 SLP148 SCT V BKN T01890133 $
