2023/10/10 19:53
KLAX 101953Z 24007KT 200V280 10SM FEW015 FEW025 22/15 A2980 RMK AO2 SLP089 T02170150 $
