2025/03/09 21:53
KLAX 092153Z 26008KT 10SM CLR 17/08 A3013 RMK AO2 SLP204 T01720078
