2023/04/19 09:53
KLAX 190953Z 08005KT 10SM CLR 11/08 A2999 RMK AO2 SLP155 T01060078
