2025/01/21 13:53
KLAX 211353Z 03004KT 10SM CLR 08/M11 A3043 RMK AO2 SLP301 T00781106 VISNO RWY24 $
