2024/08/10 17:53
KLAX 101753Z 27007KT 10SM CLR 26/18 A2989 RMK AO2 SLP121 T02560178 10267 20178 58003 $
