2024/11/22 13:53
KLAX 221353Z 00000KT 10SM FEW001 FEW250 08/06 A3007 RMK AO2 SLP182 VIS SE 2 1/2 T00830056 $
