2022/11/16 09:53
KLAX 160953Z 09004KT 10SM CLR 11/06 A3017 RMK AO2 SLP216 T01060056
