2023/03/06 07:53
KLAX 060753Z 25006KT 10SM FEW011 SCT027 BKN050 12/08 A3013 RMK AO2 RAB12E30 SLP201 P0000 T01220083 401440100 $
