2025/08/18 18:53
KLAX 181853Z 25009KT 9SM FEW010 23/17 A2997 RMK AO2 SLP148 T02330172 $
