2025/01/13 17:53
KLAX 131753Z 00000KT 10SM FEW070 16/M04 A3023 RMK AO2 SLP234 T01561039 10161 20061 53022
