2022/11/18 19:53
KLAX 181953Z 10003KT 10SM FEW110 FEW140 SCT160 SCT250 19/08 A2995 RMK AO2 SLP141 T01940078
