2024/09/28 07:53
KLAX 280753Z 25005KT 9SM FEW004 OVC007 15/13 A2986 RMK AO2 SLP110 T01500133 401940150
