2023/12/17 01:53
KLAX 170153Z 24005KT 10SM FEW200 BKN280 18/08 A3002 RMK AO2 SLP165 T01780078 $
