2024/07/29 19:53
KLAX 291953Z 26010KT 10SM FEW009 22/14 A2999 RMK AO2 SLP153 T02220144
