2024/04/07 15:53
KLAX 071553Z VRB03KT 10SM FEW013 FEW200 BKN260 12/05 A3013 RMK AO2 SLP203 T01220050 $
