2024/03/22 11:53
KLAX 221153Z 08003KT 5SM BR SCT009 12/11 A3007 RMK AO2 SLP179 T01220111 10144 20122 56013 $
