2024/02/21 19:53
KLAX 211953Z 25012KT 10SM FEW010 SCT100 BKN150 BKN250 16/12 A3017 RMK AO2 SLP215 T01610122 $
