2023/09/06 15:53
KLAX 061553Z 26005KT 9SM FEW020 BKN029 OVC035 21/16 A2997 RMK AO2 SLP148 T02060161
