2023/01/19 17:53
KLAX 191753Z 13003KT 10SM FEW025 FEW120 12/07 A3016 RMK AO2 SLP213 T01170067 10122 20061 51005
