2023/09/01 03:53
KLAX 010353Z 24006KT 9SM FEW010 SCT150 21/18 A2981 RMK AO2 SLP092 T02060183 $
