2025/04/19 05:53
KLAX 190553Z 33003KT 10SM FEW005 SCT045 13/09 A3007 RMK AO2 SLP181 T01330094 10161 20128 50011 $
