2023/10/09 17:53
KLAX 091753Z 25006KT 5SM HZ FEW007 SCT010 BKN140 19/16 A2987 RMK AO2 SLP113 SCT V BKN T01940161 10200 20161 58003
