2024/01/14 01:53
KLAX 140153Z 26006KT 10SM SCT200 13/09 A3007 RMK AO2 SLP184 T01280089 $
