2022/08/24 01:53
KLAX 240153Z 26008KT 10SM FEW010 21/17 A2977 RMK AO2 SLP080 T02060172 $
