2025/04/18 15:53
KLAX 181553Z 26008KT 8SM FEW010 OVC025 14/09 A3000 RMK AO2 SLP158 T01390089
