2023/09/27 01:53
KLAX 270153Z 23005KT 10SM FEW250 19/14 A2992 RMK AO2 SLP131 T01940144 $
