2024/02/21 11:53
KLAX 211153Z 36004KT 3SM -RA BR SCT002 BKN005 OVC040 13/13 A3004 RMK AO2 SLP172 P0012 60020 70070 T01280128 10139 20128 56005 $
