2026/01/09 13:53
KLAX 091353Z 00000KT 10SM FEW200 BKN250 08/M03 A3028 RMK AO2 SLP252 T00781033 $
