2025/10/09 13:53
KLAX 091353Z 00000KT 10SM FEW070 FEW150 SCT190 16/12 A2992 RMK AO2 SLP130 T01560122 $
