2025/07/30 07:53
KLAX 300753Z 00000KT 10SM FEW008 18/16 A2999 RMK AO2 SLP154 T01830161 402330172 $
