2024/11/18 07:53
KLAX 180753Z 10006KT 10SM FEW140 12/08 A2996 RMK AO2 SLP144 T01170078 402060072 $
