2024/03/25 11:53
KLAX 251153Z VRB03KT 10SM FEW120 FEW160 12/04 A2987 RMK AO2 SLP113 70007 T01220039 10139 20111 51007 $
