2025/10/31 23:53
KLAX 312353Z 27009KT 10SM FEW280 19/15 A2995 RMK AO2 SLP139 T01890150 10217 20189 56008 $
