2023/09/04 07:53
KLAX 040753Z 02004KT 10SM FEW025 19/16 A2994 RMK AO2 SLP135 T01940161 402500189 $
