2023/07/22 23:53
KLAX 222353Z 27010KT 10SM FEW011 SCT200 21/17 A2983 RMK AO2 SLP101 T02110167 10233 20206 58016
