2026/05/29 04:53
KLAX 290453Z 26010KT 10SM BKN065 BKN110 16/11 A2997 RMK AO2 SLP147 T01610111 $
