2025/11/24 19:53
KLAX 241953Z 00000KT 10SM FEW011 FEW230 SCT270 18/12 A3013 RMK AO2 SLP203 T01830122
