2025/11/01 05:53
KLAX 010553Z 00000KT 6SM BR FEW005 FEW008 17/16 A3001 RMK AO2 SLP160 T01670156 10189 20167 51013 $
