2024/12/26 07:53
KLAX 260753Z 10006KT 10SM CLR 12/06 A3006 RMK AO2 SLP178 T01170061 401780106
