2024/03/08 03:53
KLAX 080353Z 06006KT 10SM FEW015 FEW100 13/10 A2997 RMK AO2 SLP148 T01330100
