2026/05/26 06:53
KLAX 260653Z 24009KT 10SM FEW012 16/12 A2990 RMK AO2 SLP125 T01560122 $
