2025/05/05 09:59
KLAX 050959Z 10003KT 10SM FEW022 OVC030 14/11 A2978 RMK AO2 CIG 022 RWY24 T01440111
