2025/08/28 04:53
KLAX 280453Z VRB04KT 10SM SCT160 SCT230 BKN290 21/18 A3004 RMK AO2 SLP171 T02110178 $
