2023/03/07 21:53
KLAX 072153Z 26015KT 10SM FEW013 FEW050 SCT250 14/07 A3011 RMK AO2 SLP195 T01440067 $
