2023/07/07 05:53
KLAX 070553Z 20007KT 10SM BKN009 16/14 A2989 RMK AO2 SLP119 T01560139 10200 20156 53005 $
