2024/01/22 03:53
KLAX 220353Z 12007KT 10SM FEW012 SCT018 OVC070 15/13 A2993 RMK AO2 SLP134 T01500133 $
