2025/04/11 19:53
KLAX 111953Z 25009KT 9SM FEW010 FEW100 SCT180 20/13 A3003 RMK AO2 SLP168 T02000133
