2024/09/13 01:53
KLAX 130153Z 27007KT 10SM FEW010 19/15 A2972 RMK AO2 SLP061 T01940150 $
