2023/07/27 19:53
KLAX 271953Z 24009KT 10SM CLR 26/19 A2993 RMK AO2 SLP131 T02560189 $
