2026/02/28 07:53
KLAX 280753Z 12003KT 10SM SCT220 19/12 A2990 RMK AO2 SLP121 T01890122 403000150
