2024/10/15 12:53
KLAX 151253Z 36003KT 8SM FEW011 OVC015 18/14 A3003 RMK AO2 SLP166 T01830144 $
