2023/01/14 09:53
KLAX 140953Z 04005KT 6SM BR FEW020 OVC150 13/12 A3004 RMK AO2 SLP169 T01280117
