2025/01/28 17:53
KLAX 281753Z 10005KT 10SM FEW020 SCT120 BKN190 12/06 A3010 RMK AO2 SLP191 T01220061 10128 20067 51008
