2022/10/20 23:53
KLAX 202353Z 26013KT 10SM FEW150 FEW250 25/15 A2986 RMK AO2 SLP109 T02500150 10300 20250 56012 $
