2022/11/03 23:53
KLAX 032353Z 33011KT 10SM FEW080 FEW250 18/01 A3007 RMK AO2 SLP184 T01780011 10178 20156 53007 VISNO RWY24 $
