2024/11/04 11:53
KLAX 041153Z 00000KT 10SM CLR 16/07 A2999 RMK AO2 SLP155 T01560067 10189 20128 51008
