2025/05/05 11:53
KLAX 051153Z 00000KT 10SM FEW009 FEW018 OVC028 14/11 A2978 RMK AO2 SLP084 60000 T01440106 10156 20144 53001
