2025/01/31 13:53
KLAX 311353Z 08003KT 10SM FEW200 SCT250 07/05 A3025 RMK AO2 SLP244 T00720050 $
