2022/12/30 19:53
KLAX 301953Z 00000KT 7SM SCT018 BKN030 OVC035 14/12 A3011 RMK AO2 SLP197 T01440122
