2024/01/24 19:53
KLAX 241953Z VRB05KT 8SM SCT022 SCT085 OVC120 17/12 A3014 RMK AO2 SLP204 T01670117
