2023/09/25 01:53
KLAX 250153Z 26012KT 8SM FEW010 18/16 A2997 RMK AO2 SLP148 T01830161 $
