2024/04/08 21:53
KLAX 082153Z 27015KT 10SM FEW080 20/08 A2994 RMK AO2 SLP139 T02000078 $
