2023/05/11 03:53
KLAX 110353Z 22004KT 10SM FEW020 FEW050 14/11 A3004 RMK AO2 SLP170 T01440106
