2023/05/15 02:53
KLAX 150253Z 27007KT 10SM OVC010 16/13 A2997 RMK AO2 SLP147 T01560133 53007
