2026/05/01 19:53
KLAX 011953Z 24011KT 10SM FEW030 FEW070 21/13 A2995 RMK AO2 SLP139 T02060128
