2023/09/28 09:53
KLAX 280953Z 07004KT 7SM FEW005 BKN007 18/17 A2987 RMK AO2 SLP111 T01830172 $
