2025/09/22 03:53
KLAX 220353Z 28010KT 10SM FEW007 SCT150 19/18 A2986 RMK AO2 SLP110 T01940178
