2023/08/14 19:53
KLAX 141953Z 26010KT 8SM OVC008 22/18 A2994 RMK AO2 SLP137 T02170183 $
