2025/03/17 17:53
KLAX 171753Z 15003KT 7SM FEW140 SCT190 BKN250 16/10 A3012 RMK AO2 SLP198 60000 T01560100 10156 20111 51009 $
