2024/04/13 09:53
KLAX 130953Z 15006KT 10SM OVC041 14/07 A3002 RMK AO2 SLP164 T01440072 $
