2023/10/05 13:53
KLAX 051353Z 10004KT 10SM CLR 18/14 A2995 RMK AO2 SLP138 T01780139 $
