2025/07/14 03:53
KLAX 140353Z 25009KT 7SM OVC004 17/16 A2995 RMK AO2 SLP141 T01670156
