2025/04/23 12:53
KLAX 231253Z 25003KT 10SM OVC022 14/09 A2993 RMK AO2 SLP135 T01390089
