2023/08/17 12:53
KLAX 171253Z 17003KT 1/4SM R25L/P6000FT FG VV002 17/17 A2986 RMK AO2 SLP109 VIS S 1/2 T01720172
