2024/01/28 15:53
KLAX 281553Z 35004KT 10SM SCT220 SCT270 BKN300 14/06 A3012 RMK AO2 SLP196 T01390061 CHINO RWY24 $
