2024/08/03 13:53
KLAX 031353Z 00000KT 10SM FEW003 18/16 A2997 RMK AO2 SLP147 T01780161 $
