2024/03/10 13:53
KLAX 101353Z 00000KT 10SM FEW250 SCT300 10/06 A3008 RMK AO2 SLP185 T01000061 $
