2023/01/21 13:53
KLAX 211353Z 10004KT 10SM CLR 07/02 A3028 RMK AO2 SLP253 T00670017
