2025/04/26 11:53
KLAX 261153Z VRB04KT 10SM BKN046 BKN060 13/08 A2993 RMK AO2 SLP132 T01280078 10133 20128 56008
