2023/02/13 05:53
KLAX 130553Z 15003KT 10SM FEW025 FEW250 11/07 A2986 RMK AO2 SLP109 T01110067 10128 20106 58005 $
