2024/08/15 11:53
KLAX 151153Z 00000KT 10SM FEW010 19/17 A2991 RMK AO2 SLP125 T01890167 10206 20183 55001 $
