2024/07/15 11:53
KLAX 151153Z 24006KT 10SM BKN009 18/16 A3003 RMK AO2 SLP167 T01780161 10183 20178 53001
