2025/03/26 19:53
KLAX 261953Z 25006KT 7SM FEW010 OVC016 14/11 A3009 RMK AO2 SLP187 T01390106 $
