2026/07/03 15:53
KLAX 031553Z 00000KT 10SM FEW009 OVC016 19/14 A3001 RMK AO2 SLP161 T01890144 $
