2026/05/04 13:53
KLAX 041353Z 27009KT 10SM FEW016 FEW025 BKN070 BKN160 15/10 A2997 RMK AO2 SLP149 T01500100
