2022/11/18 11:53
KLAX 181153Z 09005KT 10SM CLR 10/01 A2999 RMK AO2 SLP152 T01000006 10150 20100 58015
