2025/06/01 05:53
KLAX 010553Z 28013G23KT 5SM BR OVC003 17/16 A2994 RMK AO2 SLP136 VIS W 3/4 T01720156 10206 20167 53006 $
