2024/09/19 15:53
KLAX 191553Z VRB03KT 10SM BKN024 OVC029 19/14 A2991 RMK AO2 SLP126 T01940144 $
