2024/08/26 01:53
KLAX 260153Z 25013KT 10SM CLR 21/16 A3001 RMK AO2 SLP161 T02110161
