2025/08/18 15:45
KLAX 181545Z 14003KT 10SM SCT013 21/17 A2997 RMK AO2 T02110167 $
