2025/02/15 23:53
KLAX 152353Z 25010KT 10SM BKN250 16/10 A3018 RMK AO2 SLP220 T01560100 10189 20156 55012 $
