2025/08/12 01:53
KLAX 120153Z 26008KT 10SM FEW008 20/17 A2989 RMK AO2 SLP121 T02000172 $
