2023/09/04 01:53
KLAX 040153Z 25013KT 10SM FEW019 FEW060 21/16 A2995 RMK AO2 SLP141 T02060156 $
