2023/09/15 17:53
KLAX 151753Z 21005KT 9SM OVC022 21/16 A3000 RMK AO2 SLP156 T02060161 10206 20194 50008
