2022/08/28 11:53
KLAX 281153Z 28004KT 10SM OVC018 20/17 A2985 RMK AO2 SLP105 T02000167 10206 20194 50001 $
