2023/01/23 07:53
KLAX 230753Z 02013G22KT 10SM FEW200 13/M10 A2994 RMK AO2 PK WND 03026/0737 SLP137 WSHFT 0733 T01331100 401560050 $
