2026/03/14 03:53
KLAX 140353Z 23005KT 10SM SCT220 19/10 A2991 RMK AO2 SLP124 T01940100
