2022/11/09 17:53
KLAX 091753Z 29006KT 10SM FEW018 SCT028 BKN050 14/08 A3011 RMK AO2 SLP194 60010 T01390078 10144 20111 51025
