2023/07/10 13:53
KLAX 101353Z 09004KT 10SM FEW009 FEW014 SCT031 17/13 A2994 RMK AO2 SLP137 T01720133
