2025/10/15 11:53
KLAX 151153Z VRB04KT 10SM FEW014 FEW035 SCT050 13/11 A2999 RMK AO2 SLP155 60012 70059 T01330106 10150 20128 53001 $
