2024/05/29 13:53
KLAX 291353Z 09005KT 8SM OVC011 15/12 A3004 RMK AO2 SLP171 T01500122 $
