2024/10/26 07:53
KLAX 260753Z 25003KT 7SM FEW002 FEW006 16/14 A3004 RMK AO2 SLP169 VIS W 3 T01560144 401940133 $
