2023/07/11 23:53
KLAX 112353Z 24010KT 10SM FEW009 21/15 A2996 RMK AO2 SLP142 T02110150 10217 20189 56007 $
