2024/10/21 09:53
KLAX 210953Z 07004KT 10SM CLR 16/08 A3006 RMK AO2 SLP177 T01560083 $
