2025/03/09 01:53
KLAX 090153Z 26011KT 10SM CLR 13/10 A3025 RMK AO2 SLP244 T01280100
