2023/11/12 05:53
KLAX 120553Z 09005KT 10SM CLR 16/10 A3005 RMK AO2 SLP172 T01560100 10206 20150 51008
