2023/09/09 09:53
KLAX 090953Z 30004KT 10SM CLR 21/19 A2999 RMK AO2 SLP154 T02060189
