2025/01/24 07:53
KLAX 240753Z 01006KT 10SM CLR 17/M02 A3019 RMK AO2 SLP221 T01671022 402670083
