2023/02/14 05:53
KLAX 140553Z 15007KT 10SM FEW027 BKN050 14/11 A2997 RMK AO2 SLP148 T01390106 10150 20133 50004 $
