2024/10/16 16:53
KLAX 161653Z 00000KT 5SM HZ OVC017 18/14 A2999 RMK AO2 SLP154 T01830144 $
