2025/07/11 03:53
KLAX 110353Z 27009KT 10SM CLR 18/16 A2987 RMK AO2 SLP113 T01830161 $
