2022/11/06 07:53
KLAX 060753Z 04005KT 10SM SCT150 14/10 A2993 RMK AO2 SLP133 T01440100 401890106
