2024/01/28 09:53
KLAX 280953Z 00000KT 10SM BKN200 14/07 A3011 RMK AO2 SLP194 T01440072 $
