2023/04/02 15:53
KLAX 021553Z 12005KT 9SM FEW015 13/10 A3011 RMK AO2 SLP195 T01330100 $
