2026/01/12 17:53
KLAX 121753Z 00000KT 10SM FEW140 SCT180 BKN250 18/02 A3023 RMK AO2 SLP237 T01780022 10178 20089 51010 $
