2025/11/01 11:53
KLAX 011153Z 27005KT 3SM BR OVC004 16/15 A3001 RMK AO2 SLP162 T01560150 10172 20156 55000 $
