2023/09/28 13:53
KLAX 281353Z 16003KT 9SM FEW009 OVC014 18/16 A2987 RMK AO2 SLP113 T01830156 $
