2024/05/03 01:53
KLAX 030153Z 26008KT 10SM FEW014 16/12 A2986 RMK AO2 SLP111 T01560122 $
