2024/12/28 17:53
KLAX 281753Z 27007KT 4SM BR OVC013 15/12 A3016 RMK AO2 SLP211 T01500117 10150 20133 53015
