2023/01/04 11:53
KLAX 041153Z 08009KT 2SM -DZ BR VV004 14/14 A3007 RMK AO2 RAE01DZB46 SLP180 VIS N 1 1/2 VIS SW-NW 1 1/4 P0000 60002 70004 T01390139 10139 20139 58005
