2024/04/25 03:53
KLAX 250353Z 27012KT 10SM FEW050 14/10 A3005 RMK AO2 SLP175 T01440100
