2024/12/27 01:53
KLAX 270153Z 29004KT 10SM FEW210 FEW240 SCT280 14/12 A3006 RMK AO2 PRESRR SLP178 T01390117 CHINO RWY24 $
