2023/01/03 17:53
KLAX 031753Z 07013G20KT 7SM SCT008 OVC014 12/10 A3008 RMK AO2 SLP186 60001 T01220100 10122 20100 53019
