2024/04/16 07:53
KLAX 160753Z 13003KT 10SM FEW011 SCT250 13/11 A3005 RMK AO2 SLP176 T01280111 401670083 $
