2023/12/11 05:53
KLAX 110553Z 04003KT 10SM FEW250 17/01 A3005 RMK AO2 SLP172 T01670006 10183 20150 56002 $
