2022/08/29 23:53
KLAX 292353Z 26016KT 10SM FEW020 FEW050 22/16 A2987 RMK AO2 SLP113 T02220161 10244 20222 56014 $
