2023/11/03 01:53
KLAX 030153Z 28008KT 10SM FEW250 19/13 A3003 RMK AO2 SLP169 T01940128 $
