2025/10/20 09:53
KLAX 200953Z 00000KT 10SM FEW250 16/14 A3002 RMK AO2 SLP163 T01610139
