2023/12/28 19:53
KLAX 281953Z 00000KT 6SM HZ FEW027 FEW120 SCT180 17/11 A3017 RMK AO2 SLP216 T01670106 $
