2023/05/21 11:53
KLAX 211153Z 29003KT 8SM OVC005 15/14 A3001 RMK AO2 SLP162 T01500139 10156 20150 56008
