2023/03/10 05:53
KLAX 100553Z 27008KT 10SM FEW020 BKN070 13/09 A3013 RMK AO2 SLP202 T01330094 10156 20128 53012 $
