2023/03/30 13:53
KLAX 301353Z 04004KT 10SM RA FEW009 BKN045 BKN080 08/07 A2992 RMK AO2 RAB1257 SLP132 P0002 T00830067
