2023/10/12 07:53
KLAX 120753Z VRB05KT 10SM CLR 17/13 A2968 RMK AO2 SLP049 T01720133 402220167
