2024/02/26 23:53
KLAX 262353Z 26008KT 10SM OVC060 14/12 A2997 RMK AO2 RAB03E39 SLP147 P0001 60001 T01440117 10172 20144 56011 $
