2024/05/07 05:53
KLAX 070553Z 25006KT 10SM CLR 14/11 A2997 RMK AO2 SLP147 T01390106 10178 20133 50001 $
