2023/05/08 13:53
KLAX 081353Z 35003KT 10SM SCT014 BKN021 15/12 A3005 RMK AO2 SLP173 T01500117
