2025/07/16 14:53
KLAX 161453Z 22004KT 8SM FEW014 OVC020 19/14 A2998 RMK AO2 SLP149 T01940144 53013 $
