2023/03/20 19:53
KLAX 201953Z 24012KT 10SM FEW009 SCT017 BKN035 16/12 A2996 RMK AO2 SLP145 T01560117
