2024/03/07 07:53
KLAX 070753Z VRB03KT 10SM FEW012 FEW040 SCT070 11/09 A2984 RMK AO2 SLP102 T01110089 401610100
