2024/03/21 15:53
KLAX 211553Z 12004KT 8SM BKN016 OVC021 15/11 A3011 RMK AO2 SLP195 T01500111 $
