2024/02/06 09:53
KLAX 060953Z 00000KT 4SM BR FEW002 BKN005 OVC022 12/12 A2972 RMK AO2 RAE47 SLP064 VIS NW 2 1/2 P0001 T01170117
