2026/01/07 05:53
KLAX 070553Z 33005KT 10SM FEW075 BKN190 BKN230 16/11 A3001 RMK AO2 SLP161 T01610111 10183 20150 56002 $
