2026/07/15 22:53
KLAX 152253Z 26010KT 10SM FEW100 FEW200 SCT250 26/17 A2980 RMK AO2 SLP091 T02560172 $
