2023/05/24 13:53
KLAX 241353Z 23004KT 6SM BR FEW006 BKN014 OVC018 14/13 A2995 RMK AO2 DZE28 SLP139 P0000 T01390133 $
