2023/10/12 17:53
KLAX 121753Z 20003KT 10SM CLR 22/14 A2978 RMK AO2 SLP084 T02170144 10222 20156 50008
