2022/10/15 21:53
KLAX 152153Z 25007KT 10SM FEW010 BKN029 BKN039 21/14 A2988 RMK AO2 SLP115 T02110139 $
