2023/06/20 21:53
KLAX 202153Z 26013KT 10SM FEW015 FEW040 22/13 A3001 RMK AO2 SLP160 T02170133
