2025/02/14 03:53
KLAX 140353Z 24013KT 10SM FEW013 SCT020 BKN031 14/13 A2996 RMK AO2 SLP145 T01440128 $
