2022/11/01 07:59
KLAX 010759Z 26003KT 6SM BR OVC006 18/16 A2988 RMK AO2 T01780161 CHINO RWY24 VISNO RWY24 $
