2023/12/15 03:53
KLAX 150353Z 31006KT 10SM SCT280 18/02 A3013 RMK AO2 SLP204 T01830017 $
