2025/11/11 09:53
KLAX 110953Z 00000KT 1/8SM R25L/2200VP6000FT FG VV002 16/16 A3008 RMK AO2 SLP185 T01560156 $
