2025/03/16 23:53
KLAX 162353Z 26012KT 10SM SCT200 BKN250 15/09 A3011 RMK AO2 SLP197 T01500089 10178 20150 58011 $
