2022/09/27 01:53
KLAX 270153Z 25010KT 10SM SCT150 23/17 A2983 RMK AO2 SLP100 T02280167
