2025/04/11 01:53
KLAX 110153Z 23008KT 10SM FEW200 FEW250 17/12 A3005 RMK AO2 SLP175 T01720122
