2024/06/22 05:53
KLAX 220553Z 22004KT 10SM CLR 17/14 A2978 RMK AO2 SLP082 T01720144 10217 20172 53013
