2026/04/22 15:53
KLAX 221553Z 25007KT 220V290 10SM FEW018 FEW070 SCT160 BKN250 17/09 A3015 RMK AO2 SLP208 T01720089 $
