2025/05/28 11:53
KLAX 281153Z 00000KT 10SM OVC013 16/13 A2995 RMK AO2 SLP141 T01610133 10167 20161 58011 $
