2024/02/20 07:53
KLAX 200753Z 08006KT 2SM BR FEW002 BKN004 OVC006 13/13 A3013 RMK AO2 RAE0656B19E53 SLP203 P0004 T01280128 401440128 $
