2025/08/22 14:53
KLAX 221453Z 11003KT 10SM FEW180 FEW250 24/17 A2985 RMK AO2 SLP107 T02390172 53010
