2026/03/13 03:53
KLAX 130353Z 00000KT 10SM CLR 21/11 A3002 RMK AO2 SLP162 T02060111 $
