2024/06/21 03:53
KLAX 210353Z 27010KT 10SM CLR 17/13 A2977 RMK AO2 SLP079 T01720128
