2025/06/07 13:53
KLAX 071353Z 26009KT 10SM BKN013 OVC018 16/13 A2999 RMK AO2 SLP152 T01610128
