2023/11/04 19:53
KLAX 041953Z 26009KT 6SM HZ FEW005 BKN200 19/11 A3004 RMK AO2 SLP171 T01940111
