2023/08/22 15:53
KLAX 221553Z 24003KT 10SM FEW030 FEW180 22/18 A2997 RMK AO2 SLP147 T02220178 $
