2025/09/27 07:53
KLAX 270753Z 18005KT 10SM FEW016 BKN029 21/17 A2987 RMK AO2 SLP112 T02060172 402220189 $
