2026/02/21 02:53
KLAX 210253Z 27008KT 10SM FEW140 12/02 A3007 RMK AO2 SLP182 T01170022 51012 $
