2025/03/23 01:53
KLAX 230153Z 24004KT 10SM BKN250 16/12 A2993 RMK AO2 SLP134 T01560117 $
