2024/12/06 23:53
KLAX 062353Z 25006KT 10SM FEW005 17/12 A3003 RMK AO2 SLP168 T01670117 10172 20117 55006
