2025/11/29 11:53
KLAX 291153Z 00000KT 4SM BR BKN006 13/12 A3000 RMK AO2 SLP157 T01280122 10150 20128 58002 $
