2025/08/22 17:53
KLAX 221753Z 26009KT 10SM FEW180 FEW250 28/19 A2986 RMK AO2 SLP111 T02780194 10289 20217 50004
