2023/06/08 17:53
KLAX 081753Z 26010KT 10SM FEW012 SCT025 BKN120 19/13 A3004 RMK AO2 SLP172 T01890128 10194 20133 51008
