2023/11/23 15:53
KLAX 231553Z 07003KT 10SM FEW100 BKN160 BKN250 16/06 A2988 RMK AO2 SLP116 T01610061
