2023/01/09 19:53
KLAX 091953Z 12009KT 1 3/4SM -RA BR SCT007 OVC010 14/13 A3010 RMK AO2 SLP192 VIS SW-NW 1 1/4 P0005 T01440133
