2023/08/10 03:53
KLAX 100353Z 25009KT 10SM SCT012 SCT150 19/17 A2993 RMK AO2 SLP132 T01890167 $
