2023/08/24 19:59
KLAX 241959Z 24007KT 7SM FEW006 SCT012 21/17 A2996 RMK AO2 SCT V BKN T02110167
