2025/04/11 15:53
KLAX 111553Z 12004KT 8SM FEW090 FEW250 19/13 A3004 RMK AO2 SLP172 T01890128
