2025/09/13 05:53
KLAX 130553Z 25005KT 10SM CLR 20/17 A2991 RMK AO2 SLP126 T02000172 10228 20200 50004 $
