2022/11/25 23:53
KLAX 252353Z 27011KT 10SM FEW070 SCT120 20/04 A3019 RMK AO2 SLP222 T02000044 10244 20200 56005 $
