2022/12/19 07:53
KLAX 190753Z 05004KT 10SM CLR 10/05 A3013 RMK AO2 SLP200 T01000050 401780078 $
