2023/06/09 03:53
KLAX 090353Z 26012KT 10SM FEW011 FEW250 17/14 A3002 RMK AO2 SLP163 T01670139
