2024/09/09 01:53
KLAX 090153Z VRB04G15KT 10SM FEW090 FEW150 SCT200 29/15 A2973 RMK AO2 SLP066 CB DSNT NE T02890150
