2023/01/05 01:53
KLAX 050153Z 14007KT 3SM RA BR FEW009 OVC018 15/14 A3006 RMK AO2 RAB0054E22B42 SLP178 P0005 T01500139 $
