2025/08/20 01:53
KLAX 200153Z 24010KT 10SM FEW250 22/17 A2996 RMK AO2 SLP143 T02170172
