2025/06/30 09:53
KLAX 300953Z 25005KT 10SM BKN011 17/15 A2990 RMK AO2 SLP122 T01720150
