2025/12/26 07:53
KLAX 260753Z 13006KT 10SM FEW012 FEW024 BKN050 17/15 A3008 RMK AO2 SLP184 T01670150 401940139 $
