2022/10/10 03:53
KLAX 100353Z 25007KT 10SM OVC010 18/16 A2999 RMK AO2 SLP154 T01830161 $
