2023/08/04 13:53
KLAX 041353Z 00000KT 9SM FEW010 BKN014 19/17 A2995 RMK A02 SLP139 T01890167 
