2024/12/08 19:53
KLAX 081953Z 23003KT 9SM BKN240 18/09 A3007 RMK AO2 SLP184 T01780089
