2025/08/06 17:53
KLAX 061753Z 26010KT 8SM FEW012 SCT180 BKN250 24/17 A3003 RMK AO2 SLP166 T02390172 10244 20183 53005
