2026/06/25 15:53
KLAX 251553Z 31003KT 9SM FEW009 OVC017 19/14 A2996 RMK AO2 SLP144 T01890144
