2026/06/15 20:53
KLAX 152053Z 26016KT 10SM FEW008 SCT011 SCT110 21/14 A3002 RMK AO2 SLP163 T02060144 58006 $
