2024/12/27 05:53
KLAX 270553Z 23004KT 8SM FEW190 SCT220 SCT260 12/11 A3009 RMK AO2 SLP186 T01220106 10167 20122 53006 CHINO RWY24 $
