2025/02/26 08:01
KLAX 260801Z 12007KT 1SM R25L/1000V1800FT BR SCT001 SCT002 12/12 A2993 RMK AO2 VIS 1/2V3 VIS E-SE 1/4 T01220122 $
