2024/07/11 23:53
KLAX 112353Z 25013KT 10SM BKN009 22/17 A2984 RMK AO2 SLP102 T02170172 10244 20217 56019 $
