2023/03/28 19:53
KLAX 281953Z 25010KT 10SM FEW280 18/02 A3008 RMK AO2 SLP184 T01830022 $
