2023/12/10 05:53
KLAX 100553Z 04003KT 10SM CLR 14/M09 A3024 RMK AO2 SLP237 T01441094 10222 20144 50003 $
