2026/05/03 13:53
KLAX 031353Z 27004KT 10SM FEW012 SCT018 BKN025 16/11 A2992 RMK AO2 SLP129 T01560111
