2025/03/31 17:53
KLAX 311753Z 13007KT 7SM OVC007 15/13 A3011 RMK AO2 SLP196 60004 T01500133 10150 20128 53002
