2024/12/19 09:53
KLAX 190953Z 09005KT 10SM CLR 12/06 A3009 RMK AO2 SLP184 T01170056
