2025/01/16 17:53
KLAX 161753Z 07004KT 10SM CLR 18/M01 A3017 RMK AO2 SLP216 T01781006 10183 20089 53007
