2022/12/30 13:53
KLAX 301353Z 06003KT 10SM FEW006 SCT009 OVC018 13/12 A3008 RMK AO2 SLP186 T01330117 $
