2023/04/05 09:53
KLAX 050953Z 07004KT 10SM SCT250 09/04 A3011 RMK AO2 SLP194 T00890039 $
