2024/01/13 07:53
KLAX 130753Z 03004KT 10SM CLR 11/04 A3010 RMK AO2 SLP190 T01060044 401560050 $
