2024/06/27 17:53
KLAX 271753Z 24008KT 10SM FEW022 23/16 A2989 RMK AO2 SLP119 T02330161 10239 20178 51002
