2023/03/28 17:53
KLAX 281753Z 00000KT 10SM FEW280 19/00 A3008 RMK AO2 SLP184 T01890000 10194 20111 50002 $
