2024/12/26 17:53
KLAX 261753Z 08007KT 9SM FEW008 FEW250 BKN300 14/08 A3008 RMK AO2 SLP185 T01440078 10144 20078 51006
