2023/09/01 21:53
KLAX 012153Z 21007KT 170V240 10SM FEW018 SCT090 BKN190 26/18 A2985 RMK AO2 SLP108 T02560183
