2022/09/10 05:53
KLAX 100553Z 15010KT 8SM FEW008 BKN015 OVC050 22/21 A2971 RMK AO2 RAE0455B11E12B32E50 SLP057 P0001 60009 T02220206 10322 20222 51031 $
