2024/10/16 09:53
KLAX 160953Z 17005KT 8SM OVC016 18/14 A2998 RMK AO2 SLP151 T01780139 $
