2024/08/28 21:53
KLAX 282153Z 27012G24KT 10SM CLR 23/16 A2995 RMK AO2 SLP140 T02280156
