2025/10/02 05:53
KLAX 020553Z 26011KT 10SM FEW014 19/17 A3000 RMK AO2 SLP157 T01890167 10217 20189 51005 $
