2024/02/22 15:53
KLAX 221553Z 00000KT 6SM HZ FEW012 FEW270 13/10 A3023 RMK AO2 SLP236 T01280100
