2025/01/17 07:53
KLAX 170753Z 04004KT 10SM FEW011 12/07 A3019 RMK AO2 SLP223 T01170072 401940089 $
