2024/06/12 17:53
KLAX 121753Z 25006KT 9SM OVC012 18/15 A3001 RMK AO2 SLP159 60000 T01780150 10178 20167 51008
