2025/02/28 09:53
KLAX 280953Z 20004KT 10SM SCT240 BKN280 14/12 A2994 RMK AO2 SLP137 T01390122
