2024/02/22 21:53
KLAX 222153Z 27010KT 10SM FEW030 FEW300 16/12 A3016 RMK AO2 SLP214 T01610122
