2025/08/06 23:53
KLAX 062353Z 26012KT 10SM FEW200 FEW250 24/17 A2997 RMK AO2 SLP145 T02390167 10256 20233 58015
