2025/09/21 00:14
KLAX 210014Z 25013KT 4SM BR BKN004 OVC006 21/18 A2992 RMK AO2 VIS S-W 2 1/2 T02060183
