2022/11/08 07:53
KLAX 080753Z 00000KT 10SM FEW011 FEW018 BKN090 BKN150 14/12 A2995 RMK AO2 SLP140 T01440122 401830139
