2026/07/06 16:53
KLAX 061653Z 27004KT 10SM FEW011 22/16 A2995 RMK AO2 SLP140 T02220161 $
