2023/04/01 13:53
KLAX 011353Z 11003KT 10SM FEW200 09/07 A3012 RMK AO2 SLP198 T00940067 $
