2024/06/21 09:53
KLAX 210953Z 26005KT 10SM FEW010 FEW022 16/14 A2976 RMK AO2 SLP075 T01610139
