2023/01/06 19:53
KLAX 061953Z VRB04KT 10SM FEW150 FEW180 16/07 A3022 RMK AO2 SLP232 T01610072 $
