2024/11/08 17:53
KLAX 081753Z 15004KT 10SM CLR 20/M07 A3014 RMK AO2 SLP205 T02001072 10206 20089 50001 $
