2026/06/14 08:53
KLAX 140853Z 26007KT 10SM OVC008 17/15 A2993 RMK AO2 SLP132 T01670150 58005 $
