2025/01/23 09:53
KLAX 230953Z 00000KT 10SM FEW250 12/M06 A3025 RMK AO2 SLP242 T01221061
