2025/10/02 23:53
KLAX 022353Z 27014KT 10SM FEW050 FEW100 BKN160 22/16 A2996 RMK AO2 SLP144 T02170161 10244 20217 56009 $
