2026/04/01 17:53
KLAX 011753Z 25007KT 10SM FEW022 FEW060 SCT140 SCT180 19/13 A3001 RMK AO2 SLP160 T01890128 10189 20150 53015 $
