2024/06/17 23:53
KLAX 172353Z 25011KT 10SM FEW017 FEW027 20/14 A2972 RMK AO2 SLP062 T02000144 10222 20200 56012
