2023/09/29 13:53
KLAX 291353Z 00000KT 9SM FEW014 BKN022 19/15 A2984 RMK AO2 SLP104 T01890150 $
