2025/02/07 23:53
KLAX 072353Z 25012KT 10SM SCT016 SCT034 BKN250 15/10 A3011 RMK AO2 SLPNO T01500100 10156 20144 $
