2025/08/14 09:53
KLAX 140953Z 00000KT 9SM OVC011 19/17 A2991 RMK AO2 SLP124 T01890167 $
