2026/05/23 17:53
KLAX 231753Z 22005KT 10SM OVC027 18/13 A2999 RMK AO2 SLP153 T01830128 10189 20167 51008
