2026/06/04 16:53
KLAX 041653Z VRB03KT 6SM HZ SCT009 OVC013 18/15 A2991 RMK AO2 SLP126 T01830150 $
