2022/09/08 02:53
KLAX 080253Z 19008KT 10SM FEW100 FEW150 24/19 A2987 RMK AO2 SLP111 FU FEW150 T02440189 53004 $
