2022/12/29 10:03
KLAX 291003Z 09003KT 10SM BKN021 BKN031 OVC110 13/11 A2995 RMK AO2 T01330111 $
