2023/04/03 13:53
KLAX 031353Z 26010KT 10SM FEW016 OVC027 12/08 A2991 RMK AO2 SLP127 T01170083 $
