2022/10/02 05:53
KLAX 020553Z 21003KT 10SM SCT021 19/16 A2991 RMK AO2 SLP124 T01940156 10217 20189 51008
