2023/07/03 03:53
KLAX 030353Z 27010KT 1/2SM R25L/P6000FT FG OVC002 15/14 A2989 RMK AO2 SLP121 T01500144 $
