2024/03/30 01:53
KLAX 300153Z 16010G20KT 10SM FEW034 SCT060 SCT095 BKN140 BKN170 BKN230 14/08 A2986 RMK AO2 SLP110 T01440078
