2022/12/08 23:53
KLAX 082353Z 27013KT 10SM FEW010 FEW120 SCT250 14/07 A3022 RMK AO2 SLP232 T01440072 10156 20139 56009
