2026/06/15 11:53
KLAX 151153Z VRB05KT 10SM FEW008 BKN010 17/15 A2998 RMK AO2 SLP149 T01720150 10183 20172 56004 $
