2025/03/18 15:53
KLAX 181553Z 27009KT 10SM FEW010 09/06 A3026 RMK AO2 SLP245 T00890056 VISNO RWY24 $
