2024/05/11 15:53
KLAX 111553Z VRB04KT 10SM FEW009 BKN014 16/12 A2995 RMK AO2 SLP142 T01610122 $
