2025/01/30 21:53
KLAX 302153Z 26005KT 9SM SCT029 BKN039 14/07 A3024 RMK AO2 SLP240 T01390072 $
