2022/09/20 19:53
KLAX 201953Z 25013KT 10SM FEW004 FEW030 25/17 A2992 RMK AO2 SLP129 T02500167 $
