2024/06/04 05:53
KLAX 040553Z 25004KT 10SM FEW011 BKN200 16/13 A2987 RMK AO2 SLP112 T01610133 10183 20161 50005 $
