2025/04/10 17:53
KLAX 101753Z 26008KT 10SM SCT230 SCT280 20/13 A3016 RMK AO2 SLP211 T02000128 10206 20139 52007
