2025/08/24 13:53
KLAX 241353Z 25004KT 10SM FEW100 SCT160 BKN200 21/18 A2989 RMK AO2 SLP120 T02060183
