2023/08/03 13:53
KLAX 031353Z 05004KT 8SM FEW009 18/16 A2999 RMK AO2 SLP154 T01830161 $
