2023/11/30 13:53
KLAX 301353Z 07003KT 10SM FEW007 FEW012 BKN034 BKN200 12/09 A2994 RMK AO2 SLP137 T01220094
