2022/09/05 15:53
KLAX 051553Z 12005KT 10SM FEW050 FEW090 SCT160 28/22 A2979 RMK AO2 SLP085 T02780217 $
