2022/09/03 13:53
KLAX 031353Z 25006KT 10SM BKN120 23/19 A2981 RMK AO2 SLP092 T02280189
