2023/05/13 23:53
KLAX 132353Z 25011KT 9SM OVC010 17/13 A2983 RMK AO2 SLP100 T01670133 10189 20161 55012
