2025/08/28 19:53
KLAX 281953Z 24012KT 10SM FEW090 BKN160 BKN250 26/18 A3003 RMK AO2 SLP168 T02610178 $
