2023/08/30 19:53
KLAX 301953Z 24009KT 10SM FEW160 26/18 A2985 RMK AO2 SLP104 T02610178
