2024/11/10 17:53
KLAX 101753Z 15003KT 10SM FEW230 SCT280 20/01 A3003 RMK AO2 SLP168 T02000011 10200 20100 53012
