2026/01/23 07:53
KLAX 230753Z 25005KT 10SM FEW014 BKN100 BKN180 14/13 A2996 RMK AO2 SLP143 T01440128 401720139 $
