2025/06/05 23:53
KLAX 052353Z 26014G21KT 10SM SCT016 19/13 A2989 RMK AO2 SLP119 T01890133 10211 20183 56008
