2023/07/30 05:53
KLAX 300553Z 00000KT 10SM CLR 21/18 A2990 RMK AO2 SLP120 T02110178 10233 20211 52005 $
