2024/07/08 21:53
KLAX 082153Z 27011G17KT 10SM SCT011 22/17 A2983 RMK AO2 SLP101 T02170167 $
