2024/10/03 15:53
KLAX 031553Z 09004KT 3SM BR OVC006 18/17 A2982 RMK AO2 SLP096 VIS SW-W 2 T01830167
