2025/06/24 11:53
KLAX 241153Z 11005KT 10SM FEW014 OVC018 17/13 A2996 RMK AO2 SLP142 T01720128 10178 20172 53003
