2026/02/03 11:53
KLAX 031153Z 00000KT 8SM FEW002 FEW004 SCT008 13/11 A3018 RMK AO2 SLP218 VIS SE 2 3/4 T01280111 10150 20128 50004 $
