2024/09/27 07:53
KLAX 270753Z 24005KT 8SM OVC005 16/14 A2987 RMK AO2 SLP113 T01610144 402110156
