2026/06/07 11:53
KLAX 071153Z 27004KT 10SM OVC024 18/14 A2982 RMK AO2 SLP097 T01780139 10183 20172 56003 $
