2023/05/24 21:53
KLAX 242153Z 26007KT 10SM OVC035 18/12 A2994 RMK AO2 SLP139 T01780117 $
