2025/12/22 05:53
KLAX 220553Z 00000KT 8SM FEW250 16/14 A3006 RMK AO2 SLP179 T01560139 10156 20150 50003 $
