2023/05/21 19:53
KLAX 211953Z 25009KT 7SM SCT012 BKN017 BKN180 19/14 A3000 RMK AO2 SLP158 T01890144
