2024/08/14 03:53
KLAX 140353Z 24005KT 10SM FEW010 20/18 A2991 RMK AO2 SLP127 T02000178 $
