2026/01/28 13:53
KLAX 281353Z 08003KT 10SM SCT200 BKN250 12/M02 A3023 RMK AO2 SLP236 T01221017
