2025/01/08 21:53
KLAX 082153Z 36014G22KT 9SM FEW004 SCT025 BKN200 BKN280 23/04 A3006 RMK AO2 PK WND 03026/2141 SLP179 FU FEW004 FU SCT025 FU PLUME NW T02280039
