2024/02/09 01:53
KLAX 090153Z 26011KT 10SM FEW022 FEW075 SCT250 13/08 A3003 RMK AO2 SLP169 T01280083 $
