2026/01/04 15:53
KLAX 041553Z VRB04KT 6SM BR FEW008 SCT022 BKN034 OVC170 14/13 A3003 RMK AO2 RAB41E51 SLP167 P0000 T01390133
