2023/04/11 05:53
KLAX 110553Z 00000KT 1 1/2SM BR VV002 12/12 A3006 RMK AO2 SLP177 VIS 3/4V2 1/2 T01220117 10139 20122 50008
