2025/10/13 13:59
KLAX 131359Z 10009KT 8SM FEW019 SCT029 BKN038 17/13 A2974 RMK AO2 T01670133 $
