2025/11/08 11:53
KLAX 081153Z 10003KT 4SM BR FEW007 16/14 A2987 RMK AO2 SLP114 T01560144 10178 20150 56007 $
