2025/02/06 03:53
KLAX 060353Z 00000KT 10SM FEW008 BKN028 OVC036 14/14 A3002 RMK AO2 SLP164 T01440139 $
