2025/03/23 03:53
KLAX 230353Z 23004KT 10SM SCT250 14/12 A2996 RMK AO2 SLP143 T01440117 $
