2024/06/04 09:53
KLAX 040953Z 00000KT 10SM FEW008 OVC014 16/13 A2984 RMK AO2 SLP100 T01610133 $
