2023/02/16 17:53
KLAX 161753Z 28003KT 10SM FEW140 SCT190 BKN300 15/M09 A3029 RMK AO2 SLP255 T01501094 10150 20050 53007 $
