2025/02/07 17:53
KLAX 071753Z 26010KT 10SM FEW007 BKN016 BKN028 16/13 A3016 RMK AO2 SLP211 6//// T01560133 10156 20144 53016 $
