2023/10/19 11:53
KLAX 191153Z 00000KT 1/16SM R25L/P1800VP6000FT FG VV001 16/16 A2992 RMK AO2 SLP130 T01610161 10183 20161 56006 $
