2025/12/27 17:53
KLAX 271753Z VRB04KT 10SM FEW019 13/09 A3009 RMK AO2 SLP189 T01280094 10128 20089 51017 $
