2024/03/26 13:53
KLAX 261353Z 05007KT 10SM FEW012 SCT025 BKN032 12/09 A3000 RMK AO2 SLP157 T01220094
