2025/03/13 01:53
KLAX 130153Z 15010G16KT 10SM FEW022 SCT027 BKN050 BKN150 14/10 A2999 RMK AO2 CIG 036 RWY24 SLP154 T01440100 $
