2023/03/26 17:53
KLAX 261753Z 31013G18KT 10SM FEW060 SCT300 17/M01 A3012 RMK AO2 SLP201 T01671011 10167 20106 50008 $
