2025/09/21 11:53
KLAX 211153Z 18004KT 6SM BR FEW004 19/18 A2990 RMK AO2 SLP124 T01890178 10194 20183 56006
