2024/04/11 13:53
KLAX 111353Z 00000KT 1/4SM R25L/3500VP6000FT FG OVC003 12/12 A2994 RMK AO2 SLP139 T01220122 $
