2026/01/24 17:53
KLAX 241753Z 24004KT 10SM SCT019 BKN026 OVC045 15/11 A2993 RMK AO2 SLP134 BINOVC 60001 T01500111 10150 20133 53014 $
