2025/01/07 03:53
KLAX 070353Z 15003KT 10SM BKN200 15/09 A2997 RMK AO2 SLP147 T01500094
