2022/11/12 13:53
KLAX 121353Z 06003KT 10SM FEW050 11/M01 A3004 RMK AO2 SLP170 T01061006
