2023/09/08 19:53
KLAX 081953Z 25008KT 10SM FEW160 FEW250 27/18 A2999 RMK AO2 SLP152 T02720183
