2023/07/11 11:53
KLAX 111153Z 25003KT 4SM BR FEW002 OVC006 17/16 A2994 RMK AO2 SLP137 T01670156 10178 20167 58000
