2025/09/08 23:53
KLAX 082353Z 26015KT 10SM FEW008 24/18 A2996 RMK AO2 SLP143 T02390183 10244 20233 56019 $
