2026/03/24 23:53
KLAX 242353Z 25009KT 10SM FEW250 19/14 A2997 RMK AO2 SLP147 T01940144 10211 20194 56009
