2022/11/01 09:53
KLAX 010953Z 01003KT 5SM SCT006 OVC012 17/16 A2987 RMK AO2 SLP114 T01720156 VISNO RWY24 $
