2022/12/26 13:53
KLAX 261353Z VRB04KT 10SM SCT250 16/02 A3007 RMK AO2 SLP182 T01560022 $
