2026/03/24 15:53
KLAX 241553Z 11004KT 5SM HZ OVC012 18/14 A3000 RMK AO2 SLP158 T01780144
