2024/07/04 13:53
KLAX 041353Z 26005KT 3SM BR FEW003 OVC007 17/16 A2994 RMK AO2 SLP139 VIS N-NE 2 1/2 T01720161
