2025/11/27 05:53
KLAX 270553Z 04004KT 10SM FEW250 19/05 A3007 RMK AO2 SLP181 T01940050 10239 20183 51009 $
