2023/02/03 17:53
KLAX 031753Z 00000KT 10SM FEW180 SCT240 OVC300 17/01 A3024 RMK AO2 SLP241 ACSL DSNT N T01720011 10172 20106 53005 $
