2025/07/27 02:53
KLAX 270253Z 25013KT 10SM FEW010 SCT025 BKN220 18/15 A2995 RMK AO2 SLP140 T01830150 55004
