2023/06/02 17:53
KLAX 021753Z 26010KT 10SM FEW017 SCT034 BKN040 19/12 A2999 RMK AO2 SLP154 T01940117 10194 20150 55001
