2022/10/14 11:53
KLAX 141153Z 00000KT 8SM FEW007 OVC011 19/16 A2987 RMK AO2 SLP113 T01890161 10194 20183 56010 $
