2023/08/26 04:53
KLAX 260453Z 16004KT 10SM CLR 19/17 A2993 RMK AO2 SLP133 T01940167
