2026/01/13 19:53
KLAX 131953Z 29006KT 10SM FEW090 25/M02 A3017 RMK AO2 SLP218 T02501017 $
