2024/09/25 01:53
KLAX 250153Z 26006KT 8SM OVC005 17/15 A2982 RMK AO2 SLP095 T01720150 $
