2023/09/25 23:53
KLAX 252353Z 27015KT 10SM FEW250 21/14 A3001 RMK AO2 SLP160 T02060139 10233 20206 56009
