2025/12/31 11:53
KLAX 311153Z 00000KT 10SM -RA FEW080 BKN110 OVC200 19/03 A3005 RMK AO2 RAB49 SLP172 P0000 60000 T01940028 10206 20178 58004 $
