2026/01/15 11:53
KLAX 151153Z 00000KT 10SM CLR 13/04 A3002 RMK AO2 SLP165 T01280044 10189 20117 58016 $
