2024/08/01 05:53
KLAX 010553Z 26008KT 10SM FEW005 SCT007 BKN009 17/15 A2994 RMK AO2 SLP137 T01670150 10206 20167 51014 $
