2023/01/20 19:53
KLAX 201953Z 25006KT 10SM FEW010 SCT028 BKN160 14/08 A3021 RMK AO2 SLP228 T01440083 $
