2024/11/05 09:53
KLAX 050953Z 10005KT 10SM CLR 13/06 A3003 RMK AO2 SLPNO T01280056 $
