2023/06/11 05:53
KLAX 110553Z 24004KT 10SM FEW015 OVC028 16/13 A2990 RMK AO2 SLP125 T01610128 10178 20161 53005
