2023/09/05 23:53
KLAX 052353Z 25008KT 10SM FEW030 22/17 A2989 RMK AO2 SLP121 T02170167 10222 20200 56011 $
