2023/10/04 21:53
KLAX 042153Z 27010KT 10SM CLR 27/12 A2986 RMK AO2 SLP109 T02720117
