2022/10/16 05:53
KLAX 160553Z 26007KT 10SM SCT020 BKN029 BKN100 19/15 A2994 RMK AO2 SLP135 T01940150 10206 20194 53002 $
