2025/05/04 19:53
KLAX 041953Z 26006KT 10SM FEW017 BKN028 OVC055 17/11 A2978 RMK AO2 SLP084 T01720111
