2024/08/06 17:53
KLAX 061753Z 26006KT 10SM FEW010 FEW170 SCT250 26/18 A2995 RMK AO2 SLP142 T02560183 10256 20189 51007
