2025/02/04 07:53
KLAX 040753Z 22005KT 10SM FEW007 FEW015 SCT200 BKN250 13/12 A2994 RMK AO2 SLP139 T01280117 401500106 $
