2024/07/18 13:53
KLAX 181353Z 26006KT 8SM FEW009 SCT080 BKN140 19/17 A2995 RMK AO2 SLP140 T01890167
