2024/10/05 17:53
KLAX 051753Z 26007KT 3SM HZ OVC008 19/17 A2999 RMK AO2 SLP154 VIS W 1 T01940167 10194 20178 51007
