2022/10/08 17:53
KLAX 081753Z 27006KT 4SM HZ FEW010 FEW110 23/18 A3007 RMK AO2 SLP179 T02280183 10233 20194 50001 $
