2024/02/24 21:53
KLAX 242153Z 00000KT 10SM SCT150 BKN220 23/06 A3000 RMK AO2 SLP158 T02280056 $
