2026/04/10 13:53
KLAX 101353Z 00000KT 10SM FEW009 FEW016 BKN110 16/13 A2994 RMK AO2 SLP137 T01560133 $
