2025/04/06 13:53
KLAX 061353Z 06005KT 10SM CLR 12/02 A3020 RMK AO2 SLP224 T01220017 $
