2026/05/23 02:53
KLAX 230253Z 24009KT 10SM FEW014 SCT025 16/12 A2987 RMK AO2 SLP114 T01610122 53007
