2024/12/03 05:53
KLAX 030553Z 00000KT 10SM SCT250 13/11 A3009 RMK AO2 SLP189 T01330111 10167 20133 53004
