2025/06/30 19:53
KLAX 301953Z 26011KT 10SM FEW009 21/14 A2990 RMK AO2 SLP124 T02110144
