2025/03/26 05:53
KLAX 260553Z 26006KT 10SM OVC005 13/12 A3001 RMK AO2 SLP160 T01280117 10139 20128 50008 $
