2025/01/05 03:53
KLAX 050353Z 04003KT 10SM BKN250 13/08 A3011 RMK AO2 SLP197 T01280083
