2026/05/05 06:34
KLAX 050634Z 27009KT 10SM BKN017 BKN065 OVC080 16/12 A2997 RMK AO2 T01560117
