2023/11/09 07:53
KLAX 090753Z 33006KT 10SM CLR 18/M06 A3006 RMK AO2 SLP177 T01831061 402500122
