2023/06/23 19:53
KLAX 231953Z 24011KT 10SM FEW040 20/11 A3004 RMK AO2 SLP171 T02000106
