2024/09/25 19:53
KLAX 251953Z 26008KT 7SM OVC011 18/14 A2987 RMK AO2 SLP114 T01830144 $
