2023/10/07 01:53
KLAX 070153Z 25008KT 10SM CLR 22/14 A2983 RMK AO2 SLP101 T02220144 $
