2025/10/11 07:53
KLAX 110753Z 00000KT 10SM CLR 18/16 A2980 RMK AO2 SLP089 T01830156 402440178 $
