2023/03/21 23:53
KLAX 212353Z 18018G25KT 3SM RA BR SCT020 BKN032 OVC055 13/11 A2969 RMK AO2 LTG DSNT W SLP054 P0013 60015 T01280106 10156 20122 56017
