2022/10/20 17:53
KLAX 201753Z VRB03KT 10SM FEW090 SCT160 BKN220 28/09 A2996 RMK AO2 SLP141 T02830094 10289 20211 50004 $
