2026/05/28 10:53
KLAX 281053Z 00000KT 10SM FEW018 FEW022 SCT055 SCT150 14/08 A2992 RMK AO2 SLP131 T01440078 $
