2025/02/27 03:53
KLAX 270353Z 23004KT 1/2SM R25L/P6000FT FG SCT002 12/11 A2997 RMK AO2 SLP148 T01170111
