2026/05/01 08:20
KLAX 010820Z 00000KT 10SM FEW012 BKN016 BKN200 16/13 A2994 RMK AO2 T01610133
