2023/12/23 13:53
KLAX 231353Z 07005KT 10SM SCT030 13/11 A2997 RMK AO2 SLP148 T01280106 $
