2026/04/16 02:53
KLAX 160253Z 27014KT 10SM FEW015 FEW250 16/12 A2996 RMK AO2 SLP145 T01610122 56006
