2025/10/29 21:53
KLAX 292153Z 26011KT 10SM CLR 27/09 A2993 RMK AO2 SLP134 T02670089 $
