2023/04/27 05:53
KLAX 270553Z 23004KT 1/4SM R25L/4000VP6000FT FG VV002 13/12 A2996 RMK AO2 SLP142 VIS N 1/2 T01280122 10150 20122 51011 $
