2025/02/05 07:53
KLAX 050753Z 06006KT 7SM FEW008 BKN019 OVC025 13/12 A3007 RMK AO2 DZE52RAB52E53 SLP180 P0002 T01330122 401780094 $
