2025/08/21 05:53
KLAX 210553Z 15003KT 10SM FEW250 22/18 A2988 RMK AO2 SLP116 T02170178 10250 20211 50004
