2022/09/25 11:53
KLAX 251153Z 36004KT 10SM CLR 21/18 A2998 RMK AO2 SLP148 T02060183 10217 20206 56008
