2024/02/29 23:53
KLAX 292353Z 27009KT 10SM SCT045 15/11 A3014 RMK AO2 SLP205 T01500106 10161 20144 56014 $
