2025/04/04 01:53
KLAX 040153Z 26012KT 10SM FEW110 FEW180 13/07 A2992 RMK AO2 RAB0058E09 SLP133 P0000 T01330072
