2023/02/18 09:53
KLAX 180953Z 02005KT 10SM BKN180 12/M05 A3000 RMK AO2 SLP155 T01221050
