2025/06/26 05:53
KLAX 260553Z 24006KT 10SM FEW004 OVC006 17/14 A2994 RMK AO2 SLP137 CIG 005V007 T01670144 10206 20167 53009
