2023/03/19 15:53
KLAX 191553Z 25005KT 10SM FEW018 SCT075 OVC100 15/12 A2999 RMK AO2 SLP155 T01500117
