2025/09/28 23:53
KLAX 282353Z 27012KT 10SM FEW015 FEW090 22/17 A2997 RMK AO2 SLP146 T02220167 10239 20222 58008 $
