2023/03/30 15:53
KLAX 301553Z 10007KT 080V140 8SM FEW009 SCT045 BKN050 11/07 A2994 RMK AO2 SLP138 T01060072
