2023/08/07 23:53
KLAX 072353Z 26008KT 220V290 10SM FEW015 FEW110 23/17 A3001 RMK AO2 SLP159 T02280172 10250 20222 56010 
