2026/02/15 03:53
KLAX 150353Z 26006KT 10SM FEW016 FEW210 SCT270 14/11 A3007 RMK AO2 SLP183 T01440111 $
