2025/06/25 05:53
KLAX 250553Z 27007KT 10SM OVC015 17/14 A2999 RMK AO2 SLP156 T01720139 10194 20172 51010
