2026/02/21 03:53
KLAX 210353Z 28005KT 10SM FEW130 12/01 A3008 RMK AO2 SLP186 T01170011 $
