2025/06/23 19:53
KLAX 231953Z 25013KT 9SM FEW035 SCT075 22/14 A2995 RMK AO2 SLP141 T02220139
