2024/08/23 15:53
KLAX 231553Z 10006KT 10SM OVC021 20/15 A2997 RMK AO2 SLP145 T02000150 $
