2022/10/23 09:53
KLAX 230953Z 25005KT 10SM SCT027 17/12 A2979 RMK AO2 SLP084 T01670122
