2023/08/12 07:53
KLAX 120753Z 26008KT 9SM BKN010 20/18 A2999 RMK AO2 SLP153 T02000178 402390194
