2024/11/14 19:53
KLAX 141953Z 25009KT 10SM FEW250 21/07 A2994 RMK AO2 SLP139 T02060067
