2022/09/13 17:53
KLAX 131753Z 26006KT 9SM FEW027 SCT120 SCT180 26/19 A2989 RMK AO2 SLP119 T02560194 10256 20211 50002 $
