2024/11/19 01:53
KLAX 190153Z 27006KT 10SM FEW014 FEW040 14/11 A2997 RMK AO2 SLP148 T01390106 $
