2023/04/14 05:53
KLAX 140553Z 26005KT 9SM BKN009 OVC012 13/11 A2988 RMK AO2 RAB01E12DZB12E27 SLP118 P0000 60006 T01280106 10139 20122 50012 $
