2023/10/06 11:53
KLAX 061153Z 27004KT 4SM R25L/3000VP6000FT BR SCT001 17/17 A2990 RMK AO2 SLP123 VIS 1/2V7 VIS SW-N 1/4 T01720172 10217 20172 56009 $
