2025/06/02 13:53
KLAX 021353Z 08004KT 8SM OVC011 17/14 A2996 RMK AO2 SLP143 T01670139 $
