2025/08/21 09:53
KLAX 210953Z 27003KT 10SM FEW250 21/18 A2987 RMK AO2 SLP112 T02110183
