2026/02/25 11:53
KLAX 251153Z 00000KT 10SM FEW010 FEW250 13/12 A3002 RMK AO2 SLP162 T01280117 10161 20117 55005
