2025/09/23 09:53
KLAX 230953Z 00000KT 9SM FEW004 FEW006 SCT150 19/17 A2981 RMK AO2 SLP091 T01940172 $
