2025/04/03 07:53
KLAX 030753Z 08006KT 10SM FEW038 FEW070 SCT180 10/07 A2988 RMK AO2 SLP116 T01000067 401720100
