2025/11/10 15:53
KLAX 101553Z 00000KT 6SM BR FEW000 15/14 A3013 RMK AO2 SLP203 VIS SW 2 1/2 FG FEW000 T01500144 $
