2025/02/17 07:53
KLAX 170753Z 00000KT 10SM FEW250 13/12 A2998 RMK AO2 SLP148 T01330117 402061117 $
