2023/02/23 17:53
KLAX 231753Z 24005KT 10SM SCT022CB BKN039 BKN047 BKN130 10/04 A3001 RMK AO2 RAB00E19B43E52 SLP162 CB N MOV E TCU NE-E CB DSNT W P0000 60005 T01000039 10106 20078 51013 $
