2025/01/30 17:53
KLAX 301753Z 20003KT 7SM FEW009 SCT025 OVC040 13/07 A3027 RMK AO2 SLP251 T01330072 10133 20106 53019 $
