2023/05/13 03:53
KLAX 130353Z 23006KT 10SM BKN011 15/13 A2993 RMK AO2 SLP134 T01500128
