2023/09/16 05:53
KLAX 160553Z 27009KT 10SM OVC015 19/16 A2997 RMK AO2 SLP146 T01940161 10211 20194 51009
