2024/02/28 17:53
KLAX 281753Z 25005KT 8SM FEW010 17/12 A3007 RMK AO2 SLP180 T01670122 10167 20100 51010
