2024/11/13 17:53
KLAX 131753Z 03005KT 10SM FEW090 FEW180 22/M03 A3012 RMK AO2 SLP200 T02221033 10222 20122 51014
