2024/04/08 07:53
KLAX 080753Z 10006KT 10SM FEW008 FEW080 11/08 A2997 RMK AO2 SLP145 T01110083 401670072 $
