2024/02/04 19:53
KLAX 041953Z 12016KT 10SM FEW024 BKN045 BKN110 OVC140 14/09 A2995 RMK AO2 RAB25E34 SLP141 P0000 T01440094 $
