2023/09/25 03:53
KLAX 250353Z 24009KT 9SM FEW010 18/16 A3000 RMK AO2 SLP155 T01780156 $
