2022/08/22 05:53
KLAX 220553Z 26009KT 10SM FEW007 BKN009 19/17 A3001 RMK AO2 SLP160 T01940172 10239 20194 50010 $
