2024/04/30 15:53
KLAX 301553Z 11006KT 8SM FEW009 SCT017 18/13 A2989 RMK AO2 SLP121 T01780133 $
