2026/01/25 03:53
KLAX 250353Z 26007KT 10SM CLR 14/11 A2997 RMK AO2 SLP148 T01390106 $
