2025/01/22 13:53
KLAX 221353Z VRB05KT 10SM BKN250 14/M05 A3022 RMK AO2 SLP233 T01391050 $
