2024/11/30 15:53
KLAX 301553Z 01006KT 10SM SCT180 BKN250 18/M08 A3006 RMK AO2 SLP177 T01781078 $
