2026/03/12 19:53
KLAX 121953Z 27009KT 10SM FEW060 27/11 A3013 RMK AO2 SLP203 T02670111 $
