2023/07/09 03:53
KLAX 090353Z 24007KT 10SM SCT011 17/14 A2984 RMK AO2 SLP102 T01670144
