2023/09/02 17:53
KLAX 021753Z 12008KT 1 3/4SM -RA BR BKN006 BKN011 OVC017 21/21 A3003 RMK AO2 RAE42B46 SLP168 P0002 60002 T02110211 10217 20194 53014 $
