2022/11/02 05:53
KLAX 020553Z 24005KT 10SM SCT028 SCT060 BKN080 BKN150 17/12 A2999 RMK AO2 SLP151 T01670122 10183 20167 51015 VISNO RWY24 $
