2023/01/12 01:53
KLAX 120153Z 28004KT 10SM FEW100 FEW250 14/10 A3022 RMK AO2 SLP233 T01390100 $
