2022/12/28 09:53
KLAX 280953Z VRB03KT 8SM SCT006 OVC013 13/12 A2990 RMK AO2 SLP124 T01280117
