2023/04/21 03:53
KLAX 210353Z 27005KT 10SM CLR 18/07 A3009 RMK AO2 SLP188 T01780072 $
