2023/09/13 01:53
KLAX 130153Z 26008KT 10SM FEW010 21/17 A2989 RMK AO2 SLP119 T02060172 $
