2026/03/26 09:53
KLAX 260953Z 31003KT 7SM FEW005 SCT007 15/13 A2995 RMK AO2 SLP139 T01500133 $
