2024/02/29 19:53
KLAX 291953Z 28012KT 10SM SCT021 BKN030 BKN049 14/11 A3020 RMK AO2 SLP225 T01440106 $
