2023/12/04 09:53
KLAX 040953Z 08004KT 10SM FEW005 BKN250 12/11 A3013 RMK AO2 SLP200 T01170106
