2024/01/21 11:53
KLAX 211153Z 06005KT 7SM BKN005 OVC023 13/13 A2986 RMK AO2 SLP110 60022 70051 T01330128 10133 20128 58001 $
