2024/05/24 07:53
KLAX 240753Z 25005KT 10SM FEW010 BKN035 14/12 A2993 RMK SLP134 T01440122 401830144 
