2023/08/24 11:53
KLAX 241153Z 19003KT 4SM BR FEW002 BKN005 BKN012 18/17 A2991 RMK AO2 SLP127 VIS SW-NW 1 1/2 T01780172 10183 20178 53005 $
