2024/05/18 01:53
KLAX 180153Z 26014KT 10SM FEW015 SCT022 17/12 A2993 RMK AO2 SLP132 T01670117 $
