2023/08/15 15:53
KLAX 151553Z 27007KT 1 1/2SM BR OVC005 19/18 A3000 RMK AO2 SLP156 VIS 1/2V2 1/2 VIS SW-N 1/2 T01940183 $
