2025/05/26 15:53
KLAX 261553Z 32004KT 8SM OVC017 17/13 A3001 RMK AO2 SLP160 T01720133 $
