2024/07/14 19:53
KLAX 141953Z 26010KT 9SM FEW018 SCT065 BKN080 23/18 A3004 RMK AO2 SLP171 T02330178
