2025/02/14 17:53
KLAX 141753Z 26017KT 10SM FEW009 SCT017 SCT041 BKN190 15/12 A3014 RMK AO2 SLP206 60001 T01500117 10150 20128 51018 $
