2023/09/09 15:53
KLAX 091553Z 14003KT 10SM FEW150 FEW210 25/18 A2999 RMK AO2 SLP153 T02500183
