2024/03/05 01:53
KLAX 050153Z 25006KT 10SM FEW045 FEW250 13/07 A3006 RMK AO2 SLP179 T01330067
