2026/03/25 13:53
KLAX 251353Z 25004KT 7SM OVC013 17/13 A3000 RMK AO2 SLP156 T01670133
