2024/12/25 23:53
KLAX 252353Z 26008KT 10SM FEW180 BKN230 BKN270 16/05 A3004 RMK AO2 SLP171 T01560050 10178 20144 56007
