2022/12/28 19:53
KLAX 281953Z 11007KT 8SM FEW012 FEW022 BKN050 17/11 A2992 RMK AO2 SLP132 T01670111 $
