2022/11/28 21:53
KLAX 282153Z 26011KT 7SM FEW009 BKN020 BKN032 BKN140 17/11 A2991 RMK AO2 SLP126 BKN020 V SCT T01670111
