2025/10/23 17:53
KLAX 231753Z 00000KT 10SM SCT024 20/13 A3007 RMK AO2 SLP182 T02000133 10200 20144 50007
