2023/07/11 13:53
KLAX 111353Z 27007KT 2SM BR SCT002 OVC006 16/16 A2997 RMK AO2 SLP145 VIS N 1 1/2 T01610156 $
