2023/02/06 01:53
KLAX 060153Z 27020KT 10SM FEW060 14/09 A3012 RMK AO2 PK WND 27028/0109 SLP200 T01440089 $
