2023/02/04 19:53
KLAX 041953Z 24005KT 9SM FEW250 18/06 A3017 RMK AO2 SLP215 T01780056 $
