2024/07/12 15:53
KLAX 121553Z 26003KT 1 1/2SM BCFG BR OVC004 18/17 A2993 RMK AO2 SLP132 VIS 1/2V2 1/2 VIS S-NW 3/4 T01830172 $
