2025/07/21 07:53
KLAX 210753Z 29004KT 10SM OVC012 19/16 A2998 RMK AO2 SLP149 T01890161 402280183 $
