2026/06/02 08:53
KLAX 020853Z VRB03KT 9SM FEW008 OVC011 17/14 A3000 RMK AO2 SLP156 T01670139 58004 $
