2026/05/11 14:53
KLAX 111453Z 31007KT 2SM BR BKN004 OVC007 16/14 A2995 RMK AO2 SLP141 VIS SW-NW 1 1/4 T01610139 53003
