2025/12/13 01:53
KLAX 130153Z 25006KT 4SM BR BKN006 OVC220 14/13 A2999 RMK AO2 SLP155 T01440133 $
