2025/07/06 03:53
KLAX 060353Z 24006KT 10SM FEW010 18/15 A2999 RMK AO2 SLP155 T01830150
