2025/06/18 21:53
KLAX 182153Z 25013KT 10SM CLR 23/16 A2980 RMK AO2 SLP089 T02330161 $
