2022/12/31 19:53
KLAX 311953Z 23008KT 5SM -RA BR SCT007 BKN013 OVC021 16/14 A3001 RMK AO2 RAB44 SLP162 VIS SE 2 P0000 T01560144
