2023/01/20 13:53
KLAX 201353Z VRB03KT 10SM FEW010 07/03 A3014 RMK AO2 SLP206 T00670033
