2025/11/02 17:53
KLAX 021753Z 23010KT 2 1/2SM HZ FEW007 SCT010 18/14 A3009 RMK AO2 SLP188 VIS SW 1 3/4 T01780144 10183 20150 51014 $
