2024/11/27 02:06
KLAX 270206Z 26004KT 10SM SCT014 OVC030 16/15 A3008 RMK AO2 T01560150
