2026/04/18 17:53
KLAX 181753Z 27006KT 10SM SCT300 23/11 A2998 RMK AO2 SLP149 T02330106 10233 20144 51007 $
