2024/08/07 03:53
KLAX 070353Z 26004KT 10SM FEW006 20/18 A2995 RMK AO2 SLP139 T02000178
