2026/06/19 19:53
KLAX 191953Z 26013KT 10SM FEW007 SCT027 BKN031 21/14 A3003 RMK A02 SLP167 T02060139 
