2025/04/21 16:00
KLAX 211600Z 25006KT 7SM FEW009 BKN016 OVC140 15/12 A3000 RMK AO2 T01500117 $
