2022/08/31 02:53
KLAX 310253Z 25008KT 10SM CLR 22/14 A2987 RMK AO2 SLP112 T02220139 55005
