2024/07/18 07:53
KLAX 180753Z 27004KT 10SM FEW011 SCT150 19/17 A2994 RMK AO2 SLP137 T01940172 402440183
