2023/07/23 11:53
KLAX 231153Z 10004KT 6SM BR OVC008 19/17 A2989 RMK AO2 SLP119 T01890172 10194 20183 53007
