2022/08/30 11:53
KLAX 301153Z 00000KT 10SM CLR 19/17 A2992 RMK AO2 SLP130 T01940167 10194 20189 55000 $
