2024/07/05 09:53
KLAX 050953Z 27003KT 8SM FEW004 FEW007 SCT009 17/16 A2989 RMK AO2 SLP120 T01720156
