2023/08/02 03:53
KLAX 020353Z 22006KT 10SM FEW170 21/17 A2999 RMK AO2 SLP152 T02060167 $
