2025/03/24 21:53
KLAX 242153Z 27013KT 10SM FEW000 SCT004 16/13 A3000 RMK AO2 SLP157 VIS W 1 FG FEW000 T01560128 $
