2023/01/01 09:53
KLAX 010953Z 26021KT 8SM SCT019 BKN027 OVC036 13/11 A2972 RMK AO2 PK WND 26031/0922 SLP063 T01330106
