2024/01/19 23:53
KLAX 192353Z 26009KT 10SM FEW130 SCT170 BKN210 16/12 A2996 RMK AO2 SLP143 CCSL DSNT NE T01560117 10194 20144 56007 $
