2023/05/04 15:53
KLAX 041553Z VRB03KT 7SM SCT014 BKN023 BKN030 13/11 A2991 RMK AO2 RAB1459E33 SLP126 P0003 T01330111
