2026/05/13 02:53
KLAX 130253Z 25008KT 10SM FEW025 FEW032 SCT250 17/12 A3003 RMK AO2 SLP166 T01670122 53004
