2025/04/19 07:53
KLAX 190753Z 10003KT 10SM FEW006 BKN045 12/09 A3009 RMK AO2 SLP187 T01220089 401720122 $
