2022/11/19 07:53
KLAX 190753Z VRB03KT 8SM CLR 13/11 A3000 RMK AO2 SLP156 T01330106 402060083 $
