2025/12/07 23:53
KLAX 072353Z 26009KT 10SM FEW250 18/12 A3011 RMK AO2 SLP195 T01780122 10211 20178 55003 $
