2026/03/04 03:53
KLAX 040353Z 25008KT 10SM CLR 15/12 A3000 RMK AO2 SLP158 T01500122
