2025/08/12 17:53
KLAX 121753Z 13006KT 8SM SCT009 BKN017 23/17 A2995 RMK AO2 SLP139 T02280172 10228 20189 50009
