2022/11/15 07:53
KLAX 150753Z 15003KT 10SM CLR 13/11 A3011 RMK AO2 SLP192 T01330106 402060089 $
