2025/06/15 13:53
KLAX 151353Z 10007KT 7SM FEW170 SCT210 SCT250 17/15 A2992 RMK AO2 SLP131 T01720150 $
