2024/11/12 19:53
KLAX 121953Z 17005KT 10SM FEW030 SCT090 21/05 A3005 RMK AO2 SLP175 T02060050
