2023/06/02 07:53
KLAX 020753Z 24005KT 10SM FEW011 FEW022 OVC040 16/13 A2996 RMK AO2 SLP142 T01610128 401830156
