2025/09/07 17:53
KLAX 071753Z 25005KT 10SM FEW110 24/18 A3006 RMK AO2 SLP179 T02440183 10250 20183 51011 $
