2026/05/06 11:53
KLAX 061153Z VRB03KT 10SM FEW016 FEW025 14/11 A3004 RMK AO2 SLP172 T01390106 10156 20128 55003
