2022/09/04 21:53
KLAX 042153Z 23009KT 10SM FEW110 SCT150 SCT250 32/17 A2977 RMK AO2 LTG DSNT N AND NE SLP078 CB DSNT N AND NE T03220167
