2025/06/16 15:53
KLAX 161553Z 00000KT 8SM FEW009 21/15 A2991 RMK AO2 SLP128 T02110150 $
