2024/05/18 21:53
KLAX 182153Z 26013KT 10SM FEW015 SCT021 BKN033 18/13 A3000 RMK AO2 SLP158 T01830128 $
