2025/07/28 21:53
KLAX 282153Z 26015G22KT 10SM FEW025 22/15 A3004 RMK AO2 SLP170 T02220150
