2023/07/18 07:53
KLAX 180753Z 25006KT 10SM FEW005 FEW011 SCT250 18/17 A2994 RMK AO2 SLP135 T01830172 402440178 $
