2023/02/11 13:53
KLAX 111353Z 11005KT 9SM FEW003 FEW250 09/07 A2991 RMK AO2 SLP125 T00940072 $
