2024/08/06 21:53
KLAX 062153Z 26011KT 10SM FEW006 FEW090 SCT250 24/18 A2993 RMK AO2 SLP134 T02440183
