2024/03/27 13:53
KLAX 271353Z 05005KT 9SM FEW009 SCT011 BKN140 BKN180 11/09 A3015 RMK AO2 SLP207 T01110094 $
