2023/11/30 01:53
KLAX 300153Z 25008KT 10SM FEW020 FEW070 15/12 A2993 RMK AO2 SLP134 T01500117
