2023/06/09 15:53
KLAX 091553Z 28006KT 10SM FEW009 BKN016 OVC021 17/13 A3004 RMK AO2 SLP170 T01670133
