2025/11/25 23:53
KLAX 252353Z 25008KT 10SM FEW250 19/12 A3002 RMK AO2 SLP166 T01940122 10228 20194 56004
