2025/01/14 09:53
KLAX 140953Z 00000KT 10SM CLR 08/M08 A3029 RMK AO2 SLP254 T00831078 VISNO RWY24 $
