2025/01/16 19:53
KLAX 161953Z 26009KT 10SM FEW120 18/M02 A3013 RMK AO2 SLP203 T01831022
