2024/08/30 19:53
KLAX 301953Z 25007KT 10SM FEW015 FEW120 22/16 A3003 RMK AO2 SLP166 T02170156
