2024/03/30 17:53
KLAX 301753Z 14006KT 10SM SCT008 BKN019 OVC024 11/09 A2979 RMK AO2 RAE31 SLP084 P0002 60037 T01110094 10128 20106 53024
