2025/01/29 17:53
KLAX 291753Z 09006KT 10SM FEW019 FEW035 13/08 A3018 RMK AO2 SLP219 T01330078 10139 20089 51016
