2023/03/09 13:53
KLAX 091353Z 00000KT 10SM FEW160 FEW200 SCT250 09/07 A3011 RMK AO2 SLP195 T00940067 $
