2026/02/24 11:53
KLAX 241153Z 00000KT 10SM BKN250 14/10 A3006 RMK AO2 SLP178 T01390100 10161 20117 55010
