2023/10/25 19:53
KLAX 251953Z 23011KT 10SM BKN029 BKN049 21/14 A3002 RMK AO2 SLP163 T02060144 $
