2023/05/03 05:53
KLAX 030553Z 27009KT 10SM FEW016 FEW045 13/07 A2995 RMK AO2 SLP139 T01280072 10161 20128 51007
