2024/12/03 21:53
KLAX 032153Z 27009KT 10SM FEW170 SCT240 BKN280 17/12 A3009 RMK AO2 SLP188 T01720117
