2024/01/26 05:53
KLAX 260553Z 15004KT 10SM CLR 13/12 A3016 RMK AO2 SLP212 T01280117 10156 20128 53012 $
