2026/06/29 12:53
KLAX 291253Z 35004KT 10SM FEW014 BKN025 17/13 A2988 RMK AO2 SLP117 T01670133
