2024/12/22 11:53
KLAX 221153Z 00000KT 8SM BKN250 10/09 A3011 RMK AO2 SLP195 T01000089 10139 20100 58004
