2022/08/23 17:53
KLAX 231753Z 26008KT 3SM HZ SCT010 22/18 A2982 RMK AO2 SLP096 VIS S 2 1/2 SW-W 2 T02220178 10228 20183 58001 $
