2024/12/31 01:53
KLAX 310153Z 24005KT 8SM FEW015 FEW200 12/11 A3002 RMK AO2 SLP165 T01220106
