2023/02/25 21:53
KLAX 252153Z 11008KT 7SM RA FEW014 BKN021 OVC035 08/06 A2993 RMK AO2 RAE06B20 SLP135 P0001 T00780061 $
