2024/12/30 23:53
KLAX 302353Z 27011KT 5SM HZ FEW015 FEW250 13/11 A3003 RMK AO2 SLP167 T01330106 10167 20133 53002
