2025/06/05 03:53
KLAX 050353Z 24009KT 10SM OVC015 17/14 A2990 RMK AO2 SLP122 T01720139
