2023/04/08 21:53
KLAX 082153Z 24011KT 10SM FEW015 SCT250 17/12 A3007 RMK AO2 SLP182 T01670117
