2024/06/20 23:53
KLAX 202353Z 25013KT 10SM FEW015 20/14 A2979 RMK AO2 SLP084 T02000144 10217 20200 56014
