2026/03/30 06:06
KLAX 300606Z 32004KT 1 1/2SM BR FEW001 BKN003 OVC006 14/14 A2994 RMK AO2 VIS 1V2 T01440139 $
