2026/05/29 12:53
KLAX 291253Z 28008KT 10SM FEW020 BKN065 15/11 A2997 RMK AO2 SLP148 T01500111 $
