2023/11/05 19:53
KLAX 051953Z 26008KT 6SM HZ FEW009 FEW150 SCT250 21/15 A2995 RMK AO2 SLP142 T02110150
