2023/07/20 01:53
KLAX 200153Z 24011KT 10SM FEW250 21/17 A2995 RMK AO2 SLP140 T02110167 $
