2025/02/22 17:53
KLAX 221753Z 00000KT 10SM BKN200 17/08 A3024 RMK AO2 SLP239 T01720083 10172 20083 53014 $
