2024/06/21 23:53
KLAX 212353Z 26010KT 10SM CLR 22/14 A2974 RMK AO2 SLP071 T02170144 10222 20206 58008
