2025/12/01 21:53
KLAX 012153Z 26009KT 9SM FEW250 19/12 A3000 RMK AO2 SLP157 T01890122 $
