2023/07/23 03:53
KLAX 230353Z 26013KT 10SM FEW011 SCT100 BKN200 19/17 A2979 RMK AO2 SLP086 T01940172
