2024/02/23 09:53
KLAX 230953Z 08004KT 10SM FEW280 12/11 A3011 RMK AO2 SLP196 T01170106
