2026/06/06 23:53
KLAX 062353Z 26010KT 10SM FEW013 FEW160 SCT220 SCT280 21/15 A2983 RMK AO2 SLP100 T02060150 10228 20200 58010 $
