2026/01/01 09:53
KLAX 010953Z 08009KT 5SM -RA BR FEW007 OVC009 14/13 A2999 RMK AO2 RAB47 SLP154 VIS S 2 1/2 P0000 T01440133 $
