2025/03/08 19:53
KLAX 081953Z 23010KT 10SM FEW026 16/09 A3030 RMK AO2 SLP261 T01610089 $
