2025/11/13 13:53
KLAX 131353Z 11003KT 9SM SCT050 BKN080 16/14 A3003 RMK AO2 SLP167 T01610139 $
