2022/11/01 13:53
KLAX 011353Z 08004KT 9SM SCT018 BKN023 17/16 A2988 RMK AO2 SLP118 T01720156 VISNO RWY24 $
