2024/11/20 03:53
KLAX 200353Z 00000KT 10SM FEW200 FEW250 14/07 A3007 RMK AO2 SLP183 T01390072 $
