2023/01/15 19:53
KLAX 151953Z 25009KT 10SM FEW019 SCT034 BKN090 15/11 A2987 RMK AO2 SLP114 T01500106 $
