2023/09/13 19:53
KLAX 131953Z 23013KT 10SM FEW018 SCT029 23/17 A2996 RMK AO2 SLP143 T02330167 $
