2022/12/13 01:53
KLAX 130153Z 27008KT 10SM FEW040 FEW060 12/06 A2991 RMK AO2 SLP130 T01170061
