2023/11/07 19:53
KLAX 071953Z 26013KT 10SM FEW035 SCT055 21/14 A2999 RMK AO2 SLP155 T02060144
