2025/07/18 19:53
KLAX 181953Z 25010KT 10SM FEW018 FEW075 SCT140 SCT180 22/16 A2999 RMK AO2 SLP155 CB DSNT NE T02170156 $
