2023/08/16 07:53
KLAX 160753Z VRB03KT 2 1/2SM BR FEW002 BKN004 BKN050 18/18 A2992 RMK AO2 RAB21E28 SLP130 VIS 1V4 P0000 T01830178 402280178 $
