2024/06/29 21:53
KLAX 292153Z 25013KT 10SM FEW008 21/15 A2991 RMK AO2 SLP126 T02110150
