2023/10/25 09:53
KLAX 250953Z 12005KT 10SM OVC016 18/16 A2993 RMK AO2 SLP133 T01830161 $
