2022/09/22 09:53
KLAX 220953Z 00000KT 10SM CLR 18/14 A2994 RMK AO2 SLP134 T01780144
