2024/07/10 07:53
KLAX 100753Z 26006KT 10SM FEW005 18/16 A2983 RMK AO2 SLP097 T01780156 402330167
