2026/06/06 09:53
KLAX 060953Z 18003KT 10SM BKN013 OVC017 18/14 A2984 RMK AO2 SLP103 T01830144 $
