2022/12/31 21:53
KLAX 312153Z 20010KT 10SM BKN008 OVC012 15/14 A2996 RMK AO2 RAB25E35 SLP143 P0000 T01500139
