2026/07/05 16:53
KLAX 051653Z 25008KT 10SM FEW160 SCT220 SCT260 22/16 A3000 RMK AO2 SLP157 T02220161 $
