2025/11/19 09:53
KLAX 190953Z 00000KT 10SM FEW020 FEW080 SCT250 11/08 A3002 RMK AO2 SLP162 T01060083
