2024/08/10 19:53
KLAX 101953Z 26011KT 9SM CLR 24/18 A2988 RMK AO2 SLP117 T02390178 $
