2023/08/31 15:53
KLAX 311553Z 00000KT 2 1/2SM HZ BKN011 22/19 A2982 RMK AO2 SLP096 VIS SW-W 2 T02220189 $
