2024/11/03 15:53
KLAX 031553Z 33017G27KT 10SM FEW038 FEW095 17/05 A2987 RMK AO2 PK WND 32027/1544 SLP114 T01720050
