2022/11/04 01:53
KLAX 040153Z 34011G20KT 10SM FEW250 15/M01 A3011 RMK AO2 SLP194 T01501006 VISNO RWY24 $
