2023/07/18 19:53
KLAX 181953Z 26010KT 10SM CLR 24/17 A2997 RMK AO2 SLP146 T02390172 $
