2023/01/14 11:53
KLAX 141153Z 10003KT 6SM BR FEW005 SCT055 OVC230 12/11 A3001 RMK AO2 SLP160 T01220111 10139 20117 56019
