2025/10/14 07:53
KLAX 140753Z 14007G17KT 10SM FEW020 SCT045 BKN070 BKN250 17/12 A2982 RMK AO2 SLP096 T01720117 402220156 $
