2023/09/27 21:53
KLAX 272153Z 26009KT 10SM FEW005 FEW200 SCT250 23/17 A2987 RMK AO2 SLP113 T02280167 $
