2025/02/05 09:53
KLAX 050953Z 06008KT 2 1/2SM -RA BR SCT004 BKN008 OVC015 12/12 A3007 RMK AO2 DZE48RAB48 SLP181 VIS N 2 P0005 T01220117 $
