2022/09/29 11:53
KLAX 291153Z 10003KT 5SM BR FEW007 FEW011 20/19 A2997 RMK AO2 SLP146 T02000189 10222 20200 55003
