2024/01/03 13:53
KLAX 031353Z 17003KT 5SM -RA BR SCT005 SCT011 OVC030 12/12 A3009 RMK AO2 SLP187 VIS N 2 1/2 P0009 T01220117
