2025/11/29 03:53
KLAX 290353Z VRB03KT 10SM BKN008 16/13 A3001 RMK AO2 SLP162 T01560133 $
