2024/12/11 01:53
KLAX 110153Z 31004KT 10SM FEW012 FEW050 SCT065 SCT280 17/M07 A3024 RMK AO2 SLP238 FU FEW012 FU SCT050 FU SCT065 T01671072
