2026/06/01 06:53
KLAX 010653Z 19004KT 10SM FEW009 17/15 A2990 RMK AO2 SLP123 T01720150 $
