2026/06/24 08:53
KLAX 240853Z 28005KT 10SM BKN008 OVC011 17/15 A3001 RMK AO2 SLP161 T01720150 58005 $
