2025/05/25 15:53
KLAX 251553Z VRB05KT 10SM SCT021 OVC026 18/13 A3002 RMK AO2 SLP164 T01780128
