2026/03/18 11:53
KLAX 181153Z 09005KT 10SM FEW008 FEW250 17/14 A2997 RMK AO2 SLP145 T01720144 10222 20172 56003 $
