2025/01/29 23:53
KLAX 292353Z 26012KT 10SM FEW040 14/09 A3010 RMK AO2 SLP263 T01390089 50066 $
