2024/05/25 15:53
KLAX 251553Z 22007KT 10SM FEW017 SCT023 BKN036 16/11 A3001 RMK AO2 SLP161 T01560106
