2026/02/18 09:53
KLAX 180953Z 24024G34KT 9SM -RA FEW015 SCT025 BKN050 OVC200 13/10 A2986 RMK AO2 PK WND 24043/0900 LTG DSNT E AND SE SLP111 CB DSNT E-S P0014 T01280100
