2026/04/19 15:53
KLAX 191553Z 27005KT 10SM FEW006 FEW190 SCT240 SCT300 19/13 A2991 RMK AO2 SLP127 T01940128 $
