2023/03/25 09:53
KLAX 250953Z 01006KT 10SM CLR 11/M01 A3014 RMK AO2 SLP205 T01061006
