2024/11/11 15:53
KLAX 111553Z 12004KT 6SM HZ FEW009 SCT200 12/07 A3005 RMK AO2 SLP176 T01220067
