2024/10/19 17:53
KLAX 191753Z 22007KT 10SM FEW250 26/M06 A3007 RMK AO2 SLP182 T02561056 10256 20128 51011
