2023/04/07 19:53
KLAX 071953Z 24010KT 10SM FEW100 SCT180 SCT250 18/09 A3006 RMK AO2 SLP178 T01830094
