2023/01/21 21:53
KLAX 212153Z 25008KT 10SM CLR 16/M01 A3025 RMK AO2 SLP242 T01561006 $
