2023/12/29 03:53
KLAX 290353Z 23004KT 10SM FEW200 15/13 A3012 RMK AO2 SLP200 T01500133 $
