2023/05/06 11:53
KLAX 061153Z 07004KT 10SM FEW015 FEW050 11/08 A3005 RMK AO2 SLP175 T01110083 10150 20111 56008
