2023/02/20 13:53
KLAX 201353Z 08004KT 10SM FEW160 09/02 A3007 RMK AO2 SLP182 T00940017 $
