2024/09/08 11:53
KLAX 081153Z 00000KT 10SM FEW040 SCT170 SCT220 22/21 A2974 RMK AO2 SLP068 FU FEW040 T02170206 10233 20217 55000
