2023/08/24 21:53
KLAX 242153Z 25012KT 10SM FEW010 FEW060 22/17 A2993 RMK AO2 SLP133 T02170167 $
