2024/04/21 07:53
KLAX 210753Z 24005KT 9SM SCT012 13/12 A3003 RMK AO2 SLP168 T01330117 401830133 $
