2024/07/29 11:53
KLAX 291153Z 24003KT 10SM FEW004 FEW012 16/14 A2995 RMK AO2 SLP139 T01560144 10167 20156 51000
