2026/03/09 03:53
KLAX 090353Z 32006KT 10SM CLR 25/M03 A2979 RMK AO2 SLP085 T02501033 $
