2025/06/02 09:53
KLAX 020953Z 24003KT 10SM FEW010 SCT100 16/14 A2994 RMK AO2 SLP135 T01560139 $
