2025/05/28 01:53
KLAX 280153Z 27013KT 10SM BKN015 18/14 A2997 RMK AO2 SLP147 T01830139 $
