2024/08/11 03:53
KLAX 110353Z VRB04KT 10SM FEW010 20/17 A2990 RMK AO2 SLP122 T02000167 $
