2026/02/15 23:53
KLAX 152353Z 23010G19KT 10SM FEW050 BKN250 16/08 A2995 RMK AO2 SLP140 T01610078 10172 20156 56009 $
