2024/03/24 07:53
KLAX 240753Z 30008G17KT 10SM FEW015 SCT060 12/06 A2977 RMK AO2 PK WND 27030/0717 SLP081 T01220061 401670122 $
