2024/08/22 17:53
KLAX 221753Z 23008KT 10SM CLR 24/18 A2995 RMK AO2 SLP141 T02440183 10250 20194 53001
