2025/12/25 19:53
KLAX 251953Z 15014G21KT 10SM SCT021 BKN030 BKN075 19/14 A3009 RMK AO2 SLP187 T01890139 $
