2022/10/28 07:53
KLAX 280753Z 00000KT 10SM CLR 17/14 A3006 RMK AO2 SLP178 T01720144 402390139 VISNO RWY24 $
