2024/07/30 13:53
KLAX 301353Z 00000KT 6SM BR OVC008 17/15 A2997 RMK AO2 SLP147 T01670150 $
