2025/11/17 21:53
KLAX 172153Z 13015G21KT 10SM FEW028 SCT044 OVC055 18/12 A2984 RMK AO2 RAE2056 SLP104 P0000 T01830117 $
