2025/04/19 21:53
KLAX 192153Z 25013KT 10SM CLR 19/09 A3009 RMK AO2 SLP188 T01890094 $
