2023/09/11 21:53
KLAX 112153Z 26008KT 10SM FEW095 BKN150 BKN200 24/18 A2990 RMK AO2 SLP125 T02440183
