2025/10/20 03:53
KLAX 200353Z 25006KT 10SM CLR 18/16 A3000 RMK AO2 SLP158 T01830156
