2025/05/16 17:53
KLAX 161753Z 23006KT 7SM FEW012 BKN024 18/13 A2998 RMK AO2 SLP150 T01780128 10183 20150 51003
