2023/02/06 15:53
KLAX 061553Z 34008KT 10SM FEW070 FEW180 13/M01 A3023 RMK AO2 SLP237 T01331011 $
