2022/11/11 09:53
KLAX 110953Z 10004KT 10SM CLR 11/05 A3009 RMK AO2 SLP187 T01060050
