2026/04/01 11:53
KLAX 011153Z 29008KT 10SM FEW008 BKN018 BKN026 17/14 A2993 RMK AO2 SLP132 60009 70011 T01670139 10178 20161 55002 $
