2022/09/10 17:53
KLAX 101753Z 23009KT 10SM FEW030 BKN070 OVC130 24/19 A2988 RMK AO2 SLP115 T02440194 10256 20228 53020 $
