2023/07/18 15:53
KLAX 181553Z 24006KT 7SM FEW006 FEW160 SCT250 21/18 A2996 RMK AO2 SLP144 T02110178 $
