2025/12/31 17:53
KLAX 311753Z 01007KT 10SM BKN080 OVC095 19/03 A3004 RMK AO2 SLP172 60000 T01940033 10194 20172 53012 $
