2024/05/16 11:53
KLAX 161153Z 26004KT 10SM FEW008 FEW012 OVC022 15/12 A2996 RMK SLP144 T01500117 10156 20150 50003 
