2023/11/15 05:53
KLAX 150553Z 13004KT 10SM FEW250 16/13 A2997 RMK AO2 SLP144 T01560128 10194 20150 53009
