2024/04/26 15:53
KLAX 261553Z 00000KT 10SM FEW017 BKN023 BKN035 16/11 A2997 RMK AO2 SLP149 T01560111
