2026/01/12 05:53
KLAX 120553Z 29006KT 10SM CLR 18/M04 A3020 RMK AO2 SLP224 T01781044 10189 20156 51006 $
