2025/08/23 01:53
KLAX 230153Z 25009KT 10SM FEW006 FEW120 SCT180 SCT240 23/18 A2982 RMK AO2 SLP096 T02280183
