2026/01/20 01:53
KLAX 200153Z 24007KT 10SM FEW250 16/12 A2999 RMK AO2 SLP154 T01610117 $
