2025/01/25 09:53
KLAX 250953Z 07005KT 10SM SCT250 09/02 A2990 RMK AO2 SLP123 T00940017
