2024/12/23 01:53
KLAX 230153Z 24004KT 9SM FEW250 14/12 A3011 RMK AO2 SLP196 T01440122
