2024/06/24 07:53
KLAX 240753Z 24003KT 10SM FEW015 FEW110 SCT150 19/16 A2993 RMK AO2 SLP131 T01940161 402610156
