2022/10/30 07:53
KLAX 300753Z 08006KT 10SM FEW060 16/11 A3002 RMK AO2 SLP163 T01560111 402220128 VISNO RWY24 $
