2025/10/08 13:53
KLAX 081353Z 33005KT 8SM FEW009 OVC014 17/14 A2991 RMK AO2 SLP126 T01720144 $
