2026/04/12 23:53
KLAX 122353Z 24013KT 10SM FEW065 FEW085 SCT250 18/08 A2999 RMK AO2 SLP154 60000 T01830078 10206 20178 58003 $
