2024/06/09 11:53
KLAX 091153Z 23005KT 10SM BKN013 OVC018 16/14 A2993 RMK AO2 SLP134 T01610139 10167 20161 53003 $
