2024/01/17 15:53
KLAX 171553Z 11006KT 3SM BR FEW009 OVC017 13/12 A3002 RMK AO2 SLP164 T01330117
