2025/11/25 17:53
KLAX 251753Z 00000KT 10SM FEW009 21/06 A3010 RMK AO2 SLP193 T02060061 10206 20117 51007
