2022/08/27 07:53
KLAX 270753Z VRB03KT 10SM SCT012 21/18 A2991 RMK AO2 SLP124 T02060178 402440189 $
