2023/12/26 01:53
KLAX 260153Z 26010KT 10SM FEW010 SCT280 15/12 A3015 RMK AO2 SLP209 T01500122
