2023/12/21 05:53
KLAX 210553Z 12007KT 10SM OVC006 16/16 A2993 RMK AO2 CIG 005V009 SLP133 60001 T01560156 10161 20156 53017
