2024/01/27 23:53
KLAX 272353Z 29007KT 10SM SCT250 BKN300 22/02 A3011 RMK AO2 SLP195 T02170017 10244 20200 56008 $
