2024/10/12 05:20
KLAX 120520Z 25005KT 10SM BKN006 17/16 A3004 RMK AO2 T01720161 $
