2025/07/31 07:53
KLAX 310753Z 19005KT 10SM FEW014 18/16 A2997 RMK AO2 SLP146 T01780156 402330172 $
