2023/11/11 19:53
KLAX 111953Z 25007KT 10SM CLR 22/06 A3006 RMK AO2 SLP177 T02220056
