2025/06/14 17:53
KLAX 141753Z 16006KT 9SM SCT020 22/15 A2994 RMK AO2 SLP137 T02170150 10217 20178 51002 $
