2025/05/21 23:53
KLAX 212353Z 26010KT 10SM FEW004 20/16 A2989 RMK AO2 SLP118 T02000156 10228 20194 58006 $
