2023/07/01 15:53
KLAX 011553Z 18004KT 6SM HZ FEW010 19/15 A2991 RMK AO2 SLP126 T01940150 $
