2025/09/17 01:53
KLAX 170153Z 26011KT 10SM FEW020 FEW080 22/18 A2988 RMK AO2 SLP115 T02220178
