2025/06/15 11:53
KLAX 151153Z 01003KT 9SM FEW250 17/14 A2990 RMK AO2 SLP123 T01670144 10172 20156 53008 $
