2025/03/07 01:53
KLAX 070153Z 27009KT 10SM -RA FEW019 SCT024 OVC048 09/06 A2990 RMK AO2 SLP123 P0002 T00940056
