2026/01/10 01:53
KLAX 100153Z 29005KT 10SM CLR 14/02 A3034 RMK AO2 SLP274 T01440017 $
