2025/12/13 19:53
KLAX 131953Z 26005KT 2 1/2SM HZ FEW005 SCT008 BKN280 16/13 A3002 RMK AO2 SLP166 VIS SW-W 1 3/4 T01610128 $
