2022/10/20 07:53
KLAX 200753Z 11003KT 10SM FEW200 SCT250 24/12 A2995 RMK AO2 SLP139 T02390117 403440183 $
