2024/03/05 21:53
KLAX 052153Z 25011KT 10SM FEW009 FEW040 SCT250 16/11 A3003 RMK AO2 SLP169 T01560106
