2022/09/27 21:53
KLAX 272153Z 26010KT 10SM FEW110 FEW250 26/18 A2984 RMK AO2 SLP103 T02560178
