2025/06/17 03:53
KLAX 170353Z 25004KT 9SM FEW180 19/16 A2985 RMK AO2 SLP105 T01890156 $
