2023/05/21 13:53
KLAX 211353Z 31005KT 5SM BR OVC005 16/14 A3003 RMK AO2 SLP166 T01560139
