2025/06/18 15:53
KLAX 181553Z 11005KT 8SM FEW012 22/15 A2982 RMK AO2 SLP097 T02170150 $
