2024/11/03 05:53
KLAX 030553Z 23006KT 9SM FEW011 SCT060 14/13 A2991 RMK AO2 SLP126 60001 T01440128 10161 20144 53000 $
