2025/08/18 15:53
KLAX 181553Z VRB03KT 10SM SCT014 22/17 A2997 RMK AO2 SLP147 T02170167 $
