2024/12/06 15:53
KLAX 061553Z 32003KT 1/8SM R25L/1400VP6000FT FG BKN000 09/09 A3011 RMK AO2 SLP195 FG BKN000 T00940089
