2024/08/19 07:53
KLAX 190753Z 19003KT 10SM CLR 20/17 A2993 RMK AO2 SLP133 T02000167 402440189
