2024/07/12 13:53
KLAX 121353Z VRB03KT 2 1/2SM BR FEW003 OVC008 19/17 A2990 RMK AO2 SLP123 VIS 2V4 T01890172 $
