2025/12/25 07:53
KLAX 250753Z 11006KT 10SM FEW008 FEW012 BKN035 14/13 A3002 RMK AO2 SLP165 T01440133 401780144 $
