2024/02/05 09:53
KLAX 050953Z 15011G22KT 3SM RA BR BKN007 OVC010 13/13 A2989 RMK AO2 SLP119 VIS 2 1/2V4 VIS W-N 2 P0018 T01330128 $
