2024/05/16 05:53
KLAX 160553Z 27006KT 10SM FEW011 OVC025 15/12 A2996 RMK AO2 SLP143 T01500117 10161 20144 51012
