2022/12/25 15:53
KLAX 251553Z 07003KT 10SM FEW240 BKN300 17/03 A3020 RMK AO2 SLP223 T01670028 $
