2026/03/28 19:53
KLAX 281953Z 27009KT 9SM FEW007 SCT220 SCT260 BKN300 19/14 A2999 RMK AO2 SLP155 CCSL DSNT E T01890139
