2022/11/25 15:53
KLAX 251553Z 06004KT 10SM FEW120 SCT160 SCT250 16/M05 A3029 RMK AO2 SLP254 T01561050 $
