2026/05/14 09:53
KLAX 140953Z 12003KT 10SM FEW010 FEW016 16/12 A3001 RMK AO2 SLP159 T01560122
