2025/08/05 00:53
KLAX 050053Z 26009KT 8SM FEW010 FEW200 SCT250 22/17 A2989 RMK AO2 SLP121 T02170172
