2023/12/06 07:53
KLAX 060753Z 00000KT 10SM CLR 18/07 A3008 RMK AO2 SLP183 T01780072 402830122
