2026/04/08 19:53
KLAX 081953Z 23009KT 9SM FEW018 21/14 A2992 RMK AO2 SLP131 T02060144 $
