2024/01/25 13:53
KLAX 251353Z 00000KT 4SM -DZ BR FEW004 BKN007 OVC014 13/13 A3011 RMK AO2 DZB47 SLP196 P0000 T01330128
