2022/09/06 07:53
KLAX 060753Z 24005KT 10SM FEW006 23/21 A2978 RMK AO2 SLP080 T02280206 403280228 $
