2023/06/09 21:53
KLAX 092153Z 24012KT 10SM FEW015 BKN031 BKN120 19/13 A3001 RMK AO2 SLP160 T01940133
