2023/12/05 21:53
KLAX 052153Z 26009KT 10SM CLR 24/08 A3005 RMK AO2 SLP175 T02390078
