2024/10/16 12:53
KLAX 161253Z 05004KT 7SM OVC016 18/14 A2997 RMK AO2 SLP147 T01780139 $
