2023/10/29 11:53
KLAX 291153Z 00000KT 10SM CLR 13/10 A2999 RMK AO2 SLP152 T01280100 10167 20128 55000
