2023/10/08 13:53
KLAX 081353Z 26004KT 1/2SM R25L/2600VP6000FT FG BKN000 BKN130 16/16 A2989 RMK AO2 SLP120 VIS W 1/8 FG BKN000 T01610161
