2025/03/05 07:53
KLAX 050753Z VRB05KT 10SM FEW008 FEW011 SCT200 12/10 A3010 RMK AO2 SLP190 T01170100 401780100 $
