2023/04/01 01:53
KLAX 010153Z 27014KT 10SM FEW018 SCT050 BKN150 BKN200 13/09 A3016 RMK AO2 SLP212 T01330089 $
