2026/02/05 21:53
KLAX 052153Z 00000KT 10SM FEW120 SCT180 BKN250 28/M03 A2999 RMK AO2 SLP156 T02831028
