2024/04/13 01:53
KLAX 130153Z 15009KT 10SM FEW015 SCT024 OVC033 15/10 A2997 RMK AO2 SLP149 T01500100 $
