2026/02/01 13:53
KLAX 011353Z 07005KT 10SM CLR 17/02 A3005 RMK AO2 SLP174 T01670017 $
