2023/01/22 05:53
KLAX 220553Z 04004KT 10SM CLR 10/06 A3022 RMK AO2 SLP232 T01000061 10144 20100 57005 $
