2026/06/16 07:53
KLAX 160753Z 26006KT 10SM FEW009 BKN011 17/15 A3000 RMK AO2 SLP156 T01720150 402170172 $
