2023/01/11 03:53
KLAX 110353Z 28012KT 10SM BKN200 14/07 A3012 RMK AO2 SLP200 T01390072 $
