2024/09/30 21:53
KLAX 302153Z 26010KT 5SM HZ FEW004 20/15 A2984 RMK AO2 SLP103 T02000150 $
