2022/10/16 19:53
KLAX 161953Z 26010KT 10SM FEW034 BKN040 22/15 A3003 RMK AO2 SLP167 T02170150 $
