2025/03/25 17:53
KLAX 251753Z 25004KT 4SM BR OVC006 14/12 A3001 RMK AO2 SLP163 T01390122 10139 20122 50003 $
