2023/07/31 03:53
KLAX 310353Z 28007KT 10SM FEW150 SCT250 22/19 A2988 RMK AO2 SLP117 T02220189 $
