2023/11/16 17:53
KLAX 161753Z VRB05KT 9SM FEW019 BKN033 BKN090 19/14 A3005 RMK AO2 SLP176 60000 T01890144 10189 20156 53012
