2023/01/14 19:53
KLAX 141953Z 06010KT 1 1/4SM R25L/6000VP6000FT +RA BR OVC007 12/11 A2994 RMK AO2 PRESFR SLP135 P0031 T01170111
