2023/10/02 21:53
KLAX 022153Z 24013G21KT 10SM FEW020 FEW060 21/11 A2997 RMK AO2 SLP149 T02060106 $
