2023/04/21 17:53
KLAX 211753Z VRB03KT 10SM CLR 28/03 A3011 RMK AO2 SLP195 T02780028 10278 20133 58003
