2023/01/30 19:53
KLAX 301953Z 11008KT 10SM FEW009 SCT060 SCT090 BKN140 13/07 A2996 RMK AO2 SLP144 T01330072 $
