2024/07/07 03:53
KLAX 070353Z 24004KT 10SM FEW010 20/18 A2986 RMK AO2 SLP111 T02000178
