2023/02/05 21:53
KLAX 052153Z 26018KT 10SM FEW036 FEW060 SCT220 17/11 A3016 RMK AO2 SLP211 T01670106 $
