2024/08/21 15:53
KLAX 211553Z 10005KT 10SM FEW008 FEW170 SCT240 23/19 A2997 RMK AO2 SLP148 T02330189
