2025/02/23 07:53
KLAX 230753Z 14003KT 10SM CLR 13/11 A3025 RMK AO2 SLP241 T01330111 401940083 $
