2025/03/04 07:53
KLAX 040753Z 08008KT 10SM FEW180 BKN240 13/08 A3014 RMK AO2 SLP205 T01280083 401720100 $
