2025/01/09 13:53
KLAX 091353Z 00000KT 9SM FEW008 SCT030 09/M07 A3009 RMK AO2 SLP187 FU FEW008 FU SCT030 T00891067
