2023/11/06 01:53
KLAX 060153Z 26009KT 10SM CLR 18/14 A2991 RMK AO2 SLP128 T01780144
