2023/06/04 05:53
KLAX 040553Z 24003KT 9SM OVC013 16/13 A2992 RMK AO2 SLP131 T01560128 10189 20156 50003
