2025/07/20 04:53
KLAX 200453Z 25006KT 10SM OVC012 18/16 A3001 RMK AO2 SLP161 T01830156 $
