2024/02/26 13:53
KLAX 261353Z 06003KT 10SM FEW008 SCT120 BKN160 12/11 A3003 RMK AO2 SLP168 T01220106 $
