2023/08/07 15:53
KLAX 071553Z VRB03KT 4SM HZ FEW010 22/17 A3002 RMK AO2 SLP165 VIS SW 2 1/2 T02170172 
