2026/04/07 17:53
KLAX 071753Z 26006KT 8SM FEW018 FEW140 19/14 A3001 RMK AO2 SLP161 T01940139 10200 20150 50001 $
