2024/03/08 11:53
KLAX 081153Z 06003KT 10SM FEW009 FEW012 10/08 A3005 RMK AO2 SLP175 70003 T01000078 10128 20100 55001
