2024/04/06 19:53
KLAX 061953Z VRB03KT 10SM FEW045 FEW065 16/04 A3025 RMK AO2 SLP244 T01610044 $
