2023/12/02 11:53
KLAX 021153Z 13004KT 10SM FEW250 10/02 A3013 RMK AO2 SLP200 T01000022 10156 20094 51006
