2025/11/06 23:53
KLAX 062353Z 25007KT 10SM FEW010 18/14 A3003 RMK AO2 SLP169 T01780144 10206 20178 58015 $
