2022/11/12 07:53
KLAX 120753Z 04005KT 10SM CLR 14/M01 A3004 RMK AO2 SLP169 T01441011 402170089
