2023/02/11 11:53
KLAX 111153Z 08003KT 10SM FEW250 11/09 A2992 RMK AO2 SLP129 T01060089 10161 20100 56013 $
