2024/07/16 01:53
KLAX 160153Z 27012KT 10SM FEW010 FEW070 21/17 A2993 RMK AO2 SLP134 T02060167
