2023/06/09 17:53
KLAX 091753Z 26010KT 10SM SCT015 OVC023 17/13 A3004 RMK AO2 SLP171 T01720133 10172 20144 51005
