2026/03/18 23:53
KLAX 182353Z 26011KT 10SM FEW250 26/12 A2997 RMK AO2 SLP147 T02610122 10278 20250 56013 $
