2024/11/27 09:53
KLAX 270953Z 00000KT 4SM BR SCT004 OVC015 16/16 A3005 RMK AO2 DZE50 SLP174 VIS 1 1/2V5 P0001 T01610156 $
