2022/08/30 07:53
KLAX 300753Z 19005KT 10SM CLR 19/17 A2992 RMK AO2 SLP130 T01890167 402440189 $
