2026/02/23 23:53
KLAX 232353Z 27009KT 10SM FEW250 19/10 A3009 RMK AO2 SLP190 T01940100 10233 20183 56014
