2025/08/26 02:53
KLAX 260253Z 24005KT 10SM SCT008 SCT120 BKN210 BKN280 21/18 A2989 RMK AO2 SLP120 T02060178 51016 $
