2022/10/11 17:53
KLAX 111753Z VRB05KT 10SM FEW012 OVC020 21/16 A3001 RMK AO2 SLP160 T02110161 10217 20200 50009
