2024/06/17 11:53
KLAX 171153Z 16005KT 9SM OVC017 17/13 A2973 RMK AO2 SLP064 T01720133 10183 20172 53001
