2022/11/17 17:53
KLAX 171753Z 01006KT 10SM SCT180 BKN250 21/M07 A3021 RMK AO2 SLP228 T02061067 10206 20106 50001
