2026/03/22 07:53
KLAX 220753Z 00000KT 3SM BR OVC002 16/15 A2992 RMK AO2 SLP128 T01560150 402330156
