2025/05/26 07:53
KLAX 260753Z 27006KT 10SM FEW014 16/13 A3001 RMK AO2 SLP160 T01610128 402060161
