2024/06/08 03:53
KLAX 080353Z 24006KT 10SM OVC008 17/15 A2989 RMK AO2 SLP119 T01670150 $
