2025/02/08 17:53
KLAX 081753Z 25004KT 10SM FEW019 SCT220 14/08 A3015 RMK AO2 SLP279 T01390078 53010 $
