2025/07/22 03:53
KLAX 220353Z 25011KT 10SM FEW014 FEW150 18/16 A2995 RMK AO2 SLP141 T01830161 $
