2023/04/11 17:53
KLAX 111753Z 25009KT 4SM BR SCT008 OVC010 14/12 A3004 RMK AO2 SLP171 VIS SW-N 2 1/2 T01440122 10150 20117 51006
