2024/10/09 03:53
KLAX 090353Z 27008KT 10SM OVC005 18/16 A2986 RMK AO2 SLP109 T01780161 $
