2025/08/19 17:53
KLAX 191753Z 23007KT 4SM HZ FEW007 SCT012 SCT250 24/18 A3003 RMK AO2 SLP166 T02390178 10239 20189 50000 $
