2024/01/16 11:53
KLAX 161153Z 00000KT 3SM BR FEW002 FEW007 SCT200 BKN250 11/10 A3007 RMK AO2 SLP180 VIS NW-N 2 1/2 T01060100 10128 20100 58001 $
