2022/11/23 17:53
KLAX 231753Z 12003KT 10SM FEW070 FEW100 SCT140 BKN250 17/M01 A3009 RMK AO2 SLP190 T01721006 10172 20083 51014
