2023/08/28 21:53
KLAX 282153Z 26011KT 10SM CLR 26/17 A2984 RMK AO2 SLP103 T02560172
