2025/03/02 15:53
KLAX 021553Z 27011KT 8SM -RA BKN019 BKN029 BKN039 14/12 A3012 RMK AO2 RAB44 SLP198 P0000 T01390117 $
