2024/04/13 22:01
KLAX 132201Z 15016G23KT 4SM HZ SCT025 BKN033 OVC045 15/11 A3003 RMK AO2 T01500106 $
