2023/02/16 19:53
KLAX 161953Z VRB04KT 10SM FEW140 SCT200 OVC250 17/M11 A3025 RMK AO2 SLP245 T01671106 $
