2023/10/18 21:53
KLAX 182153Z 26009KT 10SM FEW009 21/17 A2988 RMK AO2 SLP117 T02060167 $
