2024/11/11 11:53
KLAX 111153Z 08003KT 5SM BR FEW004 FEW010 11/09 A3003 RMK AO2 SLP166 T01110089 10150 20106 55001
