2022/10/08 21:53
KLAX 082153Z 26010KT 7SM FEW010 FEW100 SCT160 23/18 A2999 RMK AO2 SLP153 CB DSNT E T02280178 $
