2025/05/27 19:53
KLAX 271953Z 23011KT 9SM FEW020 FEW030 21/13 A2997 RMK AO2 SLP148 T02110133 $
