2025/01/10 17:53
KLAX 101753Z 01004KT 9SM FEW010 FEW050 18/M01 A3034 RMK AO2 SLP275 FU FEW010 FU FEW050 T01831006 10183 20078 51013 $
