2025/09/19 19:53
KLAX 191953Z 25010KT 9SM FEW011 FEW045 SCT090 24/18 A2991 RMK AO2 SLP128 T02440183
