2023/09/22 15:53
KLAX 221553Z VRB04KT 9SM FEW011 SCT140 BKN180 19/14 A2999 RMK AO2 SLP152 T01890139
