2024/04/05 09:53
KLAX 050953Z 26009KT 10SM FEW024 SCT040 BKN070 10/03 A2991 RMK AO2 SLP129 T01000033 $
