2022/09/29 09:53
KLAX 290953Z 10003KT 5SM BR FEW007 FEW011 21/19 A2997 RMK AO2 SLP147 T02060194
