2026/07/13 16:53
KLAX 131653Z VRB05KT 9SM FEW019 SCT100 SCT160 BKN250 22/18 A2998 RMK AO2 SLP149 T02220178 $
