2026/07/19 10:53
KLAX 191053Z 00000KT 9SM BKN008 OVC013 20/18 A2997 RMK AO2 SLP147 T02000178 $
