2023/01/25 15:53
KLAX 251553Z 00000KT 10SM FEW012 FEW160 09/02 A3029 RMK AO2 SLP255 T00890022 $
