2025/01/14 03:53
KLAX 140353Z 34008KT 10SM CLR 14/M04 A3025 RMK AO2 SLP244 T01391044
