2025/07/29 17:53
KLAX 291753Z 25008KT 8SM FEW009 SCT016 22/16 A3007 RMK AO2 SLP183 T02170156 10217 20172 58001
