2022/09/13 15:53
KLAX 131553Z 12003KT 8SM FEW017 FEW090 SCT160 24/18 A2988 RMK AO2 SLP117 T02440183 $
