2026/01/03 21:53
KLAX 032153Z 15007KT 2SM -RA BR SCT007 BKN016 OVC028 16/14 A2997 RMK AO2 RAB20 SLP148 VIS SW-W 1 1/2 P0003 T01560139 $
