2023/10/21 11:53
KLAX 211153Z 00000KT 10SM CLR 17/15 A2982 RMK AO2 SLP095 T01670150 10200 20167 55003
