2025/07/30 17:53
KLAX 301753Z 26010KT 8SM FEW009 FEW018 22/16 A3003 RMK AO2 SLP168 T02220161 10228 20172 51003 $
