2024/06/17 07:53
KLAX 170753Z 13005KT 10SM OVC016 18/14 A2973 RMK AO2 SLP064 T01830144 402220161
