2024/11/05 01:53
KLAX 050153Z 15005KT 10SM CLR 17/10 A3001 RMK AO2 SLP161 T01720100 $
