2025/04/15 03:53
KLAX 150353Z 25007KT 10SM FEW014 13/10 A3001 RMK AO2 SLP161 T01280100 $
