2024/10/26 13:53
KLAX 261353Z 00000KT 1/4SM R25L/1400VP6000FT FG VV001 13/13 A3003 RMK AO2 SLP169 T01330133 $
