2025/11/14 13:53
KLAX 141353Z 09003KT 10SM -RA FEW020 SCT038 BKN050 OVC150 16/13 A2997 RMK AO2 SLP148 P0001 T01610128
