2022/11/10 19:53
KLAX 101953Z 07006KT 10SM CLR 19/03 A3011 RMK AO2 SLP197 T01940028
