2026/04/08 15:20
KLAX 081520Z 14004KT 4SM BR BKN009 BKN012 16/14 A2995 RMK AO2 T01610144 $
