2024/03/21 01:53
KLAX 210153Z 26008KT 10SM FEW010 FEW080 SCT250 14/12 A2999 RMK AO2 SLP156 T01440117 $
