2024/12/25 05:53
KLAX 250553Z 35009G17KT 10SM FEW200 15/04 A3004 RMK AO2 SLP173 T01500039 10150 20122 50002 $
