2025/07/08 03:53
KLAX 080353Z 25012KT 10SM FEW015 18/14 A3000 RMK AO2 SLP157 T01780144 $
