2025/02/22 07:53
KLAX 220753Z 00000KT 9SM CLR 15/11 A3013 RMK AO2 SLP200 T01500106 402330117
