2026/03/11 11:53
KLAX 111153Z 03003KT 10SM FEW015 FEW250 13/11 A3020 RMK AO2 SLP224 T01280106 10150 20122 58001 $
