2025/04/07 07:53
KLAX 070753Z 00000KT 10SM FEW250 13/08 A3013 RMK AO2 SLP200 T01280083 402500111 $
