2025/03/02 05:53
KLAX 020553Z 10005KT 10SM FEW017 BKN038 14/10 A3005 RMK AO2 SLP173 T01390100 10150 20133 50002 $
