2025/05/24 07:53
KLAX 240753Z 00000KT 10SM BKN021 OVC250 17/11 A2994 RMK AO2 SLP137 T01720111 402170167
