2023/02/09 23:53
KLAX 092353Z 26009KT 10SM CLR 22/02 A3015 RMK AO2 SLP208 T02220017 10244 20206 56010 $
