2023/03/31 21:53
KLAX 312153Z 26014KT 10SM FEW010 SCT080 BKN150 BKN250 15/09 A3020 RMK AO2 SLP226 T01500089 $
