2022/11/19 19:53
KLAX 191953Z 20004KT 10SM CLR 23/M07 A3006 RMK AO2 SLP177 T02281067 $
