2024/09/24 21:53
KLAX 242153Z 25008KT 10SM BKN009 19/15 A2980 RMK AO2 SLP089 T01890150 $
