2022/12/04 01:53
KLAX 040153Z 25005KT 10SM FEW015 SCT050 16/14 A3008 RMK AO2 SLP185 T01560144
