2024/02/21 13:53
KLAX 211353Z 09003KT 10SM FEW008 SCT040 BKN060 BKN200 12/11 A3004 RMK AO2 RAE1254B38E50 SLP170 P0000 T01170111 $
