2024/05/24 05:53
KLAX 240553Z 24007KT 10SM FEW011 FEW018 BKN038 15/12 A2995 RMK SLP140 T01500122 10178 20150 50007 
