2023/05/06 19:53
KLAX 061953Z 24008KT 200V270 10SM SCT025 SCT150 18/11 A3011 RMK AO2 SLP194 T01830106
