2025/11/12 23:53
KLAX 122353Z 00000KT 8SM BKN150 BKN200 19/15 A3001 RMK AO2 SLP162 T01940150 10200 20178 56006 $
