2024/12/07 09:53
KLAX 070953Z 07004KT 9SM CLR 13/06 A3007 RMK AO2 SLP180 T01280061
