2023/09/08 05:53
KLAX 080553Z 23005KT 10SM FEW006 FEW200 19/18 A2996 RMK AO2 SLP143 T01890178 10222 20189 51008
