2023/12/27 17:53
KLAX 271753Z 21003KT 8SM FEW010 SCT140 BKN180 BKN250 16/13 A3020 RMK AO2 SLP227 T01560133 10156 20111 53015 $
