2025/07/19 11:53
KLAX 191153Z 00000KT 10SM BKN011 BKN015 18/16 A2998 RMK AO2 SLP148 T01830161 10194 20183 58006 $
