2025/04/29 17:53
KLAX 291753Z 24008KT 9SM FEW011 FEW140 17/11 A3007 RMK AO2 SLP180 T01720111 10178 20128 50000 $
