2024/04/03 13:53
KLAX 031353Z 05004KT 10SM FEW009 13/10 A3019 RMK AO2 SLP221 T01280100
