2023/10/23 17:53
KLAX 231753Z VRB05KT 10SM SCT009 SCT021 BKN044 21/14 A2977 RMK AO2 SLP080 T02110144 10211 20167 50007 $
