2025/04/13 11:53
KLAX 131153Z 14003KT 6SM HZ BKN012 14/11 A2993 RMK AO2 SLP133 T01390111 10144 20128 55004 $
