2024/01/19 09:53
KLAX 190953Z 00000KT 9SM FEW004 FEW008 BKN250 12/12 A3005 RMK AO2 SLP176 T01220117 $
