2025/10/09 23:53
KLAX 092353Z 25014KT 10SM FEW050 FEW150 22/16 A2986 RMK AO2 SLP109 T02170156 10228 20211 56008 $
