2023/03/31 03:53
KLAX 310353Z 35004KT 10SM CLR 11/07 A3005 RMK AO2 SLP176 T01110072 $
