2025/01/08 13:53
KLAX 081353Z 10010G22KT 9SM SCT008 BKN028 BKN040 OVC200 17/M02 A3009 RMK AO2 SLP187 FU SCT008 FU BKN028 T01671022
