2022/08/28 09:53
KLAX 280953Z 29003KT 8SM OVC014 20/17 A2985 RMK AO2 SLP105 T02000167 $
