2025/12/30 11:53
KLAX 301153Z 04005KT 10SM BKN150 BKN250 16/M03 A3007 RMK AO2 SLP179 T01611028 10172 20150 58017 $
