2023/06/21 05:53
KLAX 210553Z 24005KT 10SM FEW220 17/13 A2999 RMK AO2 SLP152 T01670133 10206 20167 53006
