2023/07/01 09:53
KLAX 010953Z VRB04KT 4SM BR OVC009 17/15 A2989 RMK AO2 SLP120 VIS W-NW 1 T01670150 $
