2025/12/16 13:53
KLAX 161353Z 11003KT 1/16SM R25L/0800V1200FT FG VV001 12/12 A3008 RMK AO2 SLP184 T01170117
