2026/06/16 11:13
KLAX 161113Z 19006KT 9SM OVC009 17/15 A2996 RMK AO2 T01670150 $
