2022/09/28 15:53
KLAX 281553Z 00000KT 8SM FEW006 FEW012 23/20 A2993 RMK AO2 SLP134 T02330200
