2024/06/06 09:53
KLAX 060953Z 00000KT 4SM BR FEW003 OVC005 17/16 A2987 RMK AO2 SLP114 T01670156
