2024/06/02 17:53
KLAX 021753Z 23007KT 10SM FEW015 BKN021 OVC028 18/13 A2995 RMK AO2 SLP139 T01780128 10178 20144 51008
