2023/11/22 05:53
KLAX 220553Z 07003KT 10SM FEW200 SCT250 18/M01 A3022 RMK AO2 SLP229 T01831006 10267 20172 53004
