2022/12/17 17:53
KLAX 171753Z 05008KT 10SM SCT250 15/M04 A3009 RMK AO2 SLP189 T01501044 10156 20094 53007 $
