2025/07/17 12:53
KLAX 171253Z 29004KT 10SM FEW009 FEW012 SCT090 BKN150 BKN220 18/15 A2993 RMK AO2 SLP134 T01780150 $
