2025/02/05 19:53
KLAX 051953Z 11009KT 1 1/2SM R25L/5000VP6000FT -RA BR BKN005 OVC012 14/14 A3010 RMK AO2 RAB03 SLP191 VIS SW-NW 1 1/4 P0003 T01440139 $
