2024/08/01 13:53
KLAX 011353Z VRB03KT 2SM BR OVC004 16/16 A3000 RMK AO2 SLP156 VIS 1 1/2V3 VIS SW-NW 1 T01610156 $
