2025/05/16 05:53
KLAX 160553Z 26005KT 10SM FEW010 FEW015 SCT220 15/12 A2998 RMK AO2 SLP150 T01500117 10189 20150 51010 $
