2022/09/05 19:53
KLAX 051953Z 24013KT 10SM FEW027 FEW050 30/21 A2977 RMK AO2 SLP078 T03000211 $
