2024/01/30 15:53
KLAX 301553Z 09004KT 10SM FEW180 SCT250 13/06 A3007 RMK AO2 SLP181 T01330061 $
