2022/09/25 03:53
KLAX 250353Z 23008KT 10SM CLR 22/16 A3000 RMK AO2 SLP156 T02170161
