2026/01/08 15:53
KLAX 081553Z 00000KT 10SM FEW010 FEW060 12/06 A3004 RMK AO2 SLP172 T01170061 $
