2025/02/01 05:53
KLAX 010553Z 08004KT 10SM FEW023 SCT200 12/10 A3020 RMK AO2 SLP225 T01220100 10144 20117 58002
