2024/07/09 11:53
KLAX 091153Z 27004KT 3/4SM R25L/P6000FT BR VV003 18/17 A2981 RMK AO2 SLP094 VIS 1/2V1 1/2 T01780167 10183 20172 55004 $
