2023/02/28 15:53
KLAX 281553Z 00000KT 10SM FEW005 FEW025 SCT070 11/07 A3008 RMK AO2 SLP184 T01060072 $
