2025/08/23 21:53
KLAX 232153Z 26015KT 10SM FEW008 SCT140 BKN220 BKN270 26/19 A2986 RMK AO2 SLP109 T02610189
