2024/02/04 11:53
KLAX 041153Z 10007KT 10SM OVC075 11/08 A2996 RMK AO2 SLP146 60005 70009 T01060078 10122 20100 58013 $
