2025/04/29 01:53
KLAX 290153Z 26009KT 10SM FEW040 16/11 A3003 RMK AO2 SLP167 T01560106 $
