2024/11/29 13:53
KLAX 291353Z 01007KT 10SM FEW170 FEW200 BKN280 14/M05 A3003 RMK AO2 SLP168 T01441050 $
