2025/03/23 21:53
KLAX 232153Z 25009KT 10SM FEW080 FEW250 17/12 A3000 RMK AO2 SLP158 T01670117 $
