2024/06/10 17:53
KLAX 101753Z VRB05KT 10SM FEW011 OVC018 19/14 A2996 RMK AO2 SLP143 T01940139 10194 20156 58001
