2023/10/28 03:53
KLAX 280353Z 26008KT 10SM FEW016 FEW230 17/12 A2998 RMK AO2 SLP151 T01720122
