2023/12/21 13:53
KLAX 211353Z 09008KT 10SM FEW009 SCT018 BKN040 16/14 A2994 RMK AO2 RAE22B38E48 SLP138 P0000 T01560139
