2023/11/24 01:53
KLAX 240153Z 15006KT 10SM SCT021 17/14 A2980 RMK AO2 SLP089 T01670144
