2025/08/07 11:53
KLAX 071153Z 25004KT 10SM FEW008 FEW250 18/17 A2996 RMK AO2 SLP142 T01830172 10200 20183 56003
