2022/10/24 05:53
KLAX 240553Z 11003KT 10SM CLR 17/11 A2999 RMK AO2 SLP154 T01670111 10200 20167 53020
