2025/09/20 13:53
KLAX 201353Z 00000KT 7SM OVC007 20/18 A2996 RMK AO2 SLP143 T02000183
