2023/12/08 21:53
KLAX 082153Z 26010KT 10SM FEW025 FEW120 SCT180 18/10 A3000 RMK AO2 SLP159 T01830100
