2026/06/29 20:02
KLAX 292002Z 26007KT 10SM FEW017 BKN030 BKN035 19/14 A2992 RMK AO2 T01940139 $
