2024/09/15 05:53
KLAX 150553Z 25009KT 10SM FEW008 SCT015 18/16 A2990 RMK AO2 SLP121 T01780156 10217 20178 50002
