2023/03/30 21:53
KLAX 302153Z 25006KT 10SM FEW075TCU FEW150 14/08 A2998 RMK AO2 LTG DSNT NW SLP150 CB DSNT NW TCU OHD T01440078
