2025/03/29 17:53
KLAX 291753Z 24005KT 10SM SCT030 BKN150 17/10 A2999 RMK AO2 SLP155 T01670100 10172 20106 51006 $
