2026/05/04 17:53
KLAX 041753Z 24013G19KT 10SM FEW032 FEW060 SCT140 BKN180 18/09 A3001 RMK AO2 SLP161 T01830094 10189 20144 53012
