2023/09/09 21:53
KLAX 092153Z 25012G21KT 10SM FEW050 SCT100 SCT150 26/16 A2994 RMK AO2 SLP137 T02610156
