2024/06/30 15:53
KLAX 301553Z 00000KT 5SM HZ SCT008 19/16 A2993 RMK AO2 SLP134 T01940156
