2024/01/09 21:53
KLAX 092153Z 25008KT 10SM FEW180 SCT250 16/M03 A3012 RMK AO2 PRESFR SLP200 T01561033
