2025/02/28 07:53
KLAX 280753Z 23005G17KT 10SM FEW240 BKN280 16/11 A2996 RMK AO2 SLP141 T01610106 403000100
