2023/02/09 17:53
KLAX 091753Z 00000KT 10SM CLR 21/03 A3022 RMK AO2 SLP232 T02060028 10206 20089 51010 $
