2024/06/06 19:53
KLAX 061953Z 25009KT 8SM OVC008 18/15 A2992 RMK AO2 SLP130 T01830150
