2024/04/16 09:53
KLAX 160953Z 00000KT 10SM FEW011 FEW250 12/11 A3003 RMK AO2 SLP166 T01170106 $
