2025/07/06 15:53
KLAX 061553Z 20004KT 7SM FEW012 20/15 A2999 RMK AO2 SLP154 T02000150
