2024/09/11 17:53
KLAX 111753Z 16004KT 10SM FEW019 FEW050 23/14 A2984 RMK AO2 SLP102 FU FEW050 T02280144 10228 20161 51005
