2023/02/17 09:53
KLAX 170953Z 07004KT 10SM BKN200 09/M07 A3014 RMK AO2 SLP202 T00941072 $
