2024/02/20 11:53
KLAX 201153Z 09007KT 2 1/2SM -RA BR BKN003 OVC007 13/13 A3008 RMK AO2 RAB26 SLP185 P0003 60011 70091 T01280128 10128 20122 57010 $
