2024/12/29 01:53
KLAX 290153Z 27005KT 10SM SCT010 BKN017 OVC200 13/11 A3010 RMK AO2 SLP190 T01280111
