2024/03/24 19:53
KLAX 241953Z 27021KT 10SM FEW024 FEW055 SCT095 SCT180 BKN230 BKN280 16/08 A2983 RMK AO2 PK WND 27030/1933 SLP100 T01610083 $
