2023/11/19 09:53
KLAX 190953Z 00000KT 10SM BKN032 17/16 A3010 RMK AO2 SLP192 T01720161
