2025/06/24 21:53
KLAX 242153Z 24012KT 10SM SCT015 20/14 A2999 RMK AO2 SLP154 T02000139
