2024/05/04 17:53
KLAX 041753Z 27008KT 10SM FEW014 OVC035 16/12 A2993 RMK AO2 SLP136 T01610122 10172 20144 53006
