2023/03/29 19:53
KLAX 291953Z 25010G18KT 9SM FEW009 FEW025 SCT075 SCT140 14/08 A2996 RMK AO2 SLP145 T01440083
