2024/09/20 11:53
KLAX 201153Z 32006KT 10SM FEW008 SCT018 OVC038 17/15 A2987 RMK AO2 SLP113 T01720150 10178 20172 56003 $
