2024/09/16 11:53
KLAX 161153Z 27008KT 10SM FEW016 BKN024 BKN040 18/14 A2984 RMK AO2 SLP103 T01830144 10200 20183 55001 $
