2024/04/28 13:53
KLAX 281353Z 08004KT 10SM FEW015 12/11 A3001 RMK AO2 SLP160 T01220106
