2026/06/12 14:53
KLAX 121453Z 27003KT 7SM SCT006 OVC011 19/17 A2990 RMK AO2 SLP123 T01940167 51011
