2024/11/24 23:53
KLAX 242353Z 27009KT 10SM FEW050 FEW250 14/11 A3006 RMK AO2 SLP179 T01440106 10161 20122 55004
