2024/06/20 01:53
KLAX 200153Z 27012KT 10SM FEW015 19/14 A2983 RMK AO2 SLP098 T01890144 $
