2025/07/25 04:53
KLAX 250453Z 24009KT 10SM CLR 18/15 A3004 RMK AO2 SLP169 T01780150 $
