2024/10/07 05:53
KLAX 070553Z 15003KT 2 1/2SM BR FEW002 OVC004 17/16 A2993 RMK AO2 SLP132 VIS W 2 T01720161 10178 20161 51009
