2023/02/05 07:53
KLAX 050753Z 04003KT 10SM FEW010 FEW250 13/11 A3018 RMK AO2 SLP218 T01330111 401890078 $
