2022/09/03 09:53
KLAX 030953Z 10003KT 10SM CLR 23/18 A2981 RMK AO2 SLP092 T02330183
