2023/05/10 21:53
KLAX 102153Z 24013KT 10SM FEW025 FEW050 18/11 A3003 RMK AO2 SLP169 T01830106
