2024/03/25 21:53
KLAX 252153Z 26013KT 10SM FEW015 FEW070 BKN250 16/08 A2992 RMK AO2 SLP129 T01560078
