2024/08/27 17:53
KLAX 271753Z 27009KT 6SM HZ FEW007 21/17 A3001 RMK AO2 SLP161 T02110167 10217 20172 51006 VISNO RWY24 $
