2024/08/08 13:53
KLAX 081353Z 10004KT 7SM FEW012 BKN140 BKN190 19/17 A2993 RMK AO2 SLP133 T01940167 $
