2024/11/30 03:53
KLAX 300353Z 35004KT 10SM FEW120 SCT180 BKN250 18/M07 A3004 RMK AO2 SLP171 T01831067 $
