2025/10/15 03:53
KLAX 150353Z 09008KT 10SM FEW055 BKN090 15/12 A2996 RMK AO2 SLP145 T01500122 $
