2025/06/03 21:53
KLAX 032153Z 25015KT 10SM BKN011 OVC100 19/14 A2994 RMK AO2 LTG DSNT NE SLP136 T01890139 $
