2023/03/09 01:53
KLAX 090153Z 26009KT 10SM FEW150 BKN200 BKN250 12/05 A3012 RMK AO2 SLP200 T01220050 $
