2025/08/29 06:53
KLAX 290653Z 26006KT 10SM CLR 21/18 A3000 RMK AO2 SLP154 T02110183 $
