2024/07/23 05:53
KLAX 230553Z 25006KT 10SM FEW005 FEW010 SCT160 19/16 A2987 RMK AO2 SLP112 T01890161 10222 20189 51017 $
