2024/01/07 19:53
KLAX 071953Z 35013G27KT 10SM FEW080 FEW220 14/M04 A2996 RMK AO2 PK WND 33031/1915 SLP145 T01391044
