2024/03/19 23:53
KLAX 192353Z 27009KT 10SM FEW090 18/12 A2999 RMK AO2 SLP154 T01780122 10200 20178 56015 $
