2025/11/26 11:53
KLAX 261153Z VRB04KT 10SM CLR 14/04 A3006 RMK AO2 SLP176 T01440039 10194 20139 58004
