2023/03/10 01:53
KLAX 100153Z 26013KT 10SM FEW020 FEW085 SCT120 SCT250 13/10 A3008 RMK AO2 SLP185 T01330100 $
