2025/09/02 21:53
KLAX 022153Z 24017KT 10SM FEW010 FEW120 SCT150 26/19 A2990 RMK AO2 SLP122 T02610189 $
