2025/03/13 13:53
KLAX 131353Z 25009KT 10SM SCT014 BKN065 BKN095 10/09 A2986 RMK AO2 SLP111 T01000089 PNO $
