2026/07/07 17:53
KLAX 071753Z 24008KT 10SM FEW019 22/16 A2997 RMK AO2 SLP146 T02170161 10222 20178 51005
