2025/03/17 21:53
KLAX 172153Z 24015G23KT 10SM BKN019 OVC042 16/10 A3009 RMK AO2 SLP188 T01560100 $
