2025/09/18 15:53
KLAX 181553Z 29007KT 8SM FEW027 SCT060 SCT080 BKN160 BKN250 23/19 A2983 RMK AO2 SLP099 T02280189
