2023/03/01 05:53
KLAX 010553Z 18007KT 10SM SCT012 BKN060 OVC085 11/09 A2993 RMK AO2 RAE39 SLP134 P0001 60017 T01110094 10128 20106 58014
