2024/05/27 07:53
KLAX 270753Z 00000KT 10SM FEW012 FEW200 14/12 A3000 RMK AO2 SLP155 T01440122 401940139
