2025/04/25 21:53
KLAX 252153Z 25014KT 10SM FEW022 SCT038 SCT049 17/05 A2999 RMK AO2 SLP156 T01720050
