2025/01/20 11:53
KLAX 201153Z 14005KT 10SM OVC019 12/06 A3011 RMK AO2 SLP196 T01170061 10122 20117 58004 $
