2025/09/15 23:53
KLAX 152353Z 27010KT 5SM HZ FEW011 23/18 A2985 RMK AO2 SLP106 T02280178 10244 20228 56012
