2022/11/30 11:53
KLAX 301153Z 08004KT 10SM FEW008 SCT024 10/08 A3000 RMK AO2 SLP156 SCT V BKN T01000083 10144 20094 58003
