2022/09/27 07:53
KLAX 270753Z 26003KT 10SM FEW150 21/18 A2987 RMK AO2 SLP112 T02110178 402670200
