2023/04/15 11:53
KLAX 151153Z 07003KT 10SM CLR 11/09 A3006 RMK AO2 SLP178 T01060089 10128 20106 53005
