2023/09/02 21:53
KLAX 022153Z 10006KT 10SM FEW019 BKN024 BKN035 24/19 A3001 RMK AO2 SLP159 T02440194 $
