2025/12/16 05:53
KLAX 160553Z 09004KT 9SM CLR 14/13 A3007 RMK AO2 SLP181 T01390133 10167 20139 58001
