2023/06/23 05:53
KLAX 230553Z 24010KT 10SM FEW014 FEW025 SCT250 15/12 A2999 RMK AO2 SLP153 T01500122 10183 20150 50006
