2023/05/19 17:53
KLAX 191753Z 25006KT 9SM SCT009 OVC014 17/14 A3006 RMK AO2 SLP179 T01670139 10167 20150 51010
