2025/05/03 00:53
KLAX 030053Z 25013KT 10SM SCT014 BKN095 16/12 A2991 RMK AO2 SLP127 T01610117 $
