2022/09/02 09:53
KLAX 020953Z 10007KT 10SM FEW150 23/19 A2977 RMK AO2 SLP076 T02330194
