2022/11/07 21:53
KLAX 072153Z 22011KT 4SM -RA BR SCT011 BKN035 OVC041 17/15 A2993 RMK AO2 RAB16 SLP133 VIS SW-NW 3/4 P0001 T01670150
