2023/09/10 17:53
KLAX 101753Z 12003KT 10SM FEW100 SCT160 SCT210 30/18 A2994 RMK AO2 SLP135 60000 T03000178 10306 20217 56001
