2022/12/03 21:53
KLAX 032153Z 26011KT 10SM FEW015 FEW045 SCT120 SCT280 18/13 A3005 RMK AO2 SLP174 T01830133
