2026/04/30 10:27
KLAX 301027Z 23004KT 10SM FEW008 BKN015 16/13 A2994 RMK AO2 T01610128
