2025/01/11 17:53
KLAX 111753Z 10005KT 10SM FEW045 16/04 A3010 RMK AO2 SLP192 FU FEW045 T01560044 10156 20078 51010 $
