2025/10/23 09:53
KLAX 230953Z 08003KT 10SM FEW012 16/14 A3003 RMK AO2 SLP167 T01560139
