2022/12/13 17:53
KLAX 131753Z VRB04KT 10SM CLR 12/04 A3008 RMK AO2 SLP184 T01170044 10117 20072 51019 $
