2025/12/09 07:53
KLAX 090753Z VRB04KT 10SM CLR 19/03 A3009 RMK AO2 SLP185 T01940028 402500117 $
