2024/09/09 21:53
KLAX 092153Z 26016KT 10SM FEW140 30/15 A2979 RMK AO2 SLP086 T03000150
