2023/07/05 09:53
KLAX 050953Z 24006KT 8SM BKN006 OVC009 15/13 A2995 RMK AO2 SLP140 T01500133 $
