2023/06/20 01:53
KLAX 200153Z 26010KT 10SM FEW015 SCT150 BKN200 18/14 A2994 RMK AO2 SLP139 T01830139
