2023/03/05 07:53
KLAX 050753Z 27008KT 10SM BKN042 11/07 A3006 RMK AO2 SLP177 T01110067 401500078 $
