2024/06/10 11:53
KLAX 101153Z 34003KT 10SM FEW010 OVC015 16/13 A2993 RMK AO2 SLP134 T01560133 10161 20150 55002 $
