2026/06/08 16:53
KLAX 081653Z 26008KT 10SM BKN027 BKN140 20/13 A2989 RMK AO2 SLP120 T02000128 $
