2025/09/08 19:53
KLAX 081953Z 25010KT 10SM FEW012 24/18 A3003 RMK AO2 SLP168 T02390183 $
