2024/11/30 19:53
KLAX 301953Z 09003KT 10SM FEW120 BKN250 25/M08 A3004 RMK AO2 SLP169 T02501078 $
