2023/11/22 01:53
KLAX 220153Z 31005KT 10SM FEW200 SCT250 22/01 A3021 RMK AO2 SLP227 T02220011
