2026/02/04 17:53
KLAX 041753Z 00000KT 10SM CLR 23/02 A3015 RMK AO2 SLP210 T02330022 10233 20122 50004 $
