2024/11/04 05:53
KLAX 040553Z 35012G21KT 300V010 10SM CLR 18/03 A2991 RMK AO2 SLP128 T01830028 10222 20178 51018
