2025/04/21 17:53
KLAX 211753Z 24008KT 7SM FEW009 FEW019 SCT160 17/11 A3001 RMK AO2 SLP162 T01670111 10172 20122 51005 $
