2023/10/11 13:53
KLAX 111353Z 00000KT 10SM FEW014 BKN043 BKN050 17/15 A2970 RMK AO2 SLP057 T01720150 $
