2023/09/22 13:53
KLAX 221353Z 00000KT 8SM FEW010 SCT140 BKN160 17/14 A2996 RMK AO2 SLP145 T01670139
