2023/12/30 19:53
KLAX 301953Z 25007G15KT 10SM SCT025 BKN046 BKN150 16/11 A3007 RMK AO2 SLP183 T01610111 $
