2025/06/20 03:53
KLAX 200353Z 26007KT 10SM BKN011 18/15 A2982 RMK AO2 SLP096 T01780150 $
