2024/07/29 07:53
KLAX 290753Z 27007KT 10SM FEW014 17/14 A2995 RMK AO2 SLP141 T01670144 402330167
