2025/10/02 13:53
KLAX 021353Z 11005KT 7SM SCT009 BKN014 18/16 A3001 RMK AO2 SLP161 T01780161 $
