2024/04/18 15:53
KLAX 181553Z 08006KT 4SM HZ FEW004 BKN010 14/11 A2999 RMK AO2 SLP154 T01390111 $
