2025/08/06 13:53
KLAX 061353Z 00000KT 7SM FEW004 FEW014 SCT190 SCT250 19/15 A3001 RMK AO2 SLP161 T01890150
