2024/07/27 15:53
KLAX 271553Z 00000KT 6SM HZ SCT008 OVC011 19/16 A2991 RMK AO2 SLP127 T01890161
