2024/07/21 15:53
KLAX 211553Z VRB05KT 8SM FEW009 FEW160 SCT250 21/17 A2991 RMK AO2 SLP127 T02110172 $
