2024/03/18 23:53
KLAX 182353Z 21012G22KT 10SM FEW015 FEW080 SCT110 18/12 A3001 RMK AO2 TSB17E39 SLP164 CB DSNT NE-SE T01830117 10206 20178 53004
