2025/11/01 19:53
KLAX 011953Z 25006KT 4SM HZ BKN010 18/14 A3004 RMK AO2 SLP173 VIS S-W 2 1/2 T01830144 $
