2022/10/10 11:53
KLAX 101153Z 02003KT 8SM FEW008 OVC010 18/16 A2998 RMK AO2 SLP151 T01830161 10189 20178 58006 $
