2025/02/09 15:53
KLAX 091553Z 01004KT 10SM FEW220 BKN280 12/08 A3006 RMK AO2 SLP179 T01220078 $
