2024/10/18 21:53
KLAX 182153Z 30009G19KT 240V330 3SM HZ CLR 27/M02 A2989 RMK AO2 SLP119 T02721022
