2025/07/16 09:53
KLAX 160953Z 13005KT 10SM OVC016 19/14 A2994 RMK AO2 SLP135 T01890144
