2023/06/09 07:53
KLAX 090753Z 24007KT 10SM FEW009 FEW012 16/14 A3003 RMK AO2 SLP168 T01560139 402060133
