2023/04/11 11:59
KLAX 111159Z 00000KT 2 1/2SM BR OVC002 12/12 A3000 RMK AO2 VIS 3/4 RWY24 T01170117
