2023/11/09 23:53
KLAX 092353Z 21010KT 10SM FEW200 SCT250 22/04 A3000 RMK AO2 SLP158 T02220039 10256 20217 56013
