2025/12/13 05:53
KLAX 130553Z 17003KT 3SM BR OVC006 14/13 A3004 RMK AO2 SLP171 T01440128 10150 20139 51013 $
