2024/02/19 11:53
KLAX 191153Z 15004KT 3SM -RA BR FEW008 BKN028 OVC040 13/13 A3003 RMK AO2 SLP166 VIS N 2 1/2 P0005 60008 70008 T01330133 10144 20133 55002 $
