2023/06/25 11:53
KLAX 251153Z 08003KT 9SM SCT012 14/13 A3004 RMK AO2 SLP170 T01440128 10161 20144 58002
