2024/04/08 09:53
KLAX 080953Z 09004KT 10SM FEW009 FEW090 SCT200 11/07 A2996 RMK AO2 SLP142 T01060072 $
