2024/12/29 17:53
KLAX 291753Z 28004KT 1SM R25L/6000VP6000FT BR OVC002 12/12 A3018 RMK AO2 SLP218 VIS SW-NW 1/4 T01170117 10117 20083 51015
