2024/12/20 07:53
KLAX 200753Z 10003KT 6SM BR FEW001 FEW008 12/10 A3011 RMK AO2 SLP193 VIS SE-S 2 1/2 T01170100 402280094
