2025/01/20 21:53
KLAX 202153Z 26007KT 10SM FEW250 18/06 A3017 RMK AO2 SLP215 T01830061 $
