2024/11/16 23:53
KLAX 162353Z 26018KT 10SM FEW100 16/06 A2989 RMK AO2 PK WND 26028/2333 SLP123 T01610056 10200 20161 56006 $
