2025/05/29 11:53
KLAX 291153Z 24005KT 10SM SCT014 OVC022 17/14 A2994 RMK AO2 SLP137 T01670139 10172 20167 56009 $
