2025/08/01 00:33
KLAX 010033Z 25011KT 10SM FEW009 21/16 A2997 RMK AO2 T02110161 $
