2025/10/02 15:53
KLAX 021553Z 00000KT 8SM SCT009 BKN015 19/16 A3004 RMK AO2 SLP169 T01940156 $
