2024/09/24 01:53
KLAX 240153Z 26010KT 2 1/2SM BR OVC003 17/16 A2977 RMK AO2 SLP079 T01720161 $
