2022/09/19 15:53
KLAX 191553Z 00000KT 10SM FEW012 FEW027 21/16 A2988 RMK AO2 SLP115 T02110156 $
