2022/09/21 21:53
KLAX 212153Z 26020KT 10SM CLR 24/16 A2991 RMK AO2 SLP128 T02390161
