2025/04/13 09:53
KLAX 130953Z 00000KT 6SM BR BKN012 13/11 A2993 RMK AO2 SLP134 T01330111 $
