2024/07/13 09:53
KLAX 130953Z 23005KT 10SM OVC008 18/17 A2989 RMK AO2 LTG DSNT NW SLP119 T01830167 $
