2023/09/21 15:53
KLAX 211553Z 26005KT 10SM FEW017 OVC025 19/16 A2993 RMK AO2 SLP134 T01890156
