2024/10/29 15:53
KLAX 291553Z 30009KT 10SM FEW009 FEW080 17/07 A2993 RMK AO2 SLP134 T01720072
