2024/05/27 09:53
KLAX 270953Z 19006KT 10SM FEW012 FEW200 14/12 A2999 RMK AO2 SLP155 T01440122
