2023/08/25 01:53
KLAX 250153Z 25011KT 10SM FEW012 FEW050 20/17 A2991 RMK AO2 SLP127 T02000167
