2025/09/08 05:53
KLAX 080553Z 00000KT 10SM CLR 22/17 A3003 RMK AO2 SLP166 T02220172 10250 20222 51011 $
