2025/06/28 01:53
KLAX 280153Z 25010KT 10SM FEW010 20/16 A2992 RMK AO2 SLP130 T02000156 $
