2025/01/02 01:53
KLAX 020153Z 20003KT 8SM CLR 13/11 A3007 RMK AO2 SLP184 T01330111
