2025/09/27 21:53
KLAX 272153Z 24010KT 10SM SCT029 BKN035 23/16 A2988 RMK AO2 SLP116 T02280156 $
