2025/01/27 05:53
KLAX 270553Z 09006KT 10SM -RA SCT055 BKN070 BKN090 10/08 A3004 RMK AO2 RAB48 TSE13B14E33B34E35 SLP172 P0000 60000 T01000078 10128 20100 51007 $
