2026/06/30 21:53
KLAX 302153Z 27014KT 10SM FEW018 SCT046 21/14 A2994 RMK AO2 SLP138 T02060139 $
