2023/01/04 19:53
KLAX 041953Z 14013G18KT 4SM BR OVC005 16/15 A3009 RMK AO2 RAE40 SLP188 P0005 T01560150 $
