2023/01/22 11:53
KLAX 221153Z 10005KT 10SM CLR 06/01 A3013 RMK AO2 SLP200 T00560011 10111 20056 58018 $
