2024/06/11 21:53
KLAX 112153Z 24009KT 10SM OVC011 18/14 A2991 RMK AO2 SLP125 T01780139
