2023/11/25 09:53
KLAX 250953Z 05003KT 10SM CLR 13/12 A2999 RMK AO2 SLP154 T01330117 $
