2024/04/13 11:53
KLAX 131153Z 11007KT 10SM OVC048 14/08 A3001 RMK AO2 SLP162 T01440083 10150 20144 56004 $
