2024/07/29 03:53
KLAX 290353Z 25009KT 10SM CLR 17/14 A2993 RMK AO2 SLP133 T01720139
