2025/07/10 05:53
KLAX 100553Z 23006KT 10SM FEW250 18/16 A2995 RMK AO2 SLP138 T01780156 10222 20178 58003 $
