2023/01/14 13:53
KLAX 141353Z 14005KT 10SM FEW005 FEW040 OVC150 12/09 A2999 RMK AO2 SLP152 T01170089
