2023/01/24 05:53
KLAX 240553Z 05004KT 10SM CLR 11/04 A3015 RMK AO2 SLP208 T01110039 10183 20111 51024 $
