2023/05/28 03:53
KLAX 280353Z 25010KT 10SM BKN015 16/12 A2996 RMK AO2 SLP143 T01560122
