2025/02/10 09:53
KLAX 100953Z 00000KT 10SM FEW200 SCT250 11/08 A3005 RMK AO2 SLP172 T01110083 $
