2024/10/12 09:53
KLAX 120953Z 14004KT 3SM BR OVC004 17/16 A3004 RMK AO2 SLP170 VIS SW-NW 2 T01720161 $
