2023/10/04 19:53
KLAX 041953Z 25008KT 10SM CLR 24/14 A2990 RMK AO2 SLP125 T02440139
