2024/04/08 13:53
KLAX 081353Z 09004KT 10SM FEW009 FEW160 08/07 A2997 RMK AO2 SLP145 T00830067 $
