2023/10/08 23:53
KLAX 082353Z 26014KT 9SM BKN007 19/17 A2983 RMK AO2 SLP100 BKN V SCT T01890167 10217 20183 56009
