2024/04/10 19:53
KLAX 101953Z 26011KT 10SM CLR 20/13 A3008 RMK AO2 SLP184 T02000128 $
