2023/04/22 11:53
KLAX 221153Z 08005KT 10SM CLR 14/10 A2990 RMK AO2 SLP122 T01440100 10200 20144 57009
