2024/06/19 07:53
KLAX 190753Z VRB03KT 10SM OVC012 18/14 A2981 RMK AO2 SLP091 T01830144 402280172 $
