2024/04/04 23:59
KLAX 042359Z 27019G25KT 10SM BKN027 BKN033 13/08 A2990 RMK AO2 T01330083 $
