2023/02/24 17:53
KLAX 241753Z 17013G19KT 140V200 3SM R25L/4500VP6000FT +RA BR BKN011 BKN017 OVC025 11/10 A3001 RMK AO2 SLP164 VIS NE-SE 2 1/2 P0013 60015 T01110100 10117 20078 53004
