2023/01/08 17:53
KLAX 081753Z 10005KT 10SM BKN060 BKN110 14/08 A3021 RMK AO2 SLP229 T01390078 10144 20089 53012 $
