2025/12/21 03:53
KLAX 210353Z 29006KT 8SM SCT013 SCT200 16/13 A3008 RMK AO2 SLP184 T01560128 $
