2022/11/24 21:53
KLAX 242153Z 23009KT 10SM CLR 23/02 A3014 RMK AO2 SLP205 T02330017
