2023/12/16 05:53
KLAX 160553Z 05007KT 10SM BKN300 17/M01 A3008 RMK AO2 SLP182 T01671011 10228 20167 50003 $
