2024/01/01 01:53
KLAX 010153Z 22004KT 10SM SCT041 BKN050 14/11 A3007 RMK AO2 SLP182 T01440106
