2023/11/23 17:53
KLAX 231753Z 10009KT 10SM FEW009 SCT160 BKN250 19/13 A2985 RMK AO2 SLP108 T01940128 10194 20128 58002
