2023/04/07 21:53
KLAX 072153Z 25010KT 10SM FEW100 SCT180 SCT250 17/11 A3003 RMK AO2 SLP169 T01720111
