2024/02/03 03:53
KLAX 030353Z 27015KT 10SM FEW026 SCT036 SCT050 BKN170 13/09 A2999 RMK AO2 PK WND 27027/0307 SLP153 T01330089 $
