2023/02/21 17:53
KLAX 211753Z 00000KT 10SM FEW025 SCT120 BKN140 16/10 A2986 RMK AO2 SLP112 T01610100 10161 20094 58004 $
