2023/02/28 05:53
KLAX 280553Z 24007KT 10SM FEW026 OVC055 11/07 A3012 RMK AO2 SLP197 60000 T01110067 10122 20106 53008 $
