2025/02/13 05:53
KLAX 130553Z 08010KT 10SM OVC010 13/11 A2997 RMK AO2 SLP147 60000 T01280111 10133 20117 51019 $
