2025/07/28 00:53
KLAX 280053Z 26012KT 10SM FEW013 20/15 A2996 RMK AO2 SLP144 T02000150
