2023/03/04 07:53
KLAX 040753Z 11003KT 10SM FEW020 11/08 A2995 RMK AO2 SLP141 T01060078 401500067 $
