2024/02/16 21:53
KLAX 162153Z 24010KT 8SM FEW025 BKN160 BKN250 16/12 A3008 RMK AO2 SLP186 T01560122
