2024/04/22 21:53
KLAX 222153Z 25009KT 7SM BKN009 OVC017 16/13 A2990 RMK AO2 SLP126 T01610128
