2026/07/12 10:53
KLAX 121053Z 25003KT 10SM FEW012 FEW150 BKN250 19/17 A2992 RMK AO2 SLP130 T01940172 $
