2025/10/13 05:53
KLAX 130553Z 34004KT 10SM CLR 19/12 A2971 RMK AO2 SLP059 T01890117 10206 20183 52009 $
