2023/05/14 07:53
KLAX 140753Z 14006KT 5SM BR OVC008 16/14 A2988 RMK AO2 SLP118 VIS W 3 T01560139 401890139
