2026/02/19 18:16
KLAX 191816Z 13010KT 1 1/4SM R25L/4000VP6000FT -RA BR FEW008 BKN018 OVC029 11/09 A2997 RMK AO2 VIS 1V2 1/2 P0007 T01060094
