2025/07/05 17:53
KLAX 051753Z 25009KT 6SM HZ FEW015 22/16 A3008 RMK AO2 SLP183 T02170156 10228 20172 51003
