2023/11/19 03:53
KLAX 190353Z 36005KT 10SM FEW012 BKN070 BKN085 18/15 A3006 RMK AO2 SLP179 T01780150
