2025/02/24 03:53
KLAX 240353Z 19003KT 10SM CLR 16/11 A3015 RMK AO2 SLP209 T01560111 $
