2026/01/22 05:53
KLAX 220553Z 25004KT 6SM BR FEW010 OVC200 15/13 A3005 RMK AO2 SLP174 T01500128 10156 20144 50006 $
