2023/03/03 13:53
KLAX 031353Z 00000KT 10SM FEW015 FEW250 08/04 A3003 RMK AO2 SLP170 T00780044 $
