2025/12/24 15:53
KLAX 241553Z 15018G27KT 7SM -RA FEW009 BKN013 OVC036 18/16 A2987 RMK AO2 PK WND 16028/1537 SLP114 P0003 T01780161 $
