2024/07/18 11:53
KLAX 181153Z 00000KT 10SM FEW007 FEW011 BKN140 19/17 A2993 RMK AO2 SLP134 T01940167 10194 20189 55004
