2024/05/03 13:53
KLAX 031353Z 12007KT 10SM FEW009 OVC022 16/12 A2988 RMK AO2 SLP119 T01560122 $
