2025/05/30 13:53
KLAX 301353Z 11004KT 10SM FEW012 FEW160 18/14 A2997 RMK AO2 SLP147 T01780144
