2025/08/05 04:53
KLAX 050453Z 24006KT 8SM FEW250 19/17 A2991 RMK AO2 SLP126 T01940172
