2022/11/24 03:53
KLAX 240353Z 00000KT 10SM CLR 15/13 A3007 RMK AO2 SLP181 T01500128
