2024/03/23 23:53
KLAX 232353Z 26029G38KT 10SM FEW020 SCT031 SCT200 16/08 A2981 RMK AO2 PK WND 27040/2340 SLP094 T01610078 10167 20144 56020 $
