2024/09/20 19:53
KLAX 201953Z 25013G18KT 10SM SCT016 BKN060 BKN150 21/14 A2990 RMK AO2 SLP124 T02060144 $
