2023/02/21 11:53
KLAX 211153Z VRB03KT 10SM FEW010 FEW150 SCT200 11/07 A2991 RMK AO2 SLP126 T01110072 10150 20106 56017 $
