2026/04/05 13:53
KLAX 051353Z 00000KT 10SM FEW250 SCT300 16/07 A2999 RMK AO2 SLP151 T01560067 $
