2026/05/16 23:53
KLAX 162353Z 26013KT 10SM FEW014 FEW035 19/12 A2985 RMK AO2 SLP107 T01890117 10211 20189 58016
