2026/03/28 13:53
KLAX 281353Z 29007KT 5SM BR OVC007 15/13 A2999 RMK AO2 SLP154 T01500133 $
