2025/10/05 21:53
KLAX 052153Z 25011KT 10SM CLR 22/16 A2976 RMK AO2 SLP077 T02170161 $
