2026/01/23 19:53
KLAX 231953Z 23009KT 8SM FEW010 FEW020 SCT050 SCT190 16/12 A2994 RMK AO2 SLP137 T01610122 $
