2023/06/01 13:53
KLAX 011353Z 23005KT 10SM FEW010 BKN022 OVC033 16/12 A2990 RMK AO2 SLP122 T01610122
