2026/06/10 16:53
KLAX 101653Z 26007KT 10SM FEW015 22/16 A2985 RMK AO2 SLP107 T02220161
