2024/08/21 23:53
KLAX 212353Z 27014KT 10SM FEW008 FEW050 SCT150 24/19 A2989 RMK AO2 SLP119 T02440189 10289 20244 56017
