2024/09/15 07:53
KLAX 150753Z 27007KT 10SM BKN014 OVC021 18/15 A2990 RMK AO2 SLP121 T01830150 402500172
