2024/07/12 17:53
KLAX 121753Z 27008KT 5SM HZ BKN009 22/18 A2990 RMK AO2 CIG 008V013 SLP123 T02170178 10217 20178 58004 $
