2025/10/10 21:53
KLAX 102153Z 25014KT 10SM FEW095 SCT140 SCT220 BKN280 22/15 A2982 RMK AO2 SLP097 T02220150 $
