2022/08/29 19:53
KLAX 291953Z 25012KT 8SM FEW015 23/17 A2993 RMK AO2 SLP132 T02330167 $
