2026/01/01 13:53
KLAX 011353Z 09007KT 2SM -RA BR SCT002 OVC004 14/14 A2998 RMK AO2 RAE03B23 SLP149 VIS SW-N 1 1/2 P0007 T01440139 $
