2025/07/13 13:53
KLAX 131353Z 22003KT 4SM -DZ BR OVC005 17/16 A3001 RMK AO2 DZB02 SLP159 P0000 T01670156
