2026/05/18 04:20
KLAX 180420Z VRB05KT 10SM BKN024 17/12 A2977 RMK AO2 CIG 016 RWY24 T01670122
