2024/02/21 03:53
KLAX 210353Z 12005KT 10SM BKN022 BKN035 OVC042 13/13 A3010 RMK AO2 RAB05E21 SLP192 P0001 T01330128 $
