2023/02/18 07:53
KLAX 180753Z 00000KT 10SM BKN220 13/M04 A3001 RMK AO2 SLP160 T01281039 402000083
