2023/02/04 03:53
KLAX 040353Z 00000KT 10SM SCT150 16/07 A3015 RMK AO2 SLP209 T01560072 $
