2026/04/17 10:25
KLAX 171025Z 08006KT 10SM FEW012 BKN018 14/13 A2992 RMK AO2 T01440128
