2024/09/03 19:53
KLAX 031953Z 26011KT 6SM HZ FEW010 FEW095 24/18 A2991 RMK AO2 SLP128 T02390183 $
