2023/01/09 21:53
KLAX 092153Z 07011KT 2 1/2SM -RA BR OVC008 12/11 A3005 RMK AO2 RAB01 SLP176 VIS NW 2 P0000 T01220111
