2025/08/13 23:53
KLAX 132353Z 27014KT 10SM OVC010 22/17 A2990 RMK AO2 SLP122 T02170172 10239 20211 57013
