2025/01/28 11:53
KLAX 281153Z 08005KT 10SM CLR 08/05 A3007 RMK AO2 SLP183 T00780050 10122 20072 58006
