2025/07/05 23:53
KLAX 052353Z 26012KT 6SM HZ FEW010 22/16 A3000 RMK AO2 SLP158 T02220161 10228 20217 56016
