2023/10/11 21:53
KLAX 112153Z 27017KT 10SM FEW010 22/14 A2966 RMK AO2 SLP043 T02170139
