2025/04/22 03:53
KLAX 220353Z 22005KT 10SM OVC011 13/11 A2999 RMK AO2 SLP153 T01330106 $
