2023/03/20 05:53
KLAX 200553Z 08004KT 2 1/2SM -DZ BR FEW004 BKN006 OVC015 12/12 A2996 RMK AO2 DZE19B53 SLP143 P0000 60002 T01220122 10139 20117 51008
