2025/12/14 13:53
KLAX 141353Z 27004KT 4SM BR OVC007 14/13 A3007 RMK AO2 SLP182 T01440133 $
