2026/07/06 20:53
KLAX 062053Z 26010KT 10SM FEW009 23/16 A2994 RMK AO2 SLP136 T02280161 58002 $
