2023/03/01 21:53
KLAX 012153Z 33009G22KT 290V350 10SM -RA SCT025 BKN070 BKN085 09/M01 A2976 RMK AO2 PK WND 27038/2101 WSHFT 2132 RAB51 SLP078 P0000 T00941006
