2025/07/11 07:53
KLAX 110753Z 23005KT 10SM FEW008 18/14 A2990 RMK AO2 SLP124 T01780139 402390167 $
