2024/09/11 11:53
KLAX 111153Z 00000KT 10SM FEW010 FEW040 17/15 A2979 RMK AO2 SLP084 FU FEW040 T01720150 10183 20167 53001
