2024/05/10 13:53
KLAX 101353Z 26006KT 10SM FEW009 OVC014 15/12 A2996 RMK AO2 SLP144 T01500122 $
