2022/12/22 01:53
KLAX 220153Z 23007KT 10SM FEW250 15/12 A3006 RMK AO2 SLP178 T01500122
