2026/04/22 09:53
KLAX 220953Z 33003KT 10SM FEW012 FEW020 SCT050 SCT150 14/09 A3011 RMK AO2 SLP193 T01440089 $
