2023/07/14 23:53
KLAX 142353Z 27013KT 10SM FEW120 23/16 A2984 RMK AO2 SLP102 T02280161 10250 20228 56013
