2023/03/24 09:53
KLAX 240953Z 32009KT 10SM CLR 12/04 A3021 RMK AO2 SLP230 T01220039
