2026/03/20 11:53
KLAX 201153Z 00000KT 10SM FEW008 18/15 A2995 RMK AO2 SLP140 T01780150 10206 20172 56013
