2026/07/12 01:53
KLAX 120153Z 23009KT 10SM FEW016 SCT200 SCT230 21/16 A2995 RMK AO2 SLP138 T02110161 $
