2025/07/18 17:53
KLAX 181753Z 25011KT 9SM FEW015 FEW120 SCT160 SCT250 22/16 A3001 RMK AO2 SLP160 T02170156 10217 20178 51005 $
