2023/03/23 05:53
KLAX 230553Z 10005KT 10SM FEW024 BKN045 BKN060 11/08 A3014 RMK AO2 SLP207 T01060083 10144 20106 51015
