2023/10/13 05:53
KLAX 130553Z 06007KT 10SM SCT250 19/12 A2982 RMK AO2 SLP093 T01890117 10217 20183 51017
