2026/02/22 15:53
KLAX 221553Z 00000KT 10SM FEW160 FEW190 SCT240 13/03 A3022 RMK AO2 SLP232 T01280033 $
