2025/08/26 03:53
KLAX 260353Z 24005KT 10SM SCT008 SCT190 BKN270 20/18 A2991 RMK AO2 SLP127 T02000178 $
