2024/01/23 03:53
KLAX 230353Z 27005KT 10SM BKN019 OVC025 14/13 A2980 RMK AO2 SLP090 T01390128
