2026/04/09 16:17
KLAX 091617Z 15004KT 8SM FEW009 BKN015 19/14 A2996 RMK AO2 T01940144 $
