2025/02/18 19:53
KLAX 181953Z VRB03KT 10SM FEW035 SCT180 BKN250 18/09 A3004 RMK AO2 SLP171 T01830089 $
