2025/05/10 01:53
KLAX 100153Z 24011KT 10SM FEW050 20/14 A2988 RMK AO2 SLP118 T02000144
