2023/09/28 17:53
KLAX 281753Z 00000KT 10SM FEW018 BKN022 21/16 A2990 RMK AO2 SLP125 T02110156 10222 20183 51009 $
