2024/12/30 19:53
KLAX 301953Z 32005KT 7SM SCT014 17/10 A3005 RMK AO2 SLP174 T01670100
