2025/09/09 23:53
KLAX 092353Z 26012KT 10SM FEW013 SCT060 23/17 A2985 RMK AO2 SLP106 T02330172 10244 20228 56018 $
