2025/03/31 19:53
KLAX 311953Z 11006KT 8SM OVC011 17/14 A3008 RMK AO2 SLP187 T01670139
