2023/08/23 17:53
KLAX 231753Z 25009KT 10SM FEW009 23/18 A2990 RMK AO2 SLP125 T02330183 10233 20183 51004 $
