2023/09/06 01:53
KLAX 060153Z 26009KT 10SM BKN027 21/17 A2990 RMK AO2 SLP125 T02060167 $
