2023/05/31 13:53
KLAX 311353Z 27005KT 10SM FEW016 SCT029 OVC055 16/12 A2990 RMK AO2 SLP125 T01560117 $
