2023/04/20 01:53
KLAX 200153Z 24007KT 10SM FEW120 16/08 A3001 RMK AO2 SLP161 T01560083
