2023/03/22 07:53
KLAX 220753Z 22012KT 10SM FEW014 SCT025 BKN040 11/07 A2983 RMK AO2 RAB19E33 SLP101 SHRA NW P0000 T01110072 401560089
