2024/05/13 17:53
KLAX 131753Z 27008KT 7SM OVC017 16/13 A2998 RMK AO2 SLP150 T01610128 10161 20139 53001
