2025/03/11 07:53
KLAX 110753Z 11005KT 10SM FEW011 BKN170 BKN250 12/06 A2990 RMK AO2 SLP125 T01170056 401830089
