2025/10/05 11:53
KLAX 051153Z 00000KT 10SM CLR 17/14 A2979 RMK AO2 SLP086 T01670139 10183 20161 56008 $
