2026/07/04 19:53
KLAX 041953Z 25008KT 10SM FEW140 BKN190 BKN240 22/16 A3003 RMK AO2 SLP169 T02220156 $
