2025/08/15 21:53
KLAX 152153Z 25012G17KT 10SM FEW020 23/16 A2996 RMK AO2 SLP143 T02280156 $
