2024/01/11 07:53
KLAX 110753Z VRB04KT 10SM FEW015 FEW025 SCT090 11/07 A2993 RMK AO2 SLP134 T01110067 401610061
