2025/11/30 03:53
KLAX 300353Z 23005KT 7SM FEW015 FEW200 16/13 A3000 RMK AO2 SLP158 T01610128 $
