2025/08/23 06:53
KLAX 230653Z 24003KT 8SM FEW190 FEW240 22/19 A2989 RMK AO2 SLP118 T02220189
