2025/05/18 03:53
KLAX 180353Z 24009KT 10SM FEW014 SCT029 BKN045 16/12 A2993 RMK AO2 SLP134 T01560117
