2022/10/06 07:53
KLAX 060753Z 15003KT 8SM BKN008 OVC012 20/17 A3001 RMK AO2 SLP160 T02000167 402390189
