2024/12/16 09:53
KLAX 160953Z 09003KT 10SM FEW008 BKN250 08/06 A3012 RMK AO2 SLP197 T00830061 $
