2023/02/13 17:53
KLAX 131753Z 10004KT 10SM FEW012 SCT035 BKN042 14/08 A2997 RMK AO2 SLP147 T01390078 10150 20094 51010 $
