2025/04/15 19:53
KLAX 151953Z 25009KT 230V290 9SM FEW025 SCT030 BKN140 17/08 A3008 RMK AO2 SLP185 T01670078
