2023/02/09 01:53
KLAX 090153Z 24006KT 10SM CLR 14/08 A3019 RMK AO2 SLP224 T01440083 $
