2024/05/20 09:53
KLAX 200953Z 32005KT 10SM FEW009 OVC016 14/11 A2996 RMK AO2 SLP144 T01390111 $
