2025/05/12 05:53
KLAX 120553Z 20003KT 10SM CLR 18/13 A2990 RMK AO2 SLP122 T01780133 10211 20172 51021 $
