2022/11/11 05:53
KLAX 110553Z 08006KT 10SM CLR 13/08 A3010 RMK AO2 SLP192 T01280083 10161 20128 51008
