2025/02/22 05:53
KLAX 220553Z 14005KT 10SM FEW006 SCT220 14/11 A3012 RMK AO2 SLP197 T01390111 10150 20139 51010
