2023/01/01 03:55
KLAX 010355Z 15012G18KT 3SM -RA BR BKN008 BKN012 OVC023 14/14 A2981 RMK AO2 P0000 T01440139
