2026/03/13 19:53
KLAX 131953Z 25008KT 10SM FEW090 SCT140 BKN180 BKN250 29/08 A2996 RMK AO2 SLP144 T02890078
