2026/01/05 02:44
KLAX 050244Z 30005KT 10SM FEW019 SCT030 BKN040 14/12 A2999 RMK AO2 RAB05E29 P0010 T01440122
