2025/05/22 17:53
KLAX 221753Z 25009KT 7SM FEW019 FEW140 BKN180 20/14 A2995 RMK AO2 SLP140 T02000144 10211 20156 53008 $
