2024/05/12 13:53
KLAX 121353Z VRB03KT 7SM FEW008 OVC011 15/12 A2997 RMK AO2 SLP146 T01500117 $
