2026/05/14 06:53
KLAX 140653Z 23004KT 10SM FEW016 FEW250 16/13 A3002 RMK AO2 SLP164 T01560128
