2024/10/31 15:53
KLAX 311553Z 00000KT 10SM FEW070 15/06 A3009 RMK AO2 SLP188 T01500056 $
