2024/12/24 15:53
KLAX 241553Z 27010KT 1/8SM R25L/1600V3000FT FG VV001 13/12 A3010 RMK AO2 SLP193 T01280122 $
