2024/09/30 01:53
KLAX 300153Z 26007KT 10SM FEW005 17/14 A2984 RMK AO2 SLP102 T01720144 $
