2023/07/14 11:53
KLAX 141153Z 00000KT 10SM FEW002 17/16 A2987 RMK AO2 SLP111 T01720161 10183 20172 56016 $
