2024/04/28 03:53
KLAX 280353Z 22004KT 10SM CLR 14/10 A3001 RMK AO2 SLP160 T01440100
