2023/03/23 13:53
KLAX 231353Z 11005KT 10SM FEW009 BKN043 OVC055 11/08 A3019 RMK AO2 RAB13E25 SLP221 P0000 T01060083
