2023/02/01 03:53
KLAX 010353Z 19005KT 10SM CLR 13/04 A3008 RMK AO2 SLP187 T01330039 $
