2025/05/28 07:53
KLAX 280753Z 26008KT 10SM OVC015 17/13 A3000 RMK AO2 SLP156 T01670133 402220161 $
