2025/01/29 01:53
KLAX 290153Z 25005KT 10SM FEW020 FEW250 12/07 A3002 RMK AO2 SLP167 T01220072
