2022/11/22 03:53
KLAX 220353Z 00000KT 10SM BKN280 16/11 A3008 RMK AO2 SLP186 T01560111 $
