2025/12/22 15:53
KLAX 221553Z 10003KT 3/4SM R25L/0800V1200FT BCFG BR BKN000 BKN220 BKN270 11/11 A3002 RMK AO2 SLP165 VIS SE-SW 1/8 FG BKN000 T01110111 $
