2024/02/06 05:53
KLAX 060553Z 12007KT 10SM -RA FEW006 OVC080 12/11 A2975 RMK AO2 SLP072 P0005 60017 T01170111 10128 20117 58015
