2022/12/15 07:53
KLAX 150753Z 09004KT 10SM FEW220 BKN280 11/06 A3018 RMK AO2 SLP218 T01060061 401500061
