2026/01/31 01:53
KLAX 310153Z 25004KT 10SM FEW250 SCT330 21/02 A3013 RMK AO2 SLP204 T02060022 $
