2024/03/30 11:53
KLAX 301153Z 08007KT 7SM OVC014 11/10 A2968 RMK AO2 RAE14 SLP050 P0003 60139 70139 T01110100 10139 20100 58011
