2023/05/25 01:53
KLAX 250153Z 25008KT 10SM FEW015 BKN031 17/11 A2990 RMK AO2 SLP126 T01670106 $
