2023/08/05 19:53
KLAX 051953Z 25011KT 10SM CLR 23/18 A2990 RMK SLP123 T02330178 
