2024/07/30 05:53
KLAX 300553Z 23004KT 10SM CLR 17/14 A2995 RMK AO2 SLP141 T01720144 10206 20167 51011 $
