2025/11/28 07:53
KLAX 280753Z 09004KT 10SM FEW008 FEW250 14/09 A3005 RMK AO2 SLP170 T01390089 402670133 $
