2023/02/17 19:53
KLAX 171953Z 00000KT 10SM FEW170 BKN250 BKN300 19/M07 A3002 RMK AO2 SLP165 T01891067 $
