2024/11/10 21:53
KLAX 102153Z 27009KT 10SM SCT280 20/07 A2997 RMK AO2 SLP149 T02000072
