2025/08/02 09:53
KLAX 020953Z 09005KT 10SM OVC010 18/15 A3009 RMK AO2 SLP186 T01780150 $
