2024/01/31 18:00
KLAX 311800Z 09006KT 5SM BR BKN004 BKN035 BKN140 14/13 A3000 RMK AO2 BKN004 V SCT T01390128 $
