2026/06/30 11:53
KLAX 301153Z 25005KT 10SM FEW011 FEW018 OVC030 18/14 A2990 RMK AO2 SLP124 T01830139 10189 20178 56004 $
