2024/09/27 02:21
KLAX 270221Z 26010KT 10SM SCT009 17/15 A2985 RMK AO2 T01720150
