2026/05/17 09:53
KLAX 170953Z 08005KT 9SM CLR 16/12 A2982 RMK AO2 SLP095 T01560122
