2025/02/21 05:53
KLAX 210553Z 08005KT 10SM CLR 15/11 A2999 RMK AO2 SLP153 T01500106 10161 20144 53016
