2025/06/26 03:53
KLAX 260353Z 25008KT 10SM OVC008 17/15 A2992 RMK AO2 SLP131 T01720150
