2026/06/14 04:53
KLAX 140453Z 24009KT 4SM BR OVC005 17/15 A2993 RMK AO2 SLP133 VIS W 2 T01720150 $
