2022/09/03 07:53
KLAX 030753Z 32004KT 10SM CLR 23/18 A2982 RMK AO2 SLP095 T02330183 403220222
