2025/05/02 21:53
KLAX 022153Z 28013KT 10SM BKN016 BKN024 18/12 A2995 RMK AO2 SLP140 T01780117 $
