2024/03/03 21:53
KLAX 032153Z 25019KT 10SM FEW027 SCT036 SCT055 16/08 A3003 RMK AO2 PK WND 27028/2129 SLP167 T01560078 $
