2025/09/23 17:53
KLAX 231753Z 25008KT 9SM FEW015 FEW032 SCT120 BKN160 26/18 A2985 RMK AO2 SLP107 T02560183 10272 20189 50002 $
