2025/06/24 01:53
KLAX 240153Z 25008KT 10SM FEW015 18/13 A2991 RMK AO2 SLP126 T01830133
