2023/08/18 14:53
KLAX 181453Z 28003KT 5SM BR FEW003 BKN006 18/17 A2989 RMK AO2 SLP118 BKN V SCT T01830172 53009 $
