2025/01/20 05:53
KLAX 200553Z 21004KT 10SM OVC016 12/08 A3011 RMK AO2 SLP197 T01220083 10133 20117 53010 $
