2023/03/28 05:53
KLAX 280553Z VRB03KT 10SM FEW250 15/04 A3012 RMK AO2 SLP196 T01500044 10183 20133 51003 $
