2025/11/07 19:53
KLAX 071953Z 26010KT 8SM CLR 21/13 A2993 RMK AO2 SLP133 T02060133 $
