2022/12/09 17:53
KLAX 091753Z 08003KT 10SM FEW015 FEW240 13/06 A3019 RMK AO2 SLP223 T01330061 10133 20067 53005 $
