2026/07/18 15:53
KLAX 181553Z 00000KT 10SM SCT019 SCT120 24/18 A3001 RMK AO2 SLP159 T02390178 $
