2025/03/06 19:53
KLAX 061953Z 24017G28KT 10SM FEW030 FEW060 SCT140 BKN160 13/05 A2992 RMK AO2 PK WND 25028/1921 SLP131 T01280050
