2025/04/27 17:53
KLAX 271753Z 27010KT 10SM FEW029 SCT037 BKN060 BKN130 16/07 A3009 RMK AO2 SLP187 T01610072 10161 20106 53007 $
