2023/01/14 17:53
KLAX 141753Z 08004KT 4SM -RA BR BKN010 OVC038 12/11 A3000 RMK AO2 RAE12B20 SLP156 P0002 60002 T01220106 10122 20111 55002
