2024/10/18 19:53
KLAX 181953Z 19012G18KT 10SM CLR 23/10 A2994 RMK AO2 SLP138 T02280100
