2023/06/30 09:53
KLAX 300953Z 26003KT 2 1/2SM BR SCT002 BKN005 14/14 A2990 RMK AO2 SLP124 VIS W-N 3/4 T01440139 $
