2024/01/14 19:53
KLAX 141953Z 23007KT 190V270 10SM SCT028 SCT230 15/08 A3005 RMK AO2 SLP175 T01500083 $
