2026/02/18 05:53
KLAX 180553Z 20017G30KT 10SM FEW018 BKN029 BKN110 BKN200 14/09 A2995 RMK AO2 PK WND 20034/0540 SLP140 60000 T01440089 10150 20133 56013
