2025/10/09 19:53
KLAX 091953Z 26011KT 10SM FEW045 FEW080 SCT160 SCT250 22/14 A2991 RMK AO2 SLP126 T02170139 $
