2023/09/27 03:53
KLAX 270353Z 22004KT 10SM CLR 19/16 A2993 RMK AO2 SLP135 T01940161 $
