2024/07/31 17:53
KLAX 311753Z VRB04KT 6SM HZ FEW003 21/16 A2996 RMK AO2 SLP144 FG BANK ALG SHORE S-W-NW T02060156 10211 20156 51004 $
