2025/05/25 17:53
KLAX 251753Z 23009KT 10SM SCT023 BKN031 19/13 A3004 RMK AO2 SLP170 T01890133 10194 20161 53008
