2024/11/24 19:53
KLAX 241953Z 24010KT 10SM SCT012 SCT028 BKN220 BKN270 16/11 A3009 RMK AO2 SLP189 T01560111
