2024/09/01 11:53
KLAX 011153Z 00000KT 10SM CLR 19/17 A2989 RMK AO2 SLP119 T01940172 10200 20189 58007 $
