2024/12/27 15:53
KLAX 271553Z 05005KT 2SM BCFG BR BKN003 OVC040 11/11 A3007 RMK AO2 SLP183 VIS 1V3 VIS NW 1 1/4 T01060106 $
