2022/11/14 11:53
KLAX 141153Z 06003KT 10SM CLR 10/04 A3010 RMK AO2 SLP189 T01000039 10150 20089 50004 $
