2023/11/26 09:53
KLAX 260953Z 02003KT 10SM SCT250 12/00 A3006 RMK AO2 SLP176 T01220000 $
