2025/09/05 23:53
KLAX 052353Z 27015G21KT 10SM FEW015 SCT060 23/17 A2981 RMK AO2 SLP092 T02280172 10244 20228 56010
