2023/11/06 09:53
KLAX 060953Z 00000KT 3SM BR FEW004 BKN006 17/16 A2993 RMK AO2 SLP131 T01670156
