2026/06/06 17:53
KLAX 061753Z 19004KT 10SM OVC023 21/14 A2988 RMK AO2 SLP116 T02060139 10206 20183 51006 $
