2022/09/12 05:53
KLAX 120553Z 24008KT 10SM FEW070 SCT150 BKN220 24/20 A2998 RMK AO2 SLP148 CCSL E T02440200 10272 20244 58001 $
