2024/07/20 03:53
KLAX 200353Z 27008KT 1/2SM R25L/P6000FT FG OVC002 18/17 A2994 RMK AO2 SLP137 VIS E 2 T01780167
