2025/03/18 23:53
KLAX 182353Z 26016KT 10SM CLR 16/06 A3022 RMK AO2 SLP234 T01560061 10172 20144 56012 $
