2025/03/23 19:53
KLAX 231953Z 24008KT 200V270 10SM CLR 18/12 A3004 RMK AO2 SLP170 T01830117 $
