2026/01/30 23:53
KLAX 302353Z 27009KT 10SM FEW280 SCT330 24/02 A3014 RMK AO2 SLP206 T02390017 10283 20228 56007 $
