2024/12/27 21:53
KLAX 272153Z 09004KT 7SM SCT008 OVC013 16/13 A3004 RMK AO2 SLP172 T01560128
