2025/04/07 17:53
KLAX 071753Z 26006KT 10SM FEW010 FEW019 SCT140 19/10 A3011 RMK AO2 SLP197 T01940100 10206 20100 53002 $
