2022/11/26 21:53
KLAX 262153Z 25010KT 10SM FEW200 18/12 A3004 RMK AO2 SLP172 T01830117 $
