2024/02/24 05:53
KLAX 240553Z 27004KT 10SM BKN220 16/09 A3003 RMK AO2 SLP168 T01610094 10206 20156 51010
