2024/02/25 03:53
KLAX 250353Z 26004KT 10SM SCT100 SCT170 14/12 A3004 RMK AO2 SLP173 T01440122 $
