2022/11/30 09:53
KLAX 300953Z 09003KT 10SM FEW014 FEW022 11/10 A3001 RMK AO2 SLP159 T01110100
