2024/04/20 11:53
KLAX 201153Z 30003KT 10SM OVC020 14/11 A2999 RMK AO2 SLP155 T01390106 10139 20128 55003 $
