2022/11/22 11:53
KLAX 221153Z 00000KT 10SM FEW200 BKN280 12/M06 A3007 RMK AO2 SLP179 T01221061 10172 20117 57002 $
