2026/06/26 11:53
KLAX 261153Z 28003KT 10SM FEW009 OVC014 17/14 A2990 RMK AO2 SLP124 T01720139 10172 20167 55002
