2025/06/07 11:53
KLAX 071153Z 18005KT 10SM FEW013 OVC018 16/13 A2996 RMK AO2 SLP142 T01610133 10167 20161 55003
