2024/11/07 05:53
KLAX 070553Z 13003KT 10SM CLR 17/M12 A3004 RMK AO2 SLP169 T01671117 10239 20167 51020 $
