2024/07/15 05:53
KLAX 150553Z 26008KT 10SM SCT009 18/16 A3003 RMK AO2 SLP167 T01780161 10217 20178 50008
