2025/01/21 15:53
KLAX 211553Z 00000KT 10SM FEW001 FEW180 11/M08 A3044 RMK AO2 SLP306 FU FEW001 T01061078 VISNO RWY24 $
