2024/09/30 17:53
KLAX 301753Z 27005KT 3SM HZ CLR 22/16 A2989 RMK AO2 SLP122 VIS N-E 4 SW-W 2 T02220156 10222 20156 50002 $
