2025/07/12 21:53
KLAX 122153Z 25010KT 10SM FEW014 23/15 A2999 RMK AO2 SLP153 T02280150
