2023/03/11 13:53
KLAX 111353Z 11004KT 1 3/4SM -DZ BR OVC003 14/14 A3003 RMK AO2 SLP168 VIS W 1 P0001 T01440139
