2024/02/06 07:53
KLAX 060753Z 00000KT 9SM -RA FEW007 SCT010 OVC025 12/11 A2976 RMK AO2 RAE18B35 SLP076 P0001 T01170111 401390117
