2023/07/23 15:53
KLAX 231553Z VRB05KT 5SM HZ OVC009 21/18 A2994 RMK AO2 SLP136 T02060178
