2025/07/02 02:07
KLAX 020207Z 24008G17KT 10SM BKN011 BKN080 18/14 A2983 RMK AO2 T01830144
