2024/01/01 11:53
KLAX 011153Z 03005KT 9SM BKN120 11/08 A3003 RMK AO2 SLP169 T01110083 10139 20100 56007
