2023/10/18 05:53
KLAX 180553Z 25003KT 8SM FEW004 BKN006 18/17 A2988 RMK AO2 SLP117 T01830172 10206 20183 51008
