2023/04/30 15:53
KLAX 301553Z 21004KT 2 1/2SM BR OVC005 14/13 A2993 RMK AO2 SLP134 VIS SW-NW 1 1/2 T01390128
