2025/12/15 02:13
KLAX 150213Z 25005KT 10SM BKN009 16/14 A3006 RMK AO2 T01560139
