2022/11/08 21:53
KLAX 082153Z 19017G27KT 8SM FEW006 SCT025 BKN070 BKN140 19/14 A2978 RMK AO2 PK WND 18027/2118 SLP083 T01890144
