2025/09/18 17:53
KLAX 181753Z 26009KT 8SM FEW035 FEW060 SCT090 SCT160 BKN250 25/18 A2984 RMK AO2 SLP102 60004 T02500183 10256 20211 51006
