2023/02/28 03:53
KLAX 280353Z 23006KT 10SM SCT020 BKN028 BKN055 11/08 A3010 RMK AO2 RAB43E53 SLP191 P0000 T01110083 $
