2026/01/06 07:53
KLAX 060753Z VRB03KT 10SM -RA FEW014 BKN025 OVC050 14/12 A3008 RMK AO2 SLP184 P0003 T01440122 401780117 $
