2022/09/05 09:53
KLAX 050953Z 06003KT 10SM FEW150 26/21 A2976 RMK AO2 SLP073 T02560211
