2023/01/06 23:53
KLAX 062353Z 25007KT 10SM FEW180 14/08 A3019 RMK AO2 SLP222 T01440083 10167 20133 56003 $
