2026/02/22 07:53
KLAX 220753Z 09005KT 10SM BKN250 12/07 A3020 RMK AO2 SLP225 T01220072 402060067 $
