2024/01/04 13:53
KLAX 041353Z 33012G18KT 10SM FEW220 12/02 A3010 RMK AO2 SLP190 T01220017
