2024/05/18 15:53
KLAX 181553Z 25005KT 10SM SCT013 OVC020 15/13 A3002 RMK AO2 SLP164 T01500128 $
