2025/10/05 05:53
KLAX 050553Z 22004KT 9SM CLR 18/16 A2981 RMK AO2 SLP093 T01830156 10217 20183 50000 $
