2023/07/10 01:53
KLAX 100153Z 26012KT 10SM CLR 18/14 A2988 RMK AO2 SLP119 T01830139
