2025/11/20 12:53
KLAX 201253Z 09003KT 10SM FEW016 BKN040 BKN150 BKN250 11/09 A3003 RMK AO2 SLP167 T01110089 $
