2022/11/11 21:53
KLAX 112153Z 26008KT 10SM FEW090 SCT120 SCT160 BKN220 19/00 A3003 RMK AO2 SLP168 T01940000
