2023/11/18 01:53
KLAX 180153Z 26007KT 10SM SCT010 17/16 A2996 RMK AO2 SLP144 T01720156 $
