2024/05/05 23:53
KLAX 052353Z 27025KT 10SM FEW040 FEW200 16/09 A2991 RMK AO2 PK WND 28035/2314 SLP129 T01610089 10189 20161 55007
