2024/08/21 06:53
KLAX 210653Z 14003KT 10SM CLR 21/18 A2995 RMK AO2 SLP137 T02060183
