2025/01/29 13:53
KLAX 291353Z 00000KT 10SM FEW014 FEW025 09/07 A3011 RMK AO2 SLP196 T00940072
