2024/07/06 21:53
KLAX 062153Z 26008KT 10SM FEW040 26/18 A2986 RMK AO2 SLP108 T02560183
