2025/02/06 15:53
KLAX 061553Z 25008KT 3/4SM R25L/5000VP6000FT BR VCFG BKN003 OVC010 14/13 A3006 RMK AO2 RAB1455E05B24E47 SLP179 VIS W 1/2 P0002 T01390133 $
