2023/03/09 21:53
KLAX 092153Z 25011KT 10SM SCT100 SCT160 BKN250 16/08 A3007 RMK AO2 SLP182 T01610078 $
