2023/12/28 03:53
KLAX 280353Z 25008KT 10SM FEW015 FEW150 BKN200 14/12 A3017 RMK AO2 SLP215 T01390122 $
