2025/02/11 11:53
KLAX 111153Z 08005KT 10SM FEW015 FEW022 BKN032 11/06 A2996 RMK AO2 SLP144 T01060061 10133 20106 56012 $
