2024/08/12 17:53
KLAX 121753Z 27010KT 10SM FEW009 FEW100 23/18 A2997 RMK AO2 SLP146 T02280178 10233 20189 53005
