2025/07/25 07:53
KLAX 250753Z 21004KT 10SM FEW015 18/15 A3002 RMK AO2 SLP164 T01780150 402220161 $
