2026/05/25 15:53
KLAX 251553Z 18005KT 9SM FEW010 FEW028 SCT160 17/11 A2999 RMK AO2 SLP154 T01720111 $
