2024/07/11 11:53
KLAX 111153Z 27008KT 8SM FEW005 BKN008 17/16 A2983 RMK AO2 SLP099 T01720156 10183 20172 56009
