2022/12/20 17:53
KLAX 201753Z 00000KT 10SM FEW140 FEW180 SCT250 17/M01 A3029 RMK AO2 SLP256 T01671006 10167 20089 53012
