2026/01/16 11:53
KLAX 161153Z 07003KT 10SM CLR 14/05 A2997 RMK AO2 SLP144 T01440050 10189 20122 55003 $
