2024/03/30 13:53
KLAX 301353Z 24010KT 4SM -RA BR FEW008 BKN020 OVC037 12/11 A2970 RMK AO2 WSHFT 1304 SLP057 P0017 T01170106
