2024/04/04 09:53
KLAX 040953Z 25006KT 10SM FEW010 OVC014 13/11 A2995 RMK AO2 SLP140 T01280106 $
