2026/04/18 13:53
KLAX 181353Z 09004KT 10SM SCT250 14/12 A2995 RMK AO2 SLP140 T01440122 $
