2025/10/04 19:53
KLAX 041953Z 24010KT 10SM FEW030 23/14 A2990 RMK AO2 SLP123 T02330144 $
