2024/03/22 17:53
KLAX 221753Z VRB04KT 4SM HZ OVC016 16/12 A3011 RMK AO2 SLP197 T01610117 10161 20117 50004 $
