2022/12/31 23:53
KLAX 312353Z 18006KT 7SM SCT006 BKN012 OVC028 15/14 A2993 RMK AO2 RAB17E37 SLP134 P0000 60001 T01500139 10156 20144 56016
