2024/06/16 05:53
KLAX 160553Z 22004KT 9SM CLR 18/13 A2979 RMK AO2 SLP084 T01830128 10228 20183 53009
