2024/08/16 07:53
KLAX 160753Z 15003KT 10SM FEW004 FEW011 21/19 A2986 RMK AO2 SLP108 T02060189 402560183 $
