2024/08/20 12:53
KLAX 201253Z VRB03KT 10SM FEW200 20/17 A2993 RMK AO2 SLP133 T02000172 $
