2024/03/17 17:53
KLAX 171753Z 08004KT 10SM FEW013 FEW090 SCT180 SCT270 17/09 A3008 RMK AO2 SLP186 ACSL DSNT N T01720094 10172 20100 51005 $
