2022/11/02 17:53
KLAX 021753Z 01003KT 8SM FEW005 SCT024 BKN080 BKN140 17/10 A3002 RMK AO2 SLP164 60002 T01670100 10172 20144 51010 VISNO RWY24 $
