2024/11/01 13:53
KLAX 011353Z 00000KT 10SM FEW005 FEW016 SCT180 12/06 A2996 RMK AO2 SLP144 T01170061 $
