2025/01/27 03:53
KLAX 270353Z 06008KT 10SM SCT029 BKN037 BKN100 11/08 A3003 RMK AO2 RAE00 SLP169 P0000 T01060083 $
