2025/03/16 09:53
KLAX 160953Z 05005KT 10SM CLR 10/07 A3016 RMK AO2 SLP209 T01000072 $
