2023/03/21 01:53
KLAX 210153Z 20007KT 10SM FEW020 BKN037 BKN045 13/10 A2989 RMK AO2 SLP121 T01330100
