2025/05/02 05:53
KLAX 020553Z 23008KT 10SM SCT012 SCT200 14/12 A2997 RMK AO2 SLP146 T01440117 10172 20144 51013 $
