2023/01/19 19:53
KLAX 191953Z 25009KT 10SM FEW010 FEW022 SCT140 14/08 A3012 RMK AO2 SLP199 T01390078
