2022/09/26 23:53
KLAX 262353Z 24014KT 10SM FEW110 FEW150 24/16 A2984 RMK AO2 SLP105 T02440161 10267 20244 56013
