2024/08/05 01:53
KLAX 050153Z 25012KT 10SM FEW150 SCT250 20/14 A2982 RMK AO2 SLP097 T02000144 $
