2024/01/19 03:53
KLAX 190353Z 00000KT 10SM OVC200 14/12 A3006 RMK AO2 SLP177 T01390117 $
