2022/10/07 13:53
KLAX 071353Z VRB03KT 5SM HZ FEW009 OVC014 21/17 A3004 RMK AO2 SLP171 T02060172
