2025/06/26 19:53
KLAX 261953Z 26010KT 10SM FEW017 22/16 A2994 RMK AO2 SLP137 T02220156
