2023/03/21 15:53
KLAX 211553Z 09018G23KT 1 1/4SM R25L/5000VP6000FT RA BR BKN007 OVC011 09/09 A2967 RMK AO2 SLP045 VIS 1/4V2 1/2 P0011 T00940089
