2023/11/16 03:53
KLAX 160353Z 07009KT 8SM FEW021 OVC034 14/14 A3001 RMK AO2 RAE20 SLP161 P0001 T01440139
