2023/05/13 07:53
KLAX 130753Z 25005KT 10SM BKN012 BKN021 14/13 A2992 RMK AO2 SLP130 T01440128 402000122
