2025/02/16 23:53
KLAX 162353Z 26009KT 10SM BKN280 18/05 A2998 RMK AO2 SLP150 T01830050 10206 20178 56018 $
