2024/10/13 05:53
KLAX 130553Z 24006KT 10SM BKN007 17/16 A3002 RMK AO2 SLP165 T01720156 10194 20172 50002
