2024/05/08 05:53
KLAX 080553Z 11003KT 10SM CLR 16/11 A2987 RMK AO2 SLP111 T01560106 10183 20150 50003 $
