2025/07/18 16:53
KLAX 181653Z 26009KT 8SM FEW014 FEW100 SCT150 SCT250 21/16 A3000 RMK AO2 SLP158 T02110161 $
