2022/09/30 09:53
KLAX 300953Z 00000KT 10SM FEW008 BKN012 20/18 A2991 RMK AO2 SLP127 T02000178
