2026/03/30 21:53
KLAX 302153Z 24007KT 10SM FEW020 OVC250 20/14 A2999 RMK AO2 SLP155 T02000139
