2022/09/26 09:53
KLAX 260953Z 26003KT 10SM FEW200 21/18 A2990 RMK AO2 SLP124 T02060178
