2026/03/07 17:53
KLAX 071753Z 03019G29KT 10SM FEW120 22/M07 A3005 RMK AO2 PK WND 02030/1741 SLP176 T02171067 10217 20150 51007 $
