2022/12/26 01:53
KLAX 260153Z 23004KT 10SM FEW250 18/09 A3011 RMK AO2 SLP196 T01830089 $
