2024/03/01 13:53
KLAX 011353Z 15004KT 10SM FEW011 BKN024 BKN045 13/09 A3016 RMK AO2 SLP210 T01280094 $
