2025/12/26 05:53
KLAX 260553Z 13005KT 10SM FEW042 BKN050 BKN065 17/14 A3010 RMK AO2 SLP190 T01670144 10178 20167 51003 $
