2025/11/02 11:55
KLAX 021155Z 29003KT 2SM BR OVC004 15/14 A3004 RMK AO2 T01500139 $
