2024/08/13 12:53
KLAX 131253Z 34003KT 10SM FEW008 FEW250 19/16 A2991 RMK AO2 SLP127 T01940161
