2024/02/15 07:53
KLAX 150753Z 00000KT 10SM FEW012 FEW250 12/08 A3019 RMK AO2 SLP221 T01220083 401610100 $
