2023/11/26 11:53
KLAX 261153Z 02006KT 10SM SCT250 13/M02 A3005 RMK AO2 SLP176 T01281022 10156 20117 58003 $
