2025/12/23 03:53
KLAX 230353Z 23003KT 4SM BR OVC220 16/14 A2992 RMK AO2 SLP131 T01560139 $
