2026/03/26 17:53
KLAX 261753Z VRB03KT 6SM HZ FEW014 SCT140 BKN250 22/13 A2996 RMK AO2 SLP142 T02170128 10217 20150 58008
