2023/06/27 19:53
KLAX 271953Z 25011KT 9SM FEW015 20/13 A2989 RMK AO2 SLP118 T02000133
