2022/09/21 07:53
KLAX 210753Z 28005KT 10SM CLR 20/14 A2992 RMK AO2 SLP128 T02000144 402500189 $
