2025/06/12 03:53
KLAX 120353Z 25006KT 9SM OVC007 17/15 A2988 RMK AO2 SLP118 T01670150 $
