2025/02/10 17:53
KLAX 101753Z 10007KT 10SM FEW015 BKN027 14/09 A3008 RMK AO2 SLP185 T01440094 10144 20078 51008
