2023/02/26 09:53
KLAX 260953Z VRB03KT 10SM FEW010 SCT037 06/04 A3000 RMK AO2 SLP160 T00560039 $
