2022/12/27 11:53
KLAX 271153Z 04003KT 10SM FEW140 OVC250 13/09 A3004 RMK AO2 SLP169 T01330094 10161 20117 55005 $
