2024/06/29 01:53
KLAX 290153Z 26013KT 10SM FEW013 19/15 A2981 RMK AO2 SLP091 T01940150
