2023/10/22 07:53
KLAX 220753Z 00000KT 10SM FEW010 FEW020 16/14 A2984 RMK AO2 SLP099 T01610144 402500156
