2026/01/02 07:53
KLAX 020753Z 00000KT 10SM FEW002 FEW010 SCT050 SCT200 16/13 A3008 RMK AO2 SLP186 T01560128 401780139 $
