2024/05/01 23:53
KLAX 012353Z 25013KT 10SM FEW013 18/12 A2982 RMK AO2 SLP098 T01780122 10200 20178 58008 $
