2025/11/16 01:53
KLAX 160153Z 09009KT 10SM FEW008 BKN025 OVC033 15/13 A2982 RMK AO2 RAE04 SLP097 P0001 T01500128 $
