2024/08/01 23:53
KLAX 012353Z 27010KT 10SM FEW006 FEW110 SCT140 SCT230 20/16 A2997 RMK AO2 SLP146 CB DSNT NE T02000156 10211 20183 58014 $
