2023/10/09 21:53
KLAX 092153Z 26011KT 10SM FEW002 BKN009 BKN150 19/16 A2982 RMK AO2 SLP095 T01890156
