2024/05/29 17:53
KLAX 291753Z 26006KT 8SM OVC019 17/12 A3005 RMK AO2 SLP174 T01670117 10172 20144 50000 $
