2023/11/13 23:53
KLAX 132353Z 25007KT 10SM FEW150 FEW200 SCT250 19/12 A2996 RMK AO2 SLP146 T01890117 10233 20183 56006
