2026/02/09 05:53
KLAX 090553Z 00000KT 10SM CLR 17/12 A3013 RMK AO2 SLP198 T01720117 10222 20167 56006 $
