2023/07/23 19:53
KLAX 231953Z 25008KT 10SM FEW011 FEW180 SCT230 BKN280 26/18 A2993 RMK AO2 SLP135 T02610178
