2025/12/14 19:53
KLAX 141953Z 27008KT 10SM SCT010 SCT220 BKN270 16/13 A3008 RMK AO2 SLP186 T01610128
