2025/04/01 05:53
KLAX 010553Z 27017KT 10SM FEW010 SCT250 13/10 A3003 RMK AO2 PK WND 26027/0529 SLP166 T01330100 10167 20133 50002
