2023/12/30 21:53
KLAX 302153Z 25012KT 10SM BKN020 BKN045 16/12 A3006 RMK AO2 SLP178 T01610122
