2024/04/30 07:53
KLAX 300753Z 00000KT 10SM CLR 15/12 A2986 RMK AO2 SLP110 T01500122 401940133 $
