2026/01/28 07:53
KLAX 280753Z 10005KT 10SM FEW200 BKN250 12/07 A3025 RMK AO2 SLP241 T01170072 402220094
