2023/04/17 11:53
KLAX 171153Z 00000KT 10SM FEW008 OVC014 13/10 A2997 RMK AO2 SLP146 T01330100 10133 20128 56014
