2024/09/21 01:53
KLAX 210153Z 26011KT 10SM FEW014 FEW060 18/14 A2988 RMK AO2 SLP115 T01830144
