2026/02/10 02:53
KLAX 100253Z 25004KT 10SM OVC240 17/13 A2993 RMK AO2 SLP134 T01670133 55002 $
