2024/08/26 23:53
KLAX 262353Z 26012KT 10SM CLR 24/17 A2998 RMK AO2 SLP151 T02390167 10256 20239 56011 $
