2025/09/04 21:53
KLAX 042153Z 25016KT 10SM FEW006 FEW120 24/18 A2983 RMK AO2 SLP099 T02390178 $
