2023/12/25 11:53
KLAX 251153Z 08003KT 10SM FEW005 11/09 A3016 RMK AO2 SLP210 T01110089 10150 20100 58002
