2024/08/13 23:53
KLAX 132353Z 26012KT 10SM FEW010 23/18 A2990 RMK AO2 SLP124 T02330183 10256 20233 56012
