2024/09/02 07:53
KLAX 020753Z 15003KT 10SM FEW010 20/18 A2991 RMK AO2 SLP125 T02000183 402500189 $
