2023/04/24 01:53
KLAX 240153Z 25008KT 10SM OVC008 15/13 A2981 RMK AO2 SLP094 T01500128
