2022/09/15 09:53
KLAX 150953Z 15004KT 10SM FEW014 FEW020 21/17 A2992 RMK AO2 SLP128 T02060167 $
