2023/04/20 09:53
KLAX 200953Z 00000KT 10SM FEW200 12/08 A3007 RMK AO2 SLP182 T01220083
