2025/03/01 23:53
KLAX 012353Z 25007G18KT 10SM SCT018 BKN024 BKN030 14/11 A2999 RMK AO2 SLP154 T01440111 10167 20144 53003 $
