2022/11/29 09:59
KLAX 290959Z 07004KT 10SM FEW035 OVC042 13/10 A2991 RMK AO2 T01330100
