2023/09/29 11:53
KLAX 291153Z 14004KT 10SM FEW011 BKN017 OVC021 19/14 A2983 RMK AO2 SLP099 T01890139 10194 20189 56006 $
