2024/12/12 05:53
KLAX 120553Z 05003KT 10SM FEW200 SCT250 15/M05 A3000 RMK AO2 SLP156 T01501050 10183 20133 51002 $
