2023/02/03 05:53
KLAX 030553Z 00000KT 10SM SCT200 BKN250 12/08 A3027 RMK AO2 SLP248 T01220078 10161 20122 58003 $
