2023/08/14 11:53
KLAX 141153Z 27005KT 8SM FEW004 OVC007 19/18 A2993 RMK AO2 SLP131 T01890178 10200 20189 53003 $
