2024/09/25 05:53
KLAX 250553Z 27005KT 1 1/2SM BR VV002 17/16 A2986 RMK AO2 SLP111 VIS 3/4V2 T01670156 10183 20167 51004 $
