2024/05/27 19:09
KLAX 271909Z 25008KT 220V280 9SM FEW010 SCT020 18/12 A3006 RMK AO2 SCT V BKN T01830122
