2025/04/21 03:53
KLAX 210353Z 24009KT 10SM CLR 14/11 A3001 RMK AO2 SLP161 T01440111 $
