2023/01/16 13:53
KLAX 161353Z 08008KT 2SM +RA BR SCT006 BKN010 OVC020 11/11 A2968 RMK AO2 SLP051 VIS SW-N 1 1/2 P0008 T01110106 $
