2023/02/24 15:53
KLAX 241553Z 09011KT 8SM -RA FEW009 SCT024 OVC050 10/08 A3000 RMK AO2 RAE1455B11 SLP160 VIS LWR NW-N P0001 T01000083
