2026/04/04 23:53
KLAX 042353Z 26013KT 10SM SCT230 SCT280 24/03 A2995 RMK AO2 SLP140 T02440028 10306 20228 56014 $
