2023/11/05 01:53
KLAX 050153Z 26009KT 10SM SCT005 17/16 A2999 RMK AO2 SLP156 T01720161
