2023/05/18 17:53
KLAX 181753Z 12006KT 4SM HZ OVC012 17/14 A2995 RMK AO2 SLP140 T01670139 10172 20150 51022
