2024/08/17 11:53
KLAX 171153Z 31004KT 9SM OVC014 21/18 A2989 RMK AO2 SLP119 T02110183 10211 20200 53001 $
