2023/06/01 03:53
KLAX 010353Z 24005KT 10SM OVC035 16/12 A2991 RMK AO2 CIG 027 RWY24 SLP126 T01610122
