2023/03/12 15:53
KLAX 121553Z 00000KT 3/4SM R25L/P6000FT BR OVC003 14/13 A3013 RMK AO2 SLP203 VIS W 1/4 T01390133 $
