2023/05/18 01:53
KLAX 180153Z 23009KT 10SM OVC006 15/13 A2984 RMK AO2 SLP105 T01500133
