2024/06/23 03:53
KLAX 230353Z 25007KT 10SM SCT005 18/16 A2987 RMK AO2 SLP111 VIS W 2 T01780156
