2026/06/01 02:53
KLAX 010253Z 25006KT 10SM CLR 18/14 A2986 RMK AO2 SLP110 T01780144 56007 $
