2022/10/24 13:53
KLAX 241353Z 06003KT 10SM CLR 13/09 A3008 RMK AO2 SLP182 T01330094
