2024/10/28 09:53
KLAX 280953Z 09005KT 10SM FEW011 FEW160 BKN250 18/15 A2993 RMK AO2 SLP132 T01780150 $
