2023/01/18 21:53
KLAX 182153Z 25008KT 10SM FEW007 FEW040 SCT140 BKN200 15/07 A3014 RMK AO2 SLP205 T01500072 $
