2026/07/23 21:53
KLAX 232153Z 26015KT 10SM FEW110 FEW250 26/17 A2985 RMK AO2 SLP106 T02610172 $
