2023/12/30 15:53
KLAX 301553Z VRB03KT 10SM -RA FEW006 BKN015 OVC039 13/12 A3009 RMK AO2 RAE39B43 SLP187 P0002 T01280117 $
