2024/07/27 11:53
KLAX 271153Z 26004KT 9SM FEW008 17/16 A2987 RMK AO2 SLP111 T01720156 10183 20172 55004
