2024/11/10 07:53
KLAX 100753Z 00000KT 7SM CLR 14/11 A2997 RMK AO2 SLP145 T01390111 402220094
