2023/12/10 15:53
KLAX 101553Z 04009KT 10SM FEW230 FEW280 14/M11 A3019 RMK AO2 SLP221 T01441111 $
