2022/09/16 23:53
KLAX 162353Z 26012KT 10SM FEW016 23/18 A2986 RMK AO2 SLP109 T02330183 10256 20233 56017 $
