2024/08/07 15:58
KLAX 071558Z 14004KT 6SM HZ FEW007 SCT010 BKN140 22/19 A3002 RMK AO2 T02220189 $
