2024/01/12 11:53
KLAX 121153Z 09003KT 10SM FEW250 07/M06 A3016 RMK AO2 SLP210 T00671056 10122 20056 51002 $
