2025/10/13 03:53
KLAX 130353Z 15003KT 10SM CLR 19/13 A2969 RMK AO2 SLP054 T01890128 $
