2025/05/25 07:53
KLAX 250753Z 19005KT 10SM FEW014 SCT250 16/13 A3000 RMK AO2 SLP157 T01610128 402060161
