2025/01/07 19:53
KLAX 071953Z 02012G25KT 10SM SCT040 SCT140 BKN180 BKN250 22/02 A2996 RMK AO2 PK WND 02029/1905 SLP143 FU SCT040 T02170017
