2026/01/27 15:53
KLAX 271553Z 06003KT 10SM FEW160 FEW250 12/M04 A3026 RMK AO2 SLP247 T01221044 $
