2022/11/14 05:53
KLAX 140553Z 14003KT 10SM CLR 15/07 A3007 RMK AO2 SLP182 T01500067 10172 20133 53016 $
