2025/12/22 11:53
KLAX 221153Z 10003KT 2 1/2SM BR FEW001 FEW003 BKN250 11/11 A3002 RMK AO2 SLP165 VIS N 2 T01110111 10156 20106 58007 $
