2026/02/02 11:53
KLAX 021153Z 06003KT 10SM BKN220 13/09 A3005 RMK AO2 SLP172 T01280094 10167 20128 55006
