2025/04/20 15:53
KLAX 201553Z 25007KT 8SM SCT008 BKN012 14/11 A3011 RMK AO2 SLP194 T01440111 $
