2025/05/23 03:53
KLAX 230353Z 24006KT 9SM FEW010 FEW220 SCT270 17/15 A2993 RMK AO2 SLP134 T01720150 $
