2024/12/19 07:53
KLAX 190753Z 13004KT 10SM CLR 17/02 A3008 RMK AO2 SLP183 T01670022 402830106
