2025/02/07 16:53
KLAX 071653Z 26011KT 7SM FEW007 BKN024 OVC035 15/13 A3013 RMK AO2 SLP204 T01500133 $
