2023/09/03 05:53
KLAX 030553Z 28005KT 10SM FEW012 OVC030 22/17 A3003 RMK AO2 SLP165 T02220172 10239 20217 51005 $
