2026/02/23 07:53
KLAX 230753Z 08004KT 10SM FEW250 13/09 A3018 RMK AO2 SLP218 T01330089 402060089 $
