2024/08/03 19:53
KLAX 031953Z 27011KT 10SM FEW005 23/16 A2994 RMK AO2 SLP137 T02330156 $
