2023/11/23 09:53
KLAX 230953Z 02003KT 10SM SCT200 BKN280 17/03 A2988 RMK AO2 SLP113 T01670028
