2023/06/07 11:53
KLAX 071153Z 33003KT 10SM FEW012 BKN018 BKN032 OVC150 16/11 A2994 RMK AO2 SLP136 60000 T01560111 10156 20150 55000
