2026/06/26 10:53
KLAX 261053Z 27004KT 10SM FEW009 OVC014 17/14 A2990 RMK AO2 SLP123 T01720139
