2024/06/01 15:53
KLAX 011553Z 31005KT 7SM BKN009 OVC015 16/13 A2996 RMK AO2 SLP144 T01560133
