2025/04/05 03:53
KLAX 050353Z 25009G21KT 10SM FEW120 17/05 A3011 RMK AO2 SLP196 T01670050
