2023/11/13 19:53
KLAX 131953Z 25007KT 10SM FEW100 SCT140 BKN180 BKN250 21/11 A3001 RMK AO2 SLP161 T02110111
