2025/12/23 15:53
KLAX 231553Z 10006KT 3SM BR FEW008 BKN011 OVC017 16/13 A2996 RMK AO2 SLP145 T01560133 $
