2025/01/10 19:53
KLAX 101953Z 24006KT 9SM FEW025 FEW060 21/01 A3028 RMK AO2 SLP255 FU FEW025 FU FEW060 T02060011 $
