2023/12/14 21:53
KLAX 142153Z 26008KT 10SM FEW120 FEW160 BKN180 23/08 A3011 RMK AO2 SLP196 T02280078 $
