2023/04/15 07:53
KLAX 150753Z 25006KT 10SM FEW039 12/10 A3005 RMK AO2 SLP173 T01220100 401720117
