2025/08/13 19:53
KLAX 131953Z 23009G15KT 8SM FEW010 SCT018 23/17 A2995 RMK AO2 SLP139 T02280167
