2025/12/02 23:53
KLAX 022353Z 26011KT 10SM FEW015 FEW150 SCT250 16/12 A2998 RMK AO2 SLP150 T01610122 10189 20150 55008 $
