2023/03/19 05:53
KLAX 190553Z 00000KT 10SM BKN180 17/04 A2999 RMK AO2 SLP152 T01670039 10189 20161 58003
