2026/06/08 21:53
KLAX 082153Z 27014KT 10SM BKN250 21/13 A2990 RMK AO2 SLP125 T02110133 $
