2023/09/12 09:53
KLAX 120953Z 25003KT 10SM FEW008 FEW012 SCT180 19/18 A2989 RMK AO2 SLP117 T01940178 $
