2025/05/21 05:53
KLAX 210553Z 00000KT 10SM CLR 19/13 A2990 RMK AO2 SLP121 T01890133 10233 20183 53008 $
