2022/09/07 19:53
KLAX 071953Z 27010KT 10SM FEW030 FEW090 SCT140 BKN180 29/18 A2992 RMK AO2 SLP128 T02890183 $
