2023/09/25 09:53
KLAX 250953Z VRB04KT 10SM FEW015 16/15 A3001 RMK AO2 SLP160 T01610150 $
