2023/03/08 07:53
KLAX 080753Z 01003KT 10SM FEW015 FEW250 10/07 A3011 RMK AO2 SLP197 T01000072 401500078 $
