2023/07/20 03:53
KLAX 200353Z 23007KT 10SM CLR 20/17 A2996 RMK AO2 SLP141 T02000172 $
