2025/04/06 05:53
KLAX 060553Z 20005KT 10SM CLR 16/05 A3019 RMK AO2 SLP221 T01610050 10211 20150 51012 $
