2023/12/31 01:53
KLAX 310153Z 27016KT 10SM SCT045 15/12 A3007 RMK AO2 SLP180 T01500122
