2025/05/29 19:53
KLAX 291953Z 23010KT 10SM FEW018 SCT024 21/14 A2997 RMK AO2 SLP146 T02060139
