2025/02/16 03:53
KLAX 160353Z 00000KT 10SM SCT250 14/09 A3017 RMK AO2 SLP217 T01440094 $
