2022/10/06 09:53
KLAX 060953Z 00000KT 7SM FEW008 OVC011 20/17 A3000 RMK AO2 SLP157 T02000167
