2025/06/04 15:53
KLAX 041553Z 24005KT 6SM HZ SCT009 OVC012 16/14 A2993 RMK AO2 SLP133 SCT V BKN T01610139
