2026/07/11 14:53
KLAX 111453Z VRB04KT 8SM FEW011 BKN016 BKN190 BKN230 21/16 A2993 RMK AO2 SLP132 T02060161 53007 $
