2025/06/13 09:53
KLAX 130953Z VRB04KT 9SM OVC012 18/14 A2984 RMK AO2 SLP103 T01780144
