2022/09/13 19:53
KLAX 131953Z 26011KT 9SM FEW032 FEW120 SCT180 26/19 A2987 RMK AO2 SLP112 T02560189 $
