2024/09/11 03:53
KLAX 110353Z 24006KT 10SM CLR 19/16 A2981 RMK AO2 SLP090 T01890156
