2022/10/17 09:53
KLAX 170953Z 32004KT 10SM FEW015 17/14 A3002 RMK AO2 SLP164 T01720139 $
