2022/11/03 13:53
KLAX 031353Z 36005KT 10SM FEW029 FEW060 SCT120 12/03 A3002 RMK AO2 SLP164 T01220033 VISNO RWY24 $
