2024/05/12 05:53
KLAX 120553Z 00000KT 7SM BKN006 OVC012 14/12 A2997 RMK AO2 SLP147 T01440122 10156 20133 51015 $
