2026/05/23 15:53
KLAX 231553Z 18004KT 9SM OVC026 17/12 A2998 RMK AO2 SLP149 T01720122
