2023/10/16 03:53
KLAX 160353Z 00000KT 10SM CLR 21/14 A2999 RMK AO2 SLP153 T02060144
