2024/12/14 11:53
KLAX 141153Z 08003KT 8SM BKN100 11/08 A3016 RMK AO2 SLP213 T01060083 10133 20106 58003
