2025/12/05 20:02
KLAX 052002Z VRB05KT 10SM FEW001 21/M03 A3006 RMK AO2 FU FEW001 T02061028 $
