2025/06/27 09:53
KLAX 270953Z VRB03KT 7SM FEW005 OVC010 18/16 A2990 RMK AO2 SLP121 T01780156 $
