2024/12/04 21:53
KLAX 042153Z 26011KT 6SM HZ FEW010 FEW019 15/10 A3014 RMK AO2 SLP206 T01500100
