2024/09/22 03:53
KLAX 220353Z 27007KT 10SM FEW011 SCT024 18/15 A2992 RMK AO2 SLP131 T01780150 $
