2025/02/12 03:53
KLAX 120353Z 26005KT 10SM FEW250 13/09 A2990 RMK AO2 SLP122 T01330089 $
