2025/09/30 13:53
KLAX 301353Z 26003KT 8SM FEW010 SCT021 BKN045 19/16 A3000 RMK AO2 SLP157 T01890156 $
