2024/04/25 21:53
KLAX 252153Z 22011G19KT 10SM FEW020 SCT035 17/10 A3007 RMK AO2 SLP182 T01720100
