2025/04/27 07:53
KLAX 270753Z 00000KT 10SM FEW010 FEW055 12/07 A3001 RMK AO2 SLP160 T01220067 401670111 $
