2024/04/14 03:53
KLAX 140353Z 16003KT 10SM SCT014 BKN070 BKN100 11/06 A3006 RMK AO2 RAE19 SLP176 P0001 T01060061 $
