2024/11/11 05:53
KLAX 110553Z 00000KT 10SM CLR 15/13 A3004 RMK AO2 SLP169 T01500133 10178 20144 51012
