2022/09/10 04:36
KLAX 100436Z 15008KT 7SM RA SCT011 BKN016 OVC090 23/21 A2969 RMK AO2 DZE31RAB31 CIG 010 RWY24 P0004 T02280211 $
