2026/07/23 14:53
KLAX 231453Z 00000KT 10SM FEW008 22/18 A2990 RMK AO2 SLP122 T02220183 53011 $
