2025/09/09 03:53
KLAX 090353Z 25010KT 10SM CLR 21/17 A2996 RMK AO2 SLP142 T02110167 $
