2024/08/14 17:53
KLAX 141753Z 27009KT 10SM CLR 24/18 A3000 RMK AO2 SLP157 T02440183 51009 $
