2022/11/14 09:53
KLAX 140953Z 09005KT 10SM CLR 11/03 A3010 RMK AO2 SLP190 T01110033 $
