2025/11/27 09:53
KLAX 270953Z 05003KT 10SM SCT250 16/03 A3005 RMK AO2 SLP173 T01610028 $
