2026/05/20 14:53
KLAX 201453Z 12004KT 9SM FEW055 19/14 A2993 RMK AO2 SLP132 FU FEW055 T01940144 53008
