2023/05/20 03:53
KLAX 200353Z 24005KT 10SM OVC012 16/14 A3007 RMK AO2 SLP180 T01610139
