2025/09/15 13:53
KLAX 151353Z 00000KT 5SM BR FEW008 OVC010 19/17 A2987 RMK AO2 SLP113 T01940172 $
