2025/10/25 15:53
KLAX 251553Z 27004KT 3SM BR OVC008 17/15 A3005 RMK AO2 CIG 007V011 SLP174 T01670150 $
