2024/02/08 07:53
KLAX 080753Z 28016G28KT 10SM FEW018 FEW035 SCT060 SCT200 11/05 A2990 RMK AO2 PK WND 27032/0700 SLP123 T01060050 401500072 $
