2024/06/27 21:53
KLAX 272153Z 25011KT 10SM CLR 23/16 A2984 RMK AO2 SLP102 T02280161
