2023/10/15 11:53
KLAX 151153Z 09004KT 10SM CLR 16/13 A3000 RMK AO2 SLP157 T01560133 10194 20150 56011
