2025/04/15 23:53
KLAX 152353Z 25008KT 10SM FEW200 BKN250 16/07 A3001 RMK AO2 SLP160 T01610067 10167 20144 58023
