2024/01/01 15:53
KLAX 011553Z 00000KT 10SM SCT090 BKN120 11/06 A3007 RMK AO2 SLP180 T01110061
