2024/10/01 21:53
KLAX 012153Z 26012KT 10SM FEW005 FEW110 21/16 A2988 RMK AO2 SLP117 T02060161
