2025/02/08 15:53
KLAX 081553Z 00000KT 10SM FEW012 FEW022 SCT250 13/12 A3012 RMK AO2 SLP269 T01280122 $
