2022/10/23 19:53
KLAX 231953Z 24012KT 10SM FEW029 FEW037 SCT055 21/12 A2986 RMK AO2 SLP109 T02110122
