2023/09/05 19:53
KLAX 051953Z 26009KT 8SM OVC021 21/17 A2993 RMK AO2 SLP133 T02060167 $
