2024/02/04 03:53
KLAX 040353Z 25006KT 10SM SCT024 BKN080 BKN100 13/08 A3002 RMK AO2 SLP164 T01330078 $
