2022/09/14 17:53
KLAX 141753Z 16005KT 9SM SCT025 BKN030 24/17 A2991 RMK AO2 SLP127 T02440172 10250 20200 50003 $
