2025/05/22 11:53
KLAX 221153Z VRB03KT 4SM BR FEW004 BKN006 16/15 A2989 RMK AO2 SLP120 T01610150 10178 20161 56005 $
