2023/06/12 01:53
KLAX 120153Z 25010KT 10SM FEW014 SCT036 BKN048 17/13 A2996 RMK AO2 SLP143 T01720133
