2024/01/12 15:53
KLAX 121553Z 09005KT 10SM FEW180 FEW250 08/M03 A3020 RMK AO2 SLP226 T00831033 $
