2025/07/26 14:53
KLAX 261453Z VRB04KT 10SM FEW013 SCT021 OVC025 19/13 A2999 RMK AO2 SLP154 T01890133 53006 $
