2022/10/06 13:53
KLAX 061353Z 04005KT 4SM HZ OVC013 20/17 A3001 RMK AO2 SLP161 T02000172
