2024/01/09 05:53
KLAX 090553Z 04004KT 10SM CLR 11/01 A3031 RMK AO2 SLP262 T01060006 10139 20100 53016
