2025/06/04 11:53
KLAX 041153Z VRB03KT 9SM OVC009 16/14 A2990 RMK AO2 SLP125 70001 T01610139 10167 20161 55001 $
