2024/01/05 17:53
KLAX 051753Z 06004KT 10SM FEW010 SCT120 BKN160 14/03 A3020 RMK AO2 SLP227 T01390033 10139 20078 53011
