2025/05/12 17:53
KLAX 121753Z 11007KT 8SM FEW018 BKN031 21/12 A2994 RMK AO2 SLP138 T02110122 10217 20167 52005 $
