2023/11/11 13:53
KLAX 111353Z 08006KT 10SM CLR 11/M02 A3005 RMK AO2 SLP174 T01111022
