2025/12/10 05:53
KLAX 100553Z 00000KT 10SM CLR 18/07 A3001 RMK AO2 SLP160 T01830072 10217 20167 53007 $
