2026/06/03 14:53
KLAX 031453Z 25005KT 8SM OVC015 17/13 A2999 RMK AO2 SLP154 T01720128 51009 $
