2025/12/22 21:53
KLAX 222153Z 24006KT 4SM HZ FEW009 SCT220 BKN260 17/13 A2995 RMK AO2 SLP141 VIS SW-W 2 1/2 T01720133 $
