2025/06/19 23:53
KLAX 192353Z 24012KT 10SM BKN013 21/16 A2983 RMK AO2 SLP100 T02060156 10228 20206 56007 $
