2024/05/29 11:53
KLAX 291153Z 07004KT 9SM OVC009 14/12 A3003 RMK AO2 SLP168 T01440122 10150 20139 55002 $
