2022/10/02 21:53
KLAX 022153Z 26014KT 10SM FEW110 FEW150 23/15 A2991 RMK AO2 SLP128 CB DSNT SE T02330150
