2025/06/30 13:53
KLAX 301353Z 00000KT 10SM BKN010 17/14 A2991 RMK AO2 SLP128 T01720144
