2022/08/28 07:53
KLAX 280753Z 29004KT 10SM OVC012 19/17 A2985 RMK AO2 SLP105 T01940167 402500189 $
