2022/10/21 05:53
KLAX 210553Z VRB03KT 10SM FEW180 21/18 A2992 RMK AO2 SLP127 T02110178 10250 20206 53014 $
