2026/05/08 11:53
KLAX 081153Z 12003KT 9SM FEW008 OVC011 16/13 A2999 RMK AO2 SLP154 T01610133 10167 20156 55002
