2026/04/22 04:53
KLAX 220453Z 27010KT 10SM FEW018 16/12 A3010 RMK AO2 SLP191 T01610117 $
