2022/08/30 15:53
KLAX 301553Z 25004KT 8SM CLR 23/17 A2996 RMK AO2 SLP143 T02280172
