2025/01/12 19:53
KLAX 121953Z 23005KT 10SM CLR 19/00 A3007 RMK AO2 SLP183 T01940000 $
