2023/08/12 15:53
KLAX 121553Z 19004KT 7SM OVC012 21/18 A3002 RMK AO2 SLP164 T02110178 $
