2024/12/18 01:53
KLAX 180153Z 12004KT 10SM FEW200 16/08 A3007 RMK AO2 SLP182 T01560083 $
