2023/02/11 09:53
KLAX 110953Z 24003KT 10SM BKN250 13/11 A2994 RMK AO2 SLP133 T01280106 $
