2023/03/01 03:53
KLAX 010353Z 26009KT 8SM RA BKN023 BKN029 OVC045 11/08 A2997 RMK AO2 SLP147 P0002 T01110078
