2024/11/17 09:53
KLAX 170953Z 00000KT 10SM CLR 09/M01 A2997 RMK AO2 SLP147 T00891011 $
