2024/04/12 07:53
KLAX 120753Z 24003KT 3SM BR FEW002 OVC004 12/11 A2987 RMK AO2 SLP112 T01220111 401780117 $
