2022/09/16 17:53
KLAX 161753Z 18004KT 10SM SCT026 24/17 A2995 RMK AO2 SLP139 T02390167 10244 20183 50003 $
