2025/07/16 07:53
KLAX 160753Z 00000KT 10SM OVC015 18/14 A2995 RMK AO2 SLP139 T01830144 402330172
