2025/11/20 17:53
KLAX 201753Z 09005KT 10SM FEW019 SCT031 BKN055 OVC130 16/10 A3006 RMK AO2 SLP178 T01560100 10156 20106 51005 $
