2023/01/13 13:53
KLAX 131353Z 00000KT 10SM FEW220 BKN280 13/07 A3016 RMK AO2 SLP210 T01330067 $
