2024/01/08 01:53
KLAX 080153Z 36014G25KT 10SM FEW200 11/M07 A2999 RMK AO2 PK WND 35027/0140 SLP156 T01111067
