2023/08/27 16:53
KLAX 271653Z 26006KT 10SM FEW120 23/17 A2992 RMK AO2 SLP130 T02280167 $
