2025/06/16 09:53
KLAX 160953Z 24003KT 9SM FEW007 17/16 A2989 RMK AO2 SLP118 T01720156 $
