2023/11/19 01:53
KLAX 190153Z 20005KT 7SM FEW014 SCT030 BKN051 18/14 A3004 RMK AO2 SLP172 T01830144
