2025/06/20 11:53
KLAX 201153Z 08004KT 8SM SCT011 OVC014 18/15 A2982 RMK AO2 SLP097 T01780150 10178 20172 53007 $
