2022/12/06 13:53
KLAX 061353Z 08004KT 10SM FEW014 FEW028 SCT180 BKN280 10/08 A3002 RMK AO2 SLP165 T01000078 $
