2023/09/04 09:53
KLAX 040953Z 09004KT 10SM FEW024 18/16 A2992 RMK AO2 SLP129 T01780161 $
