2025/12/05 07:53
KLAX 050753Z 05005KT 10SM FEW250 14/00 A3013 RMK AO2 SLP201 T01390000 402110122 $
