2025/07/24 02:53
KLAX 240253Z 26016KT 10SM FEW011 FEW250 19/15 A3003 RMK AO2 SLP165 T01890150 53001 $
