2024/08/27 09:53
KLAX 270953Z 27006KT 10SM FEW006 BKN008 18/17 A2998 RMK AO2 SLP150 T01830167 $
