2025/08/07 03:53
KLAX 070353Z 25010KT 10SM FEW250 20/14 A2997 RMK AO2 SLP144 T02000144
