2023/01/13 03:53
KLAX 130353Z 02007KT 10SM SCT300 17/05 A3015 RMK AO2 SLP210 T01670050 $
