2023/06/23 01:53
KLAX 230153Z 25012KT 10SM FEW022 17/12 A2996 RMK AO2 SLP144 T01720117
