2023/06/29 09:53
KLAX 290953Z 19003KT 10SM FEW008 OVC011 16/14 A2990 RMK AO2 SLP121 T01610139
