2024/03/16 23:53
KLAX 162353Z 24012KT 10SM SCT015 SCT035 BKN120 16/11 A3001 RMK AO2 SLP163 T01610111 10189 20161 50002 $
