2025/07/23 07:53
KLAX 230753Z 25007KT 10SM BKN011 17/14 A3002 RMK AO2 SLP163 T01720144 402280172 $
