2025/09/10 05:53
KLAX 100553Z 21003KT 10SM FEW012 FEW015 20/17 A2986 RMK AO2 SLP108 T02000167 10233 20200 50002 $
