2024/08/24 01:53
KLAX 240153Z 25013KT 10SM FEW018 FEW300 20/16 A2993 RMK AO2 SLP135 LIGHT FU LYRS ALOFT T02000156 $
