2025/11/30 23:53
KLAX 302353Z 25008KT 10SM FEW020 SCT200 BKN250 16/11 A2994 RMK AO2 SLP139 T01560111 10178 20150 56009 $
