2024/06/04 21:53
KLAX 042153Z 24009KT 10SM FEW200 21/14 A2985 RMK AO2 SLP107 T02060144
