2025/02/17 11:53
KLAX 171153Z 08004KT 10SM SCT250 10/08 A2996 RMK AO2 SLP142 T01000083 10139 20100 58007 $
