2023/07/30 17:53
KLAX 301753Z 15010KT 8SM BKN014 BKN180 BKN280 24/19 A2997 RMK AO2 SLP146 T02390189 10250 20194 53022 $
