2024/06/18 05:53
KLAX 180553Z 00000KT 10SM BKN014 18/14 A2973 RMK AO2 SLP067 T01830144 10206 20172 52006
