2025/08/23 09:53
KLAX 230953Z 25004KT 10SM FEW180 22/18 A2987 RMK AO2 SLP112 T02170183
