2023/01/22 09:53
KLAX 220953Z 06003KT 10SM CLR 08/02 A3017 RMK AO2 SLP216 T00830022 $
