2025/01/10 21:53
KLAX 102153Z 27007KT 7SM FEW025 FEW075 19/00 A3024 RMK AO2 SLP242 FU FEW025 FU FEW075 T01940000
