2023/05/14 13:53
KLAX 141353Z 08006KT 8SM OVC009 15/13 A2991 RMK AO2 SLP128 T01500133
