2023/05/13 11:53
KLAX 131153Z 00000KT 6SM BR OVC010 14/13 A2988 RMK AO2 SLP116 T01440128 10150 20139 56010
