2026/02/15 11:53
KLAX 151153Z 04003KT 10SM FEW015 FEW025 BKN200 BKN250 12/10 A3002 RMK AO2 SLP164 T01220100 10144 20111 58014 $
