2025/05/22 01:53
KLAX 220153Z 26010KT 9SM FEW004 18/16 A2988 RMK AO2 SLP117 T01830161 $
