2022/09/09 17:53
KLAX 091753Z 06006KT 10SM FEW080 FEW120 SCT160 BKN190 34/18 A2956 RMK AO2 SLP007 T03440183 10344 20267 50002 $
