2023/10/09 15:53
KLAX 091553Z 11005KT 4SM BR SCT004 OVC008 17/16 A2987 RMK AO2 SLP115 T01720156
