2022/10/27 23:53
KLAX 272353Z 26012KT 10SM CLR 20/14 A2999 RMK AO2 SLP156 T02000139 10239 20200 55001
