2023/05/20 07:53
KLAX 200753Z 23004KT 6SM BR FEW006 OVC011 16/14 A3007 RMK AO2 SLP179 VIS W 2 T01560144 401780150
