2025/09/27 09:53
KLAX 270953Z 13004KT 10SM FEW010 OVC020 21/17 A2988 RMK AO2 SLP114 T02060167 $
