2024/08/16 13:53
KLAX 161353Z 12005KT 6SM BR BKN009 21/19 A2991 RMK AO2 SLP125 T02060189 $
