2022/09/18 11:53
KLAX 181153Z 09008KT 10SM BKN038 21/15 A2977 RMK AO2 SLP080 T02060150 10206 20200 53003 $
