2025/07/23 16:53
KLAX 231653Z 26006KT 8SM FEW010 OVC023 20/15 A3007 RMK AO2 SLP181 T02000150 $
