2023/07/15 05:53
KLAX 150553Z 21005KT 10SM CLR 19/16 A2985 RMK AO2 SLP104 T01890156 10233 20189 51008
