2024/07/10 09:53
KLAX 100953Z 26004KT 10SM FEW006 17/16 A2983 RMK AO2 SLP097 T01720161
