2023/04/06 01:53
KLAX 060153Z 26015KT 10SM FEW200 BKN250 14/04 A3006 RMK AO2 SLP178 T01440044 $
