2024/04/24 17:53
KLAX 241753Z 24010G18KT 10SM FEW020 FEW040 SCT060 17/11 A3009 RMK AO2 SLP188 T01670106 10172 20133 53007
