2023/07/10 11:53
KLAX 101153Z VRB03KT 10SM FEW009 FEW012 16/14 A2992 RMK AO2 SLP129 T01610139 10167 20156 53004
