2022/08/23 11:53
KLAX 231153Z 11004KT 4SM BR FEW004 FEW006 18/17 A2982 RMK AO2 SLP096 T01830167 10183 20178 56013 $
