2022/11/07 07:53
KLAX 070753Z VRB04KT 10SM BKN015 OVC022 16/13 A2995 RMK AO2 SLP141 T01610128 401940117
