2025/05/10 21:53
KLAX 102153Z 26016KT 10SM FEW110 FEW250 24/14 A2987 RMK AO2 SLP112 T02440144
