2025/11/11 11:53
KLAX 111153Z 00000KT 1/16SM R25L/1000V1200FT FG VV001 15/15 A3007 RMK AO2 SLP182 T01500150 10172 20150 56006 $
