2026/05/13 06:53
KLAX 130653Z 26007KT 10SM BKN018 OVC029 16/12 A3006 RMK AO2 SLP177 T01610122
