2026/04/05 17:53
KLAX 051753Z 26009KT 10SM FEW220 SCT270 BKN300 24/11 A3001 RMK AO2 SLP160 T02390111 10256 20139 53008 $
