2026/05/18 17:53
KLAX 181753Z 25007KT 7SM FEW036 SCT044 21/12 A2989 RMK AO2 SLP120 T02060122 10206 20156 51006
