2024/11/23 19:53
KLAX 231953Z 00000KT 7SM BKN019 OVC044 15/11 A3001 RMK AO2 SLP163 T01500111
