2024/02/08 19:53
KLAX 081953Z 28011KT 10SM SCT010 SCT040 13/06 A3003 RMK AO2 SLP168 T01330056 $
