2023/07/19 17:53
KLAX 191753Z 27008KT 10SM FEW009 FEW250 23/18 A3001 RMK AO2 SLP160 T02330178 10239 20183 51007 $
