2024/08/02 13:53
KLAX 021353Z 27007KT 6SM BR VCFG FEW001 FEW200 SCT270 18/17 A3004 RMK AO2 SLP171 VIS SW 2 FG BANK ALG SHORE S-SW T01830167 $
