2024/03/14 15:53
KLAX 141553Z 06005KT 10SM FEW015 FEW160 16/03 A2986 RMK AO2 SLP109 T01610033 $
