2024/12/25 07:53
KLAX 250753Z 34009G19KT 10SM FEW010 FEW025 SCT200 15/03 A3004 RMK AO2 SLP172 T01500033 401560106 $
