2024/06/14 17:53
KLAX 141753Z 26005KT 9SM FEW020 21/14 A2996 RMK AO2 SLP144 T02060144 10222 20161 55006
