2025/04/15 11:53
KLAX 151153Z 25004KT 10SM OVC016 13/09 A3004 RMK AO2 SLP171 T01330094 10133 20122 53004 $
