2025/03/23 11:53
KLAX 231153Z 08004KT 6SM BR BKN009 13/12 A2997 RMK AO2 SLP147 T01330117 10150 20128 56005 $
