2026/03/13 07:53
KLAX 130753Z VRB03KT 10SM CLR 24/04 A2999 RMK AO2 SLP154 T02440039 402890139 $
