2023/08/13 19:53
KLAX 131953Z 23010KT 10SM FEW012 SCT110 SCT190 23/18 A2996 RMK AO2 SLP143 TCU DSNT E T02330178 $
