2026/03/15 13:53
KLAX 151353Z 15005KT 6SM BR BKN011 14/13 A2997 RMK AO2 SLP149 T01440128 $
