2025/09/06 09:53
KLAX 060953Z 00000KT 9SM BKN012 19/17 A2989 RMK AO2 SLP119 T01940172
