2025/02/06 05:53
KLAX 060553Z 05003KT 5SM BR FEW009 OVC017 15/14 A3003 RMK AO2 VIS 2 1/2 RWY24 CIG 012 RWY24 SLP167 60001 T01500139 10172 20144 51002 $
