2024/05/31 05:53
KLAX 310553Z 25008KT 6SM BR FEW002 SCT004 OVC008 15/13 A2995 RMK AO2 SLP139 T01500128 10183 20150 52009
