2023/02/08 11:53
KLAX 081153Z 08003KT 10SM FEW190 FEW240 SCT280 09/03 A3021 RMK AO2 SLP227 T00940033 10150 20083 58006
