2025/10/13 07:53
KLAX 130753Z 10004KT 10SM FEW011 FEW016 17/14 A2972 RMK AO2 SLP060 T01670144 402280156 $
