2026/05/19 06:53
KLAX 190653Z 25003KT 10SM FEW012 FEW032 SCT250 17/13 A2995 RMK AO2 SLP141 FU FEW032 T01720128
