2022/11/17 19:53
KLAX 171953Z 31005KT 10SM FEW120 SCT180 BKN250 23/M08 A3014 RMK AO2 SLP205 T02331078
