2026/02/23 09:53
KLAX 230953Z 08003KT 10SM FEW250 13/04 A3017 RMK AO2 SLP215 T01280044 $
