2025/11/16 15:58
KLAX 161558Z 00000KT 1 3/4SM R25L/2800VP6000FT RA BR SCT023 BKN034 OVC130 14/13 A3000 RMK AO2 P0003 T01390128 $
