2023/08/30 09:53
KLAX 300953Z 00000KT 10SM CLR 21/18 A2980 RMK AO2 SLP087 T02060178
