2023/01/29 09:53
KLAX 290953Z 08003KT 10SM SCT029 BKN035 OVC043 13/08 A2996 RMK AO2 SLP144 T01280078 $
