2024/04/01 15:53
KLAX 011553Z 11003KT 10SM FEW015 FEW070 13/09 A2996 RMK AO2 SLP143 T01330089
