2024/11/23 21:53
KLAX 232153Z 22004KT 4SM BR SCT009 SCT014 OVC021 15/13 A2999 RMK AO2 RAB12E21 SLP153 P0000 T01500128
