2023/04/04 09:53
KLAX 040953Z 34009KT 10SM FEW050 11/M04 A3007 RMK AO2 SLP179 T01061039
