2025/11/08 05:53
KLAX 080553Z 10008KT 10SM FEW008 18/16 A2991 RMK AO2 SLP125 T01780156 10194 20172 52013 $
