2025/08/27 09:53
KLAX 270953Z 28006KT 10SM BKN010 19/17 A3001 RMK AO2 SLP159 T01940172 $
