2023/11/12 11:53
KLAX 121153Z VRB05KT 10SM CLR 14/M06 A3000 RMK AO2 SLP156 T01441056 10172 20133 58009
