2023/03/07 07:53
KLAX 070753Z 33003KT 10SM FEW020 FEW100 BKN250 11/05 A3016 RMK AO2 SLP211 T01110050 401500094 $
