2025/10/10 15:53
KLAX 101553Z 00000KT 10SM FEW045 FEW090 SCT160 SCT200 21/15 A2988 RMK AO2 SLP116 T02110150 $
