2023/12/26 21:53
KLAX 262153Z 27009KT 8SM SCT120 BKN160 BKN250 17/12 A3011 RMK AO2 SLP195 T01670122
