2025/03/18 21:53
KLAX 182153Z 26021KT 10SM FEW015 17/04 A3024 RMK AO2 PK WND 26027/2119 SLP238 T01670044 $
