2024/10/15 19:53
KLAX 151953Z 24007KT 6SM HZ OVC022 20/14 A3002 RMK AO2 SLP164 T02000144 $
