2026/05/02 04:53
KLAX 020453Z 23008KT 10SM OVC010 15/13 A2995 RMK AO2 SLP138 T01500128
