2024/05/09 15:53
KLAX 091553Z VRB05KT 10SM OVC023 17/12 A2995 RMK AO2 SLP140 T01670117 $
