2023/04/30 03:53
KLAX 300353Z 26006KT 1SM R25L/P6000FT BR OVC004 13/12 A2999 RMK AO2 SLP156 VIS E 2 T01330122
