2025/01/03 21:53
KLAX 032153Z 24005KT 7SM FEW009 SCT140 BKN180 BKN250 14/11 A3004 RMK AO2 SLP173 T01440106
