2024/04/06 01:53
KLAX 060153Z 26026KT 10SM FEW020 FEW046 SCT075 SCT180 12/04 A2997 RMK AO2 PK WND 27038/0055 SLP150 CB DSNT NE T01170044 $
