2023/12/07 09:53
KLAX 070953Z 09003KT 7SM SCT015 13/12 A3007 RMK AO2 SLP181 T01330122
