2023/05/02 13:53
KLAX 021353Z 24007KT 10SM FEW014 BKN042 13/07 A2990 RMK AO2 SLP124 T01280072
