2025/01/15 03:53
KLAX 150353Z 00000KT 10SM CLR 13/02 A3022 RMK AO2 SLP235 T01280022
