2025/08/20 17:53
KLAX 201753Z 23006KT 10SM SCT270 26/18 A2996 RMK AO2 SLP144 T02560178 10256 20189 58000 $
