2026/06/07 08:53
KLAX 070853Z 29005KT 10SM FEW012 OVC026 18/14 A2983 RMK AO2 SLP100 T01780139 58008 $
