2023/04/09 05:53
KLAX 090553Z 22006KT 10SM FEW005 13/12 A3010 RMK AO2 SLP191 T01330117 10144 20128 51013
