2025/08/05 15:53
KLAX 051553Z 13003KT 6SM HZ FEW009 FEW016 SCT050 BKN140 21/16 A3000 RMK AO2 SLP156 T02060161
