2024/02/04 09:53
KLAX 040953Z 09006KT 10SM SCT040 OVC075 11/08 A2999 RMK AO2 SLP155 T01060078 $
