2024/09/24 15:53
KLAX 241553Z 24005KT 3SM BR OVC009 18/16 A2986 RMK AO2 SLP109 T01780156 $
