2023/04/21 01:53
KLAX 210153Z 24009KT 9SM FEW180 SCT300 18/08 A3008 RMK AO2 SLP186 T01780078 $
