2024/03/21 11:53
KLAX 211153Z 00000KT 6SM BR FEW008 OVC010 14/12 A3005 RMK AO2 SLP174 T01390117 10144 20133 55001 $
