2024/03/25 01:53
KLAX 250153Z 28010KT 10SM FEW100 FEW150 SCT200 SCT250 13/09 A2979 RMK AO2 RAB11E36 SLP088 P0000 T01330089 $
