2026/03/13 05:53
KLAX 130553Z 08003KT 10SM CLR 22/09 A3002 RMK AO2 SLP163 T02170094 10267 20194 53005 $
