2025/02/03 13:53
KLAX 031353Z 00000KT 1/16SM R25L/1200V1400FT FG VV001 11/11 A2997 RMK AO2 SLP148 T01110106 $
