2026/05/02 11:53
KLAX 021153Z 24005KT 8SM OVC007 15/13 A2994 RMK AO2 SLP136 T01500133 10150 20144 53001
