2025/03/21 05:53
KLAX 210553Z 33003KT 10SM FEW250 13/09 A3005 RMK AO2 SLP175 T01330094 10161 20133 51004 $
