2025/01/17 17:53
KLAX 171753Z 10005KT 10SM SCT025 SCT060 14/07 A3025 RMK AO2 SLP243 T01440067 10144 20072 53014
