2026/04/30 23:53
KLAX 302353Z 24013KT 10SM FEW010 FEW050 18/13 A2985 RMK AO2 SLP108 T01830133 10211 20183 56009
