2024/10/26 11:53
KLAX 261153Z 00000KT 1/4SM R25L/1000V1200FT FG VV001 14/14 A3002 RMK AO2 SLP162 T01390139 10161 20139 56004 $
