2024/02/16 01:53
KLAX 160153Z 25012KT 10SM BKN009 14/13 A3011 RMK AO2 SLP197 T01390128
