2024/06/15 13:53
KLAX 151353Z 00000KT 5SM BCFG SCT002 17/16 A2984 RMK AO2 SLP104 T01720156
