2026/07/06 07:53
KLAX 060753Z VRB03KT 10SM FEW011 18/16 A2993 RMK AO2 SLP133 T01830156 402390183
