2025/06/21 05:53
KLAX 210553Z 25005KT 10SM CLR 18/13 A2984 RMK AO2 SLP104 T01780133 10206 20178 53007
