2022/08/23 07:53
KLAX 230753Z 00000KT 8SM FEW004 BKN006 18/17 A2988 RMK AO2 SLP115 T01830167 402330178 $
