2026/06/24 10:53
KLAX 241053Z 27007KT 8SM BKN007 OVC010 17/15 A3001 RMK AO2 SLP158 T01670150 $
