2024/11/29 17:53
KLAX 291753Z 03007KT 10SM SCT160 SCT180 BKN250 19/M06 A3006 RMK AO2 SLP180 T01891056 10189 20144 51007 $
