2023/08/07 03:53
KLAX 070353Z 24005KT 6SM BR OVC006 18/17 A2997 RMK AO2 SLP146 T01830172 
