2025/05/17 03:53
KLAX 170353Z 22006KT 10SM BKN013 BKN150 15/12 A2994 RMK AO2 SLP138 T01500117
