2022/09/29 02:53
KLAX 290253Z 00000KT 10SM CLR 23/19 A2995 RMK AO2 SLP139 T02280189 53016
