2023/03/28 13:53
KLAX 281353Z 00000KT 10SM FEW150 FEW250 13/M02 A3006 RMK AO2 SLP179 T01281022 $
