2026/01/17 01:53
KLAX 170153Z 27008KT 10SM BKN280 17/10 A2996 RMK AO2 SLP145 T01720100
