2024/02/05 11:53
KLAX 051153Z 10010KT 2 1/2SM +RA BR FEW002 BKN004 OVC008 13/13 A2986 RMK AO2 SLP110 VIS W-N 2 P0036 60112 70270 T01330133 10139 20128 58008 $
