2023/03/20 16:00
KLAX 201600Z 26010KT 10SM SCT009 BKN013 OVC033 14/12 A2994 RMK AO2 T01390122
