2022/09/22 11:53
KLAX 221153Z 03003KT 10SM FEW011 18/14 A2993 RMK AO2 SLP131 T01780139 10211 20172 58002
