2022/09/27 17:53
KLAX 271753Z 25007KT 10SM FEW011 SCT140 SCT160 26/19 A2989 RMK AO2 SLP121 T02560194 10256 20200 51006
