2025/10/05 15:53
KLAX 051553Z 11004KT 10SM FEW011 19/14 A2984 RMK AO2 SLP102 T01890144 $
