2024/07/22 09:53
KLAX 220953Z 31005KT 10SM FEW010 19/14 A2986 RMK AO2 SLP109 T01940144 $
