2026/06/16 02:53
KLAX 160253Z 25012KT 10SM FEW011 18/15 A2997 RMK AO2 SLP148 T01830150 55000 $
