2026/04/06 05:53
KLAX 060553Z 15003KT 10SM SCT210 BKN280 18/14 A2997 RMK AO2 SLP147 T01780139 10228 20178 50005 $
