2023/12/01 05:53
KLAX 010553Z 05005KT 10SM FEW060 14/12 A2994 RMK AO2 SLP137 T01390122 10161 20133 51008
