2026/04/17 17:53
KLAX 171753Z 29003KT 10SM SCT017 SCT030 19/10 A3001 RMK AO2 SLP163 T01890100 10194 20133 51012
