2024/10/25 18:01
KLAX 251801Z 23004KT 4SM BR SCT004 16/13 A3003 RMK AO2 VIS SW-NW 1 1/2 T01610133 $
