2022/11/10 03:53
KLAX 100353Z 31006KT 10SM CLR 14/08 A3013 RMK AO2 SLP202 T01440083
