2026/06/12 00:53
KLAX 120053Z 26010KT 10SM FEW011 FEW250 21/17 A2984 RMK AO2 SLP103 T02110167
