2025/08/29 09:53
KLAX 290953Z 00000KT 10SM CLR 21/17 A2997 RMK AO2 SLP145 T02110167 $
