2022/12/25 17:53
KLAX 251753Z 05005KT 10SM BKN300 23/02 A3021 RMK AO2 SLP229 T02280022 10228 20122 51012 $
