2026/03/17 07:53
KLAX 170753Z 16003KT 10SM FEW250 17/14 A2993 RMK AO2 SLP133 T01720144 402170139 $
