2023/06/01 05:53
KLAX 010553Z 00000KT 10SM FEW011 FEW018 OVC032 17/12 A2991 RMK AO2 SLP127 T01670122 10167 20161 51003
