2023/07/04 19:53
KLAX 041953Z 24011KT 10SM FEW019 20/14 A2997 RMK AO2 SLP149 T02000139
