2026/06/09 08:53
KLAX 090853Z 21003KT 10SM FEW015 17/13 A2989 RMK AO2 SLP119 T01720128 58008 $
