2023/01/17 17:53
KLAX 171753Z VRB05KT 10SM FEW070 FEW140 13/02 A2994 RMK AO2 SLP138 T01280022 10128 20083 52022 $
