2024/12/08 17:53
KLAX 081753Z 12005KT 9SM FEW002 FEW220 BKN260 16/05 A3012 RMK AO2 SLP198 T01560050 10161 20094 51011
