2025/04/09 03:53
KLAX 090353Z 34003KT 10SM CLR 16/12 A3001 RMK AO2 SLP162 T01610117 $
