2025/05/09 09:53
KLAX 090953Z 22005KT 10SM CLR 15/14 A3002 RMK AO2 SLP164 T01500139 $
