2024/03/24 05:53
KLAX 240553Z 27018G28KT 10SM BKN100 13/07 A2980 RMK AO2 PK WND 27035/0531 SLP090 T01280067 10161 20128 58006 $
