2023/08/31 23:53
KLAX 312353Z 25006KT 10SM FEW010 FEW110 SCT150 23/18 A2979 RMK AO2 SLP087 T02280183 10244 20228 56014 $
