2025/07/03 15:53
KLAX 031553Z 18005KT 9SM SCT020 20/13 A2993 RMK AO2 SLP132 T02000128 $
