2026/06/15 00:53
KLAX 150053Z 25015KT 10SM FEW011 FEW100 20/15 A2994 RMK AO2 SLP138 T02000150 $
