2025/11/10 13:53
KLAX 101353Z 00000KT 1/8SM R25L/1200V5500FT FG VV001 14/14 A3011 RMK AO2 SLP196 T01440144 $
