2025/03/21 19:53
KLAX 211953Z 26011KT 9SM FEW022 FEW160 SCT220 19/08 A3004 RMK AO2 SLP173 T01890078 $
