2023/12/01 11:53
KLAX 011153Z 30010G19KT 10SM FEW150 14/04 A2995 RMK AO2 SLP142 T01440039 10156 20128 55000
