2023/06/25 09:53
KLAX 250953Z 20004KT 10SM FEW012 15/13 A3004 RMK AO2 SLP172 T01500133
