2024/03/16 21:53
KLAX 162153Z 23015KT 10SM SCT016 SCT040 BKN150 18/11 A3001 RMK AO2 SLP162 T01780106 $
