2025/01/31 07:53
KLAX 310753Z 00000KT 10SM FEW250 12/07 A3026 RMK AO2 SLP244 T01170067 401390100 $
