2023/04/13 07:53
KLAX 130753Z 26004KT 6SM BR FEW006 SCT008 OVC014 12/11 A2981 RMK AO2 SLP091 T01220106 401560122 $
