2022/10/11 21:53
KLAX 112153Z 23010KT 10SM FEW025 FEW060 SCT150 23/17 A2997 RMK AO2 LTG DSNT NE SLP146 CB DSNT NE T02280167
