2023/09/11 19:53
KLAX 111953Z 22012G18KT 9SM FEW095 SCT190 BKN230 BKN280 27/19 A2992 RMK AO2 SLP131 T02720189
