2026/02/12 19:53
KLAX 121953Z 24009KT 10SM SCT080 SCT180 BKN250 18/09 A3013 RMK AO2 SLP204 T01780094
