2022/09/25 17:53
KLAX 251753Z 23007KT 10SM FEW100 FEW180 25/18 A3001 RMK AO2 SLP160 T02500178 10250 20200 50003
