2024/12/25 00:15
KLAX 250015Z 24005KT 10SM SCT009 BKN011 15/12 A3002 RMK AO2 T01500122 $
