2026/01/02 05:53
KLAX 020553Z VRB03KT 10SM FEW010 FEW050 15/14 A3010 RMK AO2 SLP190 T01500139 10167 20139 53005 $
