2024/02/17 21:53
KLAX 172153Z 25009KT 7SM SCT014 BKN022 16/11 A3006 RMK AO2 SLP177 T01560111
