2025/11/04 17:53
KLAX 041753Z 11003KT 2 1/2SM BR OVC009 17/13 A3013 RMK AO2 SLP201 T01670133 10167 20156 50010 $
