2025/03/11 11:53
KLAX 111153Z 08005KT 10SM FEW050 BKN070 BKN100 OVC160 12/07 A2981 RMK AO2 RAE27 SLP092 P0001 60003 70003 T01220072 10133 20111 58022
