2023/04/28 05:53
KLAX 280553Z 26006KT 1/4SM R25L/P6000FT FG VV002 12/12 A2996 RMK AO2 SLP145 T01220117 10144 20122 51014 $
