2024/07/12 21:53
KLAX 122153Z 25013KT 8SM BKN008 OVC020 20/17 A2989 RMK AO2 SLP119 T02000167 $
