2024/01/05 03:53
KLAX 050353Z 33006KT 10SM CLR 14/M01 A3014 RMK AO2 SLP205 T01441006
