2026/07/20 18:53
KLAX 201853Z 25011G19KT 10SM FEW009 SCT025 BKN120 BKN180 26/18 A2994 RMK AO2 SLP137 T02610183 $
