2024/11/13 19:53
KLAX 131953Z 26011KT 10SM FEW025 FEW100 22/04 A3008 RMK AO2 SLP185 T02170044
