2024/11/11 19:53
KLAX 111953Z 26008KT 6SM HZ FEW009 SCT160 BKN180 BKN250 17/12 A3004 RMK AO2 SLP171 T01720122
