2024/01/04 21:53
KLAX 042153Z 34009G14KT 10SM FEW060 FEW090 SCT160 18/02 A3011 RMK AO2 SLP195 T01780022
