2025/04/04 15:53
KLAX 041553Z 31004KT 10SM CLR 13/07 A3008 RMK AO2 SLP186 T01330072
