2026/06/12 03:04
KLAX 120304Z 28006KT 10SM SCT009 SCT250 19/17 A2985 RMK AO2 T01940167
