2026/06/11 10:53
KLAX 111053Z 09006KT 10SM OVC011 18/16 A2983 RMK AO2 SLP097 T01830156
