2023/05/11 07:53
KLAX 110753Z 09004KT 10SM FEW025 FEW060 13/10 A3002 RMK AO2 SLP164 T01330100 401890117
