2026/02/14 05:53
KLAX 140553Z 12005KT 10SM CLR 14/09 A3007 RMK AO2 SLP181 T01440089 10183 20144 51018
