2023/02/08 15:53
KLAX 081553Z 00000KT 10SM FEW200 12/03 A3025 RMK AO2 SLP244 T01220028
