2026/06/26 19:53
KLAX 261953Z 24014KT 10SM FEW011 FEW040 SCT065 21/13 A2997 RMK AO2 SLP146 T02110128
