2024/05/15 11:53
KLAX 151153Z 25004KT 10SM SCT013 OVC022 14/12 A2992 RMK AO2 SLP130 T01440117 10150 20144 58001 $
