2025/06/11 17:53
KLAX 111753Z 24005KT 5SM HZ FEW005 OVC014 19/15 A2994 RMK AO2 SLP137 T01890150 10189 20167 50003 $
