2022/11/08 13:53
KLAX 081353Z 08008KT 2 1/2SM +RA BR SCT006 BKN011 OVC025 14/14 A2983 RMK AO2 SLP100 VIS E 1 3/4 VIS W 1 1/4 P0023 T01390139
