2023/12/20 05:53
KLAX 200553Z 11005KT 5SM BR FEW020 BKN031 BKN055 15/15 A2990 RMK AO2 SLP124 60009 T01500150 10167 20150 53006
