2023/01/27 03:53
KLAX 270353Z 23005KT 10SM CLR 16/00 A3029 RMK AO2 SLP255 T01610000 $
