2022/11/23 23:53
KLAX 232353Z 24006KT 10SM FEW250 17/12 A3003 RMK AO2 SLP170 T01720122 10211 20172 55003
