2022/11/01 19:53
KLAX 011953Z 23008KT 9SM BKN019 BKN027 BKN150 19/14 A2991 RMK AO2 SLP127 T01940144 VISNO RWY24 $
