2023/06/22 15:53
KLAX 221553Z 19005KT 10SM FEW009 SCT016 OVC022 17/12 A2998 RMK AO2 SLP152 T01670122
