2024/10/14 04:53
KLAX 140453Z 26006KT 10SM SCT010 BKN014 17/14 A3004 RMK AO2 SLP172 T01670144 $
