2022/10/18 17:53
KLAX 181753Z 18003KT 10SM FEW100 FEW140 26/16 A3001 RMK AO2 SLP160 T02560161 10256 20178 50002
