2025/01/17 05:53
KLAX 170553Z 14003KT 10SM FEW015 12/07 A3018 RMK AO2 SLP219 T01220072 10150 20122 51015 $
