2023/08/13 11:53
KLAX 131153Z 00000KT 8SM BKN011 19/18 A2995 RMK AO2 SLP139 T01940178 10200 20194 58002 $
