2024/01/22 21:53
KLAX 222153Z 02006KT 6SM BR SCT008 OVC020 14/12 A2972 RMK AO2 RAB18E53 SLP063 P0000 T01440122
