2023/10/16 17:53
KLAX 161753Z VRB03KT 10SM SCT005 23/16 A3002 RMK AO2 SLP163 T02330161 10233 20150 51006
