2022/09/25 21:53
KLAX 252153Z 27018KT 10SM FEW110 25/15 A2994 RMK AO2 SLP137 T02500150
