2022/08/28 17:53
KLAX 281753Z 26009KT 10SM FEW026 23/17 A2989 RMK AO2 SLP118 T02330167 10239 20200 51005 $
