2022/09/02 21:53
KLAX 022153Z 24010KT 10SM FEW120 FEW200 28/19 A2977 RMK AO2 SLP078 T02780189
