2024/10/27 03:53
KLAX 270353Z 22003KT 9SM FEW006 SCT250 17/15 A3004 RMK AO2 SLP169 T01670150 $
