2022/11/16 05:53
KLAX 160553Z 07003KT 10SM CLR 15/06 A3017 RMK AO2 SLP214 T01500056 10172 20139 51015
