2024/05/21 13:53
KLAX 211353Z 26007KT 10SM FEW008 FEW015 SCT035 14/11 A2995 RMK AO2 SLP141 T01390106 $
