2022/08/21 18:53
KLAX 211853Z VRB04KT 10SM OVC021 24/18 A3006 RMK AO2 SLP177 T02390178
