2023/03/20 03:53
KLAX 200353Z 09005KT 2SM -RA BR OVC005 12/12 A2996 RMK AO2 RAE0259B42DZB39E42 SLP142 P0001 T01220117
