2024/01/02 15:53
KLAX 021553Z 07004KT 10SM FEW160 SCT220 11/05 A3023 RMK AO2 SLP235 T01060050 $
