2024/01/08 23:53
KLAX 082353Z 23010KT 10SM FEW250 14/M01 A3023 RMK AO2 SLP238 T01391011 10150 20128 53003
