2023/03/20 09:53
KLAX 200953Z VRB04KT 3SM BR SCT005 BKN009 OVC011 13/12 A2993 RMK AO2 SLP135 T01280117
