2026/04/20 17:53
KLAX 201753Z 26008KT 10SM FEW020 SCT150 21/12 A3002 RMK AO2 SLP163 T02060122 10206 20133 51006
