2025/05/05 01:53
KLAX 050153Z 27006KT 10SM BKN022 OVC027 14/11 A2975 RMK AO2 SLP073 T01440106
