2025/03/30 11:53
KLAX 301153Z 28008KT 10SM FEW010 BKN075 13/09 A3002 RMK AO2 SLP165 T01280094 10133 20128 55003 $
