2024/09/02 21:53
KLAX 022153Z 26011KT 6SM HZ FEW009 FEW080 23/18 A2988 RMK AO2 SLP116 T02330183 $
