2024/12/29 23:53
KLAX 292353Z 27007KT 10SM FEW011 14/11 A3009 RMK AO2 SLP189 T01390111 10144 20117 56006
