2024/02/11 17:53
KLAX 111753Z VRB04KT 10SM CLR 15/M01 A3022 RMK AO2 SLP234 T01501011 10150 20067 51011 $
