2023/01/24 19:53
KLAX 241953Z 00000KT 10SM CLR 17/00 A3030 RMK AO2 SLP261 T01720000 $
