2024/03/02 15:53
KLAX 021553Z 23009KT 10SM SCT015 SCT019 BKN028 14/12 A3002 RMK AO2 SLP163 T01440117 $
