2026/01/08 21:53
KLAX 082153Z 31017G26KT 10SM FEW006 FEW050 SCT070 17/00 A3001 RMK AO2 PK WND 29032/2140 SLP160 T01670000 $
