2023/11/12 17:53
KLAX 121753Z 10006KT 10SM CLR 24/M04 A3004 RMK AO2 SLP171 T02441044 10244 20128 51009
