2025/11/07 01:53
KLAX 070153Z 26006KT 10SM FEW008 17/14 A3002 RMK AO2 SLP167 T01670144 $
