2023/05/11 01:53
KLAX 110153Z 24009KT 10SM FEW020 FEW050 16/11 A3003 RMK AO2 SLP167 T01560111
