2023/04/09 11:53
KLAX 091153Z 05003KT 2SM BR OVC002 12/11 A3008 RMK AO2 SLP186 T01170111 10133 20111 56005
