2026/05/14 04:53
KLAX 140453Z 25006KT 10SM CLR 16/12 A3003 RMK AO2 SLP167 T01610117
