2023/12/30 13:53
KLAX 301353Z 15006KT 8SM -RA FEW019 SCT050 OVC070 13/13 A3006 RMK AO2 SLP178 P0042 T01280128 $
