2026/06/09 10:53
KLAX 091053Z 00000KT 10SM FEW015 17/13 A2988 RMK AO2 SLP115 T01670133 $
