2025/05/17 01:53
KLAX 170153Z 26010KT 10SM BKN013 BKN200 16/12 A2992 RMK AO2 SLP131 T01560117
