2023/08/05 03:53
KLAX 050353Z 23006KT 10SM 19/17 A2987 RMK SLP113 T01940172 
