2024/09/29 11:53
KLAX 291153Z 00000KT 6SM BR OVC008 16/13 A2990 RMK AO2 SLP124 T01560133 10161 20150 55004 $
