2024/10/09 15:53
KLAX 091553Z 19003KT 1SM R25L/P6000FT BR OVC009 18/16 A2997 RMK AO2 SLP147 VIS 1/4V1 VIS W-N 1/2 T01780156 $
