2025/01/19 07:53
KLAX 190753Z 00000KT 10SM CLR 11/06 A3025 RMK AO2 SLP241 T01110061 401670089
