2022/08/22 03:53
KLAX 220353Z 24010KT 10SM SCT010 21/18 A3000 RMK AO2 SLP155 T02060178 $
