2025/09/07 09:53
KLAX 070953Z 00000KT 10SM CLR 20/17 A3000 RMK AO2 SLP156 T02000172 $
