2025/04/20 05:53
KLAX 200553Z 23006KT 10SM CLR 14/12 A3009 RMK AO2 SLP188 T01390117 10172 20139 51004 $
