2024/06/11 19:53
KLAX 111953Z 25007KT 8SM OVC008 17/14 A2993 RMK AO2 SLP135 T01720139
