2025/01/19 11:53
KLAX 191153Z 07003KT 6SM BR FEW010 09/07 A3023 RMK AO2 SLP235 T00890067 10122 20083 58006 $
