2022/11/03 09:53
KLAX 030953Z 28018KT 10SM FEW045 FEW120 13/06 A2999 RMK AO2 PK WND 27027/0907 SLP153 T01330061 VISNO RWY24 $
