2023/04/17 03:53
KLAX 170353Z 24006KT 10SM SCT012 13/11 A3001 RMK AO2 SLP162 T01280106
