2026/06/29 06:53
KLAX 290653Z 24006KT 10SM FEW015 17/14 A2986 RMK AO2 SLP110 T01720139
