2026/06/23 04:53
KLAX 230453Z 26010KT 10SM FEW010 18/15 A2998 RMK AO2 SLP149 T01780150 $
