2022/12/22 23:53
KLAX 222353Z 27006KT 10SM FEW150 SCT200 SCT250 16/12 A3004 RMK AO2 SLP171 T01610122 10206 20161 56007
