2026/01/25 01:53
KLAX 250153Z 25006KT 10SM FEW036 14/09 A2994 RMK AO2 SLP136 T01440094 $
