2026/02/07 05:53
KLAX 070553Z 25006KT 10SM FEW011 FEW140 SCT270 16/12 A3016 RMK AO2 SLP213 T01560122 10183 20156 51009 $
