2026/01/02 09:53
KLAX 020953Z 00000KT 10SM FEW002 FEW010 BKN045 BKN200 13/12 A3008 RMK AO2 SLP184 T01280117 $
