2023/06/01 11:53
KLAX 011153Z 25003KT 10SM FEW011 BKN020 OVC038 16/12 A2989 RMK AO2 SLP119 T01610117 10167 20156 56005
