2025/12/14 07:53
KLAX 140753Z 00000KT 10SM BKN009 15/13 A3005 RMK AO2 SLP176 T01500133 401610133 $
