2022/12/12 11:53
KLAX 121153Z 07007KT 7SM FEW009 BKN035 BKN055 08/06 A2987 RMK AO2 RAE53 SLP114 P0005 60008 70060 T00830061 10122 20078 58012 $
