2025/03/13 17:53
KLAX 131753Z 24016G22KT 10SM FEW031 SCT040 SCT080 12/08 A2992 RMK AO2 RAB1659E10 SLP130 T01220078 10128 20094 51014
