2023/09/23 23:53
KLAX 232353Z 27012KT 10SM FEW011 FEW180 21/16 A2997 RMK AO2 SLP147 T02060156 10222 20200 56011 $
