2024/08/28 05:53
KLAX 280553Z 27006KT 10SM BKN010 18/16 A2997 RMK AO2 SLP146 T01830161 10222 20178 51011
