2024/01/29 05:53
KLAX 290553Z 11004KT 10SM BKN250 18/04 A3013 RMK AO2 SLP200 T01830039 10222 20172 53006 $
