2024/03/18 19:53
KLAX 181953Z 26010KT 10SM FEW045 SCT080 BKN110 19/12 A3002 RMK AO2 SLP166 T01890117
