2026/06/07 21:53
KLAX 072153Z 26015KT 10SM FEW011 21/13 A2983 RMK AO2 SLP099 T02110128 $
