2025/02/07 19:53
KLAX 071953Z 27012KT 10SM BKN016 BKN028 BKN220 15/11 A3015 RMK AO2 SLPNO T01500111
