2024/10/14 09:53
KLAX 140953Z 09005KT 9SM OVC011 17/14 A3003 RMK AO2 SLPNO T01670144 $
