2024/09/15 09:53
KLAX 150953Z 28005KT 10SM SCT014 OVC026 18/15 A2988 RMK AO2 SLP116 T01830150
