2024/05/15 09:53
KLAX 150953Z 24004KT 10SM FEW009 OVC014 14/12 A2992 RMK AO2 SLP130 T01440117 $
