2025/10/30 09:53
KLAX 300953Z 11006KT 10SM CLR 17/09 A2993 RMK AO2 SLP131 T01720094 $
