2025/03/06 13:53
KLAX 061353Z 26018KT 10SM SCT018 BKN050 BKN090 BKN160 10/07 A2988 RMK AO2 PK WND 28030/1255 SLP116 T01000067
