2024/05/24 11:53
KLAX 241153Z 25007KT 9SM FEW008 OVC029 14/12 A2991 RMK SLP128 T01440122 10150 20144 56003 
