2024/01/13 05:53
KLAX 130553Z 27006KT 10SM FEW250 11/04 A3011 RMK AO2 SLP196 T01110044 10139 20106 58002 $
