2025/04/22 23:53
KLAX 222353Z 24011KT 10SM FEW018 FEW250 16/10 A2994 RMK AO2 SLP136 T01560100 10178 20156 56009
