2023/06/29 13:53
KLAX 291353Z 11005KT 9SM FEW008 OVC014 17/13 A2993 RMK AO2 SLP134 T01670133
