2025/05/22 03:53
KLAX 220353Z 24006KT 10SM CLR 18/13 A2990 RMK AO2 SLP123 T01830133 $
