2026/03/14 15:53
KLAX 141553Z 09005KT 9SM FEW200 SCT280 18/14 A2993 RMK AO2 SLP134 ACSL DSNT NE T01830139
