2026/05/09 13:53
KLAX 091353Z 13004KT 5SM BR OVC009 16/14 A2994 RMK AO2 SLP135 T01610139
