2023/05/30 23:53
KLAX 302353Z 25013KT 10SM FEW016 SCT055 18/12 A2995 RMK AO2 SLP140 T01830117 10189 20172 58009 $
