2025/10/17 03:53
KLAX 170353Z 22003KT 10SM CLR 18/13 A2988 RMK AO2 SLP118 T01780133 $
