2025/07/08 19:53
KLAX 081953Z 25012KT 10SM FEW009 FEW180 SCT260 22/14 A3008 RMK AO2 SLP186 CSSL DISNT NE T02170144 $
