2024/12/17 01:53
KLAX 170153Z 24006KT 10SM FEW150 FEW250 15/07 A3010 RMK AO2 SLP192 T01500072 $
