2025/03/02 03:53
KLAX 020353Z 18006KT 10SM BKN038 BKN200 14/11 A3004 RMK AO2 SLP170 T01390106 $
