2024/07/06 19:53
KLAX 061953Z VRB05KT 10SM BKN013 23/18 A2988 RMK AO2 SLP116 T02330183
