2023/05/12 19:53
KLAX 121953Z 26011KT 10SM FEW015 FEW026 19/12 A2997 RMK AO2 SLP148 T01890122
