2024/09/15 15:59
KLAX 151559Z VRB04KT 8SM SCT016 OVC031 19/16 A2991 RMK AO2 CIG 025 RWY24 T01940156
