2026/03/01 05:53
KLAX 010553Z 15003KT 10SM CLR 18/13 A2993 RMK AO2 SLP131 T01830133 10239 20178 53010
