2025/10/18 07:53
KLAX 180753Z 08004KT 10SM CLR 17/13 A2994 RMK AO2 SLP135 T01720133 402440139
