2025/04/03 13:53
KLAX 031353Z 07005KT 10SM FEW025 FEW070 SCT160 09/07 A2990 RMK AO2 SLP125 T00940072
