2023/01/15 05:53
KLAX 150553Z 24015KT 6SM -RA BR SCT008 OVC015 14/13 A2982 RMK AO2 RAB50 SLP097 VIS W 2 1/2 P0000 60029 T01440133 10150 20117 53001 $
