2025/08/30 20:53
KLAX 302053Z 24012KT 10SM FEW100 27/13 A2991 RMK AO2 SLP127 T02670133 56013 $
