2026/02/03 05:53
KLAX 030553Z 33003KT 8SM FEW007 15/14 A3016 RMK AO2 SLP210 T01500139 10183 20139 51012 $
