2022/11/10 21:53
KLAX 102153Z 23009KT 10SM CLR 18/06 A3007 RMK AO2 SLP183 T01830056
