2023/05/26 11:53
KLAX 261153Z 27008KT 10SM FEW015 FEW025 SCT035 14/10 A2993 RMK AO2 SLP133 70001 T01440100 10156 20144 58004 $
