2023/02/24 01:53
KLAX 240153Z VRB05KT 10SM FEW030 FEW060 09/04 A3001 RMK AO2 RAB0055E26 SLP161 P0000 T00890044
