2025/07/21 23:53
KLAX 212353Z 25011G19KT 10SM FEW014 FEW029 22/16 A2993 RMK AO2 SLP133 T02170161 10222 20206 56016 $
