2023/10/14 15:53
KLAX 141553Z 00000KT 7SM FEW012 18/16 A3005 RMK AO2 SLP173 T01830161
