2026/04/25 15:53
KLAX 251553Z 24008KT 10SM FEW020 SCT025 BKN030 BKN200 17/10 A2992 RMK AO2 SLP131 T01670100
