2025/06/23 17:53
KLAX 231753Z VRB05KT 9SM BKN030 BKN070 23/13 A2994 RMK AO2 SLP138 T02280128 10233 20178 51002
