2024/06/01 13:53
KLAX 011353Z 26004KT 7SM SCT010 OVC015 14/13 A2994 RMK AO2 SLP136 T01440128
