2024/12/30 15:53
KLAX 301553Z 35005KT 3SM BR OVC012 12/10 A3008 RMK AO2 SLP184 T01220100
