2025/03/29 11:53
KLAX 291153Z 08005KT 10SM FEW150 11/09 A2993 RMK AO2 SLP135 T01110094 10139 20111 56006 $
