2023/06/26 09:53
KLAX 260953Z 13005KT 10SM FEW008 15/13 A2996 RMK AO2 SLP144 T01500133
