2025/07/23 02:03
KLAX 230203Z 27014KT 10SM BKN011 19/16 A2996 RMK AO2 T01940161 $
