2023/10/07 03:53
KLAX 070353Z 22004KT 10SM CLR 22/15 A2984 RMK AO2 SLP104 T02170150
