2026/01/23 09:53
KLAX 230953Z 00000KT 10SM FEW014 BKN090 OVC180 14/13 A2994 RMK AO2 SLP137 T01440128 $
