2025/03/15 09:53
KLAX 150953Z 23003KT 10SM FEW015 09/06 A3000 RMK AO2 SLP159 T00890061 $
