2022/09/20 05:53
KLAX 200553Z 27011KT 10SM FEW016 21/17 A2988 RMK AO2 SLP117 T02110172 10239 20211 51013 $
