2022/12/25 21:53
KLAX 252153Z 26010KT 10SM SCT280 23/05 A3013 RMK AO2 SLP201 T02280050 $
