2024/07/27 05:53
KLAX 270553Z 25004KT 10SM CLR 18/15 A2987 RMK AO2 SLP114 T01830150 10217 20178 53010
