2025/12/05 03:53
KLAX 050353Z 35003KT 10SM FEW150 BKN250 17/00 A3012 RMK AO2 SLP200 T01720000 $
