2026/07/14 13:33
KLAX 141333Z 25006KT 8SM BKN007 BKN180 19/18 A2998 RMK AO2 BKN V SCT T01940178 $
