2024/04/09 05:53
KLAX 090553Z 24003KT 10SM CLR 16/08 A3000 RMK AO2 SLP158 T01560083 10194 20144 51019 $
