2024/11/07 15:53
KLAX 071553Z 27006KT 10SM FEW065 FEW160 17/M02 A3012 RMK AO2 SLP199 FU FEW065 T01671022
