2023/09/03 09:53
KLAX 030953Z 27003KT 10SM BKN038 22/17 A3002 RMK AO2 SLP163 T02170167 $
