2025/11/15 07:53
KLAX 150753Z 08006KT 8SM -RA BKN007 BKN012 OVC085 17/17 A2992 RMK AO2 SLP131 P0002 T01720167 401830156 $
