2025/12/07 05:53
KLAX 070553Z 13003KT 8SM CLR 15/12 A3008 RMK AO2 SLP183 T01500122 10178 20144 51009 $
