2025/06/08 03:53
KLAX 080353Z 26011KT 10SM BKN011 17/13 A2999 RMK AO2 SLP153 T01670133
