2024/03/28 09:53
KLAX 280953Z 00000KT 10SM FEW007 FEW015 SCT250 12/10 A3011 RMK AO2 SLP194 T01170100 $
