2024/03/14 05:53
KLAX 140553Z 34007KT 10SM FEW200 FEW250 16/03 A2989 RMK AO2 PK WND 33027/0458 SLP119 T01610028 58004 $
