2026/04/24 05:53
KLAX 240553Z 21003KT 10SM FEW250 17/13 A2993 RMK AO2 SLP132 T01670128 10206 20161 50010 $
