2024/02/23 07:53
KLAX 230753Z 10006KT 10SM FEW250 13/12 A3016 RMK AO2 SLP210 T01280122 401720106
