2025/12/01 03:53
KLAX 010353Z 31004KT 10SM FEW020 SCT250 15/11 A2998 RMK AO2 SLP152 T01500111 $
