2023/10/28 11:53
KLAX 281153Z 08003KT 9SM CLR 13/12 A2997 RMK AO2 SLP147 T01330117 10172 20133 56004
