2024/07/28 15:53
KLAX 281553Z 23006KT 9SM CLR 21/16 A2993 RMK AO2 SLP133 T02060156
