2026/03/26 07:53
KLAX 260753Z 11006KT 8SM FEW005 BKN007 16/14 A2995 RMK AO2 SLP142 T01560139 402000150 $
