2024/10/28 19:53
KLAX 281953Z 25011KT 9SM BKN022 BKN150 18/14 A2993 RMK AO2 SLP132 T01830139
