2023/07/14 07:53
KLAX 140753Z 25005KT 10SM FEW005 FEW009 18/15 A2991 RMK AO2 SLP126 T01780150 402440172 $
