2022/09/21 11:53
KLAX 211153Z 00000KT 10SM FEW020 19/12 A2992 RMK AO2 SLP128 T01890122 10211 20178 55002 $
