2022/11/14 01:53
KLAX 140153Z 26016KT 10SM CLR 16/09 A3000 RMK AO2 SLP158 T01560094 $
