2026/05/16 02:53
KLAX 160253Z 25009KT 10SM SCT012 SCT060 17/14 A2993 RMK AO2 SLP133 T01670139 55004
