2024/07/10 15:53
KLAX 101553Z VRB04KT 5SM HZ FEW003 SCT010 20/17 A2987 RMK AO2 SLP113 VIS SW-W 2 1/2 T02000172
