2026/05/03 05:53
KLAX 030553Z 25008KT 10SM OVC010 16/13 A2991 RMK AO2 SLP128 T01560128 10178 20150 50018
