2023/01/30 05:53
KLAX 300553Z 12007KT 10SM SCT029 BKN060 BKN090 10/08 A2990 RMK AO2 RAB01E15 SLP125 SHRA N P0000 60002 T01000078 10128 20100 53002 $
