2022/11/20 09:53
KLAX 200953Z 04008KT 10SM CLR 14/M09 A3013 RMK AO2 SLP199 T01391094 $
