2025/03/05 13:53
KLAX 051353Z 09004KT 10SM FEW008 BKN011 BKN160 11/10 A3003 RMK AO2 SLP167 T01110100 $
