2022/08/31 03:53
KLAX 310353Z VRB03KT 10SM CLR 23/14 A2987 RMK AO2 SLP114 T02280139
