2024/04/06 17:53
KLAX 061753Z 03004KT 10SM FEW045 15/03 A3028 RMK AO2 SLP252 T01500033 10150 20061 51014 $
