2023/08/04 11:53
KLAX 041153Z 08004KT 10SM FEW011 FEW015 17/16 A2993 RMK SLP132 T01720156 10194 20172 58006 
