2025/11/19 03:53
KLAX 190353Z 33003KT 10SM FEW020 FEW080 SCT250 14/08 A2999 RMK AO2 SLP156 T01390083
