2025/11/12 17:53
KLAX 121753Z 25004KT 4SM BR FEW007 SCT010 OVC160 18/15 A3009 RMK AO2 SLP188 T01780150 10178 20150 51010 $
