2024/10/09 19:53
KLAX 091953Z 25009KT 6SM HZ FEW006 SCT010 21/16 A2995 RMK AO2 SLP140 T02060156 $
