2025/07/13 05:53
KLAX 130553Z 25007KT 10SM OVC009 18/16 A2999 RMK AO2 SLP155 T01830156 10217 20183 51009
