2025/04/30 17:53
KLAX 301753Z 26006KT 8SM SCT014 OVC019 16/12 A3004 RMK AO2 SLP172 T01560122 10161 20139 52003
