2023/01/15 07:53
KLAX 150753Z 26017KT 7SM FEW020 OVC250 14/12 A2981 RMK AO2 SLP095 T01390122 401500111 $
