2025/09/09 07:53
KLAX 090753Z 08004KT 10SM FEW012 19/17 A2996 RMK AO2 SLP141 T01940172 402440194 $
