2022/11/18 15:53
KLAX 181553Z 08003KT 10SM FEW090 SCT160 SCT250 14/00 A3000 RMK AO2 SLP158 T01390000
