2024/06/07 18:26
KLAX 071826Z 25005KT 8SM FEW007 OVC015 18/15 A2993 RMK AO2 T01830150 $
