2024/09/03 15:53
KLAX 031553Z 00000KT 3SM BR OVC008 21/18 A2994 RMK AO2 SLP135 VIS 2V4 T02060183 $
