2023/02/18 21:53
KLAX 182153Z 24011KT 10SM SCT120 BKN170 BKN250 19/M04 A2999 RMK AO2 SLP156 T01941039 $
