2025/05/01 09:53
KLAX 010953Z 23005KT 10SM OVC018 14/12 A2996 RMK AO2 SLP145 T01440117
