2025/12/17 19:53
KLAX 171953Z 31003KT 2 1/2SM BR FEW004 BKN011 BKN140 17/13 A3005 RMK AO2 SLP175 VIS 2V3 VIS S-W 1 1/2 BKN011 V SCT T01670133 $
