2023/10/08 21:53
KLAX 082153Z 24011KT 10SM FEW006 FEW100 SCT250 21/17 A2984 RMK AO2 SLP104 T02060167
