2023/05/31 09:53
KLAX 310953Z 26007KT 10SM FEW012 FEW018 OVC034 15/12 A2992 RMK AO2 SLP128 T01500117 $
