2023/09/25 11:53
KLAX 251153Z 00000KT 9SM FEW011 16/14 A3001 RMK AO2 SLP158 T01560144 10183 20156 57002 $
