2025/08/06 15:53
KLAX 061553Z VRB03KT 8SM FEW009 FEW018 BKN180 BKN250 23/17 A3001 RMK AO2 SLP162 T02280167
