2026/03/30 14:26
KLAX 301426Z 08005KT 1 3/4SM BCFG BR OVC005 14/14 A2997 RMK AO2 VIS 1V2 T01390139 $
