2023/04/16 07:53
KLAX 160753Z 25003KT 10SM CLR 13/09 A3012 RMK AO2 SLP199 T01280094 401780094
