2022/10/16 11:53
KLAX 161153Z 25005KT 10SM FEW015 FEW030 18/16 A2996 RMK AO2 SLP142 70003 T01830161 10200 20178 53006 $
