2025/08/17 03:53
KLAX 170353Z 24008KT 10SM BKN013 20/16 A2999 RMK AO2 SLP155 T02000161 $
