2023/09/10 09:53
KLAX 100953Z 13006KT 10SM BKN170 23/17 A2990 RMK AO2 SLP122 T02280167
