2023/07/30 03:53
KLAX 300353Z 23005KT 10SM FEW170 FEW280 21/17 A2989 RMK AO2 SLP118 T02110172 $
