2022/09/13 05:53
KLAX 130553Z 24008KT 10SM FEW016 FEW050 SCT150 22/19 A2989 RMK AO2 SLP120 T02220194 10261 20222 50002 $
