2023/06/06 07:53
KLAX 060753Z VRB03KT 10SM FEW020 FEW030 OVC044 16/11 A2991 RMK AO2 SLP127 T01560106 401890144
