2026/05/17 07:53
KLAX 170753Z VRB04KT 10SM CLR 17/13 A2984 RMK AO2 SLP103 T01670128 402110161
