2024/01/27 17:53
KLAX 271753Z 07005KT 10SM SCT220 20/04 A3020 RMK AO2 SLP227 T02000039 10200 20117 50002 $
