2023/09/03 23:53
KLAX 032353Z 26016KT 10SM FEW019 FEW065 22/16 A2997 RMK AO2 SLP146 T02220156 10250 20222 56015 $
