2023/04/23 09:53
KLAX 230953Z 00000KT 9SM CLR 15/12 A2978 RMK AO2 SLP080 T01500122
