2024/07/24 21:53
KLAX 242153Z 26010KT 10SM FEW100 23/17 A3003 RMK AO2 SLP165 CB DSNT NE T02280167 $
