2023/12/17 13:53
KLAX 171353Z 03008KT 10SM SCT250 16/M04 A3000 RMK AO2 SLP156 T01611039 $
