2024/03/03 09:53
KLAX 030953Z 24004KT 10SM BKN035 OVC065 12/10 A3005 RMK AO2 RAE02 SLP173 P0001 T01170100 $
