2025/06/27 15:53
KLAX 271553Z 00000KT 5SM HZ FEW008 BKN015 19/16 A2995 RMK AO2 SLP140 T01940156 $
