2025/08/20 02:53
KLAX 200253Z 24009KT 10SM CLR 21/17 A2997 RMK AO2 SLP146 T02060172 55002
