2026/01/03 01:53
KLAX 030153Z 13006KT 6SM -DZ BR FEW006 OVC014 17/16 A3005 RMK AO2 DZB52 SLP174 P0000 T01720161
