2025/04/13 07:53
KLAX 130753Z 31004KT 8SM FEW009 14/11 A2996 RMK AO2 SLP142 T01390106 401890133 $
