2025/07/24 03:53
KLAX 240353Z 24011KT 10SM FEW011 FEW250 18/15 A3004 RMK AO2 SLP170 T01830150 $
