2022/11/03 21:53
KLAX 032153Z 27020KT 10SM FEW100 FEW250 17/04 A3005 RMK AO2 SLP177 T01720039 VISNO RWY24 $
