2025/08/25 17:53
KLAX 251753Z 25007KT 10SM FEW027 FEW180 SCT250 24/18 A2991 RMK AO2 SLP125 T02390183 10239 20194 51008 $
