2025/04/02 01:53
KLAX 020153Z 27024G34KT 10SM FEW080 BKN150 BKN200 13/08 A2985 RMK AO2 PK WND 26037/0101 SLP107 T01280083
