2025/07/21 16:53
KLAX 211653Z 16005KT 7SM FEW009 OVC019 19/16 A3000 RMK AO2 SLP157 T01940156 $
