2025/04/09 19:53
KLAX 091953Z 25011KT 10SM CLR 21/12 A3008 RMK AO2 SLP184 T02060122 $
