2026/05/20 16:53
KLAX 201653Z 00000KT 9SM CLR 24/11 A2991 RMK AO2 SLP128 T02440106
