2023/01/25 03:53
KLAX 250353Z 24007KT 10SM CLR 13/09 A3026 RMK AO2 SLP247 T01330094 $
