2025/01/01 13:53
KLAX 011353Z 00000KT 1/4SM R25L/6000VP6000FT FG VV002 09/09 A3007 RMK AO2 SLP182 VIS E-SE 1/8 T00940089 $
