2023/10/12 19:53
KLAX 121953Z 25007KT 10SM CLR 23/15 A2976 RMK AO2 SLP074 T02330150
