2025/04/13 15:53
KLAX 131553Z VRB03KT 5SM HZ OVC013 15/12 A2996 RMK AO2 SLP143 T01500117 $
