2023/12/24 03:53
KLAX 240353Z 23004KT 10SM FEW014 SCT020 BKN047 16/13 A3007 RMK AO2 SLP181 T01560133 $
