2024/04/24 05:53
KLAX 240553Z 24006KT 10SM FEW016 SCT200 13/11 A3005 RMK AO2 SLP175 T01330106 10167 20133 51010
