2025/05/12 09:53
KLAX 120953Z 00000KT 10SM FEW011 FEW250 17/14 A2990 RMK AO2 SLP122 T01670139 $
