2024/08/25 07:53
KLAX 250753Z 18004KT 10SM CLR 19/16 A3001 RMK AO2 SLP159 T01890161 402440161 $
