2025/03/16 01:53
KLAX 160153Z 23007G17KT 10SM FEW038 SCT220 13/08 A3009 RMK AO2 SLP189 T01330078 $
