2026/05/18 10:53
KLAX 181053Z 09004KT 9SM FEW018 SCT050 15/12 A2982 RMK AO2 SLP094 T01500117
