2026/02/03 17:53
KLAX 031753Z 00000KT 8SM FEW002 FEW009 18/09 A3022 RMK AO2 SLP231 T01830089 10183 20117 51008 $
