2022/12/09 03:53
KLAX 090353Z 28008KT 10SM FEW120 13/08 A3021 RMK AO2 SLP230 T01330078
