2023/10/01 09:53
KLAX 010953Z 28006KT 10SM FEW027 BKN041 16/11 A2985 RMK AO2 SLP106 T01560111 $
