2026/03/08 15:53
KLAX 081553Z 36007KT 10SM FEW200 FEW240 SCT280 22/M06 A2992 RMK AO2 SLP131 ACSL DSNT SE T02171056 $
