2024/01/05 15:53
KLAX 051553Z 09005KT 10SM FEW120 BKN160 BKN180 10/02 A3018 RMK AO2 SLP220 T01000022
