2026/06/24 14:53
KLAX 241453Z 00000KT 6SM BR FEW006 OVC011 18/15 A3002 RMK AO2 SLP164 T01780150 53005 $
