2024/08/08 17:53
KLAX 081753Z 24006KT 9SM FEW025 SCT160 SCT250 23/17 A2995 RMK AO2 SLP140 T02330172 10239 20194 50002 $
