2023/10/09 11:53
KLAX 091153Z VRB03KT 1 1/2SM BR BKN002 OVC004 17/17 A2985 RMK AO2 SLP108 VIS W 1 T01670167 10178 20167 55000
