2022/10/18 09:53
KLAX 180953Z 00000KT 10SM CLR 18/16 A2997 RMK AO2 SLP145 T01780156 $
