2023/02/21 07:53
KLAX 210753Z 11006KT 10SM BKN150 BKN200 14/09 A2996 RMK AO2 SLP144 T01390089 402000078 $
