2023/11/11 03:53
KLAX 110353Z VRB03KT 10SM CLR 17/09 A3002 RMK AO2 SLP164 T01720089
