2025/05/09 21:53
KLAX 092153Z 26013KT 10SM FEW001 FEW045 20/14 A2994 RMK AO2 SLP139 T02000144
