2026/06/21 15:53
KLAX 211553Z VRB06KT 10SM FEW006 FEW008 BKN015 18/14 A2994 RMK AO2 SLP137 FU FEW006 T01830139
