2023/09/16 19:53
KLAX 161953Z 26007KT 10SM OVC015 19/17 A2999 RMK AO2 SLP154 T01940172
