2024/06/02 13:53
KLAX 021353Z 26006KT 10SM BKN009 OVC021 15/13 A2992 RMK AO2 SLP130 T01500128
