2025/10/14 05:53
KLAX 140553Z 19009KT 10SM FEW018 SCT025 BKN050 BKN250 18/13 A2982 RMK AO2 SLP096 60001 T01780133 10200 20178 51015 $
