2022/12/06 19:53
KLAX 061953Z 00000KT 10SM FEW018 FEW029 SCT110 BKN150 16/08 A3004 RMK AO2 SLP173 T01610078 $
