2024/06/02 07:53
KLAX 020753Z 25006KT 10SM BKN014 OVC020 16/12 A2992 RMK AO2 SLP131 T01560122 401940144
