2024/08/05 05:53
KLAX 050553Z 25004KT 10SM FEW200 SCT250 18/15 A2987 RMK AO2 SLP112 T01830150 10222 20183 53013 $
