2024/07/04 17:53
KLAX 041753Z VRB06KT 7SM BKN009 20/16 A2999 RMK AO2 SLP155 T02000161 10206 20172 53012
