2023/02/19 13:53
KLAX 191353Z 10004KT 10SM FEW250 07/M01 A3001 RMK AO2 SLP160 T00671006 $
