2025/03/05 05:53
KLAX 050553Z 24007KT 10SM FEW008 FEW170 12/11 A3010 RMK AO2 SLP192 T01170106 10150 20117 51006 $
