2024/05/27 03:53
KLAX 270353Z 27010KT 10SM CLR 15/12 A3000 RMK AO2 SLP158 T01500117
