2023/06/26 17:53
KLAX 261753Z 24008KT 10SM FEW011 19/13 A2997 RMK AO2 SLP149 T01890133 10200 20144 58004
