2025/02/07 09:53
KLAX 070953Z 19012KT 6SM BR OVC004 16/16 A3005 RMK AO2 SLP176 T01560156 $
