2023/10/02 03:53
KLAX 020353Z 25007KT 10SM FEW060 17/11 A2994 RMK AO2 SLP136 T01670111 $
