2024/12/02 09:53
KLAX 020953Z 08004KT 10SM FEW250 12/08 A3012 RMK AO2 SLP198 T01170078 $
