2024/12/16 17:53
KLAX 161753Z 00000KT 10SM FEW220 SCT280 17/02 A3016 RMK AO2 SLP211 T01670017 10167 20089 53012 $
