2024/04/26 09:53
KLAX 260953Z 22003KT 10SM FEW009 FEW022 SCT036 13/11 A2997 RMK AO2 SLP148 T01330106
