2024/10/19 05:53
KLAX 190553Z VRB03KT 10SM FEW270 17/10 A3001 RMK AO2 SLP159 T01720100 10222 20167 53019
