2024/12/22 05:53
KLAX 220553Z 13003KT 10SM SCT250 14/12 A3015 RMK AO2 SLP207 T01390117 10156 20133 53003
