2025/05/10 09:53
KLAX 100953Z 25005KT 10SM CLR 17/14 A2992 RMK AO2 SLP128 T01670139
