2025/05/12 23:53
KLAX 122353Z 26014KT 10SM FEW020 FEW200 SCT250 19/11 A2989 RMK AO2 SLP121 T01940106 10217 20183 56014 $
