2025/02/23 09:53
KLAX 230953Z 07004KT 7SM FEW002 12/10 A3022 RMK AO2 SLP232 T01170100 $
