2022/12/24 07:53
KLAX 240753Z 00000KT 8SM CLR 13/12 A3018 RMK AO2 SLP218 T01330117 401890072 $
