2026/04/12 05:53
KLAX 120553Z 25006KT 10SM SCT024 BKN030 17/12 A2999 RMK AO2 SLP152 T01670117 10189 20161 51008 $
