2025/09/10 17:53
KLAX 101753Z 26006KT 10SM FEW018 SCT029 BKN036 22/16 A2993 RMK AO2 SLP133 T02220161 10228 20194 51010 $
