2023/05/25 11:53
KLAX 251153Z 15003KT 10SM FEW022 SCT028 OVC044 16/09 A2988 RMK AO2 SLP116 T01560094 10161 20156 56004 $
