2025/05/03 03:53
KLAX 030353Z 24009KT 10SM OVC011 14/12 A2994 RMK AO2 SLP139 T01440117 $
