2024/06/08 13:53
KLAX 081353Z 14006KT 10SM SCT010 OVC019 17/13 A2991 RMK AO2 SLP128 T01720133 $
