2023/07/18 17:53
KLAX 181753Z 26008KT 9SM FEW180 FEW250 23/17 A2997 RMK AO2 SLP146 T02280172 10228 20178 51005 $
