2025/05/16 07:53
KLAX 160753Z VRB03KT 10SM FEW010 BKN014 16/13 A2998 RMK AO2 SLP149 T01560133 402000128 $
