2023/10/18 13:53
KLAX 181353Z 00000KT 1/4SM R25L/4500VP6000FT FG VV002 17/17 A2990 RMK AO2 SLP122 VIS 1/4V1 1/4 T01720172 $
