2025/08/12 11:53
KLAX 121153Z 07004KT 9SM FEW008 BKN011 19/17 A2989 RMK AO2 SLP118 T01890167 10194 20183 58004 $
