2024/03/14 13:53
KLAX 141353Z 00000KT 10SM FEW011 FEW160 12/08 A2985 RMK AO2 SLP108 T01220083 $
