2023/06/28 17:53
KLAX 281753Z 00000KT 9SM FEW009 OVC021 19/13 A2992 RMK AO2 SLP132 T01890133 10189 20156 51002
