2023/03/23 23:53
KLAX 232353Z 26021KT 10SM FEW020 FEW045 15/09 A3018 RMK AO2 PK WND 27028/2319 SLP218 T01500094 10156 20139 56016
