2025/12/06 03:53
KLAX 060353Z 21003KT 10SM CLR 16/11 A3005 RMK AO2 SLP176 T01560111 $
