2025/11/28 17:53
KLAX 281753Z 11004KT 10SM FEW120 FEW250 18/08 A3005 RMK AO2 SLP176 T01780083 10178 20100 51007 $
