2023/01/16 02:20
KLAX 160220Z 19007KT 10SM -RA SCT020 SCT030 OVC050 12/09 A2982 RMK AO2 P0004 T01220094 $
