2024/07/02 13:53
KLAX 021353Z 14004KT 5SM HZ FEW009 OVC014 18/15 A2985 RMK AO2 SLP107 T01830150
