2022/11/24 01:53
KLAX 240153Z 25006KT 10SM CLR 16/13 A3006 RMK AO2 SLP178 T01560128
