2024/12/22 03:53
KLAX 220353Z 23005KT 10SM FEW150 SCT220 14/12 A3013 RMK AO2 SLP204 T01440117
