2024/11/02 21:53
KLAX 022153Z 21008KT 10SM BKN030 BKN055 OVC200 18/11 A2991 RMK AO2 SLP130 T01780111 $
