2023/08/31 09:53
KLAX 310953Z 00000KT 1/4SM R25L/4000VP6000FT FG VV002 19/19 A2980 RMK AO2 SLP087 T01890189
