2024/10/05 01:53
KLAX 050153Z 26007KT 5SM BR BKN005 BKN190 18/17 A2989 RMK AO2 SLP119 T01830167
