2026/05/16 21:53
KLAX 162153Z 24014G22KT 10SM SCT014 SCT037 BKN230 19/13 A2989 RMK AO2 SLP120 T01890133
