2023/04/06 13:53
KLAX 061353Z 08005KT 10SM FEW200 09/01 A3007 RMK AO2 SLP183 T00940006 $
