2023/05/13 19:53
KLAX 131953Z 25009KT 210V280 6SM HZ BKN013 18/13 A2987 RMK AO2 SLP115 T01830133
