2022/10/22 05:53
KLAX 220553Z 16005KT 10SM OVC013 19/16 A2988 RMK AO2 SLP115 T01890156 10200 20183 51003
