2024/09/17 15:53
KLAX 171553Z 10005KT 9SM FEW019 BKN026 BKN035 19/12 A2998 RMK AO2 SLP149 T01890117 $
