2024/10/20 19:53
KLAX 201953Z 25008KT 10SM SCT070 24/02 A3008 RMK AO2 SLP184 FU SCT070 T02440017 $
