2023/08/07 09:53
KLAX 070953Z 13005KT 2 1/2SM BR FEW003 OVC006 19/17 A2998 RMK SLP148 T01890172 
