2024/08/16 21:53
KLAX 162153Z 24014KT 10SM -RA FEW250 25/18 A2989 RMK AO2 RAB52 SLP119 P0000 T02500183 $
