2025/06/13 02:11
KLAX 130211Z 27008KT 10SM BKN012 18/15 A2985 RMK AO2 T01830150
