2022/10/28 11:53
KLAX 281153Z 10003KT 10SM FEW005 15/13 A3008 RMK AO2 SLP185 T01500128 10178 20139 52002 VISNO RWY24 $
