2025/07/16 13:17
KLAX 161317Z 12003KT 9SM SCT018 BKN021 BKN030 19/14 A2995 RMK AO2 T01890139 $
