2025/03/06 23:53
KLAX 062353Z 25011KT 10SM -RA FEW023 SCT042 OVC055 10/07 A2989 RMK AO2 SLP121 P0001 60001 T01000067 10133 20100 58006
