2025/07/23 09:53
KLAX 230953Z 28003KT 10SM BKN014 17/14 A3001 RMK AO2 SLP161 T01720144 $
