2024/12/13 17:53
KLAX 131753Z 07004KT 10SM FEW019 FEW070 SCT250 15/09 A3019 RMK AO2 SLP222 T01500089 10150 20094 51024
