2022/11/08 23:53
KLAX 082353Z 27026G36KT 10SM -RA FEW021 OVC034 14/10 A2980 RMK AO2 PK WND 22038/2301 WSHFT 2253 RAB02 SLP090 P0023 60023 T01390100 10194 20133 55005
