2025/05/04 15:53
KLAX 041553Z 23006KT 10SM FEW013 BKN027 BKN060 15/11 A2978 RMK AO2 SLP084 T01500106
