2025/04/14 02:31
KLAX 140231Z 27010KT 10SM FEW009 14/12 A2995 RMK AO2 T01440122 $
