2024/10/01 07:53
KLAX 010753Z 25006KT 3SM BR FEW002 BKN006 17/16 A2992 RMK AO2 SLP130 VIS 2V4 T01670161 402220156 $
