2026/05/09 07:53
KLAX 090753Z 11005KT 6SM BR OVC009 16/14 A2995 RMK AO2 SLP142 T01560139 402060150
