2022/09/05 23:53
KLAX 052353Z 27010KT 10SM FEW110 29/19 A2970 RMK AO2 SLP056 T02890189 10328 20278 56018 $
