2025/05/18 15:53
KLAX 181553Z 18005KT 10SM SCT021 SCT029 17/11 A2999 RMK AO2 SLP153 T01720111
