2025/05/29 02:11
KLAX 290211Z 26010KT 10SM BKN014 OVC019 17/13 A2996 RMK AO2 T01670133 $
