2025/05/06 13:53
KLAX 061353Z 09003KT 8SM BKN023 OVC040 16/11 A2994 RMK AO2 SLP138 T01560106 $
