2022/12/17 19:53
KLAX 171953Z 36006KT 10SM SCT250 18/M03 A3004 RMK AO2 SLP172 T01831033 $
