2024/06/10 15:53
KLAX 101553Z 00000KT 10SM FEW010 OVC015 18/13 A2997 RMK AO2 SLP147 T01780133
