2024/07/03 07:53
KLAX 030753Z 26005KT 1/4SM R25L/P6000FT FG VV002 16/16 A2985 RMK AO2 SLP105 VIS SE-S 1 T01610156 402330161 $
