2024/08/12 15:53
KLAX 121553Z VRB04KT 9SM FEW008 FEW090 22/18 A2995 RMK AO2 SLP140 T02170178
