2025/04/06 11:53
KLAX 061153Z 09004KT 10SM CLR 12/04 A3017 RMK AO2 SLP214 T01170044 10161 20111 58006 $
