2023/02/26 00:13
KLAX 260013Z 03007KT 10SM VCTS SCT023CB BKN049 OVC060 08/06 A2992 RMK AO2 OCNL LTG VC SW TS VC SW T00780056 $
