2025/05/15 23:53
KLAX 152353Z 25013G21KT 10SM FEW012 18/13 A2994 RMK AO2 SLP139 T01830128 10200 20183 56017 $
