2025/11/12 11:53
KLAX 121153Z VRB03KT 7SM BKN008 17/15 A3005 RMK AO2 SLP174 T01670150 10167 20156 55002 $
