2024/12/25 09:53
KLAX 250953Z 32005KT 10SM FEW010 FEW025 SCT200 14/03 A3004 RMK AO2 SLP172 T01390033 $
