2025/11/26 03:53
KLAX 260353Z 00000KT 10SM CLR 19/10 A3005 RMK AO2 SLP176 T01940100
