2022/10/13 21:53
KLAX 132153Z 24010KT 9SM BKN017 21/17 A2994 RMK AO2 SLP137 T02060167
