2024/03/20 19:53
KLAX 201953Z VRB04KT 6SM HZ FEW013 FEW095 17/12 A3003 RMK AO2 SLP167 T01720122 $
