2023/05/16 13:53
KLAX 161353Z 27006KT 3SM BR FEW002 OVC006 14/14 A3002 RMK AO2 SLP164 T01440139
