2023/05/22 15:53
KLAX 221553Z 22004KT 2 1/2SM -DZ OVC005 16/15 A2995 RMK AO2 DZB41 SLP142 VIS SW-NW 1 1/2 P0000 T01560150
