2023/09/11 11:53
KLAX 111153Z 00000KT 10SM FEW200 21/19 A2989 RMK AO2 SLP117 T02060189 10217 20200 56005
