2024/11/23 03:53
KLAX 230353Z 23007KT 10SM CLR 14/12 A3002 RMK AO2 SLP167 T01390117
