2023/05/25 15:53
KLAX 251553Z 13006KT 9SM FEW019 SCT030 OVC043 17/10 A2990 RMK AO2 SLP122 T01670100 $
