2023/03/17 15:53
KLAX 171553Z 11004KT 7SM FEW025 SCT160 12/09 A3006 RMK AO2 SLP179 T01220094
