2023/12/06 17:53
KLAX 061753Z 00000KT 10SM FEW014 FEW180 SCT250 20/10 A3011 RMK AO2 SLP195 T02000100 10200 20122 53015
