2025/04/30 23:53
KLAX 302353Z 25012KT 10SM OVC014 16/12 A2997 RMK AO2 SLP147 T01610117 10183 20156 55011
