2024/07/28 00:12
KLAX 280012Z 26012KT 7SM FEW006 SCT008 19/16 A2986 RMK AO2 T01940156
