2024/09/03 09:53
KLAX 030953Z 00000KT 10SM FEW004 19/18 A2989 RMK AO2 SLP118 T01940178 $
