2022/09/29 07:59
KLAX 290759Z 10004KT 7SM OVC008 21/20 A2998 RMK AO2 T02110200
