2024/10/23 11:53
KLAX 231153Z 10003KT 10SM FEW010 15/11 A2999 RMK AO2 SLP153 FU FEW010 T01500111 10178 20150 56010
