2025/08/13 09:53
KLAX 130953Z 00000KT 10SM FEW008 OVC011 20/17 A2992 RMK AO2 SLP130 T02000167
