2024/01/06 11:53
KLAX 061153Z 00000KT 10SM CLR 08/03 A3014 RMK AO2 SLP205 T00830033 10139 20067 58002
