2024/03/08 17:53
KLAX 081753Z VRB04KT 10SM FEW014 16/11 A3015 RMK AO2 SLP209 T01560106 10156 20094 50006
