2023/07/10 17:53
KLAX 101753Z 25008KT 10SM CLR 22/16 A2993 RMK AO2 SLP134 T02220156 10222 20156 58006
