2024/06/13 21:53
KLAX 132153Z 28013G19KT 10SM FEW015 20/13 A2999 RMK AO2 SLP156 T02000128
