2022/09/28 11:53
KLAX 281153Z 26004KT 10SM CLR 21/19 A2988 RMK AO2 SLP117 T02110194 10228 20206 55002
