2023/02/07 03:53
KLAX 070353Z 35007KT 10SM CLR 16/M02 A3017 RMK AO2 SLP217 T01611022 $
