2023/03/01 09:53
KLAX 010953Z 23015G21KT 9SM -RA FEW008 BKN017 OVC035 12/09 A2982 RMK AO2 RAB03 SLP098 P0000 T01170094
