2026/06/02 04:53
KLAX 020453Z 27007KT 9SM FEW015 17/14 A3000 RMK AO2 SLP155 T01670139 $
