2025/02/15 11:53
KLAX 151153Z 07003KT 10SM CLR 10/08 A3017 RMK AO2 SLP215 70001 T01000083 10150 20094 51007 $
