2023/02/08 03:53
KLAX 080353Z 00000KT 10SM FEW200 SCT250 16/06 A3020 RMK AO2 SLP226 T01560061
