2022/12/11 21:53
KLAX 112153Z 25023KT 10SM SCT037 SCT090 BKN180 BKN230 14/06 A2988 RMK AO2 PK WND 26029/2108 SLP118 T01440056 $
