2022/12/18 11:53
KLAX 181153Z 05008KT 10SM FEW250 09/M03 A2995 RMK AO2 SLP140 T00941033 10133 20083 58003 VISNO RWY24 $
