2024/01/27 05:53
KLAX 270553Z 11005KT 10SM FEW230 SCT280 15/11 A3023 RMK AO2 SLP237 T01500106 10183 20150 53007 $
