2025/08/27 12:53
KLAX 271253Z 26005KT 10SM FEW009 19/18 A3000 RMK AO2 SLP157 T01940178 $
