2024/02/04 01:53
KLAX 040153Z 24006KT 10SM SCT020 BKN085 OVC120 13/07 A2999 RMK AO2 SLP156 T01280072 $
