2025/02/14 00:14
KLAX 140014Z 19012G19KT 1 3/4SM R25L/6000VP6000FT +RA BR FEW010 BKN016 OVC033 15/14 A2992 RMK AO2 P0007 T01500139
