2023/05/29 09:53
KLAX 290953Z 30005KT 10SM FEW008 BKN017 OVC025 16/13 A2995 RMK AO2 SLP140 T01610133
