2026/01/10 15:53
KLAX 101553Z 09004KT 10SM FEW280 09/M01 A3040 RMK AO2 SLP294 T00891011 $
