2026/02/09 11:53
KLAX 091153Z 10004KT 10SM FEW250 12/08 A3005 RMK AO2 SLP174 T01220083 10183 20122 56016 $
