2026/06/18 16:53
KLAX 181653Z 24007KT 10SM FEW009 SCT016 OVC022 19/14 A2998 RMK AO2 SLP151 SCT V BKN T01890139 $
