2025/01/11 21:53
KLAX 112153Z 27010KT 10SM FEW040 17/08 A2997 RMK AO2 SLP150 FU FEW040 T01670083 $
