2023/07/12 11:53
KLAX 121153Z 25003KT 2 1/2SM BR FEW001 SCT002 15/15 A2997 RMK AO2 SLP146 VIS SW-NW 1/2 T01500150 10156 20150 55000 $
