2025/06/18 19:53
KLAX 181953Z 25009KT 10SM CLR 23/16 A2981 RMK AO2 SLP091 T02330161 $
