2023/10/14 21:53
KLAX 142153Z 25009KT 10SM CLR 22/17 A3001 RMK AO2 SLP160 T02220167
