2026/03/29 03:53
KLAX 290353Z 23007KT 3SM BR OVC004 16/14 A2996 RMK AO2 SLP144 VIS W 1 1/2 T01560144
