2024/08/11 13:53
KLAX 111353Z 32006KT 8SM FEW010 FEW180 19/18 A2992 RMK AO2 SLP131 T01940178 $
