2025/07/26 16:53
KLAX 261653Z 24006KT 10SM FEW023 BKN027 BKN034 19/13 A3001 RMK AO2 SLP162 T01940133 $
