2022/10/29 07:53
KLAX 290753Z 10003KT 10SM CLR 16/12 A3012 RMK AO2 SLP197 T01560122 402330139 CHINO RWY24 VISNO RWY24 $
