2024/04/03 05:53
KLAX 030553Z 25006KT 10SM CLR 14/12 A3025 RMK AO2 SLP242 T01390117 10178 20139 50006
