2024/11/23 17:53
KLAX 231753Z 00000KT 6SM HZ SCT017 BKN047 OVC070 16/11 A3005 RMK AO2 SLP174 T01560106 10161 20094 50006
