2026/04/01 09:53
KLAX 010953Z 30007KT 9SM FEW007 SCT011 BKN060 16/15 A2992 RMK AO2 RAE0857 SLP130 P0000 T01610150 $
