2026/02/23 21:53
KLAX 232153Z 27010KT 10SM FEW160 SCT180 BKN250 20/09 A3011 RMK AO2 SLP197 T02000089
