2024/09/23 19:53
KLAX 231953Z 28010KT 7SM BKN006 19/16 A2985 RMK AO2 SLP106 T01940156 $
