2026/06/18 08:53
KLAX 180853Z 24008KT 10SM BKN011 OVC018 17/14 A2993 RMK AO2 SLP134 T01720139 56002 $
