2024/02/18 21:53
KLAX 182153Z 24007KT 10SM FEW023 BKN034 BKN041 17/12 A3004 RMK AO2 SLP173 T01670122 $
