2025/04/26 15:53
KLAX 261553Z 14007KT 5SM -RA SCT026 BKN034 OVC050 13/09 A2994 RMK AO2 RAB20 SLP137 P0002 T01280094 $
