2025/07/04 03:53
KLAX 040353Z 23006KT 10SM SCT013 18/15 A2994 RMK AO2 SLP138 T01830150 $
