2023/10/13 01:53
KLAX 130153Z 24009KT 10SM FEW250 19/13 A2975 RMK AO2 SLP073 T01940133
