2024/12/10 04:53
KLAX 100453Z 05003KT 6SM HZ CLR 13/09 A3016 RMK AO2 SLP212 T01280094
