2022/09/21 15:53
KLAX 211553Z 00000KT 10SM FEW010 FEW020 21/13 A2996 RMK AO2 SLP144 T02110133 $
