2025/11/25 01:53
KLAX 250153Z 26008KT 10SM CLR 16/13 A3010 RMK AO2 SLP192 T01610133
