2024/05/01 19:53
KLAX 011953Z 25013G21KT 10SM FEW011 FEW025 19/12 A2986 RMK AO2 SLP109 T01890122 $
