2023/06/19 21:53
KLAX 192153Z 23011KT 10SM FEW011 FEW033 SCT150 21/14 A2995 RMK AO2 SLP141 T02060144
