2023/04/10 13:53
KLAX 101353Z 00000KT 1/8SM R25L/3000V5500FT FG VV002 12/12 A3006 RMK AO2 SLP178 T01170117
