2022/10/03 09:53
KLAX 030953Z 00000KT 10SM FEW015 FEW020 18/15 A2996 RMK AO2 SLP142 T01830150
