2022/09/07 11:53
KLAX 071153Z 32004KT 10SM FEW007 FEW070 23/21 A2990 RMK AO2 SLP121 FU FEW070 T02280206 10233 20222 56006 $
