2023/05/04 01:53
KLAX 040153Z 24009KT 10SM FEW024 BKN040 BKN150 14/08 A2987 RMK AO2 SLP114 T01440083
