2023/06/28 07:53
KLAX 280753Z 22004KT 10SM FEW006 FEW012 16/14 A2988 RMK AO2 SLP116 T01560144 402060150
