2026/04/01 21:53
KLAX 012153Z 25014KT 10SM FEW015 FEW060 19/12 A2998 RMK AO2 SLP151 T01940117 $
