2022/12/26 03:53
KLAX 260353Z 08004KT 10SM CLR 17/09 A3011 RMK AO2 SLP196 T01670094 $
