2026/04/16 19:53
KLAX 161953Z 27009KT 10SM FEW009 FEW035 SCT100 BKN160 21/12 A2993 RMK AO2 SLP135 T02060117
