2022/09/30 11:53
KLAX 301153Z 11003KT 9SM FEW008 OVC011 20/17 A2990 RMK AO2 SLP122 T02000172 10200 20194 58004
