2022/09/28 13:53
KLAX 281353Z 23005KT 7SM FEW002 FEW010 21/20 A2991 RMK AO2 SLP126 T02060200
