2025/03/12 05:53
KLAX 120553Z 00000KT 10SM FEW015 SCT045 BKN150 12/09 A2989 RMK AO2 SLP119 60000 T01170089 10150 20117 51020 $
