2023/04/12 03:53
KLAX 120353Z 27005KT 5SM BR OVC005 12/11 A2996 RMK AO2 SLP144 T01220111 $
