2023/03/03 19:53
KLAX 031953Z 24007KT 10SM FEW045 SCT160 15/07 A3000 RMK AO2 SLP158 T01500067 $
