2025/06/21 17:53
KLAX 211753Z 21006KT 10SM BKN027 OVC036 20/12 A2988 RMK AO2 SLP118 T02000122 10200 20178 51005
