2026/03/29 17:53
KLAX 291753Z 26008KT 10SM FEW002 FEW180 SCT220 SCT280 20/13 A2996 RMK AO2 SLP144 CCSL DSNT E T02000133 10200 20139 53016
