2024/02/17 17:53
KLAX 171753Z 00000KT 3SM HZ BKN016 OVC022 14/11 A3012 RMK AO2 SLP197 VIS N 2 1/2SM T01390106 10139 20128 51009
