2025/04/18 05:53
KLAX 180553Z 24009KT 10SM FEW011 SCT026 BKN065 BKN150 14/11 A2997 RMK AO2 SLP146 T01390111 10156 20139 51003 $
