2026/06/20 16:04
KLAX 201604Z 24003KT 8SM FEW009 SCT014 SCT017 18/13 A3000 RMK AO2 T01830133
