2024/04/11 07:53
KLAX 110753Z 23005KT 10SM FEW004 FEW010 13/12 A2999 RMK AO2 SLP153 T01330122 402330122 $
