2026/06/11 07:36
KLAX 110736Z 15006KT 10SM BKN011 19/17 A2982 RMK AO2 T01940167
