2025/10/14 23:53
KLAX 142353Z 20007KT 10SM FEW025 FEW030 SCT060 17/10 A2991 RMK AO2 SLP127 60006 T01720100 10178 20139 53008 $
