2026/04/09 14:23
KLAX 091423Z 09004KT 6SM BR OVC010 17/15 A2994 RMK AO2 CIG 009V012 T01720150 $
