2023/01/05 17:53
KLAX 051753Z 20013G17KT 7SM -RA SCT007 OVC014 15/14 A3004 RMK AO2 SLP172 VIS N-NE 2 1/2 P0000 60064 T01500139 10150 20128 52012 $
