2025/02/27 21:53
KLAX 272153Z 26012KT 10SM FEW180 SCT240 BKN290 22/13 A2999 RMK AO2 SLP155 T02170128
