2025/08/26 06:53
KLAX 260653Z 22004KT 10SM FEW010 FEW200 21/18 A2991 RMK AO2 SLP125 T02060178 $
