2026/02/06 11:53
KLAX 061153Z 10005KT 10SM SCT011 SCT150 BKN220 16/14 A3010 RMK AO2 SLP190 T01560139 10172 20156 50005
