2024/03/14 17:53
KLAX 141753Z 02016G22KT 10SM FEW020 FEW070 18/M08 A2985 RMK AO2 PK WND 03031/1706 SLP106 T01831083 10189 20117 58001 $
