2025/01/03 22:53
KLAX 032253Z 28006KT 10SM FEW009 FEW140 SCT220 16/10 A3003 RMK AO2 SLP167 T01610100
