2023/04/29 11:53
KLAX 291153Z 24004KT 1SM R25L/P6000FT BR OVC003 13/12 A3001 RMK AO2 SLP162 T01280117 10133 20128 58003
