2023/09/10 13:53
KLAX 101353Z 00000KT 10SM SCT090 OVC140 23/18 A2994 RMK AO2 RAE50 SLP137 P0000 T02280178
