2025/08/14 03:53
KLAX 140353Z 25008KT 10SM OVC010 19/16 A2990 RMK AO2 SLP124 T01890161
