2025/08/07 01:53
KLAX 070153Z 25011KT 10SM FEW250 22/15 A2996 RMK AO2 SLP144 T02170150
