2025/07/05 03:53
KLAX 050353Z 24005KT 2 1/2SM BR OVC003 17/16 A3002 RMK AO2 SLP162 VIS SW-W 1 1/2 T01670156 $
