2024/09/19 05:53
KLAX 190553Z 25004KT 10SM FEW015 FEW180 18/15 A2987 RMK AO2 SLP111 T01780150 10200 20178 51007 $
