2024/10/24 13:53
KLAX 241353Z 12004KT 10SM FEW003 FEW180 SCT220 BKN280 16/12 A2995 RMK AO2 SLP140 T01560117 $
