2024/10/31 17:53
KLAX 311753Z 00000KT 10SM FEW075 FEW180 20/04 A3008 RMK AO2 SLP184 T02000044 10200 20106 50004 $
