2024/10/05 08:02
KLAX 050802Z 27004KT 4SM BR OVC004 18/17 A2996 RMK AO2 VIS 1 3/4 RWY24 T01780172
