2023/04/11 23:53
KLAX 112353Z 27009KT 9SM OVC005 14/12 A2996 RMK AO2 SLP143 T01390117 10161 20133 58015
