2025/10/10 07:53
KLAX 100753Z VRB04KT 10SM SCT085 BKN200 19/16 A2990 RMK AO2 SLP123 T01890156 402280144 $
