2022/09/21 17:53
KLAX 211753Z 25008KT 10SM FEW010 23/14 A2997 RMK AO2 SLP147 T02330139 10239 20172 51005 $
