2024/12/05 19:53
KLAX 051953Z 00000KT 5SM HZ SCT010 BKN120 16/10 A3011 RMK AO2 SLP197 T01610100
