2023/02/01 07:53
KLAX 010753Z 00000KT 10SM CLR 10/01 A3011 RMK AO2 SLP195 T01000011 401940061 $
