2025/10/02 17:53
KLAX 021753Z 00000KT 9SM FEW009 FEW018 22/16 A3003 RMK AO2 SLP166 T02220156 10222 20167 50001 $
