2025/03/28 05:53
KLAX 280553Z 23013G18KT 10SM FEW009 BKN040 14/12 A3003 RMK AO2 SLP167 T01440117 10156 20139 53004 $
