2023/03/07 03:53
KLAX 070353Z 27010KT 10SM FEW020 FEW070 SCT250 11/07 A3016 RMK AO2 SLP212 T01110067 $
