2025/11/12 09:53
KLAX 120953Z 08003KT 8SM SCT008 OVC200 16/14 A3006 RMK AO2 SLP176 T01610144 $
