2025/03/07 09:53
KLAX 070953Z 27008KT 10SM FEW011 FEW025 SCT150 08/06 A2992 RMK AO2 SLP131 T00830061 $
