2025/10/30 05:53
KLAX 300553Z 00000KT 10SM CLR 21/11 A2995 RMK AO2 SLP136 T02060111 10244 20206 53006 $
