2023/07/28 19:53
KLAX 281953Z 24012KT 9SM FEW006 FEW200 24/19 A2993 RMK AO2 SLP135 T02440189
