2022/11/12 17:53
KLAX 121753Z 08005KT 10SM FEW200 17/M01 A3008 RMK AO2 SLP184 T01721011 10172 20094 51010 $
