2025/05/02 11:53
KLAX 021153Z 21005KT 10SM FEW011 OVC016 15/11 A2997 RMK AO2 SLP147 T01500111 10150 20139 56002 $
