2025/04/22 01:09
KLAX 220109Z 24010KT 10SM BKN011 15/11 A2995 RMK AO2 T01500111 $
