2023/10/30 17:53
KLAX 301753Z 01004KT 10SM FEW100 SCT160 SCT250 24/M07 A3011 RMK AO2 SLP193 T02391067 10239 20089 50008
