2024/12/13 02:26
KLAX 130226Z 16005KT 10SM BKN023 BKN028 13/10 A3002 RMK AO2 T01330100
