2023/01/27 05:53
KLAX 270553Z 00000KT 10SM CLR 13/02 A3030 RMK AO2 SLP258 T01280017 10183 20128 53001 $
