2025/05/10 03:53
KLAX 100353Z 20005KT 10SM CLR 19/14 A2990 RMK AO2 SLP123 T01890139
