2025/04/23 19:53
KLAX 231953Z 24008KT 8SM OVC028 16/10 A2999 RMK AO2 SLP155 T01560100
