2023/07/17 13:53
KLAX 171353Z 24006KT 4SM BR SCT003 BKN006 18/17 A2991 RMK AO2 SLP126 VIS NE 2 T01830172
