2025/01/27 23:53
KLAX 272353Z 27012KT 10SM FEW050 FEW095 13/06 A3008 RMK AO2 SLP184 T01330061 10150 20122 57007
