2024/02/15 01:53
KLAX 150153Z 25009KT 10SM FEW015 FEW250 13/09 A3012 RMK AO2 SLP199 T01330094 $
