2024/04/18 05:53
KLAX 180553Z 24004KT 10SM FEW006 SCT200 BKN250 13/12 A2999 RMK AO2 SLP155 T01280117 10161 20128 50007 $
