2024/01/19 17:53
KLAX 191753Z 22005KT 5SM HZ FEW009 SCT090 BKN140 OVC180 15/11 A3008 RMK AO2 SLP185 T01500111 10150 20106 53016 $
