2023/06/08 21:53
KLAX 082153Z 26014KT 10SM FEW015 FEW060 SCT250 20/13 A3002 RMK AO2 SLP165 T02000128
