2023/06/12 11:53
KLAX 121153Z 27005KT 10SM FEW010 FEW016 OVC029 16/13 A3000 RMK AO2 SLP156 T01610133 10167 20161 58000
