2025/01/21 21:53
KLAX 212153Z 31006KT 10SM FEW120 FEW180 SCT250 21/02 A3033 RMK AO2 SLP271 T02060017
