2022/11/10 01:53
KLAX 100153Z 26013KT 10SM FEW050 14/07 A3010 RMK AO2 SLP192 T01440072
