2025/02/19 13:53
KLAX 191353Z 04004KT 5SM BCFG BR FEW000 FEW004 SCT250 11/10 A3009 RMK AO2 SLP189 VIS W-N 1 1/2 FG FEW000 T01060100 $
