2023/11/24 21:53
KLAX 242153Z 23012KT 10SM FEW009 SCT060 19/12 A2988 RMK AO2 SLP118 T01890117 $
