2024/12/24 13:53
KLAX 241353Z 09004KT 1/8SM R25L/1600V2000FT FG VV001 12/12 A3006 RMK AO2 SLP177 T01220122 $
